LINESTRING (475.100842 400.955179, 460.102422 449.450479)

LINESTRING (460.102422 449.450479, 420.384305 474.274775)

LINESTRING (420.384305 474.274775, 375.550153 472.951380)

LINESTRING (375.550153 472.951380, 334.146319 447.854440)

LINESTRING (334.146319 447.854440, 324.090322 396.807226)

LINESTRING (324.090322 396.807226, 337.988538 353.942191)

LINESTRING (337.988538 353.942191, 371.589974 322.862368)

LINESTRING (371.589974 322.862368, 424.431418 327.552756)

LINESTRING (424.431418 327.552756, 466.476558 356.595880)

LINESTRING (466.476558 356.595880, 475.100842 400.955179)

LINESTRING (560.022259 403.644969, 525.014058 494.992170)

LINESTRING (525.014058 494.992170, 448.539903 553.719456)

LINESTRING (448.539903 553.719456, 353.240781 548.099010)

LINESTRING (353.240781 548.099010, 268.021910 497.095907)

LINESTRING (268.021910 497.095907, 239.347133 400.861173)

LINESTRING (239.347133 400.861173, 266.528765 302.830640)

LINESTRING (266.528765 302.830640, 351.336033 245.735644)

LINESTRING (351.336033 245.735644, 452.311207 251.992173)

LINESTRING (452.311207 251.992173, 530.079240 303.056322)

LINESTRING (530.079240 303.056322, 560.022259 403.644969)

LINESTRING (639.105659 398.745116, 594.435376 540.076068)

LINESTRING (594.435376 540.076068, 473.861734 623.522308)

LINESTRING (473.861734 623.522308, 321.060506 630.850709)

LINESTRING (321.060506 630.850709, 204.600827 545.497345)

LINESTRING (204.600827 545.497345, 163.420214 398.280158)

LINESTRING (163.420214 398.280158, 201.497073 260.080495)

LINESTRING (201.497073 260.080495, 323.672773 169.510555)

LINESTRING (323.672773 169.510555, 477.485004 169.655266)

LINESTRING (477.485004 169.655266, 592.915901 256.945675)

LINESTRING (592.915901 256.945675, 639.105659 398.745116)

LINESTRING (718.058554 402.932406, 661.873834 591.952100)

LINESTRING (661.873834 591.952100, 503.619955 704.987118)

LINESTRING (503.619955 704.987118, 304.446996 699.823597)

LINESTRING (304.446996 699.823597, 144.347375 585.325337)

LINESTRING (144.347375 585.325337, 76.694055 403.299496)

LINESTRING (76.694055 403.299496, 142.041772 206.961077)

LINESTRING (142.041772 206.961077, 300.876625 92.370908)

LINESTRING (300.876625 92.370908, 499.243336 98.132516)

LINESTRING (499.243336 98.132516, 654.745284 216.856041)

LINESTRING (654.745284 216.856041, 718.058554 402.932406)

LINESTRING (797.929993 402.743904, 725.063646 632.419041)

LINESTRING (725.063646 632.419041, 519.085571 776.009297)

LINESTRING (519.085571 776.009297, 279.709642 776.872700)

LINESTRING (279.709642 776.872700, 80.741994 633.955315)

LINESTRING (80.741994 633.955315, 0.629876 404.959853)

LINESTRING (0.629876 404.959853, 73.841662 165.286893)

LINESTRING (73.841662 165.286893, 275.864192 19.562188)

LINESTRING (275.864192 19.562188, 528.374648 17.596188)

LINESTRING (528.374648 17.596188, 723.529671 160.068047)

LINESTRING (723.529671 160.068047, 797.929993 402.743904)

LINESTRING (475.100842 400.955179, 560.022259 403.644969)

LINESTRING (560.022259 403.644969, 639.105659 398.745116)

LINESTRING (639.105659 398.745116, 718.058554 402.932406)

LINESTRING (718.058554 402.932406, 797.929993 402.743904)

LINESTRING (460.102422 449.450479, 525.014058 494.992170)

LINESTRING (525.014058 494.992170, 594.435376 540.076068)

LINESTRING (594.435376 540.076068, 661.873834 591.952100)

LINESTRING (661.873834 591.952100, 725.063646 632.419041)

LINESTRING (420.384305 474.274775, 448.539903 553.719456)

LINESTRING (448.539903 553.719456, 473.861734 623.522308)

LINESTRING (473.861734 623.522308, 503.619955 704.987118)

LINESTRING (503.619955 704.987118, 519.085571 776.009297)

LINESTRING (375.550153 472.951380, 353.240781 548.099010)

LINESTRING (353.240781 548.099010, 321.060506 630.850709)

LINESTRING (321.060506 630.850709, 304.446996 699.823597)

LINESTRING (304.446996 699.823597, 279.709642 776.872700)

LINESTRING (334.146319 447.854440, 268.021910 497.095907)

LINESTRING (268.021910 497.095907, 204.600827 545.497345)

LINESTRING (204.600827 545.497345, 144.347375 585.325337)

LINESTRING (144.347375 585.325337, 80.741994 633.955315)

LINESTRING (324.090322 396.807226, 239.347133 400.861173)

LINESTRING (239.347133 400.861173, 163.420214 398.280158)

LINESTRING (163.420214 398.280158, 76.694055 403.299496)

LINESTRING (76.694055 403.299496, 0.629876 404.959853)

LINESTRING (337.988538 353.942191, 266.528765 302.830640)

LINESTRING (266.528765 302.830640, 201.497073 260.080495)

LINESTRING (201.497073 260.080495, 142.041772 206.961077)

LINESTRING (142.041772 206.961077, 73.841662 165.286893)

LINESTRING (371.589974 322.862368, 351.336033 245.735644)

LINESTRING (351.336033 245.735644, 323.672773 169.510555)

LINESTRING (323.672773 169.510555, 300.876625 92.370908)

LINESTRING (300.876625 92.370908, 275.864192 19.562188)

LINESTRING (424.431418 327.552756, 452.311207 251.992173)

LINESTRING (452.311207 251.992173, 477.485004 169.655266)

LINESTRING (477.485004 169.655266, 499.243336 98.132516)

LINESTRING (499.243336 98.132516, 528.374648 17.596188)

LINESTRING (466.476558 356.595880, 530.079240 303.056322)

LINESTRING (530.079240 303.056322, 592.915901 256.945675)

LINESTRING (592.915901 256.945675, 654.745284 216.856041)

LINESTRING (654.745284 216.856041, 723.529671 160.068047)

LINESTRING (400.000000 400.000000, 475.100842 400.955179)

