LINESTRING (80.000000 80.000000, 194.219940 119.600911)

LINESTRING (194.219940 119.600911, 309.056075 82.249741)

LINESTRING (309.056075 82.249741, 396.507694 -7.844599)

LINESTRING (396.507694 -7.844599, 436.207593 -124.620417)

LINESTRING (436.207593 -124.620417, 403.793087 -242.124018)

LINESTRING (403.793087 -242.124018, 309.754551 -334.846459)

LINESTRING (403.793087 -242.124018, 427.516760 -362.865357)

LINESTRING (436.207593 -124.620417, 525.715807 -204.023905)

LINESTRING (525.715807 -204.023905, 554.082475 -326.399978)

LINESTRING (525.715807 -204.023905, 634.786736 -225.196774)

LINESTRING (396.507694 -7.844599, 513.959908 -39.975691)

LINESTRING (513.959908 -39.975691, 595.330646 -133.039893)

LINESTRING (595.330646 -133.039893, 632.656792 -249.990452)

LINESTRING (595.330646 -133.039893, 706.904475 -166.322702)

LINESTRING (513.959908 -39.975691, 627.685085 -10.494792)

LINESTRING (627.685085 -10.494792, 736.759691 -42.013584)

LINESTRING (627.685085 -10.494792, 709.206592 76.758222)

LINESTRING (309.056075 82.249741, 421.852627 112.537619)

LINESTRING (421.852627 112.537619, 530.221804 80.008948)

LINESTRING (530.221804 80.008948, 617.325623 -11.786092)

LINESTRING (617.325623 -11.786092, 645.558552 -133.952818)

LINESTRING (617.325623 -11.786092, 726.485721 -50.700394)

LINESTRING (530.221804 80.008948, 640.185857 110.225078)

LINESTRING (640.185857 110.225078, 756.418082 86.823651)

LINESTRING (640.185857 110.225078, 725.399445 196.022531)

LINESTRING (421.852627 112.537619, 502.413429 197.716999)

LINESTRING (502.413429 197.716999, 610.542117 221.440665)

LINESTRING (610.542117 221.440665, 732.008059 182.440634)

LINESTRING (610.542117 221.440665, 695.501099 306.330518)

LINESTRING (502.413429 197.716999, 531.089903 312.948521)

LINESTRING (531.089903 312.948521, 625.023978 406.394570)

LINESTRING (531.089903 312.948521, 501.597925 424.344774)

LINESTRING (194.219940 119.600911, 271.765074 194.526890)

LINESTRING (271.765074 194.526890, 379.175348 227.120825)

LINESTRING (379.175348 227.120825, 499.361146 195.800938)

LINESTRING (499.361146 195.800938, 576.365888 100.948604)

LINESTRING (576.365888 100.948604, 612.014286 -24.362163)

LINESTRING (576.365888 100.948604, 699.261354 67.048988)

LINESTRING (499.361146 195.800938, 610.609348 218.513372)

LINESTRING (610.609348 218.513372, 726.997604 195.989596)

LINESTRING (610.609348 218.513372, 691.323005 309.809926)

LINESTRING (379.175348 227.120825, 468.426247 306.542725)

LINESTRING (468.426247 306.542725, 585.354993 344.762558)

LINESTRING (585.354993 344.762558, 694.397617 316.542508)

LINESTRING (585.354993 344.762558, 665.687667 420.067148)

LINESTRING (468.426247 306.542725, 498.318612 425.065011)

LINESTRING (498.318612 425.065011, 574.616910 514.975029)

LINESTRING (498.318612 425.065011, 458.636368 537.513744)

LINESTRING (271.765074 194.526890, 293.155158 307.792966)

LINESTRING (293.155158 307.792966, 381.936483 401.521184)

LINESTRING (381.936483 401.521184, 489.929444 423.761104)

LINESTRING (489.929444 423.761104, 595.979872 390.337924)

LINESTRING (489.929444 423.761104, 582.206850 518.249301)

LINESTRING (381.936483 401.521184, 409.293753 516.440724)

LINESTRING (409.293753 516.440724, 486.746702 595.634876)

LINESTRING (409.293753 516.440724, 378.366954 637.825431)

LINESTRING (293.155158 307.792966, 271.772683 429.586316)

LINESTRING (271.772683 429.586316, 299.676066 550.300124)

LINESTRING (299.676066 550.300124, 378.643750 641.598690)

LINESTRING (299.676066 550.300124, 259.743381 665.775673)

LINESTRING (271.772683 429.586316, 196.802258 514.447067)

LINESTRING (196.802258 514.447067, 161.262453 638.346608)

LINESTRING (196.802258 514.447067, 76.856217 542.943812)

LINESTRING (80.000000 80.000000, 105.713443 192.144974)

LINESTRING (105.713443 192.144974, 181.650098 273.282321)

LINESTRING (181.650098 273.282321, 294.471669 312.737477)

LINESTRING (294.471669 312.737477, 405.166474 290.759762)

LINESTRING (405.166474 290.759762, 488.347155 209.262558)

LINESTRING (488.347155 209.262558, 512.453954 86.706669)

LINESTRING (488.347155 209.262558, 608.658008 176.175362)

LINESTRING (405.166474 290.759762, 511.308516 314.772114)

LINESTRING (511.308516 314.772114, 630.141336 281.166987)

LINESTRING (511.308516 314.772114, 596.184369 400.992040)

LINESTRING (294.471669 312.737477, 378.688627 388.576849)

LINESTRING (378.688627 388.576849, 496.257800 424.697037)

LINESTRING (496.257800 424.697037, 604.608028 386.331234)

LINESTRING (496.257800 424.697037, 574.080459 518.469471)

LINESTRING (378.688627 388.576849, 403.530008 495.809548)

LINESTRING (403.530008 495.809548, 496.421472 583.698630)

LINESTRING (403.530008 495.809548, 371.682105 611.916490)

LINESTRING (181.650098 273.282321, 212.719170 390.959009)

LINESTRING (212.719170 390.959009, 290.629272 475.957290)

LINESTRING (290.629272 475.957290, 400.236710 504.068481)

LINESTRING (400.236710 504.068481, 519.051849 478.888747)

LINESTRING (400.236710 504.068481, 481.789143 587.680113)

LINESTRING (290.629272 475.957290, 330.091620 597.319391)

LINESTRING (330.091620 597.319391, 407.835972 681.628749)

LINESTRING (330.091620 597.319391, 306.360216 718.652853)

LINESTRING (212.719170 390.959009, 175.156684 503.124786)

LINESTRING (175.156684 503.124786, 204.771260 618.501835)

LINESTRING (204.771260 618.501835, 289.378678 711.576992)

LINESTRING (204.771260 618.501835, 166.237568 729.197220)

LINESTRING (175.156684 503.124786, 89.492384 580.543589)

LINESTRING (89.492384 580.543589, 49.014960 697.362814)

LINESTRING (89.492384 580.543589, -35.287768 607.768709)

LINESTRING (105.713443 192.144974, 80.522061 314.126615)

LINESTRING (80.522061 314.126615, 113.452335 435.858362)

LINESTRING (113.452335 435.858362, 205.930401 517.343583)

LINESTRING (205.930401 517.343583, 322.703979 550.777334)

LINESTRING (322.703979 550.777334, 437.407054 523.943325)

LINESTRING (322.703979 550.777334, 410.394813 627.640185)

LINESTRING (205.930401 517.343583, 241.729051 625.332992)

LINESTRING (241.729051 625.332992, 333.984756 720.173431)

LINESTRING (241.729051 625.332992, 207.748434 738.268088)

LINESTRING (113.452335 435.858362, 87.326363 545.828603)

LINESTRING (87.326363 545.828603, 122.590015 656.475963)

LINESTRING (122.590015 656.475963, 212.433052 746.386922)

LINESTRING (122.590015 656.475963, 100.930198 769.379369)

LINESTRING (87.326363 545.828603, 1.273439 621.629866)

LINESTRING (1.273439 621.629866, -26.283774 746.602516)

LINESTRING (1.273439 621.629866, -114.504495 648.279462)

LINESTRING (80.522061 314.126615, 5.639325 407.727940)

LINESTRING (5.639325 407.727940, -21.743091 526.693753)

LINESTRING (-21.743091 526.693753, 4.360114 639.476391)

LINESTRING (4.360114 639.476391, 85.951844 733.728328)

LINESTRING (4.360114 639.476391, -33.513295 759.797050)

LINESTRING (-21.743091 526.693753, -106.310309 619.875603)

LINESTRING (-106.310309 619.875603, -140.367827 737.911549)

LINESTRING (-106.310309 619.875603, -231.870429 646.240714)

LINESTRING (5.639325 407.727940, -112.220987 446.144861)

LINESTRING (-112.220987 446.144861, -194.346095 530.285375)

LINESTRING (-194.346095 530.285375, -221.008523 652.133387)

LINESTRING (-194.346095 530.285375, -318.593692 571.188437)

LINESTRING (-112.220987 446.144861, -224.115149 405.186319)

LINESTRING (-224.115149 405.186319, -345.072166 443.870590)

LINESTRING (-224.115149 405.186319, -315.585954 328.144094)

