LINESTRING (363130.065475 6689648.664899, 363109.549404 6689624.309382)

LINESTRING (363130.065475 6689648.664899, 363149.681806 6689653.802195, 363159.816493 6689656.453363, 363174.987196 6689659.818217, 363191.654992 6689661.532738, 363213.464061 6689656.610734, 363246.479106 6689642.238177, 363280.613118 6689627.032414, 363318.075585 6689612.114466, 363347.038501 6689603.335102)

LINESTRING (363130.065475 6689648.664899, 363119.172852 6689646.443633, 363109.692475 6689644.726675, 363091.664562 6689642.428259, 363080.832716 6689642.412075, 363068.684919 6689644.452023, 363039.150863 6689649.933105, 363025.611898 6689652.616377)

LINESTRING (363130.065475 6689648.664899, 363129.006057 6689650.633296, 363127.473599 6689653.254902, 363126.646151 6689655.069655)

LINESTRING (363109.549404 6689624.309382, 363130.065475 6689648.664899)

LINESTRING (363109.549404 6689624.309382, 363133.372375 6689601.920689, 363146.268504 6689597.868532, 363178.724079 6689597.874695, 363194.370114 6689605.201515, 363224.442299 6689613.881411, 363232.389469 6689612.022117, 363263.043991 6689590.581589, 363272.346447 6689588.002611, 363280.203318 6689588.153407, 363304.510852 6689592.034013, 363326.460242 6689590.540940, 363341.720556 6689590.547668)

LINESTRING (363109.549404 6689624.309382, 363096.333508 6689605.743771, 363084.427214 6689592.011657, 363072.700007 6689572.018952, 363065.830118 6689547.105757, 363053.832669 6689527.725247, 363038.903221 6689509.335760, 363024.419481 6689487.072431, 363022.913695 6689483.350002, 363019.513557 6689474.983357, 363018.861188 6689473.369185, 363011.569362 6689460.912845, 363000.197498 6689450.382562, 362979.946807 6689443.999039, 362963.809128 6689444.940940, 362936.054286 6689459.976330, 362903.281256 6689460.240620, 362879.413891 6689448.709814, 362861.914067 6689425.089176, 362839.587222 6689399.276007, 362819.542346 6689394.702681, 362800.155765 6689395.567070, 362782.144740 6689393.024225, 362771.100323 6689392.671355)

LINESTRING (363347.038501 6689603.335102, 363318.075585 6689612.114466, 363280.613118 6689627.032414, 363246.479106 6689642.238177, 363213.464061 6689656.610734, 363191.654992 6689661.532738, 363174.987196 6689659.818217, 363159.816493 6689656.453363, 363149.681806 6689653.802195, 363130.065475 6689648.664899)

LINESTRING (363347.038501 6689603.335102, 363386.478285 6689592.769290, 363413.926859 6689586.945710)

LINESTRING (363347.038501 6689603.335102, 363359.433580 6689639.690672, 363364.638136 6689650.197103, 363379.264095 6689671.609090, 363391.479436 6689683.301619, 363420.116961 6689702.404282, 363431.558598 6689708.217685, 363484.388910 6689722.288543)

LINESTRING (363347.038501 6689603.335102, 363343.273114 6689595.673066, 363341.720556 6689590.547668)

LINESTRING (363025.611898 6689652.616377, 363005.524096 6689656.259625)

LINESTRING (363025.611898 6689652.616377, 363014.647202 6689700.195190, 363012.148886 6689702.418437, 363006.923448 6689702.548215, 362986.384424 6689697.134284, 362985.030131 6689695.379324, 362984.737582 6689692.748315, 362986.556865 6689687.908589, 362999.290855 6689671.186982, 363005.524096 6689656.259625)

LINESTRING (363025.611898 6689652.616377, 363039.150863 6689649.933105, 363068.684919 6689644.452023, 363080.832716 6689642.412075, 363091.664562 6689642.428259, 363109.692475 6689644.726675, 363119.172852 6689646.443633, 363130.065475 6689648.664899)

LINESTRING (363126.646151 6689655.069655, 363123.038749 6689662.941843, 363094.326306 6689726.571700, 363085.485672 6689743.179955, 363080.676263 6689750.105259, 363074.331239 6689757.801794, 363068.862028 6689762.912557, 363057.312580 6689771.440345, 363019.658286 6689793.681263, 363012.494704 6689798.867032, 363005.757311 6689806.121408, 363001.175707 6689814.833046, 362994.856501 6689838.336300)

LINESTRING (363126.646151 6689655.069655, 363127.473599 6689653.254902, 363129.006057 6689650.633296, 363130.065475 6689648.664899)

LINESTRING (363126.646151 6689655.069655, 363121.741113 6689654.752455, 363099.278375 6689652.877175)

LINESTRING (363005.524096 6689656.259625, 363025.611898 6689652.616377)

LINESTRING (363005.524096 6689656.259625, 362999.290855 6689671.186982, 362986.556865 6689687.908589, 362984.737582 6689692.748315, 362985.030131 6689695.379324, 362986.384424 6689697.134284, 363006.923448 6689702.548215, 363012.148886 6689702.418437, 363014.647202 6689700.195190, 363025.611898 6689652.616377)

LINESTRING (363005.524096 6689656.259625, 362959.620663 6689664.575891, 362934.930689 6689667.133108, 362887.831107 6689672.017227)

LINESTRING (362887.831107 6689672.017227, 362835.954476 6689672.790073, 362816.278592 6689677.968400, 362799.127402 6689687.198650, 362762.050180 6689710.802835, 362740.710755 6689728.306894, 362718.326012 6689746.675452, 362623.501207 6689843.226020, 362552.825683 6689919.012949, 362524.201197 6689954.797284, 362510.316478 6689971.854031, 362497.514895 6689986.261319)

LINESTRING (362887.831107 6689672.017227, 362934.930689 6689667.133108, 362959.620663 6689664.575891, 363005.524096 6689656.259625)

LINESTRING (362887.831107 6689672.017227, 362884.759540 6689661.810085, 362881.278983 6689656.010577, 362861.152021 6689649.366698, 362856.158611 6689642.743536, 362848.599317 6689623.196444, 362733.551093 6689482.433373)

LINESTRING (362497.514895 6689986.261319, 362480.561280 6690046.018931)

LINESTRING (362497.514895 6689986.261319, 362485.188356 6689989.681223, 362470.568655 6689987.279462, 362464.032628 6689985.196550, 362451.038681 6689981.050103, 362439.460783 6689977.362980, 362436.047321 6689976.276882, 362399.340619 6689964.799847, 362383.531439 6689960.626296, 362351.666140 6689948.676824, 362330.118613 6689939.692837)

LINESTRING (362497.514895 6689986.261319, 362510.316478 6689971.854031, 362524.201197 6689954.797284, 362552.825683 6689919.012949, 362623.501207 6689843.226020, 362718.326012 6689746.675452, 362740.710755 6689728.306894, 362762.050180 6689710.802835, 362799.127402 6689687.198650, 362816.278592 6689677.968400, 362835.954476 6689672.790073, 362887.831107 6689672.017227)

LINESTRING (362733.551093 6689482.433373, 362848.599317 6689623.196444, 362856.158611 6689642.743536, 362861.152021 6689649.366698, 362881.278983 6689656.010577, 362884.759540 6689661.810085, 362887.831107 6689672.017227)

LINESTRING (362480.561280 6690046.018931, 362497.514895 6689986.261319)

LINESTRING (362480.561280 6690046.018931, 362462.075737 6690067.563963, 362456.388783 6690092.917302)

LINESTRING (362480.561280 6690046.018931, 362494.029969 6690064.639739, 362532.426474 6690107.423873)

LINESTRING (362330.118613 6689939.692837, 362329.708721 6689934.702946, 362324.988754 6689912.964767, 362329.245151 6689831.825624, 362330.417268 6689810.923624, 362333.005182 6689752.756490, 362334.154260 6689725.980441, 362332.503574 6689707.626596)

LINESTRING (362330.118613 6689939.692837, 362351.666140 6689948.676824, 362383.531439 6689960.626296, 362399.340619 6689964.799847, 362436.047321 6689976.276882, 362439.460783 6689977.362980, 362451.038681 6689981.050103, 362464.032628 6689985.196550, 362470.568655 6689987.279462, 362485.188356 6689989.681223, 362497.514895 6689986.261319)

LINESTRING (362332.503574 6689707.626596, 362328.689949 6689702.107720, 362317.807973 6689695.797160, 362290.838750 6689688.813222)

LINESTRING (362332.503574 6689707.626596, 362334.154260 6689725.980441, 362333.005182 6689752.756490, 362330.417268 6689810.923624, 362329.245151 6689831.825624, 362324.988754 6689912.964767, 362329.708721 6689934.702946, 362330.118613 6689939.692837)

LINESTRING (362332.503574 6689707.626596, 362347.015566 6689696.621054, 362419.406382 6689649.225806, 362452.978305 6689664.578473, 362475.002128 6689665.942421, 362524.446373 6689644.086567, 362592.062142 6689569.128325, 362594.129475 6689561.057296, 362593.466903 6689547.459666, 362592.520723 6689542.021800, 362590.540214 6689532.765833, 362590.531187 6689524.617114, 362590.874785 6689514.091745, 362591.577892 6689505.180388, 362593.332086 6689500.677337, 362598.853210 6689498.997420, 362629.707926 6689500.943150, 362640.012555 6689499.428363, 362647.584075 6689483.948190, 362665.349643 6689468.707706, 362691.464238 6689460.933551, 362710.874453 6689453.813756, 362722.172635 6689440.812945, 362755.491070 6689408.955912, 362771.100323 6689392.671355)

LINESTRING (362836.834235 6688507.691509, 362827.726801 6688514.489128, 362769.352460 6688559.897320, 362712.711993 6688584.952178, 362658.396283 6688615.170883, 362612.863572 6688638.637911, 362571.072733 6688660.124921, 362525.105012 6688691.524471, 362513.119122 6688709.211548)

LINESTRING (362836.834235 6688507.691509, 362832.066914 6688498.885983, 362829.413770 6688492.174638, 362828.592075 6688489.741934, 362821.553931 6688483.641686)

LINESTRING (362836.834235 6688507.691509, 362841.425757 6688508.599896, 362846.637066 6688507.021289, 362851.295398 6688505.151379, 362874.395847 6688513.634389, 362875.995646 6688540.696647, 362875.257081 6688548.695108, 362872.257503 6688561.126340, 362867.618885 6688569.539221, 362859.900368 6688583.842643, 362856.609203 6688593.375309, 362849.648061 6688605.465271, 362841.321894 6688628.152454, 362833.509459 6688642.158492)

LINESTRING (362836.834235 6688507.691509, 362867.056259 6688490.567371, 362904.837847 6688472.969376, 362930.293983 6688462.045006, 362945.325082 6688456.273256, 362953.140177 6688454.953538, 362960.643812 6688455.351164, 362967.131937 6688456.834907, 362972.985136 6688459.524213, 362978.537060 6688463.908174, 362991.619794 6688478.086354)

LINESTRING (362513.119122 6688709.211548, 362481.906547 6688786.708236, 362462.730921 6688805.982505, 362448.881819 6688825.713379)

LINESTRING (362513.119122 6688709.211548, 362525.105012 6688691.524471, 362571.072733 6688660.124921, 362612.863572 6688638.637911, 362658.396283 6688615.170883, 362712.711993 6688584.952178, 362769.352460 6688559.897320, 362827.726801 6688514.489128, 362836.834235 6688507.691509)

LINESTRING (362513.119122 6688709.211548, 362481.566535 6688695.264324, 362452.562717 6688693.015484, 362382.745891 6688722.575523, 362346.596509 6688742.993624, 362331.591085 6688745.589841)

LINESTRING (362821.553931 6688483.641686, 362836.054255 6688471.713606, 362860.895988 6688457.255749, 362903.191244 6688439.075307, 362946.888157 6688417.420266, 362988.037497 6688412.861929, 362992.188815 6688410.888659)

LINESTRING (362821.553931 6688483.641686, 362828.592075 6688489.741934, 362829.413770 6688492.174638, 362832.066914 6688498.885983, 362836.834235 6688507.691509)

LINESTRING (362821.553931 6688483.641686, 362799.014099 6688500.175766, 362794.037692 6688502.704300, 362785.596839 6688506.935219, 362774.434206 6688511.001179, 362763.584359 6688513.093377, 362750.881828 6688513.427202, 362734.046851 6688513.147645, 362717.367951 6688511.580287, 362707.565500 6688509.619965, 362698.257932 6688507.730191, 362693.596841 6688505.564905, 362687.759695 6688499.932419, 362679.535250 6688489.953145, 362676.620847 6688483.508148, 362673.528004 6688469.545124, 362670.617656 6688461.595026, 362666.408047 6688452.924731, 362659.002172 6688442.803148)

LINESTRING (362833.509459 6688642.158492, 362859.168611 6688655.750989, 362863.547645 6688668.350255, 362870.528170 6688672.490728, 362875.052211 6688681.305453, 362891.871905 6688690.013904, 362898.138027 6688697.949270, 362904.252947 6688712.445221, 362905.101776 6688718.979292, 362915.531174 6688729.678647, 362920.242466 6688738.330301, 362921.001485 6688741.010632, 362919.787963 6688760.631781, 362912.114610 6688769.370675, 362905.882030 6688783.473151, 362902.073764 6688786.760211, 362897.231419 6688798.714580, 362913.381842 6688817.570469, 362914.608860 6688827.980871, 362912.845883 6688841.524891, 362910.596883 6688855.232133, 362913.223219 6688863.003568, 362920.217929 6688875.169970, 362929.885116 6688886.934783, 362944.650643 6688902.509745, 362944.906679 6688913.424909, 362942.717614 6688920.352036, 362942.497540 6688925.376812, 362943.928902 6688932.256836, 362943.522020 6688940.398868, 362946.344256 6688947.795071, 362948.338028 6688950.518107, 362950.004956 6688952.785242, 362952.062820 6688955.595049, 362955.868127 6688962.664412)

LINESTRING (362833.509459 6688642.158492, 362821.392796 6688665.077704, 362810.802425 6688686.668612, 362795.469195 6688703.912274, 362791.006660 6688718.895826, 362790.395691 6688735.997243, 362789.499957 6688756.108145, 362789.545235 6688788.568770, 362781.562741 6688831.944613, 362782.816778 6688850.692512, 362779.057804 6688876.853100, 362768.687118 6688893.096113, 362755.566398 6688929.687203, 362702.618272 6689008.647859, 362655.983480 6689054.663575, 362636.348918 6689097.810588, 362620.233361 6689114.181672, 362606.024554 6689120.704243, 362590.056342 6689131.596334, 362577.254287 6689134.364852, 362549.597171 6689150.993585, 362523.551407 6689163.280926, 362504.125564 6689155.965805, 362489.621676 6689145.443809, 362485.440283 6689127.999321, 362480.386373 6689106.195547, 362477.379212 6689088.071284, 362463.440994 6689079.211332, 362443.832862 6689060.354231, 362428.319075 6689053.560545, 362413.044623 6689061.149741, 362388.543715 6689072.766522, 362372.305833 6689090.559150, 362356.332067 6689100.560674, 362334.524605 6689102.232454, 362310.238481 6689104.455169)

LINESTRING (362833.509459 6688642.158492, 362841.321894 6688628.152454, 362849.648061 6688605.465271, 362856.609203 6688593.375309, 362859.900368 6688583.842643, 362867.618885 6688569.539221, 362872.257503 6688561.126340, 362875.257081 6688548.695108, 362875.995646 6688540.696647, 362874.395847 6688513.634389, 362851.295398 6688505.151379, 362846.637066 6688507.021289, 362841.425757 6688508.599896, 362836.834235 6688507.691509)

LINESTRING (362991.619794 6688478.086354, 363009.423473 6688471.329884)

LINESTRING (362991.619794 6688478.086354, 362978.537060 6688463.908174, 362972.985136 6688459.524213, 362967.131937 6688456.834907, 362960.643812 6688455.351164, 362953.140177 6688454.953538, 362945.325082 6688456.273256, 362930.293983 6688462.045006, 362904.837847 6688472.969376, 362867.056259 6688490.567371, 362836.834235 6688507.691509)

LINESTRING (362991.619794 6688478.086354, 363008.940160 6688496.854093, 363021.853547 6688505.654384, 363038.513409 6688512.162291, 363048.728601 6688510.986605, 363057.094104 6688508.275235, 363063.966769 6688505.575430, 363081.924453 6688496.884965, 363107.353047 6688490.076393)

LINESTRING (363107.353047 6688490.076393, 363156.249938 6688490.222857)

LINESTRING (363107.353047 6688490.076393, 363088.116611 6688489.617932, 363066.615858 6688489.099797, 363056.789509 6688488.410283)

LINESTRING (363107.353047 6688490.076393, 363081.924453 6688496.884965, 363063.966769 6688505.575430, 363057.094104 6688508.275235, 363048.728601 6688510.986605, 363038.513409 6688512.162291, 363021.853547 6688505.654384, 363008.940160 6688496.854093, 362991.619794 6688478.086354)

LINESTRING (363156.249938 6688490.222857, 363107.353047 6688490.076393)

LINESTRING (363156.249938 6688490.222857, 363175.804703 6688509.163774, 363185.848864 6688527.871273, 363194.027118 6688526.504980, 363199.409967 6688530.962497, 363201.035822 6688547.299701, 363183.592812 6688580.138486, 363182.423922 6688594.217378, 363183.164285 6688618.926340, 363192.102088 6688620.117763, 363195.803038 6688620.881681, 363189.374849 6688636.585074, 363180.162187 6688655.748570, 363181.331849 6688680.106972, 363184.765495 6688688.182674, 363228.221016 6688712.267904, 363253.248770 6688719.855883, 363268.255386 6688729.503628, 363267.984571 6688741.731683, 363259.396439 6688752.198606, 363221.814526 6688757.255468, 363206.403978 6688766.886339, 363201.489681 6688770.916931, 363192.876600 6688783.804016, 363172.480474 6688796.297821, 363163.534797 6688802.832134, 363161.612073 6688808.177266, 363158.564875 6688813.620399, 363152.903668 6688818.816200, 363150.335187 6688825.077428, 363143.390284 6688841.435778, 363130.491481 6688852.845407, 363116.767647 6688862.312956, 363114.211227 6688868.451136, 363116.175051 6688878.176160, 363117.580482 6688884.522120, 363122.283144 6688891.491021, 363130.837329 6688898.382026, 363134.071781 6688905.573349, 363133.054087 6688929.400860, 363127.211084 6688937.992457, 363117.887212 6688947.840851, 363116.809031 6688957.847459, 363105.762728 6688967.036044, 363101.417060 6688981.178701, 363099.100200 6688986.037049, 363089.318750 6688991.064615, 363081.549721 6688989.461657, 363076.597277 6688986.437355, 363069.543974 6688983.280265)

LINESTRING (363156.249938 6688490.222857, 363174.774146 6688490.273677, 363221.331040 6688490.408607, 363252.654053 6688486.946931, 363277.052969 6688479.810354)

LINESTRING (363156.249938 6688490.222857, 363149.411046 6688480.725610, 363147.170180 6688477.610429, 363143.572335 6688477.533837, 363139.886712 6688476.446104, 363122.248852 6688475.994266, 363107.847225 6688472.031946, 363106.372015 6688471.630346, 363095.810328 6688470.801153)

LINESTRING (363056.789509 6688488.410283, 363009.423473 6688471.329884)

LINESTRING (363056.789509 6688488.410283, 363066.615858 6688489.099797, 363088.116611 6688489.617932, 363107.353047 6688490.076393)

LINESTRING (363056.789509 6688488.410283, 363056.952128 6688481.704381, 363056.524824 6688455.634758, 363056.542913 6688452.144838)

LINESTRING (363627.380826 6688213.031578, 363626.524296 6688220.142403, 363615.858781 6688243.728898, 363614.109606 6688251.519721, 363613.034913 6688261.960719, 363616.678483 6688288.656643, 363617.665935 6688300.402721, 363616.273746 6688314.032688, 363612.070470 6688322.751496, 363612.351562 6688328.337086)

LINESTRING (363627.380826 6688213.031578, 363611.565403 6688213.122193, 363577.961195 6688207.725692, 363557.093718 6688210.268766, 363538.954071 6688226.566280, 363493.827285 6688290.929632, 363446.990469 6688346.372727, 363318.217209 6688457.541483, 363286.008297 6688477.188852, 363277.052969 6688479.810354)

LINESTRING (363612.351562 6688328.337086, 363613.135324 6688343.947878, 363612.380792 6688351.121777)

LINESTRING (363612.351562 6688328.337086, 363612.070470 6688322.751496, 363616.273746 6688314.032688, 363617.665935 6688300.402721, 363616.678483 6688288.656643, 363613.034913 6688261.960719, 363614.109606 6688251.519721, 363615.858781 6688243.728898, 363626.524296 6688220.142403, 363627.380826 6688213.031578)

LINESTRING (363612.351562 6688328.337086, 363590.775561 6688350.927712, 363572.207061 6688382.925902)

LINESTRING (363277.052969 6688479.810354, 363252.654053 6688486.946931, 363221.331040 6688490.408607, 363174.774146 6688490.273677, 363156.249938 6688490.222857)

LINESTRING (363277.052969 6688479.810354, 363286.008297 6688477.188852, 363318.217209 6688457.541483, 363446.990469 6688346.372727, 363493.827285 6688290.929632, 363538.954071 6688226.566280, 363557.093718 6688210.268766, 363577.961195 6688207.725692, 363611.565403 6688213.122193, 363627.380826 6688213.031578)

LINESTRING (363277.052969 6688479.810354, 363265.714450 6688498.206178, 363258.392989 6688512.081297, 363257.457774 6688532.539006, 363260.828026 6688567.795255)

LINESTRING (363612.380792 6688351.121777, 363613.135324 6688343.947878, 363612.351562 6688328.337086)

LINESTRING (362448.881819 6688825.713379, 362443.461056 6688833.442955, 362431.912245 6688858.136969, 362405.165301 6688901.966499, 362400.147229 6688931.173970, 362379.961418 6688963.485303, 362352.757109 6688999.127766, 362330.974620 6689014.053390, 362310.913270 6689038.367444, 362297.786037 6689060.323552, 362285.695529 6689098.572118)

LINESTRING (362448.881819 6688825.713379, 362462.730921 6688805.982505, 362481.906547 6688786.708236, 362513.119122 6688709.211548)

LINESTRING (362448.881819 6688825.713379, 362428.114562 6688828.905914, 362398.004129 6688832.908717, 362329.374790 6688802.817510)

LINESTRING (362331.591085 6688745.589841, 362334.445346 6688756.429112, 362333.715699 6688766.824197)

LINESTRING (362331.591085 6688745.589841, 362346.596509 6688742.993624, 362382.745891 6688722.575523, 362452.562717 6688693.015484, 362481.566535 6688695.264324, 362513.119122 6688709.211548)

LINESTRING (362331.591085 6688745.589841, 362322.757986 6688753.314847, 362312.429509 6688762.590235, 362304.673256 6688769.393888, 362302.859541 6688776.273815, 362303.555110 6688786.916005, 362299.405956 6688794.776084, 362294.997715 6688803.827640, 362292.384186 6688813.101169, 362292.117893 6688821.706237)

LINESTRING (362331.591085 6688745.589841, 362317.485413 6688746.970427, 362302.609320 6688747.867402, 362232.011259 6688773.680860, 362212.792934 6688777.328811)

LINESTRING (362491.627069 6688112.020818, 362493.224489 6688109.206997, 362507.627661 6688095.274704, 362509.147472 6688092.162830, 362509.369740 6688088.966166, 362508.746852 6688084.920731, 362506.972488 6688079.971203, 362505.423684 6688075.135786, 362505.730307 6688070.364097)

LINESTRING (362491.627069 6688112.020818, 362492.011857 6688113.422062, 362492.114470 6688115.993332, 362490.017445 6688124.912722, 362489.531721 6688134.462440, 362490.457589 6688141.550932, 362495.517210 6688151.326041, 362506.099980 6688170.702708, 362508.244019 6688177.533406, 362508.752952 6688183.835000, 362509.015979 6688197.102110, 362510.444310 6688207.538275, 362517.865311 6688224.191642, 362521.525783 6688247.017942, 362530.072765 6688277.385217, 362535.244880 6688297.913756, 362538.542842 6688320.664569, 362541.918919 6688335.374867, 362547.403986 6688346.906474, 362557.428945 6688359.437261)

LINESTRING (362491.627069 6688112.020818, 362484.780333 6688108.533668, 362475.604947 6688104.755436, 362471.424367 6688103.174241)

LINESTRING (362505.730307 6688070.364097, 362505.423684 6688075.135786, 362506.972488 6688079.971203, 362508.746852 6688084.920731, 362509.369740 6688088.966166, 362509.147472 6688092.162830, 362507.627661 6688095.274704, 362493.224489 6688109.206997, 362491.627069 6688112.020818)

LINESTRING (362505.730307 6688070.364097, 362506.720956 6688063.638014, 362511.554879 6688054.392363, 362516.775110 6688047.027264, 362522.938988 6688040.774777, 362532.865525 6688035.874088)

LINESTRING (362505.730307 6688070.364097, 362508.434212 6688066.382584, 362511.157629 6688064.529567, 362523.272236 6688062.645337, 362556.446378 6688045.407320, 362559.845857 6688044.465244, 362567.435157 6688043.443102, 362576.375363 6688043.919546, 362580.620940 6688044.584291, 362584.801936 6688044.270470, 362591.642095 6688042.451707, 362595.602543 6688043.182966, 362598.192145 6688045.259088, 362602.807187 6688048.239808, 362653.104162 6688066.564783, 362661.827172 6688066.124359, 362667.164694 6688063.916489, 362673.689362 6688057.985097, 362706.128850 6688014.344803, 362703.684997 6688005.128535)

LINESTRING (362557.428945 6688359.437261, 362545.130552 6688359.210280, 362532.261172 6688359.974754, 362522.173699 6688360.734582, 362516.221538 6688362.910156, 362511.970442 6688366.192038, 362510.219702 6688371.241209, 362510.415336 6688381.110785, 362510.147061 6688396.125870, 362499.529973 6688413.471414, 362443.336115 6688451.690291, 362426.902753 6688462.199209, 362406.962746 6688475.337817)

LINESTRING (362557.428945 6688359.437261, 362547.403986 6688346.906474, 362541.918919 6688335.374867, 362538.542842 6688320.664569, 362535.244880 6688297.913756, 362530.072765 6688277.385217, 362521.525783 6688247.017942, 362517.865311 6688224.191642, 362510.444310 6688207.538275, 362509.015979 6688197.102110, 362508.752952 6688183.835000, 362508.244019 6688177.533406, 362506.099980 6688170.702708, 362495.517210 6688151.326041, 362490.457589 6688141.550932, 362489.531721 6688134.462440, 362490.017445 6688124.912722, 362492.114470 6688115.993332, 362492.011857 6688113.422062, 362491.627069 6688112.020818)

LINESTRING (362557.428945 6688359.437261, 362566.598023 6688364.386422, 362571.950288 6688367.272377, 362592.154261 6688386.018629, 362610.323192 6688397.595692, 362630.281044 6688415.838625, 362659.002172 6688442.803148)

LINESTRING (362471.424367 6688103.174241, 362461.318237 6688098.918390, 362442.111745 6688095.363003)

LINESTRING (362471.424367 6688103.174241, 362459.023043 6688104.199949, 362453.364868 6688103.332298, 362446.456402 6688098.944575, 362442.111745 6688095.363003)

LINESTRING (362471.424367 6688103.174241, 362475.604947 6688104.755436, 362484.780333 6688108.533668, 362491.627069 6688112.020818)

LINESTRING (362406.962746 6688475.337817, 362403.161611 6688492.571068, 362398.887106 6688503.423358, 362386.562641 6688515.081512, 362376.090219 6688532.132155, 362369.994199 6688533.711441, 362361.701089 6688536.131835, 362344.281122 6688545.251526, 362341.703805 6688560.320508, 362325.211053 6688564.411013, 362320.201134 6688564.288293, 362308.436389 6688566.895816, 362297.473173 6688571.100652, 362287.302997 6688569.512092, 362272.738976 6688572.537738, 362259.681390 6688557.926293, 362247.118616 6688550.988192, 362235.141397 6688538.331423, 362232.884045 6688526.176477, 362237.651398 6688514.915147, 362251.822813 6688503.844323, 362262.543984 6688493.528342)

LINESTRING (362406.962746 6688475.337817, 362362.235251 6688476.515303, 362336.200807 6688485.124541, 362296.653859 6688493.564906, 362262.543984 6688493.528342)

LINESTRING (362406.962746 6688475.337817, 362426.902753 6688462.199209, 362443.336115 6688451.690291, 362499.529973 6688413.471414, 362510.147061 6688396.125870, 362510.415336 6688381.110785, 362510.219702 6688371.241209, 362511.970442 6688366.192038, 362516.221538 6688362.910156, 362522.173699 6688360.734582, 362532.261172 6688359.974754, 362545.130552 6688359.210280, 362557.428945 6688359.437261)

LINESTRING (362659.002172 6688442.803148, 362638.098073 6688449.466493, 362628.352968 6688454.750278, 362604.822365 6688472.861363)

LINESTRING (362659.002172 6688442.803148, 362666.408047 6688452.924731, 362670.617656 6688461.595026, 362673.528004 6688469.545124, 362676.620847 6688483.508148, 362679.535250 6688489.953145, 362687.759695 6688499.932419, 362693.596841 6688505.564905, 362698.257932 6688507.730191, 362707.565500 6688509.619965, 362717.367951 6688511.580287, 362734.046851 6688513.147645, 362750.881828 6688513.427202, 362763.584359 6688513.093377, 362774.434206 6688511.001179, 362785.596839 6688506.935219, 362794.037692 6688502.704300, 362799.014099 6688500.175766, 362821.553931 6688483.641686)

LINESTRING (362659.002172 6688442.803148, 362630.281044 6688415.838625, 362610.323192 6688397.595692, 362592.154261 6688386.018629, 362571.950288 6688367.272377, 362566.598023 6688364.386422, 362557.428945 6688359.437261)

LINESTRING (362992.188815 6688410.888659, 363016.228648 6688394.789922, 363038.370920 6688371.026194, 363062.171098 6688352.807581)

LINESTRING (362992.188815 6688410.888659, 362988.037497 6688412.861929, 362946.888157 6688417.420266, 362903.191244 6688439.075307, 362860.895988 6688457.255749, 362836.054255 6688471.713606, 362821.553931 6688483.641686)

LINESTRING (362992.188815 6688410.888659, 362994.507230 6688415.472337, 363003.360783 6688427.346029, 363002.452929 6688439.821059, 363004.979792 6688450.093395, 363006.889989 6688457.646587, 363008.523673 6688461.966190, 363011.780085 6688463.404371)

LINESTRING (362056.768098 6687943.533432, 362068.798899 6687938.551769, 362084.495045 6687941.547002, 362107.241031 6687939.203112, 362125.239339 6687927.028304, 362131.810763 6687920.592490, 362145.623911 6687919.144381, 362165.581905 6687930.974981, 362181.748536 6687952.692367, 362190.521316 6687975.926983)

LINESTRING (362056.768098 6687943.533432, 362062.728436 6687955.436583, 362069.910348 6687980.024350, 362085.392903 6688005.869652)

LINESTRING (362056.768098 6687943.533432, 362051.058262 6687935.032051, 362044.393501 6687928.484280, 362030.300293 6687925.896705, 362019.751130 6687921.948655, 361991.525652 6687904.066639, 361949.990894 6687889.699182, 361918.679139 6687875.056087, 361907.224033 6687873.483751, 361884.028061 6687874.474745, 361871.005503 6687870.955339, 361862.639143 6687870.603755, 361842.025659 6687875.510319, 361813.591153 6687874.024973, 361802.340042 6687871.999308, 361782.392074 6687865.287133, 361761.835456 6687862.945850, 361753.478129 6687859.918672, 361743.133010 6687855.094115, 361716.936326 6687834.751467, 361703.702031 6687828.141558, 361663.916449 6687810.366465, 361635.105443 6687800.881414)

LINESTRING (362190.521316 6687975.926983, 362168.789263 6687999.357181)

LINESTRING (362190.521316 6687975.926983, 362181.748536 6687952.692367, 362165.581905 6687930.974981, 362145.623911 6687919.144381, 362131.810763 6687920.592490, 362125.239339 6687927.028304, 362107.241031 6687939.203112, 362084.495045 6687941.547002, 362068.798899 6687938.551769, 362056.768098 6687943.533432)

LINESTRING (362190.521316 6687975.926983, 362204.826635 6687973.457161, 362213.154678 6687976.898919, 362217.242169 6687979.375180)

LINESTRING (362085.392903 6688005.869652, 362099.907285 6688019.444422, 362125.575997 6688025.350859)

LINESTRING (362085.392903 6688005.869652, 362075.499678 6688024.493352, 362069.833222 6688040.649400, 362059.965149 6688058.179708, 362048.179293 6688091.668413)

LINESTRING (362085.392903 6688005.869652, 362069.910348 6687980.024350, 362062.728436 6687955.436583, 362056.768098 6687943.533432)

LINESTRING (361635.105443 6687800.881414, 361630.222892 6687790.598981)

LINESTRING (361635.105443 6687800.881414, 361663.916449 6687810.366465, 361703.702031 6687828.141558, 361716.936326 6687834.751467, 361743.133010 6687855.094115, 361753.478129 6687859.918672, 361761.835456 6687862.945850, 361782.392074 6687865.287133, 361802.340042 6687871.999308, 361813.591153 6687874.024973, 361842.025659 6687875.510319, 361862.639143 6687870.603755, 361871.005503 6687870.955339, 361884.028061 6687874.474745, 361907.224033 6687873.483751, 361918.679139 6687875.056087, 361949.990894 6687889.699182, 361991.525652 6687904.066639, 362019.751130 6687921.948655, 362030.300293 6687925.896705, 362044.393501 6687928.484280, 362051.058262 6687935.032051, 362056.768098 6687943.533432)

LINESTRING (362303.682165 6688007.264394, 362280.128166 6687998.322571)

LINESTRING (362303.682165 6688007.264394, 362305.245840 6688021.117777)

LINESTRING (362303.682165 6688007.264394, 362305.571618 6688001.496417, 362305.289962 6687989.656916)

LINESTRING (362280.128166 6687998.322571, 362303.682165 6688007.264394)

LINESTRING (362280.128166 6687998.322571, 362270.082598 6687995.536450, 362257.737457 6687986.795191, 362239.103596 6687986.117617, 362225.162943 6687982.141205, 362217.242169 6687979.375180)

LINESTRING (362280.128166 6687998.322571, 362290.724702 6687997.832718, 362305.289962 6687989.656916)

LINESTRING (362305.245840 6688021.117777, 362303.682165 6688007.264394)

LINESTRING (362305.245840 6688021.117777, 362292.140495 6688034.399836, 362278.423249 6688037.348742, 362256.569707 6688057.862268, 362242.480106 6688078.896057, 362232.497842 6688104.099903, 362229.595095 6688119.047496, 362223.164568 6688127.885751, 362220.038416 6688128.884696, 362215.794585 6688135.722811, 362219.618235 6688145.265639, 362209.403787 6688167.100552, 362212.036051 6688172.931621, 362209.584975 6688183.146607, 362211.569405 6688193.784615, 362206.999702 6688200.924919, 362209.221158 6688224.552357, 362206.655760 6688245.339842, 362201.297194 6688253.702827, 362201.196710 6688260.841257, 362198.933224 6688278.495928, 362200.918186 6688286.224320, 362195.519791 6688307.564933, 362196.717912 6688323.148894, 362198.964346 6688340.710950, 362207.264471 6688347.821358, 362207.978842 6688377.079752, 362214.022250 6688388.868478, 362224.599529 6688389.215193, 362227.610913 6688394.106651, 362218.890824 6688404.837517, 362217.615903 6688418.943203, 362213.143223 6688422.646305, 362211.025738 6688441.086950, 362218.335561 6688448.781087, 362228.843960 6688479.619803, 362247.095822 6688484.447503, 362262.543984 6688493.528342)

LINESTRING (362305.245840 6688021.117777, 362309.629650 6688023.973108, 362317.800659 6688025.169168, 362326.969290 6688024.075674, 362333.786217 6688025.155738, 362353.066096 6688034.883702, 362365.489871 6688042.496362, 362377.794974 6688046.969859, 362387.191275 6688059.223006)

LINESTRING (362305.289962 6687989.656916, 362305.571618 6688001.496417, 362303.682165 6688007.264394)

LINESTRING (362305.289962 6687989.656916, 362290.724702 6687997.832718, 362280.128166 6687998.322571)

LINESTRING (363009.423473 6688471.329884, 363011.780085 6688463.404371)

LINESTRING (363009.423473 6688471.329884, 363056.789509 6688488.410283)

LINESTRING (363009.423473 6688471.329884, 362991.619794 6688478.086354)

LINESTRING (363056.542913 6688452.144838, 363056.524824 6688455.634758, 363056.952128 6688481.704381, 363056.789509 6688488.410283)

LINESTRING (363056.542913 6688452.144838, 363056.616218 6688439.533998, 363053.647365 6688431.329438, 363032.723305 6688423.655248, 363022.728545 6688433.785455, 363018.530121 6688441.122523, 363013.595348 6688457.260567, 363012.482343 6688461.048076, 363011.780085 6688463.404371)

LINESTRING (363056.542913 6688452.144838, 363074.424706 6688465.552001, 363087.664419 6688470.382809, 363095.810328 6688470.801153)

LINESTRING (362955.868127 6688962.664412, 362941.041453 6688973.222068, 362928.268339 6688981.038159, 362921.613411 6688985.235021, 362910.439757 6688993.670973, 362881.831081 6689026.798139, 362852.199815 6689078.859558, 362866.452797 6689163.781502, 362838.167728 6689205.302344, 362818.159458 6689214.495108, 362798.156388 6689223.676642, 362760.292820 6689273.931155, 362719.006729 6689306.567883, 362714.725531 6689329.259038)

LINESTRING (362955.868127 6688962.664412, 362952.062820 6688955.595049, 362950.004956 6688952.785242, 362948.338028 6688950.518107, 362946.344256 6688947.795071, 362943.522020 6688940.398868, 362943.928902 6688932.256836, 362942.497540 6688925.376812, 362942.717614 6688920.352036, 362944.906679 6688913.424909, 362944.650643 6688902.509745, 362929.885116 6688886.934783, 362920.217929 6688875.169970, 362913.223219 6688863.003568, 362910.596883 6688855.232133, 362912.845883 6688841.524891, 362914.608860 6688827.980871, 362913.381842 6688817.570469, 362897.231419 6688798.714580, 362902.073764 6688786.760211, 362905.882030 6688783.473151, 362912.114610 6688769.370675, 362919.787963 6688760.631781, 362921.001485 6688741.010632, 362920.242466 6688738.330301, 362915.531174 6688729.678647, 362905.101776 6688718.979292, 362904.252947 6688712.445221, 362898.138027 6688697.949270, 362891.871905 6688690.013904, 362875.052211 6688681.305453, 362870.528170 6688672.490728, 362863.547645 6688668.350255, 362859.168611 6688655.750989, 362833.509459 6688642.158492)

LINESTRING (362955.868127 6688962.664412, 362959.331750 6688961.831732, 362969.301108 6688957.978403, 362982.245961 6688955.897094, 363001.972254 6688950.037966, 363007.588676 6688949.982705, 363022.997647 6688955.924388, 363025.038639 6688956.817456, 363026.399719 6688957.423967, 363028.277634 6688958.245138, 363048.570490 6688971.416443, 363056.509025 6688976.201212, 363062.842821 6688980.076499, 363069.543974 6688983.280265)

LINESTRING (362714.725531 6689329.259038, 362724.964967 6689340.812198, 362737.168466 6689357.675713, 362739.878817 6689370.605293, 362751.235267 6689380.845552, 362758.782282 6689386.402463, 362771.100323 6689392.671355)

LINESTRING (362714.725531 6689329.259038, 362704.986203 6689339.324927, 362677.852149 6689336.368613, 362659.124229 6689324.801379, 362640.817340 6689319.706375, 362626.467889 6689308.999693, 362609.531569 6689292.460052, 362589.566225 6689282.255297, 362569.194068 6689276.803828, 362548.482307 6689278.176613, 362535.420049 6689270.085999, 362519.868988 6689264.619973, 362506.197539 6689267.488486, 362482.941337 6689273.818199, 362457.783162 6689290.542822, 362445.132435 6689298.177727, 362435.126528 6689308.343625, 362420.199250 6689313.823933, 362403.135189 6689309.731032, 362390.317337 6689302.846803, 362378.662957 6689297.925247, 362367.156201 6689299.541936, 362358.616412 6689293.343314, 362353.821431 6689276.356914, 362355.418751 6689255.862501, 362354.518469 6689235.707776, 362350.362516 6689224.070482, 362337.879069 6689215.657667, 362331.540363 6689204.939019, 362329.922575 6689193.451016, 362324.173026 6689176.233194, 362321.915428 6689170.053474, 362321.565299 6689152.899014, 362314.341022 6689126.517695, 362310.238481 6689104.455169)

LINESTRING (362714.725531 6689329.259038, 362719.006729 6689306.567883, 362760.292820 6689273.931155, 362798.156388 6689223.676642, 362818.159458 6689214.495108, 362838.167728 6689205.302344, 362866.452797 6689163.781502, 362852.199815 6689078.859558, 362881.831081 6689026.798139, 362910.439757 6688993.670973, 362921.613411 6688985.235021, 362928.268339 6688981.038159, 362941.041453 6688973.222068, 362955.868127 6688962.664412)

LINESTRING (363069.543974 6688983.280265, 363067.230899 6688992.943169, 363066.045347 6688996.856024, 363055.153176 6689006.607513, 363044.882949 6689022.600674, 362968.549763 6689137.095397, 362955.692702 6689172.193152, 362939.874385 6689202.653504, 362921.135155 6689224.261117, 362785.129771 6689379.066150, 362771.100323 6689392.671355)

LINESTRING (363069.543974 6688983.280265, 363076.597277 6688986.437355, 363081.549721 6688989.461657, 363089.318750 6688991.064615, 363099.100200 6688986.037049, 363101.417060 6688981.178701, 363105.762728 6688967.036044, 363116.809031 6688957.847459, 363117.887212 6688947.840851, 363127.211084 6688937.992457, 363133.054087 6688929.400860, 363134.071781 6688905.573349, 363130.837329 6688898.382026, 363122.283144 6688891.491021, 363117.580482 6688884.522120, 363116.175051 6688878.176160, 363114.211227 6688868.451136, 363116.767647 6688862.312956, 363130.491481 6688852.845407, 363143.390284 6688841.435778, 363150.335187 6688825.077428, 363152.903668 6688818.816200, 363158.564875 6688813.620399, 363161.612073 6688808.177266, 363163.534797 6688802.832134, 363172.480474 6688796.297821, 363192.876600 6688783.804016, 363201.489681 6688770.916931, 363206.403978 6688766.886339, 363221.814526 6688757.255468, 363259.396439 6688752.198606, 363267.984571 6688741.731683, 363268.255386 6688729.503628, 363253.248770 6688719.855883, 363228.221016 6688712.267904, 363184.765495 6688688.182674, 363181.331849 6688680.106972, 363180.162187 6688655.748570, 363189.374849 6688636.585074, 363195.803038 6688620.881681, 363192.102088 6688620.117763, 363183.164285 6688618.926340, 363182.423922 6688594.217378, 363183.592812 6688580.138486, 363201.035822 6688547.299701, 363199.409967 6688530.962497, 363194.027118 6688526.504980, 363185.848864 6688527.871273, 363175.804703 6688509.163774, 363156.249938 6688490.222857)

LINESTRING (363069.543974 6688983.280265, 363062.842821 6688980.076499, 363056.509025 6688976.201212, 363048.570490 6688971.416443, 363028.277634 6688958.245138, 363026.399719 6688957.423967, 363025.038639 6688956.817456, 363022.997647 6688955.924388, 363007.588676 6688949.982705, 363001.972254 6688950.037966, 362982.245961 6688955.897094, 362969.301108 6688957.978403, 362959.331750 6688961.831732, 362955.868127 6688962.664412)

LINESTRING (362771.100323 6689392.671355, 362755.491070 6689408.955912, 362722.172635 6689440.812945, 362710.874453 6689453.813756, 362691.464238 6689460.933551, 362665.349643 6689468.707706, 362647.584075 6689483.948190, 362640.012555 6689499.428363, 362629.707926 6689500.943150, 362598.853210 6689498.997420, 362593.332086 6689500.677337, 362591.577892 6689505.180388, 362590.874785 6689514.091745, 362590.531187 6689524.617114, 362590.540214 6689532.765833, 362592.520723 6689542.021800, 362593.466903 6689547.459666, 362594.129475 6689561.057296, 362592.062142 6689569.128325, 362524.446373 6689644.086567, 362475.002128 6689665.942421, 362452.978305 6689664.578473, 362419.406382 6689649.225806, 362347.015566 6689696.621054, 362332.503574 6689707.626596)

LINESTRING (362771.100323 6689392.671355, 362785.129771 6689379.066150, 362921.135155 6689224.261117, 362939.874385 6689202.653504, 362955.692702 6689172.193152, 362968.549763 6689137.095397, 363044.882949 6689022.600674, 363055.153176 6689006.607513, 363066.045347 6688996.856024, 363067.230899 6688992.943169, 363069.543974 6688983.280265)

LINESTRING (362771.100323 6689392.671355, 362782.144740 6689393.024225, 362800.155765 6689395.567070, 362819.542346 6689394.702681, 362839.587222 6689399.276007, 362861.914067 6689425.089176, 362879.413891 6689448.709814, 362903.281256 6689460.240620, 362936.054286 6689459.976330, 362963.809128 6689444.940940, 362979.946807 6689443.999039, 363000.197498 6689450.382562, 363011.569362 6689460.912845, 363018.861188 6689473.369185, 363019.513557 6689474.983357, 363022.913695 6689483.350002, 363024.419481 6689487.072431, 363038.903221 6689509.335760, 363053.832669 6689527.725247, 363065.830118 6689547.105757, 363072.700007 6689572.018952, 363084.427214 6689592.011657, 363096.333508 6689605.743771, 363109.549404 6689624.309382)

LINESTRING (362771.100323 6689392.671355, 362758.782282 6689386.402463, 362751.235267 6689380.845552, 362739.878817 6689370.605293, 362737.168466 6689357.675713, 362724.964967 6689340.812198, 362714.725531 6689329.259038)

LINESTRING (362310.238481 6689104.455169, 362285.695529 6689098.572118)

LINESTRING (362310.238481 6689104.455169, 362314.341022 6689126.517695, 362321.565299 6689152.899014, 362321.915428 6689170.053474, 362324.173026 6689176.233194, 362329.922575 6689193.451016, 362331.540363 6689204.939019, 362337.879069 6689215.657667, 362350.362516 6689224.070482, 362354.518469 6689235.707776, 362355.418751 6689255.862501, 362353.821431 6689276.356914, 362358.616412 6689293.343314, 362367.156201 6689299.541936, 362378.662957 6689297.925247, 362390.317337 6689302.846803, 362403.135189 6689309.731032, 362420.199250 6689313.823933, 362435.126528 6689308.343625, 362445.132435 6689298.177727, 362457.783162 6689290.542822, 362482.941337 6689273.818199, 362506.197539 6689267.488486, 362519.868988 6689264.619973, 362535.420049 6689270.085999, 362548.482307 6689278.176613, 362569.194068 6689276.803828, 362589.566225 6689282.255297, 362609.531569 6689292.460052, 362626.467889 6689308.999693, 362640.817340 6689319.706375, 362659.124229 6689324.801379, 362677.852149 6689336.368613, 362704.986203 6689339.324927, 362714.725531 6689329.259038)

LINESTRING (362310.238481 6689104.455169, 362334.524605 6689102.232454, 362356.332067 6689100.560674, 362372.305833 6689090.559150, 362388.543715 6689072.766522, 362413.044623 6689061.149741, 362428.319075 6689053.560545, 362443.832862 6689060.354231, 362463.440994 6689079.211332, 362477.379212 6689088.071284, 362480.386373 6689106.195547, 362485.440283 6689127.999321, 362489.621676 6689145.443809, 362504.125564 6689155.965805, 362523.551407 6689163.280926, 362549.597171 6689150.993585, 362577.254287 6689134.364852, 362590.056342 6689131.596334, 362606.024554 6689120.704243, 362620.233361 6689114.181672, 362636.348918 6689097.810588, 362655.983480 6689054.663575, 362702.618272 6689008.647859, 362755.566398 6688929.687203, 362768.687118 6688893.096113, 362779.057804 6688876.853100, 362782.816778 6688850.692512, 362781.562741 6688831.944613, 362789.545235 6688788.568770, 362789.499957 6688756.108145, 362790.395691 6688735.997243, 362791.006660 6688718.895826, 362795.469195 6688703.912274, 362810.802425 6688686.668612, 362821.392796 6688665.077704, 362833.509459 6688642.158492)

LINESTRING (362604.822365 6688472.861363, 362628.352968 6688454.750278, 362638.098073 6688449.466493, 362659.002172 6688442.803148)

LINESTRING (362604.822365 6688472.861363, 362587.313048 6688473.332524, 362574.930795 6688475.416222, 362566.003430 6688479.208959, 362559.884240 6688483.988214, 362557.692154 6688488.920246, 362559.077991 6688497.942256, 362565.116214 6688511.827482, 362572.091189 6688524.596027, 362577.362831 6688528.722428, 362581.514742 6688529.557898, 362585.585576 6688528.244905, 362591.875430 6688524.618623, 362596.366167 6688516.991290, 362597.428822 6688506.750953, 362596.206424 6688494.289244, 362597.062438 6688485.461329, 362600.054348 6688479.005339, 362604.822365 6688472.861363)

LINESTRING (362604.822365 6688472.861363, 362600.054348 6688479.005339, 362597.062438 6688485.461329, 362596.206424 6688494.289244, 362597.428822 6688506.750953, 362596.366167 6688516.991290, 362591.875430 6688524.618623, 362585.585576 6688528.244905, 362581.514742 6688529.557898, 362577.362831 6688528.722428, 362572.091189 6688524.596027, 362565.116214 6688511.827482, 362559.077991 6688497.942256, 362557.692154 6688488.920246, 362559.884240 6688483.988214, 362566.003430 6688479.208959, 362574.930795 6688475.416222, 362587.313048 6688473.332524, 362604.822365 6688472.861363)

LINESTRING (362262.543984 6688493.528342, 362251.822813 6688503.844323, 362237.651398 6688514.915147, 362232.884045 6688526.176477, 362235.141397 6688538.331423, 362247.118616 6688550.988192, 362259.681390 6688557.926293, 362272.738976 6688572.537738, 362287.302997 6688569.512092, 362297.473173 6688571.100652, 362308.436389 6688566.895816, 362320.201134 6688564.288293, 362325.211053 6688564.411013, 362341.703805 6688560.320508, 362344.281122 6688545.251526, 362361.701089 6688536.131835, 362369.994199 6688533.711441, 362376.090219 6688532.132155, 362386.562641 6688515.081512, 362398.887106 6688503.423358, 362403.161611 6688492.571068, 362406.962746 6688475.337817)

LINESTRING (362262.543984 6688493.528342, 362296.653859 6688493.564906, 362336.200807 6688485.124541, 362362.235251 6688476.515303, 362406.962746 6688475.337817)

LINESTRING (362262.543984 6688493.528342, 362247.095822 6688484.447503, 362228.843960 6688479.619803, 362218.335561 6688448.781087, 362211.025738 6688441.086950, 362213.143223 6688422.646305, 362217.615903 6688418.943203, 362218.890824 6688404.837517, 362227.610913 6688394.106651, 362224.599529 6688389.215193, 362214.022250 6688388.868478, 362207.978842 6688377.079752, 362207.264471 6688347.821358, 362198.964346 6688340.710950, 362196.717912 6688323.148894, 362195.519791 6688307.564933, 362200.918186 6688286.224320, 362198.933224 6688278.495928, 362201.196710 6688260.841257, 362201.297194 6688253.702827, 362206.655760 6688245.339842, 362209.221158 6688224.552357, 362206.999702 6688200.924919, 362211.569405 6688193.784615, 362209.584975 6688183.146607, 362212.036051 6688172.931621, 362209.403787 6688167.100552, 362219.618235 6688145.265639, 362215.794585 6688135.722811, 362220.038416 6688128.884696, 362223.164568 6688127.885751, 362229.595095 6688119.047496, 362232.497842 6688104.099903, 362242.480106 6688078.896057, 362256.569707 6688057.862268, 362278.423249 6688037.348742, 362292.140495 6688034.399836, 362305.245840 6688021.117777)

LINESTRING (362387.191275 6688059.223006, 362377.523462 6688068.183284, 362374.786586 6688076.558392, 362382.226609 6688094.570838, 362382.399069 6688099.134931, 362385.413495 6688103.814593)

LINESTRING (362387.191275 6688059.223006, 362395.620831 6688065.069257, 362401.597793 6688069.101908)

LINESTRING (362387.191275 6688059.223006, 362377.794974 6688046.969859, 362365.489871 6688042.496362, 362353.066096 6688034.883702, 362333.786217 6688025.155738, 362326.969290 6688024.075674, 362317.800659 6688025.169168, 362309.629650 6688023.973108, 362305.245840 6688021.117777)

LINESTRING (362168.789263 6687999.357181, 362125.575997 6688025.350859)

LINESTRING (362168.789263 6687999.357181, 362190.521316 6687975.926983)

LINESTRING (362168.789263 6687999.357181, 362158.838927 6688029.052618, 362143.272627 6688061.480076, 362133.233002 6688079.161587, 362130.032666 6688105.379886, 362110.962960 6688128.386419, 362102.016578 6688142.938684, 362104.269807 6688152.340206, 362102.966631 6688168.030011, 362103.593819 6688184.594294, 362104.310365 6688203.518544, 362105.475388 6688234.287147, 362079.468150 6688274.612834, 362075.482184 6688294.673900, 362064.023598 6688305.531158, 362053.174359 6688307.357885)

LINESTRING (362217.242169 6687979.375180, 362225.162943 6687982.141205, 362239.103596 6687986.117617, 362257.737457 6687986.795191, 362270.082598 6687995.536450, 362280.128166 6687998.322571)

LINESTRING (362217.242169 6687979.375180, 362213.154678 6687976.898919, 362204.826635 6687973.457161, 362190.521316 6687975.926983)

LINESTRING (361501.074887 6688927.784079, 361477.089936 6688929.231638)

LINESTRING (361501.074887 6688927.784079, 361500.803704 6688922.108925, 361503.387169 6688915.879264, 361526.309082 6688880.225736, 361537.634533 6688870.174324, 361549.679772 6688856.071164, 361556.399872 6688844.890628, 361564.891374 6688815.861749, 361564.307919 6688808.225279, 361574.183187 6688791.005255, 361619.826940 6688737.042097, 361625.818931 6688704.652530, 361629.369348 6688684.562770, 361633.075386 6688674.388781, 361639.226187 6688659.562388)

LINESTRING (361501.074887 6688927.784079, 361502.128073 6688930.174275, 361505.130494 6688936.994109, 361530.907607 6688961.876976, 361536.371872 6688972.939765, 361545.227508 6688990.874520, 361560.707818 6689012.581804, 361564.995133 6689018.583612, 361572.644353 6689022.829995, 361586.336438 6689026.891245, 361615.387276 6689026.779089, 361628.193241 6689033.427057, 361641.027420 6689049.549762, 361653.940484 6689076.483029, 361675.467211 6689105.987522)

LINESTRING (361477.089936 6688929.231638, 361501.074887 6688927.784079)

LINESTRING (361477.089936 6688929.231638, 361471.059185 6688929.594866, 361459.498943 6688926.344744, 361452.980674 6688925.377646, 361440.960427 6688913.237843, 361432.710676 6688908.189621)

LINESTRING (361477.089936 6688929.231638, 361459.851784 6688935.617589, 361422.003953 6688954.537984, 361400.789419 6688958.299725, 361378.072550 6688946.132562, 361379.287872 6688931.281750, 361381.431550 6688909.584168, 361371.906606 6688898.063050)

LINESTRING (361639.226187 6688659.562388, 361657.936910 6688656.811393, 361678.542334 6688646.864983, 361688.014056 6688632.826666, 361706.803608 6688597.342583, 361708.148738 6688594.314997)

LINESTRING (361639.226187 6688659.562388, 361645.344077 6688648.817408, 361651.512336 6688639.397133, 361660.128560 6688631.812462, 361670.385416 6688624.611405, 361678.334798 6688619.125631, 361689.266827 6688613.972501, 361699.034484 6688601.606318, 361703.041709 6688597.753007, 361708.148738 6688594.314997)

LINESTRING (361639.226187 6688659.562388, 361633.075386 6688674.388781, 361629.369348 6688684.562770, 361625.818931 6688704.652530, 361619.826940 6688737.042097, 361574.183187 6688791.005255, 361564.307919 6688808.225279, 361564.891374 6688815.861749, 361556.399872 6688844.890628, 361549.679772 6688856.071164, 361537.634533 6688870.174324, 361526.309082 6688880.225736, 361503.387169 6688915.879264, 361500.803704 6688922.108925, 361501.074887 6688927.784079)

LINESTRING (361675.467211 6689105.987522, 361687.802764 6689129.375486, 361689.156671 6689135.901342, 361691.027859 6689173.510340, 361689.147063 6689193.871072, 361683.626832 6689210.133856, 361655.388633 6689241.194845, 361649.073336 6689264.176685, 361620.618821 6689298.256155, 361618.230139 6689309.606402, 361619.042386 6689332.428862, 361632.858992 6689362.783550, 361651.839832 6689395.171605, 361666.798341 6689426.486317, 361672.506268 6689442.969064)

LINESTRING (361675.467211 6689105.987522, 361709.435733 6689091.230352, 361733.224275 6689056.537406, 361753.312342 6689039.431681, 361754.749631 6689019.756728, 361786.212593 6688985.876428, 361804.518179 6688957.779936)

LINESTRING (361675.467211 6689105.987522, 361653.940484 6689076.483029, 361641.027420 6689049.549762, 361628.193241 6689033.427057, 361615.387276 6689026.779089, 361586.336438 6689026.891245, 361572.644353 6689022.829995, 361564.995133 6689018.583612, 361560.707818 6689012.581804, 361545.227508 6688990.874520, 361536.371872 6688972.939765, 361530.907607 6688961.876976, 361505.130494 6688936.994109, 361502.128073 6688930.174275, 361501.074887 6688927.784079)

LINESTRING (361352.056019 6688861.840991, 361338.957944 6688844.213132)

LINESTRING (361352.056019 6688861.840991, 361366.661550 6688894.806878, 361371.906606 6688898.063050)

LINESTRING (361352.056019 6688861.840991, 361356.974950 6688864.373795, 361387.742992 6688863.425291, 361397.020159 6688867.419841, 361407.511896 6688870.342565, 361411.505327 6688879.800128, 361416.127915 6688893.001768, 361427.937177 6688905.261006, 361432.710676 6688908.189621)

LINESTRING (361338.957944 6688844.213132, 361352.056019 6688861.840991)

LINESTRING (361371.906606 6688898.063050, 361366.661550 6688894.806878, 361352.056019 6688861.840991)

LINESTRING (361371.906606 6688898.063050, 361395.264579 6688912.535715, 361413.572203 6688916.665899, 361432.710676 6688908.189621)

LINESTRING (361371.906606 6688898.063050, 361381.431550 6688909.584168, 361379.287872 6688931.281750, 361378.072550 6688946.132562, 361400.789419 6688958.299725, 361422.003953 6688954.537984, 361459.851784 6688935.617589, 361477.089936 6688929.231638)

LINESTRING (361432.710676 6688908.189621, 361413.572203 6688916.665899, 361395.264579 6688912.535715, 361371.906606 6688898.063050)

LINESTRING (361432.710676 6688908.189621, 361440.960427 6688913.237843, 361452.980674 6688925.377646, 361459.498943 6688926.344744, 361471.059185 6688929.594866, 361477.089936 6688929.231638)

LINESTRING (361432.710676 6688908.189621, 361427.937177 6688905.261006, 361416.127915 6688893.001768, 361411.505327 6688879.800128, 361407.511896 6688870.342565, 361397.020159 6688867.419841, 361387.742992 6688863.425291, 361356.974950 6688864.373795, 361352.056019 6688861.840991)

LINESTRING (361869.748329 6688402.947619, 361889.120232 6688387.988143, 361906.860589 6688355.086780, 361925.712923 6688326.413008, 361940.501300 6688294.705113, 361957.921448 6688284.557895, 361971.638317 6688280.314583, 361981.810132 6688277.833268, 361985.723507 6688276.302620, 361994.324022 6688272.933318, 361996.798673 6688271.970006)

LINESTRING (361869.748329 6688402.947619, 361862.328320 6688432.614973, 361839.747473 6688485.733049, 361832.522461 6688492.539857, 361817.786956 6688506.498791, 361813.530465 6688522.590694, 361808.252953 6688533.637899, 361806.002546 6688541.961618, 361805.925045 6688548.809384)

LINESTRING (361869.748329 6688402.947619, 361863.396575 6688396.912280, 361837.698021 6688374.130979)

LINESTRING (361996.798673 6688271.970006, 362012.025800 6688262.329783)

LINESTRING (361996.798673 6688271.970006, 361999.709058 6688323.229192, 361987.221896 6688351.159664, 361985.786686 6688373.710502, 361981.235771 6688399.132959, 361986.641785 6688431.736323, 361996.774924 6688446.780980, 362003.706062 6688467.821939, 362003.376116 6688484.656612)

LINESTRING (361996.798673 6688271.970006, 361994.324022 6688272.933318, 361985.723507 6688276.302620, 361981.810132 6688277.833268, 361971.638317 6688280.314583, 361957.921448 6688284.557895, 361940.501300 6688294.705113, 361925.712923 6688326.413008, 361906.860589 6688355.086780, 361889.120232 6688387.988143, 361869.748329 6688402.947619)

LINESTRING (361805.925045 6688548.809384, 361806.002546 6688541.961618, 361808.252953 6688533.637899, 361813.530465 6688522.590694, 361817.786956 6688506.498791, 361832.522461 6688492.539857, 361839.747473 6688485.733049, 361862.328320 6688432.614973, 361869.748329 6688402.947619)

LINESTRING (361805.925045 6688548.809384, 361810.863303 6688548.644273, 361824.361442 6688554.408333, 361834.384610 6688559.401309, 361836.434451 6688559.200905, 361865.459823 6688556.282618, 361870.093470 6688556.106847, 361873.042610 6688558.035046, 361885.689582 6688553.319132, 361894.743893 6688548.226715, 361916.703879 6688533.715439, 361951.264949 6688512.684410, 361957.445295 6688513.185878)

LINESTRING (361805.925045 6688548.809384, 361798.195203 6688557.173843, 361789.284631 6688560.220982, 361779.494540 6688557.727564, 361769.604531 6688553.476592, 361755.400541 6688550.392735, 361753.141280 6688550.467359, 361750.881597 6688550.530853, 361748.297191 6688551.364737, 361745.222243 6688551.514927, 361733.623577 6688557.908313, 361720.699701 6688574.407502, 361714.810980 6688584.497052, 361708.148738 6688594.314997)

LINESTRING (361837.698021 6688374.130979, 361868.864655 6688343.049971, 361912.863399 6688318.661916)

LINESTRING (361837.698021 6688374.130979, 361826.307561 6688413.435934, 361791.254149 6688448.756160, 361759.090371 6688492.283415, 361736.299785 6688506.470460, 361718.318088 6688527.275280, 361683.345240 6688521.123252, 361610.322586 6688484.333586)

LINESTRING (361837.698021 6688374.130979, 361863.396575 6688396.912280, 361869.748329 6688402.947619)

LINESTRING (362012.025800 6688262.329783, 361996.798673 6688271.970006)

LINESTRING (362012.025800 6688262.329783, 362044.290000 6688285.565885, 362047.127034 6688298.111260, 362053.174359 6688307.357885)

LINESTRING (362012.025800 6688262.329783, 362018.989951 6688244.675217, 362021.735441 6688229.398926, 362005.899113 6688187.347139)

LINESTRING (362053.174359 6688307.357885, 362064.023598 6688305.531158, 362075.482184 6688294.673900, 362079.468150 6688274.612834, 362105.475388 6688234.287147, 362104.310365 6688203.518544, 362103.593819 6688184.594294, 362102.966631 6688168.030011, 362104.269807 6688152.340206, 362102.016578 6688142.938684, 362110.962960 6688128.386419, 362130.032666 6688105.379886, 362133.233002 6688079.161587, 362143.272627 6688061.480076, 362158.838927 6688029.052618, 362168.789263 6687999.357181)

LINESTRING (362053.174359 6688307.357885, 362047.127034 6688298.111260, 362044.290000 6688285.565885, 362012.025800 6688262.329783)

LINESTRING (362053.174359 6688307.357885, 362043.909436 6688336.113652, 362050.291896 6688351.434319, 362054.356214 6688361.190828, 362049.292300 6688387.100818, 362050.067969 6688423.491570, 362028.535794 6688453.704292, 362011.098274 6688472.424593, 362003.376116 6688484.656612)

LINESTRING (362005.899113 6688187.347139, 361986.603894 6688249.179882, 361959.713426 6688258.872109, 361938.828980 6688276.708917, 361912.863399 6688318.661916)

LINESTRING (362005.899113 6688187.347139, 362005.540164 6688177.873890, 362013.436367 6688152.112938, 362031.780527 6688118.587449, 362048.179293 6688091.668413)

LINESTRING (362005.899113 6688187.347139, 362021.735441 6688229.398926, 362018.989951 6688244.675217, 362012.025800 6688262.329783)

LINESTRING (362003.376116 6688484.656612, 361996.541438 6688495.494973, 361985.904210 6688504.359366, 361969.584341 6688508.779369, 361957.445295 6688513.185878)

LINESTRING (362003.376116 6688484.656612, 362011.098274 6688472.424593, 362028.535794 6688453.704292, 362050.067969 6688423.491570, 362049.292300 6688387.100818, 362054.356214 6688361.190828, 362050.291896 6688351.434319, 362043.909436 6688336.113652, 362053.174359 6688307.357885)

LINESTRING (362003.376116 6688484.656612, 362003.706062 6688467.821939, 361996.774924 6688446.780980, 361986.641785 6688431.736323, 361981.235771 6688399.132959, 361985.786686 6688373.710502, 361987.221896 6688351.159664, 361999.709058 6688323.229192, 361996.798673 6688271.970006)

LINESTRING (361912.863399 6688318.661916, 361938.828980 6688276.708917, 361959.713426 6688258.872109, 361986.603894 6688249.179882, 362005.899113 6688187.347139)

LINESTRING (361912.863399 6688318.661916, 361868.864655 6688343.049971, 361837.698021 6688374.130979)

LINESTRING (361912.863399 6688318.661916, 361901.080770 6688317.313897, 361889.192884 6688322.524877, 361878.825895 6688317.522469, 361869.981705 6688319.128779, 361859.349076 6688318.060565, 361846.084281 6688317.738814, 361837.956235 6688318.247835, 361814.716984 6688326.041284, 361786.271005 6688338.881840, 361741.969376 6688368.232657, 361700.215422 6688383.964846, 361680.018278 6688410.818117, 361659.263688 6688439.732766, 361652.677574 6688445.735314)

LINESTRING (362048.179293 6688091.668413, 362057.514645 6688086.365165, 362064.543096 6688077.548548, 362085.696888 6688062.979829, 362097.338515 6688058.102160, 362107.237225 6688054.817777, 362116.580085 6688040.941697, 362125.575997 6688025.350859)

LINESTRING (362048.179293 6688091.668413, 362031.780527 6688118.587449, 362013.436367 6688152.112938, 362005.540164 6688177.873890, 362005.899113 6688187.347139)

LINESTRING (362048.179293 6688091.668413, 362059.965149 6688058.179708, 362069.833222 6688040.649400, 362075.499678 6688024.493352, 362085.392903 6688005.869652)

LINESTRING (362125.575997 6688025.350859, 362168.789263 6687999.357181)

LINESTRING (362125.575997 6688025.350859, 362099.907285 6688019.444422, 362085.392903 6688005.869652)

LINESTRING (362125.575997 6688025.350859, 362116.580085 6688040.941697, 362107.237225 6688054.817777, 362097.338515 6688058.102160, 362085.696888 6688062.979829, 362064.543096 6688077.548548, 362057.514645 6688086.365165, 362048.179293 6688091.668413)

LINESTRING (363413.926859 6689586.945710, 363386.478285 6689592.769290, 363347.038501 6689603.335102)

LINESTRING (363413.926859 6689586.945710, 363429.163457 6689602.972937, 363436.343418 6689613.672890, 363439.456022 6689621.036219, 363440.528207 6689630.014482, 363441.372442 6689638.811785, 363441.565624 6689651.624390, 363443.094391 6689661.867509, 363458.738464 6689688.915771, 363481.337511 6689719.058682, 363484.388910 6689722.288543)

LINESTRING (363484.388910 6689722.288543, 363431.558598 6689708.217685, 363420.116961 6689702.404282, 363391.479436 6689683.301619, 363379.264095 6689671.609090, 363364.638136 6689650.197103, 363359.433580 6689639.690672, 363347.038501 6689603.335102)

LINESTRING (363484.388910 6689722.288543, 363481.337511 6689719.058682, 363458.738464 6689688.915771, 363443.094391 6689661.867509, 363441.565624 6689651.624390, 363441.372442 6689638.811785, 363440.528207 6689630.014482, 363439.456022 6689621.036219, 363436.343418 6689613.672890, 363429.163457 6689602.972937, 363413.926859 6689586.945710)

LINESTRING (363484.388910 6689722.288543, 363499.500958 6689741.798775, 363512.040246 6689750.057190, 363539.331877 6689775.910962, 363552.948222 6689786.949491, 363573.073946 6689801.734942, 363587.347485 6689814.677505, 363601.474720 6689830.947610, 363616.932573 6689842.452436, 363624.712097 6689853.687633, 363628.573146 6689859.350903, 363632.929610 6689870.859291, 363634.931652 6689881.207355, 363636.325318 6689898.779611, 363642.199243 6689923.050977, 363650.817056 6689943.239835, 363664.218206 6689964.498063, 363672.787300 6689985.457978, 363675.764844 6690001.633192)

LINESTRING (362532.865525 6688035.874088, 362522.938988 6688040.774777, 362516.775110 6688047.027264, 362511.554879 6688054.392363, 362506.720956 6688063.638014, 362505.730307 6688070.364097)

LINESTRING (363062.171098 6688352.807581, 363038.370920 6688371.026194, 363016.228648 6688394.789922, 362992.188815 6688410.888659)

LINESTRING (363062.171098 6688352.807581, 363090.884935 6688420.409096, 363095.150612 6688464.728149, 363095.810328 6688470.801153)

LINESTRING (363062.171098 6688352.807581, 363066.871279 6688348.071422, 363070.449364 6688331.438246, 363077.509626 6688317.684036, 363097.707761 6688305.152680, 363099.337597 6688304.221888, 363119.990126 6688287.147609, 363122.601909 6688261.131000, 363135.284802 6688244.947202, 363169.010928 6688200.426767, 363194.629814 6688172.709822, 363214.316373 6688147.556899, 363245.247752 6688097.791341, 363252.705674 6688088.704630, 363287.661730 6688059.188646, 363296.203661 6688049.503960, 363313.334063 6688024.001682, 363317.852684 6688016.028725, 363321.403161 6688003.187126, 363321.516894 6687978.212051)

LINESTRING (363095.810328 6688470.801153, 363095.150612 6688464.728149, 363090.884935 6688420.409096, 363062.171098 6688352.807581)

LINESTRING (363095.810328 6688470.801153, 363106.372015 6688471.630346, 363107.847225 6688472.031946, 363122.248852 6688475.994266, 363139.886712 6688476.446104, 363143.572335 6688477.533837, 363147.170180 6688477.610429, 363149.411046 6688480.725610, 363156.249938 6688490.222857)

LINESTRING (363095.810328 6688470.801153, 363087.664419 6688470.382809, 363074.424706 6688465.552001, 363056.542913 6688452.144838)

LINESTRING (363321.516894 6687978.212051, 363317.748449 6687967.116608)

LINESTRING (363321.516894 6687978.212051, 363328.822984 6687981.282189, 363336.602064 6687982.216533, 363349.634676 6687980.166864, 363356.597730 6687981.466297, 363376.201410 6687995.334327, 363383.952891 6688005.856804, 363392.841149 6688012.769402, 363414.374190 6688021.749464, 363442.671995 6688024.534298, 363468.407331 6688030.380685, 363500.346823 6688043.407912, 363513.601235 6688055.842458, 363523.874246 6688061.488370, 363533.463177 6688064.083190, 363556.114925 6688058.797742, 363566.289536 6688061.080867, 363589.326922 6688097.841237, 363595.858656 6688107.718657, 363605.705985 6688115.298124, 363612.633460 6688125.996822, 363619.317031 6688130.183297, 363631.081956 6688127.379454, 363653.412095 6688113.511813, 363667.307681 6688096.403948, 363687.552904 6688080.764072, 363697.075379 6688073.607628, 363707.351283 6688070.324685, 363736.419698 6688066.673046, 363755.152343 6688058.938083, 363764.889882 6688049.689177, 363775.362363 6688043.968898, 363790.440503 6688039.971496)

LINESTRING (363321.516894 6687978.212051, 363321.403161 6688003.187126, 363317.852684 6688016.028725, 363313.334063 6688024.001682, 363296.203661 6688049.503960, 363287.661730 6688059.188646, 363252.705674 6688088.704630, 363245.247752 6688097.791341, 363214.316373 6688147.556899, 363194.629814 6688172.709822, 363169.010928 6688200.426767, 363135.284802 6688244.947202, 363122.601909 6688261.131000, 363119.990126 6688287.147609, 363099.337597 6688304.221888, 363097.707761 6688305.152680, 363077.509626 6688317.684036, 363070.449364 6688331.438246, 363066.871279 6688348.071422, 363062.171098 6688352.807581)

LINESTRING (363317.748449 6687967.116608, 363321.516894 6687978.212051)

LINESTRING (363317.748449 6687967.116608, 363324.520058 6687932.505342, 363332.411497 6687920.805147, 363349.410483 6687895.609005, 363372.882366 6687861.140529)

LINESTRING (363317.748449 6687967.116608, 363311.088264 6687961.213034, 363305.421594 6687959.084692, 363295.904117 6687958.995997, 363288.827768 6687962.048526, 363267.689822 6687975.104469, 363246.464832 6687991.731072, 363224.696304 6688001.243695, 363209.156391 6688004.279802, 363189.846337 6688002.664083, 363141.183766 6688017.758106, 363125.720981 6688019.899861, 363114.429404 6688016.756959, 363104.507842 6688010.329760, 363099.361678 6688004.391948, 363090.638531 6687975.401351, 363083.369025 6687967.425309, 363076.330492 6687964.122639, 363050.766618 6687960.959117, 363014.366899 6687952.072050, 363002.581253 6687950.508744, 362991.344578 6687947.364143, 362975.127137 6687938.275703, 362956.727073 6687934.397412, 362947.995369 6687934.614487, 362935.633195 6687938.312525, 362929.151339 6687942.458165, 362923.718008 6687952.416920, 362912.126311 6687973.643740, 362908.249055 6687977.914343, 362900.998177 6687982.200463, 362888.544770 6687982.000394, 362869.020617 6687974.709066, 362860.226131 6687973.256557, 362807.949808 6687968.759609, 362790.489303 6687972.204287, 362751.565432 6687988.831816, 362720.119742 6687996.928550, 362703.684997 6688005.128535)

LINESTRING (363372.882366 6687861.140529, 363375.283678 6687857.616972, 363388.564418 6687831.936248, 363390.734749 6687816.058603)

LINESTRING (363372.882366 6687861.140529, 363349.410483 6687895.609005, 363332.411497 6687920.805147, 363324.520058 6687932.505342, 363317.748449 6687967.116608)

LINESTRING (363372.882366 6687861.140529, 363391.071366 6687858.808431, 363414.896105 6687861.170056, 363444.891085 6687861.829007, 363471.803002 6687859.337505, 363492.389852 6687854.418961, 363504.326139 6687848.342067, 363517.973622 6687832.424606, 363530.654299 6687814.469963, 363546.738526 6687800.244948, 363561.486319 6687789.916007, 363568.483646 6687778.684628, 363571.099964 6687764.797002)

LINESTRING (362703.684997 6688005.128535, 362706.128850 6688014.344803, 362673.689362 6688057.985097, 362667.164694 6688063.916489, 362661.827172 6688066.124359, 362653.104162 6688066.564783, 362602.807187 6688048.239808, 362598.192145 6688045.259088, 362595.602543 6688043.182966, 362591.642095 6688042.451707, 362584.801936 6688044.270470, 362580.620940 6688044.584291, 362576.375363 6688043.919546, 362567.435157 6688043.443102, 362559.845857 6688044.465244, 362556.446378 6688045.407320, 362523.272236 6688062.645337, 362511.157629 6688064.529567, 362508.434212 6688066.382584, 362505.730307 6688070.364097)

LINESTRING (362703.684997 6688005.128535, 362720.119742 6687996.928550, 362751.565432 6687988.831816, 362790.489303 6687972.204287, 362807.949808 6687968.759609, 362860.226131 6687973.256557, 362869.020617 6687974.709066, 362888.544770 6687982.000394, 362900.998177 6687982.200463, 362908.249055 6687977.914343, 362912.126311 6687973.643740, 362923.718008 6687952.416920, 362929.151339 6687942.458165, 362935.633195 6687938.312525, 362947.995369 6687934.614487, 362956.727073 6687934.397412, 362975.127137 6687938.275703, 362991.344578 6687947.364143, 363002.581253 6687950.508744, 363014.366899 6687952.072050, 363050.766618 6687960.959117, 363076.330492 6687964.122639, 363083.369025 6687967.425309, 363090.638531 6687975.401351, 363099.361678 6688004.391948, 363104.507842 6688010.329760, 363114.429404 6688016.756959, 363125.720981 6688019.899861, 363141.183766 6688017.758106, 363189.846337 6688002.664083, 363209.156391 6688004.279802, 363224.696304 6688001.243695, 363246.464832 6687991.731072, 363267.689822 6687975.104469, 363288.827768 6687962.048526, 363295.904117 6687958.995997, 363305.421594 6687959.084692, 363311.088264 6687961.213034, 363317.748449 6687967.116608)

LINESTRING (362703.684997 6688005.128535, 362689.726764 6687996.558155, 362680.995093 6687969.631035)

LINESTRING (362680.995093 6687969.631035, 362689.726764 6687996.558155, 362703.684997 6688005.128535)

LINESTRING (362680.995093 6687969.631035, 362698.140283 6687936.399712, 362719.601306 6687923.149840, 362748.824369 6687863.979791, 362766.108806 6687820.465366, 362802.877837 6687796.071234, 362835.555061 6687755.845709, 362864.549977 6687753.561151, 362899.071628 6687740.411557, 362960.592128 6687715.433143, 362991.992304 6687683.696019)

LINESTRING (362680.995093 6687969.631035, 362671.842766 6687970.867934, 362664.124748 6687966.867054, 362649.233670 6687969.357150, 362638.058278 6687968.139880, 362632.330871 6687969.693623, 362610.924102 6687964.570436, 362599.689405 6687965.741146, 362589.960236 6687975.293970, 362585.265430 6687976.652763, 362576.934024 6687972.084373, 362571.057942 6687961.927491, 362565.206234 6687956.228816, 362577.178811 6687919.635916, 362559.111822 6687881.211168, 362563.107751 6687871.149996, 362570.334927 6687868.291009, 362570.327284 6687856.653001, 362560.555969 6687849.262834, 362563.402213 6687833.214091, 362564.817366 6687824.978214, 362584.692633 6687802.679650, 362585.741657 6687796.174356, 362580.726172 6687789.039477, 362582.548721 6687768.726332, 362588.342883 6687762.042025, 362586.757974 6687754.342956, 362584.866849 6687750.111254, 362588.986261 6687744.783274)

LINESTRING (362110.431474 6688985.577986, 362099.072812 6688992.005755, 362091.746271 6689001.078949, 362077.325141 6689045.782029, 362068.724648 6689068.225273, 362067.048123 6689086.883479, 362068.910315 6689102.464572, 362075.789736 6689122.905584, 362079.106659 6689137.038083, 362079.420904 6689151.317779, 362076.524787 6689187.702748, 362067.993819 6689207.445592, 362051.067754 6689233.727094, 362027.630467 6689265.472673, 362013.800029 6689283.543675, 362004.685933 6689305.538383, 361998.076693 6689332.488169, 361998.236266 6689362.369669, 361996.105226 6689390.755004, 361986.809607 6689420.493315, 361974.836758 6689433.867697, 361961.889623 6689443.856656, 361951.795987 6689453.269238, 361941.210508 6689472.310014, 361931.530462 6689499.766611, 361927.685863 6689526.689753, 361924.068523 6689553.771501, 361915.299921 6689577.113447, 361896.498799 6689613.500095, 361866.448774 6689653.156455, 361846.692287 6689671.631479, 361826.186676 6689688.719270, 361806.549857 6689698.394259, 361773.041875 6689704.894979, 361739.501453 6689713.013699, 361718.725840 6689715.408226, 361698.477176 6689718.574356, 361662.341219 6689733.024139)

LINESTRING (362110.431474 6688985.577986, 362124.530075 6688955.412981, 362128.740749 6688937.071333, 362127.349538 6688915.374496, 362124.999395 6688878.285303, 362124.489054 6688854.147169, 362127.213519 6688837.299884, 362129.095344 6688825.802049, 362126.598915 6688813.912608, 362115.541590 6688800.273845, 362103.581734 6688797.560775, 362092.596249 6688793.707198, 362084.656288 6688786.304745, 362081.782142 6688774.084049, 362070.723280 6688757.346354, 362062.447516 6688744.148615, 362053.220759 6688736.360203, 362045.983964 6688732.487364, 362028.846070 6688733.682959, 362016.629471 6688728.872936, 362013.721117 6688727.723438, 362011.022618 6688726.565989, 362008.500072 6688723.484436)

LINESTRING (362110.431474 6688985.577986, 362112.050684 6689000.588604, 362132.384607 6689025.703944, 362142.777216 6689039.769219, 362155.826289 6689052.284717, 362170.048893 6689060.597671, 362190.345830 6689072.337249, 362215.384614 6689089.850436, 362233.217172 6689094.927895, 362255.058030 6689096.475980, 362285.695529 6689098.572118)

LINESTRING (361662.341219 6689733.024139, 361683.465464 6689696.302593, 361694.412832 6689677.380986, 361713.378912 6689657.039972, 361731.209930 6689644.657234, 361741.434265 6689634.347183, 361754.157918 6689587.934347, 361756.212518 6689569.239234, 361755.845718 6689553.757510, 361753.156239 6689535.354051, 361750.511482 6689528.319807, 361739.174053 6689513.700675, 361708.139030 6689492.918110, 361689.708525 6689477.899716, 361680.587290 6689466.317972, 361672.506268 6689442.969064)

LINESTRING (361662.341219 6689733.024139, 361625.511730 6689749.585331, 361608.916771 6689767.116593)

LINESTRING (361662.341219 6689733.024139, 361698.477176 6689718.574356, 361718.725840 6689715.408226, 361739.501453 6689713.013699, 361773.041875 6689704.894979, 361806.549857 6689698.394259, 361826.186676 6689688.719270, 361846.692287 6689671.631479, 361866.448774 6689653.156455, 361896.498799 6689613.500095, 361915.299921 6689577.113447, 361924.068523 6689553.771501, 361927.685863 6689526.689753, 361931.530462 6689499.766611, 361941.210508 6689472.310014, 361951.795987 6689453.269238, 361961.889623 6689443.856656, 361974.836758 6689433.867697, 361986.809607 6689420.493315, 361996.105226 6689390.755004, 361998.236266 6689362.369669, 361998.076693 6689332.488169, 362004.685933 6689305.538383, 362013.800029 6689283.543675, 362027.630467 6689265.472673, 362051.067754 6689233.727094, 362067.993819 6689207.445592, 362076.524787 6689187.702748, 362079.420904 6689151.317779, 362079.106659 6689137.038083, 362075.789736 6689122.905584, 362068.910315 6689102.464572, 362067.048123 6689086.883479, 362068.724648 6689068.225273, 362077.325141 6689045.782029, 362091.746271 6689001.078949, 362099.072812 6688992.005755, 362110.431474 6688985.577986)

LINESTRING (362008.500072 6688723.484436, 361975.214810 6688736.105726, 361960.385209 6688734.438318, 361953.965548 6688746.286667, 361942.099802 6688750.002886, 361901.377047 6688770.074992, 361883.297484 6688782.744760, 361869.236550 6688814.893655, 361846.105176 6688866.984824, 361829.367695 6688886.147804, 361829.987419 6688902.478296, 361822.170503 6688926.742995, 361810.966698 6688947.881069, 361804.518179 6688957.779936)

LINESTRING (362008.500072 6688723.484436, 362006.913213 6688721.014001, 361996.731703 6688710.073608, 361995.782451 6688694.658599, 361994.097268 6688689.594436, 361994.289113 6688682.106925, 361988.302678 6688670.517048, 361985.556059 6688659.774246, 361987.322597 6688629.775184)

LINESTRING (362008.500072 6688723.484436, 362011.022618 6688726.565989, 362013.721117 6688727.723438, 362016.629471 6688728.872936, 362028.846070 6688733.682959, 362045.983964 6688732.487364, 362053.220759 6688736.360203, 362062.447516 6688744.148615, 362070.723280 6688757.346354, 362081.782142 6688774.084049, 362084.656288 6688786.304745, 362092.596249 6688793.707198, 362103.581734 6688797.560775, 362115.541590 6688800.273845, 362126.598915 6688813.912608, 362129.095344 6688825.802049, 362127.213519 6688837.299884, 362124.489054 6688854.147169, 362124.999395 6688878.285303, 362127.349538 6688915.374496, 362128.740749 6688937.071333, 362124.530075 6688955.412981, 362110.431474 6688985.577986)

LINESTRING (362285.695529 6689098.572118, 362310.238481 6689104.455169)

LINESTRING (362285.695529 6689098.572118, 362297.786037 6689060.323552, 362310.913270 6689038.367444, 362330.974620 6689014.053390, 362352.757109 6688999.127766, 362379.961418 6688963.485303, 362400.147229 6688931.173970, 362405.165301 6688901.966499, 362431.912245 6688858.136969, 362443.461056 6688833.442955, 362448.881819 6688825.713379)

LINESTRING (362285.695529 6689098.572118, 362255.058030 6689096.475980, 362233.217172 6689094.927895, 362215.384614 6689089.850436, 362190.345830 6689072.337249, 362170.048893 6689060.597671, 362155.826289 6689052.284717, 362142.777216 6689039.769219, 362132.384607 6689025.703944, 362112.050684 6689000.588604, 362110.431474 6688985.577986)

LINESTRING (361672.506268 6689442.969064, 361666.798341 6689426.486317, 361651.839832 6689395.171605, 361632.858992 6689362.783550, 361619.042386 6689332.428862, 361618.230139 6689309.606402, 361620.618821 6689298.256155, 361649.073336 6689264.176685, 361655.388633 6689241.194845, 361683.626832 6689210.133856, 361689.147063 6689193.871072, 361691.027859 6689173.510340, 361689.156671 6689135.901342, 361687.802764 6689129.375486, 361675.467211 6689105.987522)

LINESTRING (361672.506268 6689442.969064, 361680.587290 6689466.317972, 361689.708525 6689477.899716, 361708.139030 6689492.918110, 361739.174053 6689513.700675, 361750.511482 6689528.319807, 361753.156239 6689535.354051, 361755.845718 6689553.757510, 361756.212518 6689569.239234, 361754.157918 6689587.934347, 361741.434265 6689634.347183, 361731.209930 6689644.657234, 361713.378912 6689657.039972, 361694.412832 6689677.380986, 361683.465464 6689696.302593, 361662.341219 6689733.024139)

LINESTRING (361672.506268 6689442.969064, 361646.082032 6689511.663732, 361594.539127 6689598.526128, 361573.563199 6689670.982991, 361575.092324 6689711.191354, 361608.916771 6689767.116593)

LINESTRING (361608.916771 6689767.116593, 361602.930855 6689779.818782, 361595.913397 6689809.739249, 361558.200149 6689903.478871, 361552.517711 6689941.007348, 361546.587975 6689957.497839, 361524.962694 6689994.629584, 361517.572694 6690011.967203, 361515.739847 6690025.113546, 361518.155901 6690045.166049, 361521.466392 6690063.880203)

LINESTRING (361608.916771 6689767.116593, 361625.511730 6689749.585331, 361662.341219 6689733.024139)

LINESTRING (361608.916771 6689767.116593, 361575.092324 6689711.191354, 361573.563199 6689670.982991, 361594.539127 6689598.526128, 361646.082032 6689511.663732, 361672.506268 6689442.969064)

LINESTRING (361804.518179 6688957.779936, 361810.966698 6688947.881069, 361822.170503 6688926.742995, 361829.987419 6688902.478296, 361829.367695 6688886.147804, 361846.105176 6688866.984824, 361869.236550 6688814.893655, 361883.297484 6688782.744760, 361901.377047 6688770.074992, 361942.099802 6688750.002886, 361953.965548 6688746.286667, 361960.385209 6688734.438318, 361975.214810 6688736.105726, 362008.500072 6688723.484436)

LINESTRING (361804.518179 6688957.779936, 361786.212593 6688985.876428, 361754.749631 6689019.756728, 361753.312342 6689039.431681, 361733.224275 6689056.537406, 361709.435733 6689091.230352, 361675.467211 6689105.987522)

LINESTRING (361804.518179 6688957.779936, 361813.950171 6688988.312860, 361824.189028 6689039.817882, 361826.066483 6689056.501969, 361821.338215 6689073.838087, 361828.229160 6689113.486154)

LINESTRING (361987.322597 6688629.775184, 362017.388693 6688634.778233, 362037.724703 6688653.605673)

LINESTRING (361987.322597 6688629.775184, 361985.556059 6688659.774246, 361988.302678 6688670.517048, 361994.289113 6688682.106925, 361994.097268 6688689.594436, 361995.782451 6688694.658599, 361996.731703 6688710.073608, 362006.913213 6688721.014001, 362008.500072 6688723.484436)

LINESTRING (361987.322597 6688629.775184, 361985.253255 6688618.516204, 361980.511565 6688596.578498, 361975.067442 6688575.224817, 361967.026373 6688551.896072, 361963.530873 6688541.973170, 361962.654989 6688531.560790, 361963.300401 6688522.907851, 361961.529924 6688517.055430, 361957.445295 6688513.185878)

LINESTRING (362037.724703 6688653.605673, 362017.388693 6688634.778233, 361987.322597 6688629.775184)

LINESTRING (361957.445295 6688513.185878, 361951.264949 6688512.684410, 361916.703879 6688533.715439, 361894.743893 6688548.226715, 361885.689582 6688553.319132, 361873.042610 6688558.035046, 361870.093470 6688556.106847, 361865.459823 6688556.282618, 361836.434451 6688559.200905, 361834.384610 6688559.401309, 361824.361442 6688554.408333, 361810.863303 6688548.644273, 361805.925045 6688548.809384)

LINESTRING (361957.445295 6688513.185878, 361961.529924 6688517.055430, 361963.300401 6688522.907851, 361962.654989 6688531.560790, 361963.530873 6688541.973170, 361967.026373 6688551.896072, 361975.067442 6688575.224817, 361980.511565 6688596.578498, 361985.253255 6688618.516204, 361987.322597 6688629.775184)

LINESTRING (361957.445295 6688513.185878, 361969.584341 6688508.779369, 361985.904210 6688504.359366, 361996.541438 6688495.494973, 362003.376116 6688484.656612)

LINESTRING (361610.322586 6688484.333586, 361652.677574 6688445.735314)

LINESTRING (361610.322586 6688484.333586, 361683.345240 6688521.123252, 361718.318088 6688527.275280, 361736.299785 6688506.470460, 361759.090371 6688492.283415, 361791.254149 6688448.756160, 361826.307561 6688413.435934, 361837.698021 6688374.130979)

LINESTRING (361610.322586 6688484.333586, 361575.711715 6688485.102834, 361564.801214 6688475.116544)

LINESTRING (361652.677574 6688445.735314, 361610.322586 6688484.333586)

LINESTRING (361652.677574 6688445.735314, 361659.263688 6688439.732766, 361680.018278 6688410.818117, 361700.215422 6688383.964846, 361741.969376 6688368.232657, 361786.271005 6688338.881840, 361814.716984 6688326.041284, 361837.956235 6688318.247835, 361846.084281 6688317.738814, 361859.349076 6688318.060565, 361869.981705 6688319.128779, 361878.825895 6688317.522469, 361889.192884 6688322.524877, 361901.080770 6688317.313897, 361912.863399 6688318.661916)

LINESTRING (361652.677574 6688445.735314, 361631.221942 6688434.354649, 361595.422106 6688452.604262, 361564.801214 6688475.116544)

LINESTRING (361564.801214 6688475.116544, 361575.711715 6688485.102834, 361610.322586 6688484.333586)

LINESTRING (361564.801214 6688475.116544, 361595.422106 6688452.604262, 361631.221942 6688434.354649, 361652.677574 6688445.735314)

LINESTRING (361521.466392 6690063.880203, 361523.747047 6690069.913677)

LINESTRING (361521.466392 6690063.880203, 361518.155901 6690045.166049, 361515.739847 6690025.113546, 361517.572694 6690011.967203, 361524.962694 6689994.629584, 361546.587975 6689957.497839, 361552.517711 6689941.007348, 361558.200149 6689903.478871, 361595.913397 6689809.739249, 361602.930855 6689779.818782, 361608.916771 6689767.116593)

LINESTRING (361523.747047 6690069.913677, 361521.466392 6690063.880203)

LINESTRING (361523.747047 6690069.913677, 361524.657830 6690088.184037, 361523.728079 6690103.124289, 361516.059727 6690125.489118)

LINESTRING (361523.747047 6690069.913677, 361545.359027 6690094.062935, 361552.346112 6690107.408830)

LINESTRING (361516.059727 6690125.489118, 361560.401119 6690152.753450)

LINESTRING (361516.059727 6690125.489118, 361523.728079 6690103.124289, 361524.657830 6690088.184037, 361523.747047 6690069.913677)

LINESTRING (361516.059727 6690125.489118, 361528.463487 6690119.041823, 361536.412477 6690114.949065, 361552.346112 6690107.408830)

LINESTRING (361552.346112 6690107.408830, 361536.412477 6690114.949065, 361528.463487 6690119.041823, 361516.059727 6690125.489118)

LINESTRING (361552.346112 6690107.408830, 361557.657249 6690118.990219, 361560.533193 6690124.833847, 361561.301293 6690129.620562, 361562.307102 6690139.203021, 361560.401119 6690152.753450)

LINESTRING (361552.346112 6690107.408830, 361545.359027 6690094.062935, 361523.747047 6690069.913677)

LINESTRING (361560.401119 6690152.753450, 361516.059727 6690125.489118)

LINESTRING (361560.401119 6690152.753450, 361562.307102 6690139.203021, 361561.301293 6690129.620562, 361560.533193 6690124.833847, 361557.657249 6690118.990219, 361552.346112 6690107.408830)

LINESTRING (361630.222892 6687790.598981, 361635.105443 6687800.881414)

LINESTRING (361630.222892 6687790.598981, 361604.203837 6687771.175621)

LINESTRING (362456.388783 6690092.917302, 362462.075737 6690067.563963, 362480.561280 6690046.018931)

LINESTRING (362532.426474 6690107.423873, 362534.325118 6690109.537134, 362534.526744 6690118.826821, 362533.868172 6690139.151924, 362513.266941 6690154.734489)

LINESTRING (362532.426474 6690107.423873, 362494.029969 6690064.639739, 362480.561280 6690046.018931)

LINESTRING (363011.780085 6688463.404371, 363009.423473 6688471.329884)

LINESTRING (363011.780085 6688463.404371, 363012.482343 6688461.048076, 363013.595348 6688457.260567, 363018.530121 6688441.122523, 363022.728545 6688433.785455, 363032.723305 6688423.655248, 363053.647365 6688431.329438, 363056.616218 6688439.533998, 363056.542913 6688452.144838)

LINESTRING (363011.780085 6688463.404371, 363008.523673 6688461.966190, 363006.889989 6688457.646587, 363004.979792 6688450.093395, 363002.452929 6688439.821059, 363003.360783 6688427.346029, 362994.507230 6688415.472337, 362992.188815 6688410.888659)

LINESTRING (363345.373793 6687831.215417, 363390.734749 6687816.058603)

LINESTRING (363390.734749 6687816.058603, 363345.373793 6687831.215417)

LINESTRING (363390.734749 6687816.058603, 363394.039977 6687814.953646, 363422.503769 6687808.992409, 363461.526693 6687808.465789, 363486.937004 6687808.995985, 363521.660681 6687795.153637, 363564.517376 6687769.379993, 363571.099964 6687764.797002)

LINESTRING (363390.734749 6687816.058603, 363388.564418 6687831.936248, 363375.283678 6687857.616972, 363372.882366 6687861.140529)

LINESTRING (363743.364531 6687722.531574, 363716.006015 6687723.020005, 363688.584042 6687719.152296, 363677.534494 6687718.640562, 363640.827208 6687728.587062, 363603.042172 6687742.542856, 363571.099964 6687764.797002)

LINESTRING (363743.364531 6687722.531574, 363743.758616 6687744.009428, 363744.967928 6687759.035763, 363748.173030 6687774.622855, 363751.191219 6687792.903515, 363751.368151 6687819.963300, 363750.784807 6687834.387837, 363749.234517 6687848.101655, 363749.165490 6687861.191536, 363751.020974 6687873.529421)

LINESTRING (363571.099964 6687764.797002, 363564.517376 6687769.379993, 363521.660681 6687795.153637, 363486.937004 6687808.995985, 363461.526693 6687808.465789, 363422.503769 6687808.992409, 363394.039977 6687814.953646, 363390.734749 6687816.058603)

LINESTRING (363571.099964 6687764.797002, 363603.042172 6687742.542856, 363640.827208 6687728.587062, 363677.534494 6687718.640562, 363688.584042 6687719.152296, 363716.006015 6687723.020005, 363743.364531 6687722.531574)

LINESTRING (363571.099964 6687764.797002, 363568.483646 6687778.684628, 363561.486319 6687789.916007, 363546.738526 6687800.244948, 363530.654299 6687814.469963, 363517.973622 6687832.424606, 363504.326139 6687848.342067, 363492.389852 6687854.418961, 363471.803002 6687859.337505, 363444.891085 6687861.829007, 363414.896105 6687861.170056, 363391.071366 6687858.808431, 363372.882366 6687861.140529)

LINESTRING (363751.020974 6687873.529421, 363781.261992 6687940.086596)

LINESTRING (363751.020974 6687873.529421, 363749.165490 6687861.191536, 363749.234517 6687848.101655, 363750.784807 6687834.387837, 363751.368151 6687819.963300, 363751.191219 6687792.903515, 363748.173030 6687774.622855, 363744.967928 6687759.035763, 363743.758616 6687744.009428, 363743.364531 6687722.531574)

LINESTRING (363751.020974 6687873.529421, 363736.569720 6687855.119087, 363723.573593 6687828.293648, 363721.852957 6687822.371755, 363719.769122 6687806.742728, 363718.268679 6687786.599385, 363715.942509 6687779.574241, 363712.968476 6687775.193028, 363708.539509 6687771.992166, 363704.945937 6687771.011869, 363701.096593 6687773.396580, 363690.764014 6687782.578711)

LINESTRING (363781.261992 6687940.086596, 363751.020974 6687873.529421)

LINESTRING (363781.261992 6687940.086596, 363786.739151 6687951.798549)

LINESTRING (363786.739151 6687951.798549, 363781.261992 6687940.086596)

LINESTRING (363786.739151 6687951.798549, 363788.897495 6687961.293628, 363789.959869 6687970.472970, 363790.405663 6687981.949485, 363789.314685 6688030.426655, 363790.440503 6688039.971496)

LINESTRING (363690.764014 6687782.578711, 363701.096593 6687773.396580, 363704.945937 6687771.011869, 363708.539509 6687771.992166, 363712.968476 6687775.193028, 363715.942509 6687779.574241, 363718.268679 6687786.599385, 363719.769122 6687806.742728, 363721.852957 6687822.371755, 363723.573593 6687828.293648, 363736.569720 6687855.119087, 363751.020974 6687873.529421)

LINESTRING (363790.440503 6688039.971496, 363789.314685 6688030.426655, 363790.405663 6687981.949485, 363789.959869 6687970.472970, 363788.897495 6687961.293628, 363786.739151 6687951.798549)

LINESTRING (363790.440503 6688039.971496, 363775.362363 6688043.968898, 363764.889882 6688049.689177, 363755.152343 6688058.938083, 363736.419698 6688066.673046, 363707.351283 6688070.324685, 363697.075379 6688073.607628, 363687.552904 6688080.764072, 363667.307681 6688096.403948, 363653.412095 6688113.511813, 363631.081956 6688127.379454, 363619.317031 6688130.183297, 363612.633460 6688125.996822, 363605.705985 6688115.298124, 363595.858656 6688107.718657, 363589.326922 6688097.841237, 363566.289536 6688061.080867, 363556.114925 6688058.797742, 363533.463177 6688064.083190, 363523.874246 6688061.488370, 363513.601235 6688055.842458, 363500.346823 6688043.407912, 363468.407331 6688030.380685, 363442.671995 6688024.534298, 363414.374190 6688021.749464, 363392.841149 6688012.769402, 363383.952891 6688005.856804, 363376.201410 6687995.334327, 363356.597730 6687981.466297, 363349.634676 6687980.166864, 363336.602064 6687982.216533, 363328.822984 6687981.282189, 363321.516894 6687978.212051)

LINESTRING (362290.838750 6689688.813222, 362317.807973 6689695.797160, 362328.689949 6689702.107720, 362332.503574 6689707.626596)

LINESTRING (362329.374790 6688802.817510, 362320.077183 6688807.906905, 362305.191774 6688814.400456, 362292.117893 6688821.706237)

LINESTRING (362329.374790 6688802.817510, 362332.905366 6688794.100176, 362333.715699 6688766.824197)

LINESTRING (362329.374790 6688802.817510, 362398.004129 6688832.908717, 362428.114562 6688828.905914, 362448.881819 6688825.713379)

LINESTRING (362292.117893 6688821.706237, 362280.494491 6688836.069537, 362271.204458 6688857.144808, 362262.468427 6688869.325453, 362251.060993 6688873.603024, 362232.812909 6688869.555605, 362222.751536 6688870.237312, 362216.216688 6688877.886785)

LINESTRING (362292.117893 6688821.706237, 362305.191774 6688814.400456, 362320.077183 6688807.906905, 362329.374790 6688802.817510)

LINESTRING (362292.117893 6688821.706237, 362292.384186 6688813.101169, 362294.997715 6688803.827640, 362299.405956 6688794.776084, 362303.555110 6688786.916005, 362302.859541 6688776.273815, 362304.673256 6688769.393888, 362312.429509 6688762.590235, 362322.757986 6688753.314847, 362331.591085 6688745.589841)

LINESTRING (362333.715699 6688766.824197, 362332.905366 6688794.100176, 362329.374790 6688802.817510)

LINESTRING (362333.715699 6688766.824197, 362334.445346 6688756.429112, 362331.591085 6688745.589841)

LINESTRING (362333.715699 6688766.824197, 362344.318886 6688766.423319, 362355.972517 6688768.647098)

LINESTRING (362216.216688 6688877.886785, 362222.751536 6688870.237312, 362232.812909 6688869.555605, 362251.060993 6688873.603024, 362262.468427 6688869.325453, 362271.204458 6688857.144808, 362280.494491 6688836.069537, 362292.117893 6688821.706237)

LINESTRING (362355.972517 6688768.647098, 362344.318886 6688766.423319, 362333.715699 6688766.824197)

LINESTRING (362212.792934 6688777.328811, 362232.011259 6688773.680860, 362302.609320 6688747.867402, 362317.485413 6688746.970427, 362331.591085 6688745.589841)

LINESTRING (362513.266941 6690154.734489, 362533.868172 6690139.151924, 362534.526744 6690118.826821, 362534.325118 6690109.537134, 362532.426474 6690107.423873)

LINESTRING (362387.945254 6688111.823400, 362385.413495 6688103.814593)

LINESTRING (362385.413495 6688103.814593, 362387.945254 6688111.823400)

LINESTRING (362385.413495 6688103.814593, 362382.399069 6688099.134931, 362382.226609 6688094.570838, 362374.786586 6688076.558392, 362377.523462 6688068.183284, 362387.191275 6688059.223006)

LINESTRING (362385.413495 6688103.814593, 362392.996454 6688096.772494, 362393.268778 6688092.414553, 362397.407650 6688086.595081, 362395.478895 6688081.662581, 362401.597793 6688069.101908)

LINESTRING (362401.597793 6688069.101908, 362395.478895 6688081.662581, 362397.407650 6688086.595081, 362393.268778 6688092.414553, 362392.996454 6688096.772494, 362385.413495 6688103.814593)

LINESTRING (362401.597793 6688069.101908, 362406.845300 6688071.835535, 362410.962307 6688070.999983, 362412.510912 6688064.698701, 362417.341398 6688062.543056, 362421.874217 6688063.196766, 362424.928636 6688066.592950, 362432.144250 6688072.373659, 362435.019012 6688078.775400, 362436.601794 6688084.947246, 362442.111745 6688095.363003)

LINESTRING (362401.597793 6688069.101908, 362395.620831 6688065.069257, 362387.191275 6688059.223006)

LINESTRING (362442.111745 6688095.363003, 362461.318237 6688098.918390, 362471.424367 6688103.174241)

LINESTRING (362442.111745 6688095.363003, 362446.456402 6688098.944575, 362453.364868 6688103.332298, 362459.023043 6688104.199949, 362471.424367 6688103.174241)

LINESTRING (362442.111745 6688095.363003, 362436.601794 6688084.947246, 362435.019012 6688078.775400, 362432.144250 6688072.373659, 362424.928636 6688066.592950, 362421.874217 6688063.196766, 362417.341398 6688062.543056, 362412.510912 6688064.698701, 362410.962307 6688070.999983, 362406.845300 6688071.835535, 362401.597793 6688069.101908)

LINESTRING (362991.992304 6687683.696019, 362960.592128 6687715.433143, 362899.071628 6687740.411557, 362864.549977 6687753.561151, 362835.555061 6687755.845709, 362802.877837 6687796.071234, 362766.108806 6687820.465366, 362748.824369 6687863.979791, 362719.601306 6687923.149840, 362698.140283 6687936.399712, 362680.995093 6687969.631035)

LINESTRING (362588.986261 6687744.783274, 362584.866849 6687750.111254, 362586.757974 6687754.342956, 362588.342883 6687762.042025, 362582.548721 6687768.726332, 362580.726172 6687789.039477, 362585.741657 6687796.174356, 362584.692633 6687802.679650, 362564.817366 6687824.978214, 362563.402213 6687833.214091, 362560.555969 6687849.262834, 362570.327284 6687856.653001, 362570.334927 6687868.291009, 362563.107751 6687871.149996, 362559.111822 6687881.211168, 362577.178811 6687919.635916, 362565.206234 6687956.228816, 362571.057942 6687961.927491, 362576.934024 6687972.084373, 362585.265430 6687976.652763, 362589.960236 6687975.293970, 362599.689405 6687965.741146, 362610.924102 6687964.570436, 362632.330871 6687969.693623, 362638.058278 6687968.139880, 362649.233670 6687969.357150, 362664.124748 6687966.867054, 362671.842766 6687970.867934, 362680.995093 6687969.631035)

LINESTRING (362588.986261 6687744.783274, 362608.332959 6687761.399432, 362620.595198 6687787.602424)

LINESTRING (362620.595198 6687787.602424, 362608.332959 6687761.399432, 362588.986261 6687744.783274)

LINESTRING (363675.764844 6690001.633192, 363672.787300 6689985.457978, 363664.218206 6689964.498063, 363650.817056 6689943.239835, 363642.199243 6689923.050977, 363636.325318 6689898.779611, 363634.931652 6689881.207355, 363632.929610 6689870.859291, 363628.573146 6689859.350903, 363624.712097 6689853.687633, 363616.932573 6689842.452436, 363601.474720 6689830.947610, 363587.347485 6689814.677505, 363573.073946 6689801.734942, 363552.948222 6689786.949491, 363539.331877 6689775.910962, 363512.040246 6689750.057190, 363499.500958 6689741.798775, 363484.388910 6689722.288543)

LINESTRING (361708.148738 6688594.314997, 361714.810980 6688584.497052, 361720.699701 6688574.407502, 361733.623577 6688557.908313, 361745.222243 6688551.514927, 361748.297191 6688551.364737, 361750.881597 6688550.530853, 361753.141280 6688550.467359, 361755.400541 6688550.392735, 361769.604531 6688553.476592, 361779.494540 6688557.727564, 361789.284631 6688560.220982, 361798.195203 6688557.173843, 361805.925045 6688548.809384)

LINESTRING (361708.148738 6688594.314997, 361706.803608 6688597.342583, 361688.014056 6688632.826666, 361678.542334 6688646.864983, 361657.936910 6688656.811393, 361639.226187 6688659.562388)

LINESTRING (361708.148738 6688594.314997, 361703.041709 6688597.753007, 361699.034484 6688601.606318, 361689.266827 6688613.972501, 361678.334798 6688619.125631, 361670.385416 6688624.611405, 361660.128560 6688631.812462, 361651.512336 6688639.397133, 361645.344077 6688648.817408, 361639.226187 6688659.562388)

LINESTRING (362994.856501 6689838.336300, 362988.941287 6689869.337959)

LINESTRING (362994.856501 6689838.336300, 363014.459877 6689849.024905, 363017.666267 6689872.816188, 362988.941287 6689869.337959)

LINESTRING (362994.856501 6689838.336300, 363001.175707 6689814.833046, 363005.757311 6689806.121408, 363012.494704 6689798.867032, 363019.658286 6689793.681263, 363057.312580 6689771.440345, 363068.862028 6689762.912557, 363074.331239 6689757.801794, 363080.676263 6689750.105259, 363085.485672 6689743.179955, 363094.326306 6689726.571700, 363123.038749 6689662.941843, 363126.646151 6689655.069655)

LINESTRING (362988.941287 6689869.337959, 362994.856501 6689838.336300)

LINESTRING (362988.941287 6689869.337959, 363017.666267 6689872.816188, 363014.459877 6689849.024905, 362994.856501 6689838.336300)

LINESTRING (363341.720556 6689590.547668, 363340.187483 6689585.499572)

LINESTRING (363341.720556 6689590.547668, 363326.460242 6689590.540940, 363304.510852 6689592.034013, 363280.203318 6689588.153407, 363272.346447 6689588.002611, 363263.043991 6689590.581589, 363232.389469 6689612.022117, 363224.442299 6689613.881411, 363194.370114 6689605.201515, 363178.724079 6689597.874695, 363146.268504 6689597.868532, 363133.372375 6689601.920689, 363109.549404 6689624.309382)

LINESTRING (363341.720556 6689590.547668, 363343.273114 6689595.673066, 363347.038501 6689603.335102)

LINESTRING (363340.187483 6689585.499572, 363341.720556 6689590.547668)

LINESTRING (361828.229160 6689113.486154, 361821.338215 6689073.838087, 361826.066483 6689056.501969, 361824.189028 6689039.817882, 361813.950171 6688988.312860, 361804.518179 6688957.779936)

LINESTRING (363099.278375 6689652.877175, 363121.741113 6689654.752455, 363126.646151 6689655.069655)

LINESTRING (363260.828026 6688567.795255, 363257.457774 6688532.539006, 363258.392989 6688512.081297, 363265.714450 6688498.206178, 363277.052969 6688479.810354)

LINESTRING (363572.207061 6688382.925902, 363590.775561 6688350.927712, 363612.351562 6688328.337086)

LINESTRING (361604.203837 6687771.175621, 361630.222892 6687790.598981)

