LINESTRING (80.000000 80.000000, 229.968979 83.050471)

LINESTRING (80.000000 80.000000, 162.482938 81.677759)

LINESTRING (162.482938 81.677759, 229.968979 83.050471)

LINESTRING (80.000000 80.000000, 203.123422 165.677435)

LINESTRING (80.000000 80.000000, 147.717882 127.122589)

LINESTRING (147.717882 127.122589, 203.123422 165.677435)

LINESTRING (80.000000 80.000000, 126.594558 222.579617)

LINESTRING (80.000000 80.000000, 105.627007 158.418789)

LINESTRING (105.627007 158.418789, 126.594558 222.579617)

LINESTRING (80.000000 80.000000, 29.049051 221.081540)

LINESTRING (80.000000 80.000000, 51.976978 157.594847)

LINESTRING (51.976978 157.594847, 29.049051 221.081540)

LINESTRING (80.000000 80.000000, -38.204012 172.346151)

LINESTRING (80.000000 80.000000, 14.987794 130.790383)

LINESTRING (14.987794 130.790383, -38.204012 172.346151)

LINESTRING (80.000000 80.000000, -69.958903 76.488972)

LINESTRING (80.000000 80.000000, -2.477397 78.068935)

LINESTRING (-2.477397 78.068935, -69.958903 76.488972)

LINESTRING (80.000000 80.000000, -44.274139 -3.999634)

LINESTRING (80.000000 80.000000, 11.649224 33.800201)

LINESTRING (11.649224 33.800201, -44.274139 -3.999634)

LINESTRING (80.000000 80.000000, 25.727753 -59.837489)

LINESTRING (80.000000 80.000000, 50.150264 3.089381)

LINESTRING (50.150264 3.089381, 25.727753 -59.837489)

LINESTRING (80.000000 80.000000, 118.030202 -65.098945)

LINESTRING (80.000000 80.000000, 100.916611 0.195580)

LINESTRING (100.916611 0.195580, 118.030202 -65.098945)

LINESTRING (80.000000 80.000000, 203.413581 -5.258947)

LINESTRING (80.000000 80.000000, 147.877469 33.107579)

LINESTRING (147.877469 33.107579, 203.413581 -5.258947)

LINESTRING (229.968979 83.050471, 203.123422 165.677435)

LINESTRING (203.123422 165.677435, 126.594558 222.579617)

LINESTRING (126.594558 222.579617, 29.049051 221.081540)

LINESTRING (29.049051 221.081540, -38.204012 172.346151)

LINESTRING (-38.204012 172.346151, -69.958903 76.488972)

LINESTRING (-69.958903 76.488972, -44.274139 -3.999634)

LINESTRING (-44.274139 -3.999634, 25.727753 -59.837489)

LINESTRING (25.727753 -59.837489, 118.030202 -65.098945)

LINESTRING (118.030202 -65.098945, 203.413581 -5.258947)

LINESTRING (203.413581 -5.258947, 229.968979 83.050471)

