LINESTRING (60.000000 60.000000, 19.548611 102.644988)

LINESTRING (60.000000 60.000000, 24.067553 19.273936)

LINESTRING (60.000000 60.000000, 31.009564 70.845488)

LINESTRING (60.000000 60.000000, 89.710178 10.851511)

LINESTRING (60.000000 60.000000, 102.214755 35.531114)

LINESTRING (60.000000 60.000000, 20.332913 84.366750)

LINESTRING (60.000000 60.000000, 26.583363 14.693252)

LINESTRING (60.000000 60.000000, 12.179545 10.291932)

LINESTRING (60.000000 60.000000, 38.825921 113.437100)

LINESTRING (60.000000 60.000000, 62.607762 59.287665)

LINESTRING (60.000000 60.000000, 29.991759 16.567422)

LINESTRING (60.000000 60.000000, 108.222825 53.748629)

LINESTRING (60.000000 60.000000, 65.178499 8.617900)

LINESTRING (60.000000 60.000000, 75.013946 99.215305)

LINESTRING (60.000000 60.000000, 73.293659 56.251105)

LINESTRING (60.000000 60.000000, 38.694019 14.364350)

LINESTRING (19.548611 102.644988, 24.067553 19.273936)

LINESTRING (19.548611 102.644988, 31.009564 70.845488)

LINESTRING (19.548611 102.644988, 102.214755 35.531114)

LINESTRING (19.548611 102.644988, 20.332913 84.366750)

LINESTRING (19.548611 102.644988, 26.583363 14.693252)

LINESTRING (19.548611 102.644988, 12.179545 10.291932)

LINESTRING (19.548611 102.644988, 38.825921 113.437100)

LINESTRING (19.548611 102.644988, 108.222825 53.748629)

LINESTRING (19.548611 102.644988, 75.013946 99.215305)

LINESTRING (19.548611 102.644988, 38.694019 14.364350)

LINESTRING (24.067553 19.273936, 89.710178 10.851511)

LINESTRING (24.067553 19.273936, 102.214755 35.531114)

LINESTRING (24.067553 19.273936, 20.332913 84.366750)

LINESTRING (24.067553 19.273936, 26.583363 14.693252)

LINESTRING (24.067553 19.273936, 38.825921 113.437100)

LINESTRING (24.067553 19.273936, 62.607762 59.287665)

LINESTRING (24.067553 19.273936, 29.991759 16.567422)

LINESTRING (24.067553 19.273936, 108.222825 53.748629)

LINESTRING (24.067553 19.273936, 65.178499 8.617900)

LINESTRING (24.067553 19.273936, 75.013946 99.215305)

LINESTRING (24.067553 19.273936, 73.293659 56.251105)

LINESTRING (24.067553 19.273936, 38.694019 14.364350)

LINESTRING (31.009564 70.845488, 102.214755 35.531114)

LINESTRING (31.009564 70.845488, 20.332913 84.366750)

LINESTRING (31.009564 70.845488, 62.607762 59.287665)

LINESTRING (31.009564 70.845488, 29.991759 16.567422)

LINESTRING (31.009564 70.845488, 75.013946 99.215305)

LINESTRING (31.009564 70.845488, 73.293659 56.251105)

LINESTRING (89.710178 10.851511, 102.214755 35.531114)

LINESTRING (89.710178 10.851511, 20.332913 84.366750)

LINESTRING (89.710178 10.851511, 26.583363 14.693252)

LINESTRING (89.710178 10.851511, 38.825921 113.437100)

LINESTRING (89.710178 10.851511, 62.607762 59.287665)

LINESTRING (89.710178 10.851511, 29.991759 16.567422)

LINESTRING (89.710178 10.851511, 108.222825 53.748629)

LINESTRING (89.710178 10.851511, 65.178499 8.617900)

LINESTRING (89.710178 10.851511, 38.694019 14.364350)

LINESTRING (102.214755 35.531114, 26.583363 14.693252)

LINESTRING (102.214755 35.531114, 12.179545 10.291932)

LINESTRING (102.214755 35.531114, 38.825921 113.437100)

LINESTRING (102.214755 35.531114, 62.607762 59.287665)

LINESTRING (102.214755 35.531114, 29.991759 16.567422)

LINESTRING (102.214755 35.531114, 108.222825 53.748629)

LINESTRING (102.214755 35.531114, 75.013946 99.215305)

LINESTRING (102.214755 35.531114, 38.694019 14.364350)

LINESTRING (20.332913 84.366750, 12.179545 10.291932)

LINESTRING (20.332913 84.366750, 38.825921 113.437100)

LINESTRING (20.332913 84.366750, 62.607762 59.287665)

LINESTRING (26.583363 14.693252, 12.179545 10.291932)

LINESTRING (26.583363 14.693252, 38.825921 113.437100)

LINESTRING (26.583363 14.693252, 29.991759 16.567422)

LINESTRING (26.583363 14.693252, 108.222825 53.748629)

LINESTRING (26.583363 14.693252, 65.178499 8.617900)

LINESTRING (26.583363 14.693252, 75.013946 99.215305)

LINESTRING (26.583363 14.693252, 73.293659 56.251105)

LINESTRING (26.583363 14.693252, 38.694019 14.364350)

LINESTRING (12.179545 10.291932, 38.825921 113.437100)

LINESTRING (12.179545 10.291932, 62.607762 59.287665)

LINESTRING (12.179545 10.291932, 29.991759 16.567422)

LINESTRING (12.179545 10.291932, 108.222825 53.748629)

LINESTRING (12.179545 10.291932, 38.694019 14.364350)

LINESTRING (38.825921 113.437100, 62.607762 59.287665)

LINESTRING (38.825921 113.437100, 29.991759 16.567422)

LINESTRING (38.825921 113.437100, 108.222825 53.748629)

LINESTRING (38.825921 113.437100, 65.178499 8.617900)

LINESTRING (38.825921 113.437100, 75.013946 99.215305)

LINESTRING (38.825921 113.437100, 73.293659 56.251105)

LINESTRING (38.825921 113.437100, 38.694019 14.364350)

LINESTRING (62.607762 59.287665, 108.222825 53.748629)

LINESTRING (62.607762 59.287665, 65.178499 8.617900)

LINESTRING (62.607762 59.287665, 75.013946 99.215305)

LINESTRING (62.607762 59.287665, 73.293659 56.251105)

LINESTRING (62.607762 59.287665, 38.694019 14.364350)

LINESTRING (29.991759 16.567422, 65.178499 8.617900)

LINESTRING (29.991759 16.567422, 75.013946 99.215305)

LINESTRING (29.991759 16.567422, 73.293659 56.251105)

LINESTRING (108.222825 53.748629, 65.178499 8.617900)

LINESTRING (108.222825 53.748629, 73.293659 56.251105)

LINESTRING (108.222825 53.748629, 38.694019 14.364350)

LINESTRING (65.178499 8.617900, 75.013946 99.215305)

LINESTRING (65.178499 8.617900, 73.293659 56.251105)

LINESTRING (75.013946 99.215305, 73.293659 56.251105)

LINESTRING (75.013946 99.215305, 38.694019 14.364350)

LINESTRING (73.293659 56.251105, 38.694019 14.364350)

LINESTRING (560.000000 60.000000, 515.450598 57.930877)

LINESTRING (560.000000 60.000000, 554.790300 107.690087)

LINESTRING (560.000000 60.000000, 585.183243 50.003084)

LINESTRING (560.000000 60.000000, 589.342132 15.799820)

LINESTRING (560.000000 60.000000, 519.911748 97.765433)

LINESTRING (560.000000 60.000000, 575.521350 44.438849)

LINESTRING (560.000000 60.000000, 523.716661 34.232669)

LINESTRING (560.000000 60.000000, 547.161263 10.804010)

LINESTRING (560.000000 60.000000, 544.145792 99.212057)

LINESTRING (560.000000 60.000000, 604.872684 58.782026)

LINESTRING (560.000000 60.000000, 599.081647 102.891671)

LINESTRING (560.000000 60.000000, 502.313129 102.244829)

LINESTRING (560.000000 60.000000, 511.730457 106.641687)

LINESTRING (560.000000 60.000000, 505.117993 68.125314)

LINESTRING (560.000000 60.000000, 614.073981 38.763097)

LINESTRING (560.000000 60.000000, 553.624541 61.274039)

LINESTRING (515.450598 57.930877, 589.342132 15.799820)

LINESTRING (515.450598 57.930877, 575.521350 44.438849)

LINESTRING (515.450598 57.930877, 523.716661 34.232669)

LINESTRING (515.450598 57.930877, 547.161263 10.804010)

LINESTRING (515.450598 57.930877, 599.081647 102.891671)

LINESTRING (515.450598 57.930877, 511.730457 106.641687)

LINESTRING (515.450598 57.930877, 505.117993 68.125314)

LINESTRING (515.450598 57.930877, 553.624541 61.274039)

LINESTRING (554.790300 107.690087, 585.183243 50.003084)

LINESTRING (554.790300 107.690087, 589.342132 15.799820)

LINESTRING (554.790300 107.690087, 519.911748 97.765433)

LINESTRING (554.790300 107.690087, 575.521350 44.438849)

LINESTRING (554.790300 107.690087, 502.313129 102.244829)

LINESTRING (554.790300 107.690087, 511.730457 106.641687)

LINESTRING (554.790300 107.690087, 614.073981 38.763097)

LINESTRING (554.790300 107.690087, 553.624541 61.274039)

LINESTRING (585.183243 50.003084, 519.911748 97.765433)

LINESTRING (585.183243 50.003084, 523.716661 34.232669)

LINESTRING (585.183243 50.003084, 544.145792 99.212057)

LINESTRING (585.183243 50.003084, 604.872684 58.782026)

LINESTRING (585.183243 50.003084, 599.081647 102.891671)

LINESTRING (585.183243 50.003084, 502.313129 102.244829)

LINESTRING (585.183243 50.003084, 511.730457 106.641687)

LINESTRING (585.183243 50.003084, 505.117993 68.125314)

LINESTRING (585.183243 50.003084, 614.073981 38.763097)

LINESTRING (585.183243 50.003084, 553.624541 61.274039)

LINESTRING (589.342132 15.799820, 519.911748 97.765433)

LINESTRING (589.342132 15.799820, 575.521350 44.438849)

LINESTRING (589.342132 15.799820, 547.161263 10.804010)

LINESTRING (589.342132 15.799820, 544.145792 99.212057)

LINESTRING (589.342132 15.799820, 599.081647 102.891671)

LINESTRING (589.342132 15.799820, 502.313129 102.244829)

LINESTRING (589.342132 15.799820, 511.730457 106.641687)

LINESTRING (519.911748 97.765433, 575.521350 44.438849)

LINESTRING (519.911748 97.765433, 523.716661 34.232669)

LINESTRING (519.911748 97.765433, 544.145792 99.212057)

LINESTRING (519.911748 97.765433, 604.872684 58.782026)

LINESTRING (519.911748 97.765433, 511.730457 106.641687)

LINESTRING (519.911748 97.765433, 505.117993 68.125314)

LINESTRING (519.911748 97.765433, 614.073981 38.763097)

LINESTRING (519.911748 97.765433, 553.624541 61.274039)

LINESTRING (575.521350 44.438849, 523.716661 34.232669)

LINESTRING (575.521350 44.438849, 544.145792 99.212057)

LINESTRING (575.521350 44.438849, 604.872684 58.782026)

LINESTRING (575.521350 44.438849, 599.081647 102.891671)

LINESTRING (575.521350 44.438849, 502.313129 102.244829)

LINESTRING (575.521350 44.438849, 511.730457 106.641687)

LINESTRING (575.521350 44.438849, 505.117993 68.125314)

LINESTRING (575.521350 44.438849, 614.073981 38.763097)

LINESTRING (575.521350 44.438849, 553.624541 61.274039)

LINESTRING (523.716661 34.232669, 544.145792 99.212057)

LINESTRING (523.716661 34.232669, 604.872684 58.782026)

LINESTRING (523.716661 34.232669, 599.081647 102.891671)

LINESTRING (523.716661 34.232669, 502.313129 102.244829)

LINESTRING (523.716661 34.232669, 511.730457 106.641687)

LINESTRING (523.716661 34.232669, 505.117993 68.125314)

LINESTRING (523.716661 34.232669, 553.624541 61.274039)

LINESTRING (547.161263 10.804010, 604.872684 58.782026)

LINESTRING (547.161263 10.804010, 599.081647 102.891671)

LINESTRING (547.161263 10.804010, 511.730457 106.641687)

LINESTRING (547.161263 10.804010, 505.117993 68.125314)

LINESTRING (544.145792 99.212057, 604.872684 58.782026)

LINESTRING (544.145792 99.212057, 599.081647 102.891671)

LINESTRING (544.145792 99.212057, 511.730457 106.641687)

LINESTRING (544.145792 99.212057, 505.117993 68.125314)

LINESTRING (544.145792 99.212057, 553.624541 61.274039)

LINESTRING (604.872684 58.782026, 599.081647 102.891671)

LINESTRING (604.872684 58.782026, 511.730457 106.641687)

LINESTRING (604.872684 58.782026, 505.117993 68.125314)

LINESTRING (604.872684 58.782026, 614.073981 38.763097)

LINESTRING (599.081647 102.891671, 502.313129 102.244829)

LINESTRING (599.081647 102.891671, 511.730457 106.641687)

LINESTRING (599.081647 102.891671, 505.117993 68.125314)

LINESTRING (599.081647 102.891671, 614.073981 38.763097)

LINESTRING (599.081647 102.891671, 553.624541 61.274039)

LINESTRING (502.313129 102.244829, 505.117993 68.125314)

LINESTRING (511.730457 106.641687, 614.073981 38.763097)

LINESTRING (511.730457 106.641687, 553.624541 61.274039)

LINESTRING (614.073981 38.763097, 553.624541 61.274039)

LINESTRING (60.000000 560.000000, 65.863006 587.477377)

LINESTRING (60.000000 560.000000, 83.738793 559.788919)

LINESTRING (60.000000 560.000000, 69.556582 574.107126)

LINESTRING (60.000000 560.000000, 98.429948 614.822387)

LINESTRING (60.000000 560.000000, 30.190287 555.244257)

LINESTRING (60.000000 560.000000, 117.667448 540.034354)

LINESTRING (60.000000 560.000000, 40.405446 535.837063)

LINESTRING (60.000000 560.000000, 119.281385 551.026781)

LINESTRING (60.000000 560.000000, 114.034520 552.611329)

LINESTRING (60.000000 560.000000, 68.282168 545.939300)

LINESTRING (60.000000 560.000000, 58.037432 593.330722)

LINESTRING (60.000000 560.000000, 40.156611 612.075937)

LINESTRING (60.000000 560.000000, 72.027317 512.056344)

LINESTRING (60.000000 560.000000, 42.122529 514.626350)

LINESTRING (60.000000 560.000000, 110.050861 525.773333)

LINESTRING (60.000000 560.000000, 69.741353 532.731026)

LINESTRING (65.863006 587.477377, 83.738793 559.788919)

LINESTRING (65.863006 587.477377, 69.556582 574.107126)

LINESTRING (65.863006 587.477377, 98.429948 614.822387)

LINESTRING (65.863006 587.477377, 30.190287 555.244257)

LINESTRING (65.863006 587.477377, 117.667448 540.034354)

LINESTRING (65.863006 587.477377, 40.405446 535.837063)

LINESTRING (65.863006 587.477377, 58.037432 593.330722)

LINESTRING (65.863006 587.477377, 69.741353 532.731026)

LINESTRING (83.738793 559.788919, 69.556582 574.107126)

LINESTRING (83.738793 559.788919, 98.429948 614.822387)

LINESTRING (83.738793 559.788919, 117.667448 540.034354)

LINESTRING (83.738793 559.788919, 40.405446 535.837063)

LINESTRING (83.738793 559.788919, 114.034520 552.611329)

LINESTRING (83.738793 559.788919, 68.282168 545.939300)

LINESTRING (83.738793 559.788919, 58.037432 593.330722)

LINESTRING (83.738793 559.788919, 40.156611 612.075937)

LINESTRING (83.738793 559.788919, 42.122529 514.626350)

LINESTRING (83.738793 559.788919, 110.050861 525.773333)

LINESTRING (69.556582 574.107126, 98.429948 614.822387)

LINESTRING (69.556582 574.107126, 117.667448 540.034354)

LINESTRING (69.556582 574.107126, 119.281385 551.026781)

LINESTRING (69.556582 574.107126, 114.034520 552.611329)

LINESTRING (69.556582 574.107126, 58.037432 593.330722)

LINESTRING (69.556582 574.107126, 40.156611 612.075937)

LINESTRING (69.556582 574.107126, 72.027317 512.056344)

LINESTRING (69.556582 574.107126, 42.122529 514.626350)

LINESTRING (69.556582 574.107126, 110.050861 525.773333)

LINESTRING (69.556582 574.107126, 69.741353 532.731026)

LINESTRING (98.429948 614.822387, 30.190287 555.244257)

LINESTRING (98.429948 614.822387, 40.405446 535.837063)

LINESTRING (98.429948 614.822387, 119.281385 551.026781)

LINESTRING (98.429948 614.822387, 114.034520 552.611329)

LINESTRING (98.429948 614.822387, 68.282168 545.939300)

LINESTRING (98.429948 614.822387, 72.027317 512.056344)

LINESTRING (98.429948 614.822387, 42.122529 514.626350)

LINESTRING (98.429948 614.822387, 110.050861 525.773333)

LINESTRING (30.190287 555.244257, 40.405446 535.837063)

LINESTRING (30.190287 555.244257, 119.281385 551.026781)

LINESTRING (30.190287 555.244257, 114.034520 552.611329)

LINESTRING (30.190287 555.244257, 68.282168 545.939300)

LINESTRING (30.190287 555.244257, 72.027317 512.056344)

LINESTRING (30.190287 555.244257, 42.122529 514.626350)

LINESTRING (30.190287 555.244257, 110.050861 525.773333)

LINESTRING (30.190287 555.244257, 69.741353 532.731026)

LINESTRING (117.667448 540.034354, 119.281385 551.026781)

LINESTRING (117.667448 540.034354, 114.034520 552.611329)

LINESTRING (117.667448 540.034354, 68.282168 545.939300)

LINESTRING (117.667448 540.034354, 58.037432 593.330722)

LINESTRING (117.667448 540.034354, 72.027317 512.056344)

LINESTRING (117.667448 540.034354, 42.122529 514.626350)

LINESTRING (40.405446 535.837063, 114.034520 552.611329)

LINESTRING (40.405446 535.837063, 68.282168 545.939300)

LINESTRING (40.405446 535.837063, 58.037432 593.330722)

LINESTRING (40.405446 535.837063, 40.156611 612.075937)

LINESTRING (40.405446 535.837063, 72.027317 512.056344)

LINESTRING (40.405446 535.837063, 42.122529 514.626350)

LINESTRING (40.405446 535.837063, 110.050861 525.773333)

LINESTRING (40.405446 535.837063, 69.741353 532.731026)

LINESTRING (119.281385 551.026781, 114.034520 552.611329)

LINESTRING (119.281385 551.026781, 58.037432 593.330722)

LINESTRING (119.281385 551.026781, 40.156611 612.075937)

LINESTRING (119.281385 551.026781, 110.050861 525.773333)

LINESTRING (114.034520 552.611329, 68.282168 545.939300)

LINESTRING (114.034520 552.611329, 40.156611 612.075937)

LINESTRING (114.034520 552.611329, 42.122529 514.626350)

LINESTRING (114.034520 552.611329, 110.050861 525.773333)

LINESTRING (114.034520 552.611329, 69.741353 532.731026)

LINESTRING (68.282168 545.939300, 58.037432 593.330722)

LINESTRING (68.282168 545.939300, 72.027317 512.056344)

LINESTRING (68.282168 545.939300, 42.122529 514.626350)

LINESTRING (68.282168 545.939300, 110.050861 525.773333)

LINESTRING (58.037432 593.330722, 72.027317 512.056344)

LINESTRING (58.037432 593.330722, 69.741353 532.731026)

LINESTRING (40.156611 612.075937, 72.027317 512.056344)

LINESTRING (40.156611 612.075937, 110.050861 525.773333)

LINESTRING (72.027317 512.056344, 110.050861 525.773333)

LINESTRING (72.027317 512.056344, 69.741353 532.731026)

LINESTRING (42.122529 514.626350, 110.050861 525.773333)

LINESTRING (42.122529 514.626350, 69.741353 532.731026)

LINESTRING (110.050861 525.773333, 69.741353 532.731026)

LINESTRING (560.000000 560.000000, 564.105690 535.972292)

LINESTRING (560.000000 560.000000, 500.045891 599.481665)

LINESTRING (560.000000 560.000000, 560.493583 562.521969)

LINESTRING (560.000000 560.000000, 504.435441 534.761536)

LINESTRING (560.000000 560.000000, 593.497251 614.430794)

LINESTRING (560.000000 560.000000, 573.895896 517.276840)

LINESTRING (560.000000 560.000000, 518.370262 610.319423)

LINESTRING (560.000000 560.000000, 602.875008 612.544002)

LINESTRING (560.000000 560.000000, 574.590106 570.092226)

LINESTRING (560.000000 560.000000, 598.425214 598.190759)

LINESTRING (560.000000 560.000000, 612.896734 589.084229)

LINESTRING (560.000000 560.000000, 526.773566 583.330245)

LINESTRING (560.000000 560.000000, 519.670969 619.170010)

LINESTRING (560.000000 560.000000, 546.577306 516.025553)

LINESTRING (560.000000 560.000000, 533.530409 616.442405)

LINESTRING (560.000000 560.000000, 591.920795 600.558068)

LINESTRING (564.105690 535.972292, 500.045891 599.481665)

LINESTRING (564.105690 535.972292, 560.493583 562.521969)

LINESTRING (564.105690 535.972292, 504.435441 534.761536)

LINESTRING (564.105690 535.972292, 593.497251 614.430794)

LINESTRING (564.105690 535.972292, 518.370262 610.319423)

LINESTRING (564.105690 535.972292, 574.590106 570.092226)

LINESTRING (564.105690 535.972292, 598.425214 598.190759)

LINESTRING (564.105690 535.972292, 612.896734 589.084229)

LINESTRING (564.105690 535.972292, 526.773566 583.330245)

LINESTRING (564.105690 535.972292, 519.670969 619.170010)

LINESTRING (564.105690 535.972292, 546.577306 516.025553)

LINESTRING (564.105690 535.972292, 533.530409 616.442405)

LINESTRING (564.105690 535.972292, 591.920795 600.558068)

LINESTRING (500.045891 599.481665, 560.493583 562.521969)

LINESTRING (500.045891 599.481665, 504.435441 534.761536)

LINESTRING (500.045891 599.481665, 593.497251 614.430794)

LINESTRING (500.045891 599.481665, 573.895896 517.276840)

LINESTRING (500.045891 599.481665, 518.370262 610.319423)

LINESTRING (500.045891 599.481665, 602.875008 612.544002)

LINESTRING (500.045891 599.481665, 574.590106 570.092226)

LINESTRING (500.045891 599.481665, 598.425214 598.190759)

LINESTRING (500.045891 599.481665, 526.773566 583.330245)

LINESTRING (500.045891 599.481665, 519.670969 619.170010)

LINESTRING (500.045891 599.481665, 546.577306 516.025553)

LINESTRING (500.045891 599.481665, 533.530409 616.442405)

LINESTRING (500.045891 599.481665, 591.920795 600.558068)

LINESTRING (560.493583 562.521969, 518.370262 610.319423)

LINESTRING (560.493583 562.521969, 602.875008 612.544002)

LINESTRING (560.493583 562.521969, 598.425214 598.190759)

LINESTRING (560.493583 562.521969, 612.896734 589.084229)

LINESTRING (560.493583 562.521969, 526.773566 583.330245)

LINESTRING (560.493583 562.521969, 546.577306 516.025553)

LINESTRING (560.493583 562.521969, 533.530409 616.442405)

LINESTRING (560.493583 562.521969, 591.920795 600.558068)

LINESTRING (504.435441 534.761536, 593.497251 614.430794)

LINESTRING (504.435441 534.761536, 518.370262 610.319423)

LINESTRING (504.435441 534.761536, 574.590106 570.092226)

LINESTRING (504.435441 534.761536, 598.425214 598.190759)

LINESTRING (504.435441 534.761536, 612.896734 589.084229)

LINESTRING (504.435441 534.761536, 526.773566 583.330245)

LINESTRING (504.435441 534.761536, 519.670969 619.170010)

LINESTRING (504.435441 534.761536, 533.530409 616.442405)

LINESTRING (504.435441 534.761536, 591.920795 600.558068)

LINESTRING (593.497251 614.430794, 573.895896 517.276840)

LINESTRING (593.497251 614.430794, 518.370262 610.319423)

LINESTRING (593.497251 614.430794, 574.590106 570.092226)

LINESTRING (593.497251 614.430794, 598.425214 598.190759)

LINESTRING (593.497251 614.430794, 612.896734 589.084229)

LINESTRING (593.497251 614.430794, 526.773566 583.330245)

LINESTRING (593.497251 614.430794, 519.670969 619.170010)

LINESTRING (593.497251 614.430794, 533.530409 616.442405)

LINESTRING (573.895896 517.276840, 574.590106 570.092226)

LINESTRING (573.895896 517.276840, 612.896734 589.084229)

LINESTRING (573.895896 517.276840, 526.773566 583.330245)

LINESTRING (573.895896 517.276840, 519.670969 619.170010)

LINESTRING (573.895896 517.276840, 546.577306 516.025553)

LINESTRING (573.895896 517.276840, 533.530409 616.442405)

LINESTRING (573.895896 517.276840, 591.920795 600.558068)

LINESTRING (518.370262 610.319423, 602.875008 612.544002)

LINESTRING (518.370262 610.319423, 574.590106 570.092226)

LINESTRING (518.370262 610.319423, 598.425214 598.190759)

LINESTRING (518.370262 610.319423, 612.896734 589.084229)

LINESTRING (518.370262 610.319423, 519.670969 619.170010)

LINESTRING (518.370262 610.319423, 546.577306 516.025553)

LINESTRING (518.370262 610.319423, 591.920795 600.558068)

LINESTRING (602.875008 612.544002, 574.590106 570.092226)

LINESTRING (602.875008 612.544002, 598.425214 598.190759)

LINESTRING (602.875008 612.544002, 612.896734 589.084229)

LINESTRING (574.590106 570.092226, 526.773566 583.330245)

LINESTRING (574.590106 570.092226, 519.670969 619.170010)

LINESTRING (574.590106 570.092226, 546.577306 516.025553)

LINESTRING (574.590106 570.092226, 591.920795 600.558068)

LINESTRING (598.425214 598.190759, 612.896734 589.084229)

LINESTRING (598.425214 598.190759, 546.577306 516.025553)

LINESTRING (598.425214 598.190759, 533.530409 616.442405)

LINESTRING (612.896734 589.084229, 519.670969 619.170010)

LINESTRING (612.896734 589.084229, 546.577306 516.025553)

LINESTRING (526.773566 583.330245, 519.670969 619.170010)

LINESTRING (526.773566 583.330245, 546.577306 516.025553)

LINESTRING (526.773566 583.330245, 591.920795 600.558068)

LINESTRING (519.670969 619.170010, 546.577306 516.025553)

LINESTRING (519.670969 619.170010, 591.920795 600.558068)

LINESTRING (546.577306 516.025553, 533.530409 616.442405)

LINESTRING (546.577306 516.025553, 591.920795 600.558068)

LINESTRING (38.825921 113.437100, 523.716661 34.232669)

LINESTRING (38.694019 14.364350, 519.911748 97.765433)

LINESTRING (75.013946 99.215305, 511.730457 106.641687)

LINESTRING (60.000000 60.000000, 560.000000 60.000000)

LINESTRING (585.183243 50.003084, 69.741353 532.731026)

LINESTRING (599.081647 102.891671, 98.429948 614.822387)

LINESTRING (614.073981 38.763097, 68.282168 545.939300)

LINESTRING (560.000000 60.000000, 60.000000 560.000000)

LINESTRING (110.050861 525.773333, 573.895896 517.276840)

LINESTRING (69.741353 532.731026, 500.045891 599.481665)

LINESTRING (119.281385 551.026781, 519.670969 619.170010)

LINESTRING (60.000000 560.000000, 560.000000 560.000000)

