LINESTRING (660.567171 1035.480661, 494.212420 1212.972864)

LINESTRING (660.567171 1035.480661, 446.998687 599.330489)

LINESTRING (660.567171 1035.480661, 561.731844 540.787377)

LINESTRING (2493.925643 1310.781240, 2660.646903 1333.082019)

LINESTRING (2493.925643 1310.781240, 2631.015870 1206.585272)

LINESTRING (494.212420 1212.972864, 540.249662 1204.533202)

LINESTRING (494.212420 1212.972864, 614.535131 821.242505)

LINESTRING (494.212420 1212.972864, 320.715028 1001.262314)

LINESTRING (325.154996 611.225726, 281.269031 434.626132)

LINESTRING (325.154996 611.225726, 344.274848 741.295382)

LINESTRING (325.154996 611.225726, 313.429007 845.569900)

LINESTRING (325.154996 611.225726, 266.244731 533.801996)

LINESTRING (325.154996 611.225726, 446.998687 599.330489)

LINESTRING (325.154996 611.225726, 238.648175 462.451665)

LINESTRING (325.154996 611.225726, 758.199500 596.516101)

LINESTRING (1053.816332 2467.438285, 1542.153485 2684.992275)

LINESTRING (1053.816332 2467.438285, 959.123828 2670.910727)

LINESTRING (1053.816332 2467.438285, 944.303287 2333.990303)

LINESTRING (1053.816332 2467.438285, 888.285014 2493.387349)

LINESTRING (1053.816332 2467.438285, 1126.185893 2587.584013)

LINESTRING (2364.813013 356.064614, 2494.946034 724.682744)

LINESTRING (1542.153485 2684.992275, 1342.474287 2675.474096)

LINESTRING (1542.153485 2684.992275, 1270.606688 2240.432386)

LINESTRING (1573.103029 188.825075, 1603.105245 337.105253)

LINESTRING (1573.103029 188.825075, 1696.742536 137.147511)

LINESTRING (1864.776002 916.429564, 1708.495702 801.936537)

LINESTRING (1864.776002 916.429564, 1858.087738 853.569765)

LINESTRING (1120.513023 680.530212, 561.731844 540.787377)

LINESTRING (2426.060331 616.288754, 1921.208695 620.340713)

LINESTRING (2426.060331 616.288754, 2494.946034 724.682744)

LINESTRING (1708.495702 801.936537, 1858.087738 853.569765)

LINESTRING (1603.105245 337.105253, 1264.555626 174.467511)

LINESTRING (2660.646903 1333.082019, 2631.015870 1206.585272)

LINESTRING (959.123828 2670.910727, 1271.222435 2530.032890)

LINESTRING (959.123828 2670.910727, 888.285014 2493.387349)

LINESTRING (959.123828 2670.910727, 1126.185893 2587.584013)

LINESTRING (959.123828 2670.910727, 1202.953669 2678.446534)

LINESTRING (409.933537 183.864198, 446.998687 599.330489)

LINESTRING (409.933537 183.864198, 533.367301 150.696281)

LINESTRING (1974.911644 2058.550549, 1885.977856 1961.447289)

LINESTRING (1974.911644 2058.550549, 2143.926715 2110.738536)

LINESTRING (1974.911644 2058.550549, 2426.579606 2052.990382)

LINESTRING (1974.911644 2058.550549, 2037.095493 1994.750375)

LINESTRING (1264.555626 174.467511, 1115.270628 467.852686)

LINESTRING (1342.474287 2675.474096, 1271.222435 2530.032890)

LINESTRING (1342.474287 2675.474096, 1202.953669 2678.446534)

LINESTRING (944.303287 2333.990303, 888.285014 2493.387349)

LINESTRING (944.303287 2333.990303, 796.034257 2293.131664)

LINESTRING (1287.469712 1585.054964, 1191.681391 1720.420876)

LINESTRING (1271.222435 2530.032890, 1126.185893 2587.584013)

LINESTRING (1271.222435 2530.032890, 1202.953669 2678.446534)

LINESTRING (2311.682107 2497.811156, 2426.579606 2052.990382)

LINESTRING (1858.087738 853.569765, 1890.155628 1419.257542)

LINESTRING (281.269031 434.626132, 266.244731 533.801996)

LINESTRING (281.269031 434.626132, 238.648175 462.451665)

LINESTRING (281.269031 434.626132, 758.199500 596.516101)

LINESTRING (150.966952 2216.337495, 618.634177 2591.512555)

LINESTRING (344.274848 741.295382, 313.429007 845.569900)

LINESTRING (344.274848 741.295382, 266.244731 533.801996)

LINESTRING (344.274848 741.295382, 446.998687 599.330489)

LINESTRING (2180.648582 2028.221179, 2143.926715 2110.738536)

LINESTRING (2180.648582 2028.221179, 2037.095493 1994.750375)

LINESTRING (618.634177 2591.512555, 512.079003 2432.574967)

LINESTRING (618.634177 2591.512555, 1202.953669 2678.446534)

LINESTRING (1115.270628 467.852686, 561.731844 540.787377)

LINESTRING (1126.185893 2587.584013, 1202.953669 2678.446534)

LINESTRING (313.429007 845.569900, 320.715028 1001.262314)

LINESTRING (1885.977856 1961.447289, 2037.095493 1994.750375)

LINESTRING (2143.926715 2110.738536, 2122.173860 1804.866192)

LINESTRING (2143.926715 2110.738536, 2037.095493 1994.750375)

LINESTRING (266.244731 533.801996, 446.998687 599.330489)

LINESTRING (266.244731 533.801996, 238.648175 462.451665)

LINESTRING (1270.606688 2240.432386, 1265.849187 2118.678692)

LINESTRING (2015.115184 1330.720920, 1890.171500 1520.326420)

LINESTRING (2015.115184 1330.720920, 1890.155628 1419.257542)

LINESTRING (2426.579606 2052.990382, 2037.095493 1994.750375)

LINESTRING (1265.849187 2118.678692, 1202.953669 2678.446534)

LINESTRING (755.375479 260.139621, 238.648175 462.451665)

LINESTRING (1890.171500 1520.326420, 1890.155628 1419.257542)

LINESTRING (446.998687 599.330489, 561.731844 540.787377)

