LINESTRING (60.000000 60.000000, 61.084641 79.841036)

LINESTRING (60.000000 60.000000, 60.404547 40.613658)

LINESTRING (60.000000 60.000000, 36.003499 48.118910)

LINESTRING (60.000000 60.000000, 60.425361 72.775483)

LINESTRING (60.000000 60.000000, 73.864480 79.694147)

LINESTRING (60.000000 60.000000, 66.485683 77.780432)

LINESTRING (60.000000 60.000000, 71.004190 82.202304)

LINESTRING (60.000000 60.000000, 46.428651 48.090042)

LINESTRING (61.084641 79.841036, 36.003499 48.118910)

LINESTRING (61.084641 79.841036, 60.425361 72.775483)

LINESTRING (61.084641 79.841036, 73.864480 79.694147)

LINESTRING (61.084641 79.841036, 71.004190 82.202304)

LINESTRING (61.084641 79.841036, 46.428651 48.090042)

LINESTRING (60.404547 40.613658, 36.003499 48.118910)

LINESTRING (60.404547 40.613658, 60.425361 72.775483)

LINESTRING (60.404547 40.613658, 73.864480 79.694147)

LINESTRING (60.404547 40.613658, 66.485683 77.780432)

LINESTRING (60.404547 40.613658, 46.428651 48.090042)

LINESTRING (36.003499 48.118910, 71.004190 82.202304)

LINESTRING (36.003499 48.118910, 46.428651 48.090042)

LINESTRING (60.425361 72.775483, 73.864480 79.694147)

LINESTRING (60.425361 72.775483, 66.485683 77.780432)

LINESTRING (60.425361 72.775483, 71.004190 82.202304)

LINESTRING (60.425361 72.775483, 46.428651 48.090042)

LINESTRING (73.864480 79.694147, 66.485683 77.780432)

LINESTRING (73.864480 79.694147, 71.004190 82.202304)

LINESTRING (73.864480 79.694147, 46.428651 48.090042)

LINESTRING (66.485683 77.780432, 71.004190 82.202304)

LINESTRING (66.485683 77.780432, 46.428651 48.090042)

LINESTRING (71.004190 82.202304, 46.428651 48.090042)

LINESTRING (260.000000 60.000000, 248.713341 65.308433)

LINESTRING (260.000000 60.000000, 255.683123 77.942370)

LINESTRING (260.000000 60.000000, 245.576354 64.789577)

LINESTRING (260.000000 60.000000, 242.642237 69.440503)

LINESTRING (260.000000 60.000000, 261.606104 46.379902)

LINESTRING (260.000000 60.000000, 280.573704 41.513236)

LINESTRING (260.000000 60.000000, 272.541565 62.073888)

LINESTRING (260.000000 60.000000, 244.746147 62.406007)

LINESTRING (248.713341 65.308433, 255.683123 77.942370)

LINESTRING (248.713341 65.308433, 245.576354 64.789577)

LINESTRING (248.713341 65.308433, 242.642237 69.440503)

LINESTRING (248.713341 65.308433, 261.606104 46.379902)

LINESTRING (248.713341 65.308433, 280.573704 41.513236)

LINESTRING (248.713341 65.308433, 272.541565 62.073888)

LINESTRING (255.683123 77.942370, 245.576354 64.789577)

LINESTRING (255.683123 77.942370, 242.642237 69.440503)

LINESTRING (255.683123 77.942370, 261.606104 46.379902)

LINESTRING (255.683123 77.942370, 280.573704 41.513236)

LINESTRING (255.683123 77.942370, 272.541565 62.073888)

LINESTRING (245.576354 64.789577, 242.642237 69.440503)

LINESTRING (245.576354 64.789577, 244.746147 62.406007)

LINESTRING (242.642237 69.440503, 272.541565 62.073888)

LINESTRING (242.642237 69.440503, 244.746147 62.406007)

LINESTRING (261.606104 46.379902, 280.573704 41.513236)

LINESTRING (261.606104 46.379902, 272.541565 62.073888)

LINESTRING (280.573704 41.513236, 244.746147 62.406007)

LINESTRING (272.541565 62.073888, 244.746147 62.406007)

LINESTRING (60.000000 260.000000, 71.241732 256.025879)

LINESTRING (60.000000 260.000000, 66.717947 267.686893)

LINESTRING (60.000000 260.000000, 79.734150 247.234007)

LINESTRING (60.000000 260.000000, 67.628364 271.602077)

LINESTRING (60.000000 260.000000, 67.531962 254.715648)

LINESTRING (60.000000 260.000000, 81.929648 247.572728)

LINESTRING (60.000000 260.000000, 49.608571 276.990922)

LINESTRING (60.000000 260.000000, 74.555256 264.517713)

LINESTRING (71.241732 256.025879, 67.628364 271.602077)

LINESTRING (71.241732 256.025879, 67.531962 254.715648)

LINESTRING (71.241732 256.025879, 49.608571 276.990922)

LINESTRING (71.241732 256.025879, 74.555256 264.517713)

LINESTRING (66.717947 267.686893, 67.531962 254.715648)

LINESTRING (66.717947 267.686893, 81.929648 247.572728)

LINESTRING (66.717947 267.686893, 49.608571 276.990922)

LINESTRING (66.717947 267.686893, 74.555256 264.517713)

LINESTRING (79.734150 247.234007, 67.628364 271.602077)

LINESTRING (79.734150 247.234007, 81.929648 247.572728)

LINESTRING (79.734150 247.234007, 74.555256 264.517713)

LINESTRING (67.628364 271.602077, 67.531962 254.715648)

LINESTRING (67.628364 271.602077, 81.929648 247.572728)

LINESTRING (67.628364 271.602077, 49.608571 276.990922)

LINESTRING (67.531962 254.715648, 81.929648 247.572728)

LINESTRING (67.531962 254.715648, 74.555256 264.517713)

LINESTRING (81.929648 247.572728, 49.608571 276.990922)

LINESTRING (81.929648 247.572728, 74.555256 264.517713)

LINESTRING (49.608571 276.990922, 74.555256 264.517713)

LINESTRING (66.485683 77.780432, 248.713341 65.308433)

LINESTRING (36.003499 48.118910, 261.606104 46.379902)

LINESTRING (60.000000 60.000000, 260.000000 60.000000)

LINESTRING (248.713341 65.308433, 67.531962 254.715648)

LINESTRING (255.683123 77.942370, 67.628364 271.602077)

LINESTRING (260.000000 60.000000, 60.000000 260.000000)

