LINESTRING (3212.681358 404.052128, 2908.981304 1609.247800)

LINESTRING (3212.681358 404.052128, 3327.547502 127.444286)

LINESTRING (5337.085702 1759.416189, 4715.711357 688.144863)

LINESTRING (5337.085702 1759.416189, 3097.162703 1678.091341)

LINESTRING (5337.085702 1759.416189, 5357.197756 3538.830022)

LINESTRING (3622.226013 4722.067802, 1666.077165 4137.155659)

LINESTRING (3622.226013 4722.067802, 2213.232142 4438.661349)

LINESTRING (3622.226013 4722.067802, 5357.197756 3538.830022)

LINESTRING (2091.121744 4573.897884, 1085.639787 5426.774421)

LINESTRING (2091.121744 4573.897884, 1666.077165 4137.155659)

LINESTRING (2091.121744 4573.897884, 2213.232142 4438.661349)

LINESTRING (2976.070456 2148.806482, 3097.162703 1678.091341)

LINESTRING (2976.070456 2148.806482, 3161.720442 3205.042640)

LINESTRING (2976.070456 2148.806482, 2908.981304 1609.247800)

LINESTRING (1085.639787 5426.774421, 464.523990 3930.024078)

LINESTRING (1085.639787 5426.774421, 1666.077165 4137.155659)

LINESTRING (1085.639787 5426.774421, 2213.232142 4438.661349)

LINESTRING (4715.711357 688.144863, 3097.162703 1678.091341)

LINESTRING (4715.711357 688.144863, 3946.196845 1356.013877)

LINESTRING (4715.711357 688.144863, 4795.676474 895.682154)

LINESTRING (4715.711357 688.144863, 2908.981304 1609.247800)

LINESTRING (3097.162703 1678.091341, 3946.196845 1356.013877)

LINESTRING (3097.162703 1678.091341, 2908.981304 1609.247800)

LINESTRING (3946.196845 1356.013877, 1900.267787 1899.738075)

LINESTRING (3161.720442 3205.042640, 1900.267787 1899.738075)

LINESTRING (3161.720442 3205.042640, 2908.981304 1609.247800)

LINESTRING (3161.720442 3205.042640, 2213.232142 4438.661349)

LINESTRING (3161.720442 3205.042640, 5357.197756 3538.830022)

LINESTRING (1900.267787 1899.738075, 2908.981304 1609.247800)

LINESTRING (2908.981304 1609.247800, 3327.547502 127.444286)

LINESTRING (464.523990 3930.024078, 1666.077165 4137.155659)

LINESTRING (464.523990 3930.024078, 2213.232142 4438.661349)

LINESTRING (1666.077165 4137.155659, 2213.232142 4438.661349)

LINESTRING (5206.045090 3103.321960, 5357.197756 3538.830022)

