LINESTRING (44.586983 58.070528, 117.564689 48.090680)

LINESTRING (117.564689 48.090680, 163.391053 45.806865)

LINESTRING (163.391053 45.806865, 237.432813 54.988198)

LINESTRING (237.432813 54.988198, 299.213346 41.546554)

LINESTRING (299.213346 41.546554, 343.740855 40.832264)

LINESTRING (343.740855 40.832264, 402.025648 49.179023)

LINESTRING (402.025648 49.179023, 464.381303 56.692446)

LINESTRING (464.381303 56.692446, 529.384283 57.068500)

LINESTRING (529.384283 57.068500, 584.019837 46.465775)

LINESTRING (584.019837 46.465775, 649.862514 50.137809)

LINESTRING (649.862514 50.137809, 719.485290 58.100432)

LINESTRING (719.485290 58.100432, 771.621228 40.615159)

LINESTRING (43.662889 119.955088, 118.564087 110.947971)

LINESTRING (118.564087 110.947971, 167.381722 118.680953)

LINESTRING (167.381722 118.680953, 231.992182 101.948535)

LINESTRING (231.992182 101.948535, 284.446175 116.783067)

LINESTRING (284.446175 116.783067, 343.961286 116.309521)

LINESTRING (343.961286 116.309521, 405.367759 110.889086)

LINESTRING (405.367759 110.889086, 479.330027 100.419835)

LINESTRING (479.330027 100.419835, 533.797731 114.996656)

LINESTRING (533.797731 114.996656, 595.891101 106.222330)

LINESTRING (595.891101 106.222330, 641.142985 104.856083)

LINESTRING (641.142985 104.856083, 712.262391 108.015186)

LINESTRING (712.262391 108.015186, 762.227026 112.507797)

LINESTRING (49.611489 175.476993, 106.749868 171.583180)

LINESTRING (106.749868 171.583180, 170.293568 176.545585)

LINESTRING (170.293568 176.545585, 231.048836 178.976617)

LINESTRING (231.048836 178.976617, 298.020079 178.221887)

LINESTRING (298.020079 178.221887, 359.498903 172.820633)

LINESTRING (359.498903 172.820633, 413.707154 177.088881)

LINESTRING (413.707154 177.088881, 477.664756 160.040826)

LINESTRING (477.664756 160.040826, 524.486321 177.031697)

LINESTRING (524.486321 177.031697, 598.363093 163.394247)

LINESTRING (598.363093 163.394247, 643.074189 170.394834)

LINESTRING (643.074189 170.394834, 706.770140 163.030329)

LINESTRING (706.770140 163.030329, 775.443704 176.414151)

LINESTRING (44.018855 235.433464, 112.439814 231.115891)

LINESTRING (112.439814 231.115891, 177.453090 224.208594)

LINESTRING (177.453090 224.208594, 223.430654 224.390087)

LINESTRING (223.430654 224.390087, 282.174224 234.192426)

LINESTRING (282.174224 234.192426, 351.517846 234.606333)

LINESTRING (351.517846 234.606333, 406.004123 220.281542)

LINESTRING (406.004123 220.281542, 474.347580 229.319808)

LINESTRING (474.347580 229.319808, 531.199649 222.124788)

LINESTRING (531.199649 222.124788, 583.848007 230.345043)

LINESTRING (583.848007 230.345043, 658.284131 222.454594)

LINESTRING (658.284131 222.454594, 709.553995 224.900209)

LINESTRING (709.553995 224.900209, 779.599645 225.911735)

LINESTRING (46.270639 281.826795, 110.860714 287.717447)

LINESTRING (110.860714 287.717447, 168.122694 281.688084)

LINESTRING (168.122694 281.688084, 229.768989 289.708100)

LINESTRING (229.768989 289.708100, 283.975699 294.559175)

LINESTRING (283.975699 294.559175, 349.678589 282.662139)

LINESTRING (349.678589 282.662139, 410.679652 292.815010)

LINESTRING (410.679652 292.815010, 467.888878 287.450758)

LINESTRING (467.888878 287.450758, 522.649482 291.434649)

LINESTRING (522.649482 291.434649, 587.459542 294.615908)

LINESTRING (587.459542 294.615908, 653.006191 289.521508)

LINESTRING (653.006191 289.521508, 713.602181 297.687119)

LINESTRING (713.602181 297.687119, 770.348253 299.555222)

LINESTRING (51.859590 357.885078, 119.598178 353.354791)

LINESTRING (119.598178 353.354791, 172.235860 340.715672)

LINESTRING (172.235860 340.715672, 220.409568 341.785023)

LINESTRING (220.409568 341.785023, 290.774942 354.754419)

LINESTRING (290.774942 354.754419, 353.731688 350.751977)

LINESTRING (353.731688 350.751977, 406.409567 355.700400)

LINESTRING (406.409567 355.700400, 469.890415 345.308791)

LINESTRING (469.890415 345.308791, 535.618098 352.166016)

LINESTRING (535.618098 352.166016, 597.876805 350.908843)

LINESTRING (597.876805 350.908843, 650.123492 356.360229)

LINESTRING (650.123492 356.360229, 718.728435 352.528124)

LINESTRING (718.728435 352.528124, 766.894139 343.505136)

LINESTRING (59.878047 408.570179, 109.963118 417.471937)

LINESTRING (109.963118 417.471937, 166.264378 407.110012)

LINESTRING (166.264378 407.110012, 228.853483 402.490016)

LINESTRING (228.853483 402.490016, 298.666272 416.914866)

LINESTRING (298.666272 416.914866, 348.173120 410.193478)

LINESTRING (348.173120 410.193478, 412.160406 410.513125)

LINESTRING (412.160406 410.513125, 470.451611 415.450668)

LINESTRING (470.451611 415.450668, 536.179592 408.446373)

LINESTRING (536.179592 408.446373, 596.430858 415.310476)

LINESTRING (596.430858 415.310476, 649.025024 419.925390)

LINESTRING (649.025024 419.925390, 717.449195 419.570789)

LINESTRING (717.449195 419.570789, 774.560998 404.150454)

LINESTRING (40.150855 463.208775, 116.832457 463.476621)

LINESTRING (116.832457 463.476621, 165.945672 469.396092)

LINESTRING (165.945672 469.396092, 221.373514 465.767076)

LINESTRING (221.373514 465.767076, 293.626475 465.500134)

LINESTRING (293.626475 465.500134, 349.280456 472.799579)

LINESTRING (349.280456 472.799579, 403.305743 478.941861)

LINESTRING (403.305743 478.941861, 475.858390 473.503859)

LINESTRING (475.858390 473.503859, 521.624652 466.759630)

LINESTRING (521.624652 466.759630, 590.613783 474.701944)

LINESTRING (590.613783 474.701944, 655.532249 472.368259)

LINESTRING (655.532249 472.368259, 709.327665 477.111375)

LINESTRING (709.327665 477.111375, 766.298189 474.867984)

LINESTRING (57.516507 523.271789, 104.821903 520.627766)

LINESTRING (104.821903 520.627766, 175.096548 527.777755)

LINESTRING (175.096548 527.777755, 237.795200 539.391851)

LINESTRING (237.795200 539.391851, 281.955996 532.902743)

LINESTRING (281.955996 532.902743, 348.801460 527.180329)

LINESTRING (348.801460 527.180329, 418.500476 528.675648)

LINESTRING (418.500476 528.675648, 473.290200 539.557031)

LINESTRING (473.290200 539.557031, 528.323261 525.114627)

LINESTRING (528.323261 525.114627, 584.029537 532.857158)

LINESTRING (584.029537 532.857158, 652.649871 526.859379)

LINESTRING (652.649871 526.859379, 712.650277 524.223112)

LINESTRING (712.650277 524.223112, 765.260621 533.098815)

LINESTRING (50.255118 582.314345, 115.250750 597.971881)

LINESTRING (115.250750 597.971881, 169.811729 581.847316)

LINESTRING (169.811729 581.847316, 228.283829 583.679225)

LINESTRING (228.283829 583.679225, 286.932603 598.689297)

LINESTRING (286.932603 598.689297, 354.407502 592.811256)

LINESTRING (354.407502 592.811256, 410.031601 595.886754)

LINESTRING (410.031601 595.886754, 474.998116 595.440934)

LINESTRING (474.998116 595.440934, 538.066690 590.194855)

LINESTRING (538.066690 590.194855, 595.733951 588.909134)

LINESTRING (595.733951 588.909134, 659.483450 590.593827)

LINESTRING (659.483450 590.593827, 701.888312 585.528971)

LINESTRING (701.888312 585.528971, 766.042775 585.805656)

LINESTRING (54.807665 642.088736, 101.805034 649.964839)

LINESTRING (101.805034 649.964839, 170.584001 649.531556)

LINESTRING (170.584001 649.531556, 224.262856 649.123443)

LINESTRING (224.262856 649.123443, 293.036208 651.065754)

LINESTRING (293.036208 651.065754, 350.194866 658.727248)

LINESTRING (350.194866 658.727248, 411.090074 649.303991)

LINESTRING (411.090074 649.303991, 467.356356 651.544413)

LINESTRING (467.356356 651.544413, 533.267252 647.671926)

LINESTRING (533.267252 647.671926, 580.549393 647.418323)

LINESTRING (580.549393 647.418323, 646.383562 640.977811)

LINESTRING (646.383562 640.977811, 703.009183 644.809539)

LINESTRING (703.009183 644.809539, 771.062952 650.252686)

LINESTRING (42.956686 718.776455, 110.187682 709.787302)

LINESTRING (110.187682 709.787302, 177.089008 708.808536)

LINESTRING (177.089008 708.808536, 222.166978 711.000517)

LINESTRING (222.166978 711.000517, 287.067216 711.629253)

LINESTRING (287.067216 711.629253, 340.628226 711.616220)

LINESTRING (340.628226 711.616220, 409.224892 716.056094)

LINESTRING (409.224892 716.056094, 468.682094 711.852976)

LINESTRING (468.682094 711.852976, 529.104661 706.214132)

LINESTRING (529.104661 706.214132, 587.095129 700.171356)

LINESTRING (587.095129 700.171356, 645.886789 713.016202)

LINESTRING (645.886789 713.016202, 707.035226 701.165072)

LINESTRING (707.035226 701.165072, 773.367599 709.263877)

LINESTRING (55.890825 774.586269, 105.005510 760.954694)

LINESTRING (105.005510 760.954694, 174.749286 775.725748)

LINESTRING (174.749286 775.725748, 234.051075 778.440517)

LINESTRING (234.051075 778.440517, 299.152557 766.324217)

LINESTRING (299.152557 766.324217, 340.750979 767.960044)

LINESTRING (340.750979 767.960044, 412.521594 762.000109)

LINESTRING (412.521594 762.000109, 461.615211 765.407595)

LINESTRING (461.615211 765.407595, 522.266264 762.225355)

LINESTRING (522.266264 762.225355, 589.827198 778.524295)

LINESTRING (589.827198 778.524295, 643.211940 765.621930)

LINESTRING (643.211940 765.621930, 719.352309 769.288950)

LINESTRING (719.352309 769.288950, 767.528918 773.730431)

LINESTRING (44.586983 58.070528, 43.662889 119.955088)

LINESTRING (117.564689 48.090680, 118.564087 110.947971)

LINESTRING (163.391053 45.806865, 167.381722 118.680953)

LINESTRING (237.432813 54.988198, 231.992182 101.948535)

LINESTRING (299.213346 41.546554, 284.446175 116.783067)

LINESTRING (343.740855 40.832264, 343.961286 116.309521)

LINESTRING (402.025648 49.179023, 405.367759 110.889086)

LINESTRING (464.381303 56.692446, 479.330027 100.419835)

LINESTRING (529.384283 57.068500, 533.797731 114.996656)

LINESTRING (584.019837 46.465775, 595.891101 106.222330)

LINESTRING (649.862514 50.137809, 641.142985 104.856083)

LINESTRING (719.485290 58.100432, 712.262391 108.015186)

LINESTRING (771.621228 40.615159, 762.227026 112.507797)

LINESTRING (43.662889 119.955088, 49.611489 175.476993)

LINESTRING (118.564087 110.947971, 106.749868 171.583180)

LINESTRING (167.381722 118.680953, 170.293568 176.545585)

LINESTRING (231.992182 101.948535, 231.048836 178.976617)

LINESTRING (284.446175 116.783067, 298.020079 178.221887)

LINESTRING (343.961286 116.309521, 359.498903 172.820633)

LINESTRING (405.367759 110.889086, 413.707154 177.088881)

LINESTRING (479.330027 100.419835, 477.664756 160.040826)

LINESTRING (533.797731 114.996656, 524.486321 177.031697)

LINESTRING (595.891101 106.222330, 598.363093 163.394247)

LINESTRING (641.142985 104.856083, 643.074189 170.394834)

LINESTRING (712.262391 108.015186, 706.770140 163.030329)

LINESTRING (762.227026 112.507797, 775.443704 176.414151)

LINESTRING (49.611489 175.476993, 44.018855 235.433464)

LINESTRING (106.749868 171.583180, 112.439814 231.115891)

LINESTRING (170.293568 176.545585, 177.453090 224.208594)

LINESTRING (231.048836 178.976617, 223.430654 224.390087)

LINESTRING (298.020079 178.221887, 282.174224 234.192426)

LINESTRING (359.498903 172.820633, 351.517846 234.606333)

LINESTRING (413.707154 177.088881, 406.004123 220.281542)

LINESTRING (477.664756 160.040826, 474.347580 229.319808)

LINESTRING (524.486321 177.031697, 531.199649 222.124788)

LINESTRING (598.363093 163.394247, 583.848007 230.345043)

LINESTRING (643.074189 170.394834, 658.284131 222.454594)

LINESTRING (706.770140 163.030329, 709.553995 224.900209)

LINESTRING (775.443704 176.414151, 779.599645 225.911735)

LINESTRING (44.018855 235.433464, 46.270639 281.826795)

LINESTRING (112.439814 231.115891, 110.860714 287.717447)

LINESTRING (177.453090 224.208594, 168.122694 281.688084)

LINESTRING (223.430654 224.390087, 229.768989 289.708100)

LINESTRING (282.174224 234.192426, 283.975699 294.559175)

LINESTRING (351.517846 234.606333, 349.678589 282.662139)

LINESTRING (406.004123 220.281542, 410.679652 292.815010)

LINESTRING (474.347580 229.319808, 467.888878 287.450758)

LINESTRING (531.199649 222.124788, 522.649482 291.434649)

LINESTRING (583.848007 230.345043, 587.459542 294.615908)

LINESTRING (658.284131 222.454594, 653.006191 289.521508)

LINESTRING (709.553995 224.900209, 713.602181 297.687119)

LINESTRING (779.599645 225.911735, 770.348253 299.555222)

LINESTRING (46.270639 281.826795, 51.859590 357.885078)

LINESTRING (110.860714 287.717447, 119.598178 353.354791)

LINESTRING (168.122694 281.688084, 172.235860 340.715672)

LINESTRING (229.768989 289.708100, 220.409568 341.785023)

LINESTRING (283.975699 294.559175, 290.774942 354.754419)

LINESTRING (349.678589 282.662139, 353.731688 350.751977)

LINESTRING (410.679652 292.815010, 406.409567 355.700400)

LINESTRING (467.888878 287.450758, 469.890415 345.308791)

LINESTRING (522.649482 291.434649, 535.618098 352.166016)

LINESTRING (587.459542 294.615908, 597.876805 350.908843)

LINESTRING (653.006191 289.521508, 650.123492 356.360229)

LINESTRING (713.602181 297.687119, 718.728435 352.528124)

LINESTRING (770.348253 299.555222, 766.894139 343.505136)

LINESTRING (51.859590 357.885078, 59.878047 408.570179)

LINESTRING (119.598178 353.354791, 109.963118 417.471937)

LINESTRING (172.235860 340.715672, 166.264378 407.110012)

LINESTRING (220.409568 341.785023, 228.853483 402.490016)

LINESTRING (290.774942 354.754419, 298.666272 416.914866)

LINESTRING (353.731688 350.751977, 348.173120 410.193478)

LINESTRING (406.409567 355.700400, 412.160406 410.513125)

LINESTRING (469.890415 345.308791, 470.451611 415.450668)

LINESTRING (535.618098 352.166016, 536.179592 408.446373)

LINESTRING (597.876805 350.908843, 596.430858 415.310476)

LINESTRING (650.123492 356.360229, 649.025024 419.925390)

LINESTRING (718.728435 352.528124, 717.449195 419.570789)

LINESTRING (766.894139 343.505136, 774.560998 404.150454)

LINESTRING (59.878047 408.570179, 40.150855 463.208775)

LINESTRING (109.963118 417.471937, 116.832457 463.476621)

LINESTRING (166.264378 407.110012, 165.945672 469.396092)

LINESTRING (228.853483 402.490016, 221.373514 465.767076)

LINESTRING (298.666272 416.914866, 293.626475 465.500134)

LINESTRING (348.173120 410.193478, 349.280456 472.799579)

LINESTRING (412.160406 410.513125, 403.305743 478.941861)

LINESTRING (470.451611 415.450668, 475.858390 473.503859)

LINESTRING (536.179592 408.446373, 521.624652 466.759630)

LINESTRING (596.430858 415.310476, 590.613783 474.701944)

LINESTRING (649.025024 419.925390, 655.532249 472.368259)

LINESTRING (717.449195 419.570789, 709.327665 477.111375)

LINESTRING (774.560998 404.150454, 766.298189 474.867984)

LINESTRING (40.150855 463.208775, 57.516507 523.271789)

LINESTRING (116.832457 463.476621, 104.821903 520.627766)

LINESTRING (165.945672 469.396092, 175.096548 527.777755)

LINESTRING (221.373514 465.767076, 237.795200 539.391851)

LINESTRING (293.626475 465.500134, 281.955996 532.902743)

LINESTRING (349.280456 472.799579, 348.801460 527.180329)

LINESTRING (403.305743 478.941861, 418.500476 528.675648)

LINESTRING (475.858390 473.503859, 473.290200 539.557031)

LINESTRING (521.624652 466.759630, 528.323261 525.114627)

LINESTRING (590.613783 474.701944, 584.029537 532.857158)

LINESTRING (655.532249 472.368259, 652.649871 526.859379)

LINESTRING (709.327665 477.111375, 712.650277 524.223112)

LINESTRING (766.298189 474.867984, 765.260621 533.098815)

LINESTRING (57.516507 523.271789, 50.255118 582.314345)

LINESTRING (104.821903 520.627766, 115.250750 597.971881)

LINESTRING (175.096548 527.777755, 169.811729 581.847316)

LINESTRING (237.795200 539.391851, 228.283829 583.679225)

LINESTRING (281.955996 532.902743, 286.932603 598.689297)

LINESTRING (348.801460 527.180329, 354.407502 592.811256)

LINESTRING (418.500476 528.675648, 410.031601 595.886754)

LINESTRING (473.290200 539.557031, 474.998116 595.440934)

LINESTRING (528.323261 525.114627, 538.066690 590.194855)

LINESTRING (584.029537 532.857158, 595.733951 588.909134)

LINESTRING (652.649871 526.859379, 659.483450 590.593827)

LINESTRING (712.650277 524.223112, 701.888312 585.528971)

LINESTRING (765.260621 533.098815, 766.042775 585.805656)

LINESTRING (50.255118 582.314345, 54.807665 642.088736)

LINESTRING (115.250750 597.971881, 101.805034 649.964839)

LINESTRING (169.811729 581.847316, 170.584001 649.531556)

LINESTRING (228.283829 583.679225, 224.262856 649.123443)

LINESTRING (286.932603 598.689297, 293.036208 651.065754)

LINESTRING (354.407502 592.811256, 350.194866 658.727248)

LINESTRING (410.031601 595.886754, 411.090074 649.303991)

LINESTRING (474.998116 595.440934, 467.356356 651.544413)

LINESTRING (538.066690 590.194855, 533.267252 647.671926)

LINESTRING (595.733951 588.909134, 580.549393 647.418323)

LINESTRING (659.483450 590.593827, 646.383562 640.977811)

LINESTRING (701.888312 585.528971, 703.009183 644.809539)

LINESTRING (766.042775 585.805656, 771.062952 650.252686)

LINESTRING (54.807665 642.088736, 42.956686 718.776455)

LINESTRING (101.805034 649.964839, 110.187682 709.787302)

LINESTRING (170.584001 649.531556, 177.089008 708.808536)

LINESTRING (224.262856 649.123443, 222.166978 711.000517)

LINESTRING (293.036208 651.065754, 287.067216 711.629253)

LINESTRING (350.194866 658.727248, 340.628226 711.616220)

LINESTRING (411.090074 649.303991, 409.224892 716.056094)

LINESTRING (467.356356 651.544413, 468.682094 711.852976)

LINESTRING (533.267252 647.671926, 529.104661 706.214132)

LINESTRING (580.549393 647.418323, 587.095129 700.171356)

LINESTRING (646.383562 640.977811, 645.886789 713.016202)

LINESTRING (703.009183 644.809539, 707.035226 701.165072)

LINESTRING (771.062952 650.252686, 773.367599 709.263877)

LINESTRING (42.956686 718.776455, 55.890825 774.586269)

LINESTRING (110.187682 709.787302, 105.005510 760.954694)

LINESTRING (177.089008 708.808536, 174.749286 775.725748)

LINESTRING (222.166978 711.000517, 234.051075 778.440517)

LINESTRING (287.067216 711.629253, 299.152557 766.324217)

LINESTRING (340.628226 711.616220, 340.750979 767.960044)

LINESTRING (409.224892 716.056094, 412.521594 762.000109)

LINESTRING (468.682094 711.852976, 461.615211 765.407595)

LINESTRING (529.104661 706.214132, 522.266264 762.225355)

LINESTRING (587.095129 700.171356, 589.827198 778.524295)

LINESTRING (645.886789 713.016202, 643.211940 765.621930)

LINESTRING (707.035226 701.165072, 719.352309 769.288950)

LINESTRING (773.367599 709.263877, 767.528918 773.730431)

LINESTRING (163.391053 45.806865, 231.992182 101.948535)

LINESTRING (237.432813 54.988198, 284.446175 116.783067)

LINESTRING (529.384283 57.068500, 595.891101 106.222330)

LINESTRING (719.485290 58.100432, 762.227026 112.507797)

LINESTRING (641.142985 104.856083, 706.770140 163.030329)

LINESTRING (223.430654 224.390087, 283.975699 294.559175)

LINESTRING (531.199649 222.124788, 587.459542 294.615908)

LINESTRING (522.649482 291.434649, 597.876805 350.908843)

LINESTRING (172.235860 340.715672, 228.853483 402.490016)

LINESTRING (535.618098 352.166016, 596.430858 415.310476)

LINESTRING (650.123492 356.360229, 717.449195 419.570789)

LINESTRING (718.728435 352.528124, 774.560998 404.150454)

LINESTRING (412.160406 410.513125, 475.858390 473.503859)

LINESTRING (293.626475 465.500134, 348.801460 527.180329)

LINESTRING (528.323261 525.114627, 595.733951 588.909134)

LINESTRING (595.733951 588.909134, 646.383562 640.977811)

LINESTRING (293.036208 651.065754, 340.628226 711.616220)

LINESTRING (703.009183 644.809539, 773.367599 709.263877)

