LINESTRING (80.000000 80.000000, 366.381560 154.504689)

LINESTRING (366.381560 154.504689, 650.482259 77.895083)

LINESTRING (650.482259 77.895083, 855.674563 -139.061985)

LINESTRING (855.674563 -139.061985, 925.861516 -437.129042)

LINESTRING (925.861516 -437.129042, 842.535209 -731.138962)

LINESTRING (842.535209 -731.138962, 621.099653 -944.183160)

LINESTRING (842.535209 -731.138962, 921.297792 -1023.943195)

LINESTRING (925.861516 -437.129042, 1147.024936 -646.368862)

LINESTRING (1147.024936 -646.368862, 1215.499737 -936.352912)

LINESTRING (1147.024936 -646.368862, 1439.854178 -724.096438)

LINESTRING (855.674563 -139.061985, 1137.175934 -207.539613)

LINESTRING (1137.175934 -207.539613, 1356.492600 -422.068368)

LINESTRING (1356.492600 -422.068368, 1427.775754 -709.681709)

LINESTRING (1356.492600 -422.068368, 1636.817548 -492.013661)

LINESTRING (1137.175934 -207.539613, 1434.969026 -126.632904)

LINESTRING (1434.969026 -126.632904, 1734.420830 -196.122072)

LINESTRING (1434.969026 -126.632904, 1643.498457 86.964000)

LINESTRING (650.482259 77.895083, 936.691054 157.285929)

LINESTRING (936.691054 157.285929, 1226.836790 82.479375)

LINESTRING (1226.836790 82.479375, 1436.274854 -129.191274)

LINESTRING (1436.274854 -129.191274, 1515.316516 -412.885669)

LINESTRING (1436.274854 -129.191274, 1733.853509 -215.847737)

LINESTRING (1226.836790 82.479375, 1522.324237 152.178588)

LINESTRING (1522.324237 152.178588, 1815.399409 64.997818)

LINESTRING (1522.324237 152.178588, 1739.421072 368.924431)

LINESTRING (936.691054 157.285929, 1139.624932 375.987886)

LINESTRING (1139.624932 375.987886, 1432.869679 449.856308)

LINESTRING (1432.869679 449.856308, 1725.376062 381.329244)

LINESTRING (1432.869679 449.856308, 1652.591666 655.794361)

LINESTRING (1139.624932 375.987886, 1214.834821 671.990548)

LINESTRING (1214.834821 671.990548, 1430.086240 881.750861)

LINESTRING (1214.834821 671.990548, 1135.067765 966.617581)

LINESTRING (366.381560 154.504689, 585.131254 370.353736)

LINESTRING (585.131254 370.353736, 868.889851 444.101583)

LINESTRING (868.889851 444.101583, 1166.757695 366.978384)

LINESTRING (1166.757695 366.978384, 1374.655878 158.271056)

LINESTRING (1374.655878 158.271056, 1448.338897 -124.299285)

LINESTRING (1374.655878 158.271056, 1673.261367 74.634891)

LINESTRING (1166.757695 366.978384, 1465.114644 445.905178)

LINESTRING (1465.114644 445.905178, 1745.816057 360.952749)

LINESTRING (1465.114644 445.905178, 1674.703032 661.998834)

LINESTRING (868.889851 444.101583, 1082.363700 650.094604)

LINESTRING (1082.363700 650.094604, 1364.662922 733.547814)

LINESTRING (1364.662922 733.547814, 1663.638999 651.934259)

LINESTRING (1364.662922 733.547814, 1568.868094 944.565668)

LINESTRING (1082.363700 650.094604, 1163.588321 932.841144)

LINESTRING (1163.588321 932.841144, 1371.855778 1135.217278)

LINESTRING (1163.588321 932.841144, 1085.934318 1228.488675)

LINESTRING (585.131254 370.353736, 671.489743 667.062721)

LINESTRING (671.489743 667.062721, 890.836181 881.706596)

LINESTRING (890.836181 881.706596, 1182.846181 960.561514)

LINESTRING (1182.846181 960.561514, 1470.364580 879.909399)

LINESTRING (1182.846181 960.561514, 1386.217969 1163.981573)

LINESTRING (890.836181 881.706596, 970.964418 1166.276214)

LINESTRING (970.964418 1166.276214, 1184.847482 1370.606779)

LINESTRING (970.964418 1166.276214, 897.784053 1453.432480)

LINESTRING (671.489743 667.062721, 594.384316 947.350613)

LINESTRING (594.384316 947.350613, 669.628928 1231.700793)

LINESTRING (669.628928 1231.700793, 879.119345 1438.426277)

LINESTRING (669.628928 1231.700793, 582.105281 1517.637920)

LINESTRING (594.384316 947.350613, 379.340912 1163.792035)

LINESTRING (379.340912 1163.792035, 306.352939 1445.123681)

LINESTRING (379.340912 1163.792035, 97.933922 1244.330141)

LINESTRING (80.000000 80.000000, 158.621118 367.993072)

LINESTRING (158.621118 367.993072, 379.892149 577.768393)

LINESTRING (379.892149 577.768393, 666.791039 646.069475)

LINESTRING (666.791039 646.069475, 953.726245 570.548022)

LINESTRING (953.726245 570.548022, 1163.318250 356.024343)

LINESTRING (1163.318250 356.024343, 1231.006671 66.422260)

LINESTRING (1163.318250 356.024343, 1462.535684 284.845984)

LINESTRING (953.726245 570.548022, 1244.571383 650.267904)

LINESTRING (1244.571383 650.267904, 1535.540509 565.175857)

LINESTRING (1244.571383 650.267904, 1461.640540 866.161896)

LINESTRING (666.791039 646.069475, 880.677188 850.458687)

LINESTRING (880.677188 850.458687, 1176.172524 936.314561)

LINESTRING (1176.172524 936.314561, 1456.024939 860.400109)

LINESTRING (1176.172524 936.314561, 1386.274693 1144.093759)

LINESTRING (880.677188 850.458687, 965.744301 1140.677473)

LINESTRING (965.744301 1140.677473, 1177.263187 1348.188701)

LINESTRING (965.744301 1140.677473, 882.280973 1430.563393)

LINESTRING (379.892149 577.768393, 454.366132 864.281661)

LINESTRING (454.366132 864.281661, 676.128190 1084.948720)

LINESTRING (676.128190 1084.948720, 969.396805 1154.205621)

LINESTRING (969.396805 1154.205621, 1262.682286 1078.672313)

LINESTRING (969.396805 1154.205621, 1179.319185 1373.300281)

LINESTRING (676.128190 1084.948720, 756.502285 1384.273936)

LINESTRING (756.502285 1384.273936, 971.918136 1592.472269)

LINESTRING (756.502285 1384.273936, 685.054448 1675.512360)

LINESTRING (454.366132 864.281661, 371.684219 1159.547428)

LINESTRING (371.684219 1159.547428, 447.521397 1456.960773)

LINESTRING (447.521397 1456.960773, 667.304959 1673.316873)

LINESTRING (447.521397 1456.960773, 364.134982 1743.469897)

LINESTRING (371.684219 1159.547428, 156.154123 1373.743516)

LINESTRING (156.154123 1373.743516, 82.666540 1668.207076)

LINESTRING (156.154123 1373.743516, -127.611853 1443.641234)

LINESTRING (158.621118 367.993072, 81.297080 655.945486)

LINESTRING (81.297080 655.945486, 163.440722 955.235062)

LINESTRING (163.440722 955.235062, 377.432676 1170.845675)

LINESTRING (377.432676 1170.845675, 662.566765 1239.283423)

LINESTRING (662.566765 1239.283423, 952.871460 1170.251488)

LINESTRING (662.566765 1239.283423, 870.118135 1456.084796)

LINESTRING (377.432676 1170.845675, 454.972854 1469.458425)

LINESTRING (454.972854 1469.458425, 657.992679 1675.657741)

LINESTRING (454.972854 1469.458425, 367.612819 1759.818834)

LINESTRING (163.440722 955.235062, 76.167907 1251.775607)

LINESTRING (76.167907 1251.775607, 154.205867 1531.887503)

LINESTRING (154.205867 1531.887503, 369.480794 1753.573459)

LINESTRING (154.205867 1531.887503, 69.784024 1825.709500)

LINESTRING (76.167907 1251.775607, -139.479900 1466.644732)

LINESTRING (-139.479900 1466.644732, -223.791739 1754.178325)

LINESTRING (-139.479900 1466.644732, -431.418067 1549.576903)

LINESTRING (81.297080 655.945486, -121.153038 864.607600)

LINESTRING (-121.153038 864.607600, -197.590458 1164.306902)

LINESTRING (-197.590458 1164.306902, -119.900130 1459.507004)

LINESTRING (-119.900130 1459.507004, 96.440006 1665.962922)

LINESTRING (-119.900130 1459.507004, -189.423631 1757.680090)

LINESTRING (-197.590458 1164.306902, -414.173323 1383.539481)

LINESTRING (-414.173323 1383.539481, -499.949404 1676.344868)

LINESTRING (-414.173323 1383.539481, -703.144162 1459.752061)

LINESTRING (-121.153038 864.607600, -401.489018 933.448469)

LINESTRING (-401.489018 933.448469, -611.622105 1148.202545)

LINESTRING (-611.622105 1148.202545, -688.983517 1437.673175)

LINESTRING (-611.622105 1148.202545, -894.714872 1230.963549)

LINESTRING (-401.489018 933.448469, -683.018970 860.591256)

LINESTRING (-683.018970 860.591256, -974.525748 930.271598)

LINESTRING (-683.018970 860.591256, -885.691685 650.014214)

