LINESTRING (7027.772584 1314.488242, 6553.028419 1074.798514)

LINESTRING (6947.255460 6480.030567, 7032.861106 6686.106340)

LINESTRING (6947.255460 6480.030567, 6403.483895 5078.224356)

LINESTRING (6947.255460 6480.030567, 7346.330193 6715.878173)

LINESTRING (4587.189489 4834.338161, 3664.285113 3380.063082)

LINESTRING (4587.189489 4834.338161, 5068.179387 4832.860345)

LINESTRING (4587.189489 4834.338161, 3831.635356 4055.410022)

LINESTRING (4587.189489 4834.338161, 5014.963490 4582.505008)

LINESTRING (7659.368151 7542.590568, 6443.324541 7346.984913)

LINESTRING (6673.494981 5666.990544, 7346.330193 6715.878173)

LINESTRING (6673.494981 5666.990544, 6763.917313 7400.288299)

LINESTRING (623.844958 7945.422794, 1003.487525 6247.081669)

LINESTRING (623.844958 7945.422794, 634.944746 7157.635799)

LINESTRING (3960.654173 5530.204624, 2861.421662 6596.959683)

LINESTRING (3960.654173 5530.204624, 5014.963490 4582.505008)

LINESTRING (3960.654173 5530.204624, 3937.252367 4067.330077)

LINESTRING (7122.437389 4829.727368, 7544.678137 3789.204845)

LINESTRING (7032.861106 6686.106340, 6174.746812 6422.355665)

LINESTRING (7032.861106 6686.106340, 7346.330193 6715.878173)

LINESTRING (7032.861106 6686.106340, 6443.324541 7346.984913)

LINESTRING (7032.861106 6686.106340, 6322.516014 7791.752638)

LINESTRING (6403.483895 5078.224356, 5068.179387 4832.860345)

LINESTRING (6403.483895 5078.224356, 5590.719315 6465.377491)

LINESTRING (6403.483895 5078.224356, 7544.678137 3789.204845)

LINESTRING (6403.483895 5078.224356, 6827.117938 4144.794490)

LINESTRING (6174.746812 6422.355665, 5590.719315 6465.377491)

LINESTRING (6174.746812 6422.355665, 6784.801298 7353.287693)

LINESTRING (6174.746812 6422.355665, 6443.324541 7346.984913)

LINESTRING (2212.305439 4962.065849, 1257.670854 4006.175176)

LINESTRING (2212.305439 4962.065849, 1695.762591 5482.604082)

LINESTRING (2212.305439 4962.065849, 838.426129 6049.604066)

LINESTRING (864.929706 5450.488713, 1369.955680 5428.113857)

LINESTRING (864.929706 5450.488713, 1124.943935 6831.250043)

LINESTRING (864.929706 5450.488713, 838.426129 6049.604066)

LINESTRING (4045.991334 862.659609, 4194.752888 1441.014557)

LINESTRING (8242.672382 3989.758405, 7544.678137 3789.204845)

LINESTRING (8242.672382 3989.758405, 6827.117938 4144.794490)

LINESTRING (5761.387744 2313.097562, 6553.028419 1074.798514)

LINESTRING (5761.387744 2313.097562, 4289.937728 2646.346537)

LINESTRING (4674.711609 2908.194954, 4317.512334 2470.606405)

LINESTRING (4674.711609 2908.194954, 4846.847498 1787.388512)

LINESTRING (4674.711609 2908.194954, 4289.937728 2646.346537)

LINESTRING (4674.711609 2908.194954, 3937.252367 4067.330077)

LINESTRING (4194.752888 1441.014557, 4317.512334 2470.606405)

LINESTRING (4194.752888 1441.014557, 3114.821943 134.852751)

LINESTRING (1866.323181 6273.426921, 2861.421662 6596.959683)

LINESTRING (1866.323181 6273.426921, 2908.046619 6533.581844)

LINESTRING (1866.323181 6273.426921, 2374.188090 6145.721925)

LINESTRING (1866.323181 6273.426921, 1005.965921 6295.257847)

LINESTRING (1866.323181 6273.426921, 1003.487525 6247.081669)

LINESTRING (1866.323181 6273.426921, 3328.160050 5311.871675)

LINESTRING (1866.323181 6273.426921, 1085.168212 7527.035485)

LINESTRING (1866.323181 6273.426921, 634.944746 7157.635799)

LINESTRING (1866.323181 6273.426921, 3019.574158 5767.537174)

LINESTRING (1675.969947 1373.375582, 302.755475 2387.227419)

LINESTRING (1675.969947 1373.375582, 2103.724860 957.786951)

LINESTRING (1675.969947 1373.375582, 389.897273 1205.529751)

LINESTRING (2827.518738 2863.569846, 4317.512334 2470.606405)

LINESTRING (5622.978695 7750.381523, 6763.917313 7400.288299)

LINESTRING (5622.978695 7750.381523, 6443.324541 7346.984913)

LINESTRING (5622.978695 7750.381523, 6322.516014 7791.752638)

LINESTRING (1369.955680 5428.113857, 1695.762591 5482.604082)

LINESTRING (1369.955680 5428.113857, 1003.487525 6247.081669)

LINESTRING (1369.955680 5428.113857, 1124.943935 6831.250043)

LINESTRING (1369.955680 5428.113857, 3019.574158 5767.537174)

LINESTRING (3899.656860 3370.375471, 3664.285113 3380.063082)

LINESTRING (3899.656860 3370.375471, 2445.778124 3726.179076)

LINESTRING (5058.073641 5621.330834, 3540.700814 6418.736952)

LINESTRING (5058.073641 5621.330834, 5014.963490 4582.505008)

LINESTRING (5058.073641 5621.330834, 4849.275837 6974.453065)

LINESTRING (2861.421662 6596.959683, 2908.046619 6533.581844)

LINESTRING (239.994039 2701.221459, 1257.670854 4006.175176)

LINESTRING (239.994039 2701.221459, 302.755475 2387.227419)

LINESTRING (239.994039 2701.221459, 426.512822 1301.892970)

LINESTRING (239.994039 2701.221459, 116.916508 2899.429533)

LINESTRING (7346.330193 6715.878173, 6322.516014 7791.752638)

LINESTRING (1257.670854 4006.175176, 1695.762591 5482.604082)

LINESTRING (1257.670854 4006.175176, 2494.315937 3993.736163)

LINESTRING (7381.347092 5650.935960, 6827.117938 4144.794490)

LINESTRING (1673.180310 7976.765013, 1739.762388 7550.478160)

LINESTRING (1673.180310 7976.765013, 1588.014071 8186.598724)

LINESTRING (1673.180310 7976.765013, 2194.799874 8079.441532)

LINESTRING (2908.046619 6533.581844, 1200.209377 6151.600888)

LINESTRING (2908.046619 6533.581844, 1739.762388 7550.478160)

LINESTRING (2374.188090 6145.721925, 1739.762388 7550.478160)

LINESTRING (2374.188090 6145.721925, 1695.762591 5482.604082)

LINESTRING (2374.188090 6145.721925, 1003.487525 6247.081669)

LINESTRING (4317.512334 2470.606405, 4846.847498 1787.388512)

LINESTRING (4317.512334 2470.606405, 4289.937728 2646.346537)

LINESTRING (302.755475 2387.227419, 407.197584 3419.585078)

LINESTRING (302.755475 2387.227419, 116.916508 2899.429533)

LINESTRING (302.755475 2387.227419, 389.897273 1205.529751)

LINESTRING (5068.179387 4832.860345, 5226.484968 3979.698525)

LINESTRING (5068.179387 4832.860345, 5014.963490 4582.505008)

LINESTRING (5068.179387 4832.860345, 3937.252367 4067.330077)

LINESTRING (1200.209377 6151.600888, 1005.965921 6295.257847)

LINESTRING (1200.209377 6151.600888, 1003.487525 6247.081669)

LINESTRING (1200.209377 6151.600888, 838.426129 6049.604066)

LINESTRING (1739.762388 7550.478160, 1588.014071 8186.598724)

LINESTRING (1739.762388 7550.478160, 1085.168212 7527.035485)

LINESTRING (1005.965921 6295.257847, 1003.487525 6247.081669)

LINESTRING (1005.965921 6295.257847, 1124.943935 6831.250043)

LINESTRING (1005.965921 6295.257847, 838.426129 6049.604066)

LINESTRING (1005.965921 6295.257847, 1085.168212 7527.035485)

LINESTRING (1695.762591 5482.604082, 3019.574158 5767.537174)

LINESTRING (2445.778124 3726.179076, 3831.635356 4055.410022)

LINESTRING (2445.778124 3726.179076, 2494.315937 3993.736163)

LINESTRING (1003.487525 6247.081669, 1124.943935 6831.250043)

LINESTRING (1003.487525 6247.081669, 838.426129 6049.604066)

LINESTRING (1003.487525 6247.081669, 1085.168212 7527.035485)

LINESTRING (2103.724860 957.786951, 3114.821943 134.852751)

LINESTRING (8197.038839 1531.884424, 8238.935434 1861.346268)

LINESTRING (8197.038839 1531.884424, 6553.028419 1074.798514)

LINESTRING (1124.943935 6831.250043, 634.944746 7157.635799)

LINESTRING (426.512822 1301.892970, 116.916508 2899.429533)

LINESTRING (426.512822 1301.892970, 949.591023 1523.513581)

LINESTRING (426.512822 1301.892970, 389.897273 1205.529751)

LINESTRING (5226.484968 3979.698525, 5014.963490 4582.505008)

LINESTRING (5226.484968 3979.698525, 3937.252367 4067.330077)

LINESTRING (5226.484968 3979.698525, 6827.117938 4144.794490)

LINESTRING (3328.160050 5311.871675, 3831.635356 4055.410022)

LINESTRING (3328.160050 5311.871675, 3540.700814 6418.736952)

LINESTRING (3328.160050 5311.871675, 3937.252367 4067.330077)

LINESTRING (3328.160050 5311.871675, 3019.574158 5767.537174)

LINESTRING (1588.014071 8186.598724, 1085.168212 7527.035485)

LINESTRING (1588.014071 8186.598724, 634.944746 7157.635799)

LINESTRING (6784.801298 7353.287693, 6763.917313 7400.288299)

LINESTRING (6784.801298 7353.287693, 6443.324541 7346.984913)

LINESTRING (3831.635356 4055.410022, 3937.252367 4067.330077)

LINESTRING (3540.700814 6418.736952, 3753.526345 7264.008270)

LINESTRING (6763.917313 7400.288299, 6443.324541 7346.984913)

LINESTRING (6763.917313 7400.288299, 6322.516014 7791.752638)

LINESTRING (407.197584 3419.585078, 116.916508 2899.429533)

LINESTRING (3753.526345 7264.008270, 4849.275837 6974.453065)

LINESTRING (3753.526345 7264.008270, 3019.574158 5767.537174)

LINESTRING (6443.324541 7346.984913, 6322.516014 7791.752638)

LINESTRING (1085.168212 7527.035485, 634.944746 7157.635799)

