LINESTRING (60.000000 60.000000, 60.491208 47.345562)

LINESTRING (60.000000 60.000000, 71.816366 94.449852)

LINESTRING (60.000000 60.000000, 74.032444 63.681724)

LINESTRING (60.000000 60.000000, 74.913840 56.250065)

LINESTRING (60.000000 60.000000, 79.049311 69.830744)

LINESTRING (60.000000 60.000000, 32.301149 87.054074)

LINESTRING (60.000000 60.000000, 60.807538 83.907761)

LINESTRING (60.000000 60.000000, 65.721412 47.995752)

LINESTRING (60.000000 60.000000, 83.781237 35.347360)

LINESTRING (60.000000 60.000000, 73.897290 94.991169)

LINESTRING (60.000000 60.000000, 63.623438 93.247470)

LINESTRING (60.000000 60.000000, 79.092120 94.102469)

LINESTRING (60.491208 47.345562, 71.816366 94.449852)

LINESTRING (60.491208 47.345562, 74.032444 63.681724)

LINESTRING (60.491208 47.345562, 79.049311 69.830744)

LINESTRING (60.491208 47.345562, 32.301149 87.054074)

LINESTRING (60.491208 47.345562, 60.807538 83.907761)

LINESTRING (60.491208 47.345562, 65.721412 47.995752)

LINESTRING (60.491208 47.345562, 83.781237 35.347360)

LINESTRING (60.491208 47.345562, 73.897290 94.991169)

LINESTRING (60.491208 47.345562, 79.092120 94.102469)

LINESTRING (71.816366 94.449852, 74.032444 63.681724)

LINESTRING (71.816366 94.449852, 74.913840 56.250065)

LINESTRING (71.816366 94.449852, 79.049311 69.830744)

LINESTRING (71.816366 94.449852, 32.301149 87.054074)

LINESTRING (71.816366 94.449852, 60.807538 83.907761)

LINESTRING (71.816366 94.449852, 65.721412 47.995752)

LINESTRING (71.816366 94.449852, 83.781237 35.347360)

LINESTRING (71.816366 94.449852, 73.897290 94.991169)

LINESTRING (71.816366 94.449852, 63.623438 93.247470)

LINESTRING (71.816366 94.449852, 79.092120 94.102469)

LINESTRING (74.032444 63.681724, 79.049311 69.830744)

LINESTRING (74.032444 63.681724, 32.301149 87.054074)

LINESTRING (74.032444 63.681724, 60.807538 83.907761)

LINESTRING (74.032444 63.681724, 65.721412 47.995752)

LINESTRING (74.032444 63.681724, 83.781237 35.347360)

LINESTRING (74.032444 63.681724, 73.897290 94.991169)

LINESTRING (74.032444 63.681724, 63.623438 93.247470)

LINESTRING (74.032444 63.681724, 79.092120 94.102469)

LINESTRING (74.913840 56.250065, 32.301149 87.054074)

LINESTRING (74.913840 56.250065, 60.807538 83.907761)

LINESTRING (74.913840 56.250065, 65.721412 47.995752)

LINESTRING (74.913840 56.250065, 83.781237 35.347360)

LINESTRING (74.913840 56.250065, 73.897290 94.991169)

LINESTRING (74.913840 56.250065, 63.623438 93.247470)

LINESTRING (74.913840 56.250065, 79.092120 94.102469)

LINESTRING (79.049311 69.830744, 32.301149 87.054074)

LINESTRING (79.049311 69.830744, 60.807538 83.907761)

LINESTRING (79.049311 69.830744, 65.721412 47.995752)

LINESTRING (79.049311 69.830744, 83.781237 35.347360)

LINESTRING (79.049311 69.830744, 73.897290 94.991169)

LINESTRING (79.049311 69.830744, 63.623438 93.247470)

LINESTRING (79.049311 69.830744, 79.092120 94.102469)

LINESTRING (32.301149 87.054074, 60.807538 83.907761)

LINESTRING (32.301149 87.054074, 65.721412 47.995752)

LINESTRING (32.301149 87.054074, 83.781237 35.347360)

LINESTRING (32.301149 87.054074, 73.897290 94.991169)

LINESTRING (32.301149 87.054074, 63.623438 93.247470)

LINESTRING (32.301149 87.054074, 79.092120 94.102469)

LINESTRING (60.807538 83.907761, 83.781237 35.347360)

LINESTRING (60.807538 83.907761, 73.897290 94.991169)

LINESTRING (60.807538 83.907761, 63.623438 93.247470)

LINESTRING (60.807538 83.907761, 79.092120 94.102469)

LINESTRING (65.721412 47.995752, 83.781237 35.347360)

LINESTRING (65.721412 47.995752, 73.897290 94.991169)

LINESTRING (65.721412 47.995752, 63.623438 93.247470)

LINESTRING (83.781237 35.347360, 79.092120 94.102469)

LINESTRING (73.897290 94.991169, 79.092120 94.102469)

LINESTRING (63.623438 93.247470, 79.092120 94.102469)

LINESTRING (360.000000 60.000000, 359.420857 42.727169)

LINESTRING (360.000000 60.000000, 368.865446 80.808384)

LINESTRING (360.000000 60.000000, 376.880855 30.564693)

LINESTRING (360.000000 60.000000, 361.476402 49.768180)

LINESTRING (360.000000 60.000000, 386.543139 46.995915)

LINESTRING (360.000000 60.000000, 343.588245 35.620765)

LINESTRING (360.000000 60.000000, 395.821616 43.013587)

LINESTRING (360.000000 60.000000, 368.644219 51.841566)

LINESTRING (360.000000 60.000000, 379.811458 43.626039)

LINESTRING (360.000000 60.000000, 373.554697 27.857858)

LINESTRING (360.000000 60.000000, 350.452066 65.060130)

LINESTRING (360.000000 60.000000, 377.977280 43.582912)

LINESTRING (359.420857 42.727169, 368.865446 80.808384)

LINESTRING (359.420857 42.727169, 376.880855 30.564693)

LINESTRING (359.420857 42.727169, 361.476402 49.768180)

LINESTRING (359.420857 42.727169, 386.543139 46.995915)

LINESTRING (359.420857 42.727169, 343.588245 35.620765)

LINESTRING (359.420857 42.727169, 395.821616 43.013587)

LINESTRING (359.420857 42.727169, 368.644219 51.841566)

LINESTRING (359.420857 42.727169, 379.811458 43.626039)

LINESTRING (359.420857 42.727169, 373.554697 27.857858)

LINESTRING (359.420857 42.727169, 350.452066 65.060130)

LINESTRING (359.420857 42.727169, 377.977280 43.582912)

LINESTRING (368.865446 80.808384, 376.880855 30.564693)

LINESTRING (368.865446 80.808384, 361.476402 49.768180)

LINESTRING (368.865446 80.808384, 343.588245 35.620765)

LINESTRING (368.865446 80.808384, 395.821616 43.013587)

LINESTRING (368.865446 80.808384, 368.644219 51.841566)

LINESTRING (368.865446 80.808384, 379.811458 43.626039)

LINESTRING (368.865446 80.808384, 350.452066 65.060130)

LINESTRING (368.865446 80.808384, 377.977280 43.582912)

LINESTRING (376.880855 30.564693, 361.476402 49.768180)

LINESTRING (376.880855 30.564693, 386.543139 46.995915)

LINESTRING (376.880855 30.564693, 343.588245 35.620765)

LINESTRING (376.880855 30.564693, 395.821616 43.013587)

LINESTRING (376.880855 30.564693, 368.644219 51.841566)

LINESTRING (376.880855 30.564693, 379.811458 43.626039)

LINESTRING (376.880855 30.564693, 373.554697 27.857858)

LINESTRING (376.880855 30.564693, 350.452066 65.060130)

LINESTRING (376.880855 30.564693, 377.977280 43.582912)

LINESTRING (361.476402 49.768180, 386.543139 46.995915)

LINESTRING (361.476402 49.768180, 343.588245 35.620765)

LINESTRING (361.476402 49.768180, 368.644219 51.841566)

LINESTRING (361.476402 49.768180, 379.811458 43.626039)

LINESTRING (361.476402 49.768180, 373.554697 27.857858)

LINESTRING (361.476402 49.768180, 350.452066 65.060130)

LINESTRING (361.476402 49.768180, 377.977280 43.582912)

LINESTRING (386.543139 46.995915, 395.821616 43.013587)

LINESTRING (386.543139 46.995915, 368.644219 51.841566)

LINESTRING (386.543139 46.995915, 379.811458 43.626039)

LINESTRING (386.543139 46.995915, 373.554697 27.857858)

LINESTRING (386.543139 46.995915, 350.452066 65.060130)

LINESTRING (386.543139 46.995915, 377.977280 43.582912)

LINESTRING (343.588245 35.620765, 368.644219 51.841566)

LINESTRING (343.588245 35.620765, 379.811458 43.626039)

LINESTRING (343.588245 35.620765, 373.554697 27.857858)

LINESTRING (343.588245 35.620765, 350.452066 65.060130)

LINESTRING (343.588245 35.620765, 377.977280 43.582912)

LINESTRING (395.821616 43.013587, 368.644219 51.841566)

LINESTRING (395.821616 43.013587, 373.554697 27.857858)

LINESTRING (395.821616 43.013587, 350.452066 65.060130)

LINESTRING (395.821616 43.013587, 377.977280 43.582912)

LINESTRING (368.644219 51.841566, 379.811458 43.626039)

LINESTRING (368.644219 51.841566, 373.554697 27.857858)

LINESTRING (368.644219 51.841566, 350.452066 65.060130)

LINESTRING (368.644219 51.841566, 377.977280 43.582912)

LINESTRING (379.811458 43.626039, 373.554697 27.857858)

LINESTRING (379.811458 43.626039, 377.977280 43.582912)

LINESTRING (373.554697 27.857858, 350.452066 65.060130)

LINESTRING (350.452066 65.060130, 377.977280 43.582912)

LINESTRING (60.000000 360.000000, 65.811738 324.484442)

LINESTRING (60.000000 360.000000, 31.643145 361.633109)

LINESTRING (60.000000 360.000000, 58.161810 371.117438)

LINESTRING (60.000000 360.000000, 28.085657 345.776949)

LINESTRING (60.000000 360.000000, 39.581840 356.973828)

LINESTRING (60.000000 360.000000, 39.974157 337.579877)

LINESTRING (60.000000 360.000000, 75.036483 365.702787)

LINESTRING (60.000000 360.000000, 43.575423 393.453124)

LINESTRING (60.000000 360.000000, 59.126632 359.925526)

LINESTRING (60.000000 360.000000, 65.407304 325.606774)

LINESTRING (60.000000 360.000000, 94.279797 360.741380)

LINESTRING (60.000000 360.000000, 81.222562 393.677576)

LINESTRING (65.811738 324.484442, 31.643145 361.633109)

LINESTRING (65.811738 324.484442, 58.161810 371.117438)

LINESTRING (65.811738 324.484442, 28.085657 345.776949)

LINESTRING (65.811738 324.484442, 39.581840 356.973828)

LINESTRING (65.811738 324.484442, 39.974157 337.579877)

LINESTRING (65.811738 324.484442, 75.036483 365.702787)

LINESTRING (65.811738 324.484442, 43.575423 393.453124)

LINESTRING (65.811738 324.484442, 59.126632 359.925526)

LINESTRING (65.811738 324.484442, 65.407304 325.606774)

LINESTRING (65.811738 324.484442, 94.279797 360.741380)

LINESTRING (65.811738 324.484442, 81.222562 393.677576)

LINESTRING (31.643145 361.633109, 58.161810 371.117438)

LINESTRING (31.643145 361.633109, 28.085657 345.776949)

LINESTRING (31.643145 361.633109, 39.581840 356.973828)

LINESTRING (31.643145 361.633109, 39.974157 337.579877)

LINESTRING (31.643145 361.633109, 75.036483 365.702787)

LINESTRING (31.643145 361.633109, 43.575423 393.453124)

LINESTRING (31.643145 361.633109, 59.126632 359.925526)

LINESTRING (31.643145 361.633109, 65.407304 325.606774)

LINESTRING (31.643145 361.633109, 94.279797 360.741380)

LINESTRING (31.643145 361.633109, 81.222562 393.677576)

LINESTRING (58.161810 371.117438, 28.085657 345.776949)

LINESTRING (58.161810 371.117438, 39.581840 356.973828)

LINESTRING (58.161810 371.117438, 39.974157 337.579877)

LINESTRING (58.161810 371.117438, 75.036483 365.702787)

LINESTRING (58.161810 371.117438, 43.575423 393.453124)

LINESTRING (58.161810 371.117438, 59.126632 359.925526)

LINESTRING (58.161810 371.117438, 65.407304 325.606774)

LINESTRING (58.161810 371.117438, 94.279797 360.741380)

LINESTRING (58.161810 371.117438, 81.222562 393.677576)

LINESTRING (28.085657 345.776949, 39.581840 356.973828)

LINESTRING (28.085657 345.776949, 75.036483 365.702787)

LINESTRING (28.085657 345.776949, 43.575423 393.453124)

LINESTRING (28.085657 345.776949, 59.126632 359.925526)

LINESTRING (28.085657 345.776949, 65.407304 325.606774)

LINESTRING (28.085657 345.776949, 94.279797 360.741380)

LINESTRING (28.085657 345.776949, 81.222562 393.677576)

LINESTRING (39.581840 356.973828, 39.974157 337.579877)

LINESTRING (39.581840 356.973828, 75.036483 365.702787)

LINESTRING (39.581840 356.973828, 43.575423 393.453124)

LINESTRING (39.581840 356.973828, 59.126632 359.925526)

LINESTRING (39.581840 356.973828, 65.407304 325.606774)

LINESTRING (39.581840 356.973828, 94.279797 360.741380)

LINESTRING (39.581840 356.973828, 81.222562 393.677576)

LINESTRING (39.974157 337.579877, 75.036483 365.702787)

LINESTRING (39.974157 337.579877, 59.126632 359.925526)

LINESTRING (39.974157 337.579877, 65.407304 325.606774)

LINESTRING (39.974157 337.579877, 94.279797 360.741380)

LINESTRING (39.974157 337.579877, 81.222562 393.677576)

LINESTRING (75.036483 365.702787, 43.575423 393.453124)

LINESTRING (75.036483 365.702787, 59.126632 359.925526)

LINESTRING (75.036483 365.702787, 65.407304 325.606774)

LINESTRING (75.036483 365.702787, 94.279797 360.741380)

LINESTRING (75.036483 365.702787, 81.222562 393.677576)

LINESTRING (43.575423 393.453124, 59.126632 359.925526)

LINESTRING (43.575423 393.453124, 65.407304 325.606774)

LINESTRING (43.575423 393.453124, 94.279797 360.741380)

LINESTRING (43.575423 393.453124, 81.222562 393.677576)

LINESTRING (59.126632 359.925526, 65.407304 325.606774)

LINESTRING (59.126632 359.925526, 94.279797 360.741380)

LINESTRING (59.126632 359.925526, 81.222562 393.677576)

LINESTRING (65.407304 325.606774, 94.279797 360.741380)

LINESTRING (65.407304 325.606774, 81.222562 393.677576)

LINESTRING (94.279797 360.741380, 81.222562 393.677576)

LINESTRING (360.000000 360.000000, 373.308721 380.769719)

LINESTRING (360.000000 360.000000, 369.546086 335.981614)

LINESTRING (360.000000 360.000000, 335.504954 335.799466)

LINESTRING (360.000000 360.000000, 350.808454 378.925913)

LINESTRING (360.000000 360.000000, 349.963078 326.857589)

LINESTRING (360.000000 360.000000, 388.579578 331.604141)

LINESTRING (360.000000 360.000000, 349.954899 390.757431)

LINESTRING (360.000000 360.000000, 385.761105 348.461573)

LINESTRING (360.000000 360.000000, 363.511295 392.689795)

LINESTRING (360.000000 360.000000, 332.157848 332.246602)

LINESTRING (360.000000 360.000000, 357.859840 334.875766)

LINESTRING (360.000000 360.000000, 393.659120 394.711355)

LINESTRING (373.308721 380.769719, 369.546086 335.981614)

LINESTRING (373.308721 380.769719, 350.808454 378.925913)

LINESTRING (373.308721 380.769719, 349.963078 326.857589)

LINESTRING (373.308721 380.769719, 388.579578 331.604141)

LINESTRING (373.308721 380.769719, 349.954899 390.757431)

LINESTRING (373.308721 380.769719, 385.761105 348.461573)

LINESTRING (373.308721 380.769719, 363.511295 392.689795)

LINESTRING (373.308721 380.769719, 332.157848 332.246602)

LINESTRING (373.308721 380.769719, 357.859840 334.875766)

LINESTRING (373.308721 380.769719, 393.659120 394.711355)

LINESTRING (369.546086 335.981614, 335.504954 335.799466)

LINESTRING (369.546086 335.981614, 350.808454 378.925913)

LINESTRING (369.546086 335.981614, 388.579578 331.604141)

LINESTRING (369.546086 335.981614, 385.761105 348.461573)

LINESTRING (369.546086 335.981614, 363.511295 392.689795)

LINESTRING (369.546086 335.981614, 332.157848 332.246602)

LINESTRING (369.546086 335.981614, 357.859840 334.875766)

LINESTRING (369.546086 335.981614, 393.659120 394.711355)

LINESTRING (335.504954 335.799466, 350.808454 378.925913)

LINESTRING (335.504954 335.799466, 349.954899 390.757431)

LINESTRING (335.504954 335.799466, 385.761105 348.461573)

LINESTRING (335.504954 335.799466, 363.511295 392.689795)

LINESTRING (335.504954 335.799466, 332.157848 332.246602)

LINESTRING (335.504954 335.799466, 357.859840 334.875766)

LINESTRING (335.504954 335.799466, 393.659120 394.711355)

LINESTRING (350.808454 378.925913, 349.963078 326.857589)

LINESTRING (350.808454 378.925913, 388.579578 331.604141)

LINESTRING (350.808454 378.925913, 349.954899 390.757431)

LINESTRING (350.808454 378.925913, 385.761105 348.461573)

LINESTRING (350.808454 378.925913, 363.511295 392.689795)

LINESTRING (350.808454 378.925913, 332.157848 332.246602)

LINESTRING (350.808454 378.925913, 393.659120 394.711355)

LINESTRING (349.963078 326.857589, 388.579578 331.604141)

LINESTRING (349.963078 326.857589, 385.761105 348.461573)

LINESTRING (349.963078 326.857589, 363.511295 392.689795)

LINESTRING (349.963078 326.857589, 332.157848 332.246602)

LINESTRING (349.963078 326.857589, 357.859840 334.875766)

LINESTRING (349.963078 326.857589, 393.659120 394.711355)

LINESTRING (388.579578 331.604141, 349.954899 390.757431)

LINESTRING (388.579578 331.604141, 385.761105 348.461573)

LINESTRING (388.579578 331.604141, 363.511295 392.689795)

LINESTRING (388.579578 331.604141, 332.157848 332.246602)

LINESTRING (388.579578 331.604141, 357.859840 334.875766)

LINESTRING (388.579578 331.604141, 393.659120 394.711355)

LINESTRING (349.954899 390.757431, 385.761105 348.461573)

LINESTRING (349.954899 390.757431, 332.157848 332.246602)

LINESTRING (349.954899 390.757431, 357.859840 334.875766)

LINESTRING (349.954899 390.757431, 393.659120 394.711355)

LINESTRING (385.761105 348.461573, 363.511295 392.689795)

LINESTRING (385.761105 348.461573, 332.157848 332.246602)

LINESTRING (385.761105 348.461573, 357.859840 334.875766)

LINESTRING (385.761105 348.461573, 393.659120 394.711355)

LINESTRING (363.511295 392.689795, 332.157848 332.246602)

LINESTRING (363.511295 392.689795, 357.859840 334.875766)

LINESTRING (332.157848 332.246602, 357.859840 334.875766)

LINESTRING (332.157848 332.246602, 393.659120 394.711355)

LINESTRING (357.859840 334.875766, 393.659120 394.711355)

LINESTRING (79.049311 69.830744, 377.977280 43.582912)

LINESTRING (74.032444 63.681724, 376.880855 30.564693)

LINESTRING (60.000000 60.000000, 360.000000 60.000000)

LINESTRING (368.865446 80.808384, 28.085657 345.776949)

LINESTRING (368.865446 80.808384, 31.643145 361.633109)

LINESTRING (360.000000 60.000000, 60.000000 360.000000)

LINESTRING (75.036483 365.702787, 332.157848 332.246602)

LINESTRING (65.811738 324.484442, 363.511295 392.689795)

LINESTRING (60.000000 360.000000, 360.000000 360.000000)

