LINESTRING (45.903904 59.613123, 153.025098 42.739973)

LINESTRING (153.025098 42.739973, 241.067965 44.220340)

LINESTRING (241.067965 44.220340, 346.777592 41.270141)

LINESTRING (346.777592 41.270141, 448.594711 47.387492)

LINESTRING (448.594711 47.387492, 546.954277 52.970695)

LINESTRING (546.954277 52.970695, 651.766876 45.537047)

LINESTRING (651.766876 45.537047, 753.708586 59.924490)

LINESTRING (753.708586 59.924490, 852.138468 50.173473)

LINESTRING (852.138468 50.173473, 944.513145 46.771645)

LINESTRING (944.513145 46.771645, 1040.777043 52.159742)

LINESTRING (1040.777043 52.159742, 1141.029530 51.788492)

LINESTRING (1141.029530 51.788492, 1244.136551 49.879847)

LINESTRING (1244.136551 49.879847, 1359.377512 43.824113)

LINESTRING (1359.377512 43.824113, 1457.659414 46.361532)

LINESTRING (1457.659414 46.361532, 1555.076050 58.173349)

LINESTRING (1555.076050 58.173349, 1655.681397 54.372761)

LINESTRING (1655.681397 54.372761, 1751.498899 41.456830)

LINESTRING (1751.498899 41.456830, 1846.981522 44.446329)

LINESTRING (40.464397 159.617050, 146.174941 152.999371)

LINESTRING (146.174941 152.999371, 257.246892 151.342847)

LINESTRING (257.246892 151.342847, 342.683799 155.055024)

LINESTRING (342.683799 155.055024, 456.154831 154.094188)

LINESTRING (456.154831 154.094188, 543.187574 148.135276)

LINESTRING (543.187574 148.135276, 653.799730 146.583425)

LINESTRING (653.799730 146.583425, 757.981565 148.894086)

LINESTRING (757.981565 148.894086, 855.543936 153.477877)

LINESTRING (855.543936 153.477877, 943.307958 159.385164)

LINESTRING (943.307958 159.385164, 1056.161269 159.521859)

LINESTRING (1056.161269 159.521859, 1142.051751 142.132033)

LINESTRING (1142.051751 142.132033, 1253.422412 147.401900)

LINESTRING (1253.422412 147.401900, 1356.100341 148.346907)

LINESTRING (1356.100341 148.346907, 1444.971434 141.497602)

LINESTRING (1444.971434 141.497602, 1547.237508 142.320665)

LINESTRING (1547.237508 142.320665, 1658.001350 159.410290)

LINESTRING (1658.001350 159.410290, 1745.529041 148.148534)

LINESTRING (1745.529041 148.148534, 1847.365784 154.018839)

LINESTRING (40.552108 255.272442, 158.301281 241.429502)

LINESTRING (158.301281 241.429502, 251.550486 241.860684)

LINESTRING (251.550486 241.860684, 342.339808 241.822693)

LINESTRING (342.339808 241.822693, 441.401143 247.046350)

LINESTRING (441.401143 247.046350, 558.932025 259.752322)

LINESTRING (558.932025 259.752322, 654.154866 244.744158)

LINESTRING (654.154866 244.744158, 746.796201 249.286669)

LINESTRING (746.796201 249.286669, 841.424383 246.405215)

LINESTRING (841.424383 246.405215, 954.607652 259.849075)

LINESTRING (954.607652 259.849075, 1053.389946 254.531195)

LINESTRING (1053.389946 254.531195, 1156.053289 252.211467)

LINESTRING (1156.053289 252.211467, 1253.360359 256.555441)

LINESTRING (1253.360359 256.555441, 1342.804662 250.530663)

LINESTRING (1342.804662 250.530663, 1455.725874 245.836366)

LINESTRING (1455.725874 245.836366, 1559.031547 256.705545)

LINESTRING (1559.031547 256.705545, 1656.387903 249.395701)

LINESTRING (1656.387903 249.395701, 1748.900421 242.313556)

LINESTRING (1748.900421 242.313556, 1850.509189 252.319946)

LINESTRING (46.066657 359.157591, 142.547693 356.372831)

LINESTRING (142.547693 356.372831, 248.588544 358.731285)

LINESTRING (248.588544 358.731285, 359.631634 352.517731)

LINESTRING (359.631634 352.517731, 459.634245 347.989277)

LINESTRING (459.634245 347.989277, 556.111868 353.535130)

LINESTRING (556.111868 353.535130, 651.817711 340.614725)

LINESTRING (651.817711 340.614725, 742.856237 355.720775)

LINESTRING (742.856237 355.720775, 842.894324 345.801514)

LINESTRING (842.894324 345.801514, 954.826139 354.510060)

LINESTRING (954.826139 354.510060, 1057.695401 353.907208)

LINESTRING (1057.695401 353.907208, 1156.506671 350.245829)

LINESTRING (1156.506671 350.245829, 1246.091147 345.332356)

LINESTRING (1246.091147 345.332356, 1348.331780 354.260662)

LINESTRING (1348.331780 354.260662, 1443.476575 345.806548)

LINESTRING (1443.476575 345.806548, 1544.712907 343.921495)

LINESTRING (1544.712907 343.921495, 1648.532291 347.364812)

LINESTRING (1648.532291 347.364812, 1748.859264 356.646595)

LINESTRING (1748.859264 356.646595, 1849.650929 352.384254)

LINESTRING (41.257228 452.969436, 142.174868 444.404086)

LINESTRING (142.174868 444.404086, 240.562073 452.239690)

LINESTRING (240.562073 452.239690, 344.766745 445.652656)

LINESTRING (344.766745 445.652656, 447.998877 446.532650)

LINESTRING (447.998877 446.532650, 546.971645 442.274307)

LINESTRING (546.971645 442.274307, 658.614082 441.108639)

LINESTRING (658.614082 441.108639, 758.568768 441.832457)

LINESTRING (758.568768 441.832457, 852.793887 450.155432)

LINESTRING (852.793887 450.155432, 943.397394 441.112373)

LINESTRING (943.397394 441.112373, 1058.280023 457.563679)

LINESTRING (1058.280023 457.563679, 1140.386617 455.386243)

LINESTRING (1140.386617 455.386243, 1247.948000 445.205059)

LINESTRING (1247.948000 445.205059, 1343.497532 448.788101)

LINESTRING (1343.497532 448.788101, 1440.670291 447.216188)

LINESTRING (1440.670291 447.216188, 1552.045885 449.147753)

LINESTRING (1552.045885 449.147753, 1647.989025 455.713782)

LINESTRING (1647.989025 455.713782, 1755.550929 457.105957)

LINESTRING (1755.550929 457.105957, 1841.801285 447.817494)

LINESTRING (43.644087 550.722324, 154.839706 540.370513)

LINESTRING (154.839706 540.370513, 251.056392 547.013618)

LINESTRING (251.056392 547.013618, 347.202002 559.247301)

LINESTRING (347.202002 559.247301, 444.509393 548.967358)

LINESTRING (444.509393 548.967358, 541.188164 558.303829)

LINESTRING (541.188164 558.303829, 652.806967 552.686498)

LINESTRING (652.806967 552.686498, 746.252202 551.553102)

LINESTRING (746.252202 551.553102, 858.089930 543.136832)

LINESTRING (858.089930 543.136832, 942.154007 553.947798)

LINESTRING (942.154007 553.947798, 1042.846835 550.260420)

LINESTRING (1042.846835 550.260420, 1156.907180 540.799303)

LINESTRING (1156.907180 540.799303, 1249.411974 553.634848)

LINESTRING (1249.411974 553.634848, 1356.252044 542.952494)

LINESTRING (1356.252044 542.952494, 1446.932469 558.527639)

LINESTRING (1446.932469 558.527639, 1543.503518 545.187530)

LINESTRING (1543.503518 545.187530, 1645.312777 545.798195)

LINESTRING (1645.312777 545.798195, 1748.444900 548.912672)

LINESTRING (1748.444900 548.912672, 1844.719779 552.255603)

LINESTRING (55.635223 651.761523, 144.659438 642.716522)

LINESTRING (144.659438 642.716522, 246.276903 644.869711)

LINESTRING (246.276903 644.869711, 348.045527 645.086374)

LINESTRING (348.045527 645.086374, 441.199759 653.632710)

LINESTRING (441.199759 653.632710, 550.685269 644.063402)

LINESTRING (550.685269 644.063402, 649.290097 648.322995)

LINESTRING (649.290097 648.322995, 748.492538 641.904269)

LINESTRING (748.492538 641.904269, 842.552431 656.902618)

LINESTRING (842.552431 656.902618, 957.863603 654.140305)

LINESTRING (957.863603 654.140305, 1059.671319 650.573151)

LINESTRING (1059.671319 650.573151, 1146.213746 657.115121)

LINESTRING (1146.213746 657.115121, 1240.795074 643.470334)

LINESTRING (1240.795074 643.470334, 1340.169822 654.519796)

LINESTRING (1340.169822 654.519796, 1455.819177 645.660375)

LINESTRING (1455.819177 645.660375, 1552.956262 659.639387)

LINESTRING (1552.956262 659.639387, 1659.185463 643.603324)

LINESTRING (1659.185463 643.603324, 1741.712112 658.585024)

LINESTRING (1741.712112 658.585024, 1853.464120 655.343773)

LINESTRING (43.613922 759.382722, 156.319579 740.965779)

LINESTRING (156.319579 740.965779, 254.343441 759.527123)

LINESTRING (254.343441 759.527123, 342.472108 755.129731)

LINESTRING (342.472108 755.129731, 459.420338 756.339433)

LINESTRING (459.420338 756.339433, 543.728859 757.170937)

LINESTRING (543.728859 757.170937, 648.175287 755.870948)

LINESTRING (648.175287 755.870948, 753.522955 755.901439)

LINESTRING (753.522955 755.901439, 843.500328 755.283082)

LINESTRING (843.500328 755.283082, 955.635472 753.325462)

LINESTRING (955.635472 753.325462, 1057.976708 750.000544)

LINESTRING (1057.976708 750.000544, 1149.896287 758.548605)

LINESTRING (1149.896287 758.548605, 1251.315616 750.365927)

LINESTRING (1251.315616 750.365927, 1350.973681 754.912685)

LINESTRING (1350.973681 754.912685, 1440.317374 755.953741)

LINESTRING (1440.317374 755.953741, 1540.329766 741.918009)

LINESTRING (1540.329766 741.918009, 1640.830114 753.031679)

LINESTRING (1640.830114 753.031679, 1740.154882 746.700687)

LINESTRING (1740.154882 746.700687, 1858.983143 745.482836)

LINESTRING (54.254336 851.121196, 155.003742 848.080397)

LINESTRING (155.003742 848.080397, 259.390700 858.043648)

LINESTRING (259.390700 858.043648, 345.038732 856.031721)

LINESTRING (345.038732 856.031721, 448.235167 843.839752)

LINESTRING (448.235167 843.839752, 559.800411 848.861532)

LINESTRING (559.800411 848.861532, 643.442307 851.740626)

LINESTRING (643.442307 851.740626, 745.955875 849.051194)

LINESTRING (745.955875 849.051194, 852.402524 850.925736)

LINESTRING (852.402524 850.925736, 956.721512 853.631432)

LINESTRING (956.721512 853.631432, 1059.658229 844.945566)

LINESTRING (1059.658229 844.945566, 1157.148148 844.804350)

LINESTRING (1157.148148 844.804350, 1240.857334 853.286040)

LINESTRING (1240.857334 853.286040, 1358.076501 857.371224)

LINESTRING (1358.076501 857.371224, 1444.976720 846.349290)

LINESTRING (1444.976720 846.349290, 1544.479095 841.227274)

LINESTRING (1544.479095 841.227274, 1644.703415 858.031674)

LINESTRING (1644.703415 858.031674, 1756.130494 840.985227)

LINESTRING (1756.130494 840.985227, 1841.907346 854.140510)

LINESTRING (41.227717 942.097084, 149.819685 955.221027)

LINESTRING (149.819685 955.221027, 251.798441 958.413013)

LINESTRING (251.798441 958.413013, 354.869807 955.126963)

LINESTRING (354.869807 955.126963, 459.677800 959.055852)

LINESTRING (459.677800 959.055852, 541.246259 956.821576)

LINESTRING (541.246259 956.821576, 642.424134 940.999321)

LINESTRING (642.424134 940.999321, 754.012692 957.775207)

LINESTRING (754.012692 957.775207, 849.217114 947.537590)

LINESTRING (849.217114 947.537590, 946.224841 957.428884)

LINESTRING (946.224841 957.428884, 1051.798844 949.943002)

LINESTRING (1051.798844 949.943002, 1146.713116 952.717227)

LINESTRING (1146.713116 952.717227, 1244.662803 949.354454)

LINESTRING (1244.662803 949.354454, 1358.854749 946.004323)

LINESTRING (1358.854749 946.004323, 1456.410182 942.543963)

LINESTRING (1456.410182 942.543963, 1542.193011 947.201341)

LINESTRING (1542.193011 947.201341, 1644.251162 953.198504)

LINESTRING (1644.251162 953.198504, 1751.834859 945.100735)

LINESTRING (1751.834859 945.100735, 1859.973155 951.636576)

LINESTRING (49.894605 1051.891313, 145.436042 1059.472470)

LINESTRING (145.436042 1059.472470, 244.411353 1043.424938)

LINESTRING (244.411353 1043.424938, 350.972507 1049.400504)

LINESTRING (350.972507 1049.400504, 456.474400 1041.638573)

LINESTRING (456.474400 1041.638573, 551.235639 1041.204081)

LINESTRING (551.235639 1041.204081, 653.211513 1041.499436)

LINESTRING (653.211513 1041.499436, 755.401944 1045.801439)

LINESTRING (755.401944 1045.801439, 853.464266 1058.158965)

LINESTRING (853.464266 1058.158965, 954.068056 1052.905725)

LINESTRING (954.068056 1052.905725, 1056.964618 1046.806302)

LINESTRING (1056.964618 1046.806302, 1157.357656 1043.060576)

LINESTRING (1157.357656 1043.060576, 1259.891069 1057.942738)

LINESTRING (1259.891069 1057.942738, 1350.587805 1051.904416)

LINESTRING (1350.587805 1051.904416, 1458.822157 1040.841879)

LINESTRING (1458.822157 1040.841879, 1542.200374 1047.682376)

LINESTRING (1542.200374 1047.682376, 1657.405426 1041.260024)

LINESTRING (1657.405426 1041.260024, 1745.338970 1046.776232)

LINESTRING (1745.338970 1046.776232, 1856.376790 1046.332064)

LINESTRING (54.950173 1152.354932, 151.867791 1150.716052)

LINESTRING (151.867791 1150.716052, 251.080626 1156.177599)

LINESTRING (251.080626 1156.177599, 353.879268 1155.197195)

LINESTRING (353.879268 1155.197195, 451.567913 1157.051362)

LINESTRING (451.567913 1157.051362, 544.512421 1142.778232)

LINESTRING (544.512421 1142.778232, 657.721569 1145.213808)

LINESTRING (657.721569 1145.213808, 754.074511 1156.353251)

LINESTRING (754.074511 1156.353251, 840.091455 1148.705047)

LINESTRING (840.091455 1148.705047, 954.918538 1145.232155)

LINESTRING (954.918538 1145.232155, 1053.547594 1148.644813)

LINESTRING (1053.547594 1148.644813, 1147.048987 1144.387445)

LINESTRING (1147.048987 1144.387445, 1240.001598 1157.504090)

LINESTRING (1240.001598 1157.504090, 1358.045138 1155.367423)

LINESTRING (1358.045138 1155.367423, 1441.917000 1143.653764)

LINESTRING (1441.917000 1143.653764, 1550.186202 1148.058965)

LINESTRING (1550.186202 1148.058965, 1648.608923 1146.169335)

LINESTRING (1648.608923 1146.169335, 1746.757954 1153.882321)

LINESTRING (1746.757954 1153.882321, 1850.277720 1143.518352)

LINESTRING (43.028640 1251.969734, 146.530817 1244.715664)

LINESTRING (146.530817 1244.715664, 240.696025 1251.068300)

LINESTRING (240.696025 1251.068300, 348.264703 1252.040759)

LINESTRING (348.264703 1252.040759, 455.697486 1253.296675)

LINESTRING (455.697486 1253.296675, 557.613060 1252.018493)

LINESTRING (557.613060 1252.018493, 656.806634 1250.718676)

LINESTRING (656.806634 1250.718676, 741.491898 1255.258996)

LINESTRING (741.491898 1255.258996, 855.604103 1255.641828)

LINESTRING (855.604103 1255.641828, 957.692962 1254.505109)

LINESTRING (957.692962 1254.505109, 1055.098610 1250.241196)

LINESTRING (1055.098610 1250.241196, 1149.230263 1248.756747)

LINESTRING (1149.230263 1248.756747, 1252.322881 1251.411160)

LINESTRING (1252.322881 1251.411160, 1351.468164 1247.197451)

LINESTRING (1351.468164 1247.197451, 1454.808794 1257.977142)

LINESTRING (1454.808794 1257.977142, 1555.915335 1247.811873)

LINESTRING (1555.915335 1247.811873, 1648.903670 1254.464774)

LINESTRING (1648.903670 1254.464774, 1745.607366 1259.023605)

LINESTRING (1745.607366 1259.023605, 1856.005867 1248.877484)

LINESTRING (41.171050 1347.414216, 154.269890 1357.775190)

LINESTRING (154.269890 1357.775190, 249.769931 1345.988068)

LINESTRING (249.769931 1345.988068, 359.196227 1349.068165)

LINESTRING (359.196227 1349.068165, 458.569847 1348.329200)

LINESTRING (458.569847 1348.329200, 547.429608 1341.471401)

LINESTRING (547.429608 1341.471401, 657.563300 1346.716262)

LINESTRING (657.563300 1346.716262, 753.512686 1343.412171)

LINESTRING (753.512686 1343.412171, 848.476708 1350.437145)

LINESTRING (848.476708 1350.437145, 955.924154 1342.446234)

LINESTRING (955.924154 1342.446234, 1049.105345 1344.713734)

LINESTRING (1049.105345 1344.713734, 1152.452560 1348.228735)

LINESTRING (1152.452560 1348.228735, 1245.047796 1345.760478)

LINESTRING (1245.047796 1345.760478, 1341.874398 1357.714065)

LINESTRING (1341.874398 1357.714065, 1440.012804 1357.355561)

LINESTRING (1440.012804 1357.355561, 1550.364970 1342.912607)

LINESTRING (1550.364970 1342.912607, 1644.859267 1355.251588)

LINESTRING (1644.859267 1355.251588, 1753.803583 1350.304929)

LINESTRING (1753.803583 1350.304929, 1859.435347 1347.558079)

LINESTRING (41.349548 1451.984310, 140.582883 1445.748160)

LINESTRING (140.582883 1445.748160, 256.489702 1445.927590)

LINESTRING (256.489702 1445.927590, 348.705127 1448.845871)

LINESTRING (348.705127 1448.845871, 457.767701 1443.168357)

LINESTRING (457.767701 1443.168357, 558.968350 1455.374353)

LINESTRING (558.968350 1455.374353, 655.684277 1458.053486)

LINESTRING (655.684277 1458.053486, 748.290589 1440.799295)

LINESTRING (748.290589 1440.799295, 847.167354 1446.629166)

LINESTRING (847.167354 1446.629166, 942.296147 1450.917062)

LINESTRING (942.296147 1450.917062, 1040.874351 1449.595101)

LINESTRING (1040.874351 1449.595101, 1158.060718 1454.853980)

LINESTRING (1158.060718 1454.853980, 1252.945248 1455.839434)

LINESTRING (1252.945248 1455.839434, 1354.478874 1445.828674)

LINESTRING (1354.478874 1445.828674, 1440.793622 1448.861856)

LINESTRING (1440.793622 1448.861856, 1546.967109 1455.565331)

LINESTRING (1546.967109 1455.565331, 1642.282954 1458.226050)

LINESTRING (1642.282954 1458.226050, 1751.368821 1442.828015)

LINESTRING (1751.368821 1442.828015, 1847.367898 1457.951568)

LINESTRING (55.470188 1559.977400, 144.481626 1556.838358)

LINESTRING (144.481626 1556.838358, 251.125394 1544.710620)

LINESTRING (251.125394 1544.710620, 348.837097 1546.869405)

LINESTRING (348.837097 1546.869405, 444.107687 1551.074658)

LINESTRING (444.107687 1551.074658, 544.849087 1549.145668)

LINESTRING (544.849087 1549.145668, 648.787052 1542.546328)

LINESTRING (648.787052 1542.546328, 747.713409 1558.694347)

LINESTRING (747.713409 1558.694347, 840.784065 1542.254233)

LINESTRING (840.784065 1542.254233, 956.875468 1552.952992)

LINESTRING (956.875468 1552.952992, 1049.684964 1541.443705)

LINESTRING (1049.684964 1541.443705, 1151.049098 1558.145528)

LINESTRING (1151.049098 1558.145528, 1241.649734 1555.549257)

LINESTRING (1241.649734 1555.549257, 1349.242406 1542.174029)

LINESTRING (1349.242406 1542.174029, 1459.920372 1559.974615)

LINESTRING (1459.920372 1559.974615, 1546.193725 1544.473184)

LINESTRING (1546.193725 1544.473184, 1659.069040 1551.917911)

LINESTRING (1659.069040 1551.917911, 1755.338290 1555.641825)

LINESTRING (1755.338290 1555.641825, 1845.173281 1553.837438)

LINESTRING (58.218957 1654.419400, 158.953116 1655.693607)

LINESTRING (158.953116 1655.693607, 252.760071 1658.763680)

LINESTRING (252.760071 1658.763680, 359.420885 1649.801344)

LINESTRING (359.420885 1649.801344, 451.078900 1643.289075)

LINESTRING (451.078900 1643.289075, 550.059667 1642.970457)

LINESTRING (550.059667 1642.970457, 640.916720 1659.502187)

LINESTRING (640.916720 1659.502187, 750.069620 1644.948694)

LINESTRING (750.069620 1644.948694, 847.952420 1641.981861)

LINESTRING (847.952420 1641.981861, 955.060010 1654.372197)

LINESTRING (955.060010 1654.372197, 1049.931637 1642.642768)

LINESTRING (1049.931637 1642.642768, 1143.060869 1640.930005)

LINESTRING (1143.060869 1640.930005, 1244.733936 1648.513816)

LINESTRING (1244.733936 1648.513816, 1342.783590 1649.432440)

LINESTRING (1342.783590 1649.432440, 1443.815863 1659.212053)

LINESTRING (1443.815863 1659.212053, 1541.615192 1656.726416)

LINESTRING (1541.615192 1656.726416, 1652.378290 1641.300074)

LINESTRING (1652.378290 1641.300074, 1747.963966 1655.416384)

LINESTRING (1747.963966 1655.416384, 1848.089120 1655.274152)

LINESTRING (53.516871 1759.846836, 153.241839 1747.246786)

LINESTRING (153.241839 1747.246786, 240.318181 1740.298144)

LINESTRING (240.318181 1740.298144, 345.099447 1743.723927)

LINESTRING (345.099447 1743.723927, 443.182864 1752.506273)

LINESTRING (443.182864 1752.506273, 555.648183 1740.312128)

LINESTRING (555.648183 1740.312128, 651.441756 1754.774098)

LINESTRING (651.441756 1754.774098, 745.433665 1742.408380)

LINESTRING (745.433665 1742.408380, 844.018091 1740.815570)

LINESTRING (844.018091 1740.815570, 949.539235 1754.876622)

LINESTRING (949.539235 1754.876622, 1055.841875 1743.487254)

LINESTRING (1055.841875 1743.487254, 1148.285701 1759.634636)

LINESTRING (1148.285701 1759.634636, 1254.081821 1740.099550)

LINESTRING (1254.081821 1740.099550, 1348.958046 1748.660500)

LINESTRING (1348.958046 1748.660500, 1456.966237 1741.619337)

LINESTRING (1456.966237 1741.619337, 1552.306963 1743.861834)

LINESTRING (1552.306963 1743.861834, 1642.122713 1752.259887)

LINESTRING (1642.122713 1752.259887, 1741.196332 1757.467964)

LINESTRING (1741.196332 1757.467964, 1846.051677 1748.821479)

LINESTRING (40.771345 1855.719596, 158.142043 1840.044355)

LINESTRING (158.142043 1840.044355, 243.916069 1850.550199)

LINESTRING (243.916069 1850.550199, 346.387207 1840.814778)

LINESTRING (346.387207 1840.814778, 452.036231 1851.566962)

LINESTRING (452.036231 1851.566962, 556.774685 1854.174971)

LINESTRING (556.774685 1854.174971, 655.299834 1849.048655)

LINESTRING (655.299834 1849.048655, 748.726954 1844.610566)

LINESTRING (748.726954 1844.610566, 852.407554 1844.501199)

LINESTRING (852.407554 1844.501199, 951.872593 1842.913873)

LINESTRING (951.872593 1842.913873, 1046.558455 1845.847979)

LINESTRING (1046.558455 1845.847979, 1141.724845 1852.679163)

LINESTRING (1141.724845 1852.679163, 1257.191414 1845.224395)

LINESTRING (1257.191414 1845.224395, 1358.957580 1844.114599)

LINESTRING (1358.957580 1844.114599, 1442.846509 1842.128241)

LINESTRING (1442.846509 1842.128241, 1558.140321 1854.089487)

LINESTRING (1558.140321 1854.089487, 1652.032122 1853.148459)

LINESTRING (1652.032122 1853.148459, 1747.525616 1851.159915)

LINESTRING (1747.525616 1851.159915, 1856.064897 1854.144897)

LINESTRING (45.903904 59.613123, 40.464397 159.617050)

LINESTRING (153.025098 42.739973, 146.174941 152.999371)

LINESTRING (241.067965 44.220340, 257.246892 151.342847)

LINESTRING (346.777592 41.270141, 342.683799 155.055024)

LINESTRING (448.594711 47.387492, 456.154831 154.094188)

LINESTRING (546.954277 52.970695, 543.187574 148.135276)

LINESTRING (651.766876 45.537047, 653.799730 146.583425)

LINESTRING (753.708586 59.924490, 757.981565 148.894086)

LINESTRING (852.138468 50.173473, 855.543936 153.477877)

LINESTRING (944.513145 46.771645, 943.307958 159.385164)

LINESTRING (1040.777043 52.159742, 1056.161269 159.521859)

LINESTRING (1141.029530 51.788492, 1142.051751 142.132033)

LINESTRING (1244.136551 49.879847, 1253.422412 147.401900)

LINESTRING (1359.377512 43.824113, 1356.100341 148.346907)

LINESTRING (1457.659414 46.361532, 1444.971434 141.497602)

LINESTRING (1555.076050 58.173349, 1547.237508 142.320665)

LINESTRING (1655.681397 54.372761, 1658.001350 159.410290)

LINESTRING (1751.498899 41.456830, 1745.529041 148.148534)

LINESTRING (1846.981522 44.446329, 1847.365784 154.018839)

LINESTRING (40.464397 159.617050, 40.552108 255.272442)

LINESTRING (146.174941 152.999371, 158.301281 241.429502)

LINESTRING (257.246892 151.342847, 251.550486 241.860684)

LINESTRING (342.683799 155.055024, 342.339808 241.822693)

LINESTRING (456.154831 154.094188, 441.401143 247.046350)

LINESTRING (543.187574 148.135276, 558.932025 259.752322)

LINESTRING (653.799730 146.583425, 654.154866 244.744158)

LINESTRING (757.981565 148.894086, 746.796201 249.286669)

LINESTRING (855.543936 153.477877, 841.424383 246.405215)

LINESTRING (943.307958 159.385164, 954.607652 259.849075)

LINESTRING (1056.161269 159.521859, 1053.389946 254.531195)

LINESTRING (1142.051751 142.132033, 1156.053289 252.211467)

LINESTRING (1253.422412 147.401900, 1253.360359 256.555441)

LINESTRING (1356.100341 148.346907, 1342.804662 250.530663)

LINESTRING (1444.971434 141.497602, 1455.725874 245.836366)

LINESTRING (1547.237508 142.320665, 1559.031547 256.705545)

LINESTRING (1658.001350 159.410290, 1656.387903 249.395701)

LINESTRING (1745.529041 148.148534, 1748.900421 242.313556)

LINESTRING (1847.365784 154.018839, 1850.509189 252.319946)

LINESTRING (40.552108 255.272442, 46.066657 359.157591)

LINESTRING (158.301281 241.429502, 142.547693 356.372831)

LINESTRING (251.550486 241.860684, 248.588544 358.731285)

LINESTRING (342.339808 241.822693, 359.631634 352.517731)

LINESTRING (441.401143 247.046350, 459.634245 347.989277)

LINESTRING (558.932025 259.752322, 556.111868 353.535130)

LINESTRING (654.154866 244.744158, 651.817711 340.614725)

LINESTRING (746.796201 249.286669, 742.856237 355.720775)

LINESTRING (841.424383 246.405215, 842.894324 345.801514)

LINESTRING (954.607652 259.849075, 954.826139 354.510060)

LINESTRING (1053.389946 254.531195, 1057.695401 353.907208)

LINESTRING (1156.053289 252.211467, 1156.506671 350.245829)

LINESTRING (1253.360359 256.555441, 1246.091147 345.332356)

LINESTRING (1342.804662 250.530663, 1348.331780 354.260662)

LINESTRING (1455.725874 245.836366, 1443.476575 345.806548)

LINESTRING (1559.031547 256.705545, 1544.712907 343.921495)

LINESTRING (1656.387903 249.395701, 1648.532291 347.364812)

LINESTRING (1748.900421 242.313556, 1748.859264 356.646595)

LINESTRING (1850.509189 252.319946, 1849.650929 352.384254)

LINESTRING (46.066657 359.157591, 41.257228 452.969436)

LINESTRING (142.547693 356.372831, 142.174868 444.404086)

LINESTRING (248.588544 358.731285, 240.562073 452.239690)

LINESTRING (359.631634 352.517731, 344.766745 445.652656)

LINESTRING (459.634245 347.989277, 447.998877 446.532650)

LINESTRING (556.111868 353.535130, 546.971645 442.274307)

LINESTRING (651.817711 340.614725, 658.614082 441.108639)

LINESTRING (742.856237 355.720775, 758.568768 441.832457)

LINESTRING (842.894324 345.801514, 852.793887 450.155432)

LINESTRING (954.826139 354.510060, 943.397394 441.112373)

LINESTRING (1057.695401 353.907208, 1058.280023 457.563679)

LINESTRING (1156.506671 350.245829, 1140.386617 455.386243)

LINESTRING (1246.091147 345.332356, 1247.948000 445.205059)

LINESTRING (1348.331780 354.260662, 1343.497532 448.788101)

LINESTRING (1443.476575 345.806548, 1440.670291 447.216188)

LINESTRING (1544.712907 343.921495, 1552.045885 449.147753)

LINESTRING (1648.532291 347.364812, 1647.989025 455.713782)

LINESTRING (1748.859264 356.646595, 1755.550929 457.105957)

LINESTRING (1849.650929 352.384254, 1841.801285 447.817494)

LINESTRING (41.257228 452.969436, 43.644087 550.722324)

LINESTRING (142.174868 444.404086, 154.839706 540.370513)

LINESTRING (240.562073 452.239690, 251.056392 547.013618)

LINESTRING (344.766745 445.652656, 347.202002 559.247301)

LINESTRING (447.998877 446.532650, 444.509393 548.967358)

LINESTRING (546.971645 442.274307, 541.188164 558.303829)

LINESTRING (658.614082 441.108639, 652.806967 552.686498)

LINESTRING (758.568768 441.832457, 746.252202 551.553102)

LINESTRING (852.793887 450.155432, 858.089930 543.136832)

LINESTRING (943.397394 441.112373, 942.154007 553.947798)

LINESTRING (1058.280023 457.563679, 1042.846835 550.260420)

LINESTRING (1140.386617 455.386243, 1156.907180 540.799303)

LINESTRING (1247.948000 445.205059, 1249.411974 553.634848)

LINESTRING (1343.497532 448.788101, 1356.252044 542.952494)

LINESTRING (1440.670291 447.216188, 1446.932469 558.527639)

LINESTRING (1552.045885 449.147753, 1543.503518 545.187530)

LINESTRING (1647.989025 455.713782, 1645.312777 545.798195)

LINESTRING (1755.550929 457.105957, 1748.444900 548.912672)

LINESTRING (1841.801285 447.817494, 1844.719779 552.255603)

LINESTRING (43.644087 550.722324, 55.635223 651.761523)

LINESTRING (154.839706 540.370513, 144.659438 642.716522)

LINESTRING (251.056392 547.013618, 246.276903 644.869711)

LINESTRING (347.202002 559.247301, 348.045527 645.086374)

LINESTRING (444.509393 548.967358, 441.199759 653.632710)

LINESTRING (541.188164 558.303829, 550.685269 644.063402)

LINESTRING (652.806967 552.686498, 649.290097 648.322995)

LINESTRING (746.252202 551.553102, 748.492538 641.904269)

LINESTRING (858.089930 543.136832, 842.552431 656.902618)

LINESTRING (942.154007 553.947798, 957.863603 654.140305)

LINESTRING (1042.846835 550.260420, 1059.671319 650.573151)

LINESTRING (1156.907180 540.799303, 1146.213746 657.115121)

LINESTRING (1249.411974 553.634848, 1240.795074 643.470334)

LINESTRING (1356.252044 542.952494, 1340.169822 654.519796)

LINESTRING (1446.932469 558.527639, 1455.819177 645.660375)

LINESTRING (1543.503518 545.187530, 1552.956262 659.639387)

LINESTRING (1645.312777 545.798195, 1659.185463 643.603324)

LINESTRING (1748.444900 548.912672, 1741.712112 658.585024)

LINESTRING (1844.719779 552.255603, 1853.464120 655.343773)

LINESTRING (55.635223 651.761523, 43.613922 759.382722)

LINESTRING (144.659438 642.716522, 156.319579 740.965779)

LINESTRING (246.276903 644.869711, 254.343441 759.527123)

LINESTRING (348.045527 645.086374, 342.472108 755.129731)

LINESTRING (441.199759 653.632710, 459.420338 756.339433)

LINESTRING (550.685269 644.063402, 543.728859 757.170937)

LINESTRING (649.290097 648.322995, 648.175287 755.870948)

LINESTRING (748.492538 641.904269, 753.522955 755.901439)

LINESTRING (842.552431 656.902618, 843.500328 755.283082)

LINESTRING (957.863603 654.140305, 955.635472 753.325462)

LINESTRING (1059.671319 650.573151, 1057.976708 750.000544)

LINESTRING (1146.213746 657.115121, 1149.896287 758.548605)

LINESTRING (1240.795074 643.470334, 1251.315616 750.365927)

LINESTRING (1340.169822 654.519796, 1350.973681 754.912685)

LINESTRING (1455.819177 645.660375, 1440.317374 755.953741)

LINESTRING (1552.956262 659.639387, 1540.329766 741.918009)

LINESTRING (1659.185463 643.603324, 1640.830114 753.031679)

LINESTRING (1741.712112 658.585024, 1740.154882 746.700687)

LINESTRING (1853.464120 655.343773, 1858.983143 745.482836)

LINESTRING (43.613922 759.382722, 54.254336 851.121196)

LINESTRING (156.319579 740.965779, 155.003742 848.080397)

LINESTRING (254.343441 759.527123, 259.390700 858.043648)

LINESTRING (342.472108 755.129731, 345.038732 856.031721)

LINESTRING (459.420338 756.339433, 448.235167 843.839752)

LINESTRING (543.728859 757.170937, 559.800411 848.861532)

LINESTRING (648.175287 755.870948, 643.442307 851.740626)

LINESTRING (753.522955 755.901439, 745.955875 849.051194)

LINESTRING (843.500328 755.283082, 852.402524 850.925736)

LINESTRING (955.635472 753.325462, 956.721512 853.631432)

LINESTRING (1057.976708 750.000544, 1059.658229 844.945566)

LINESTRING (1149.896287 758.548605, 1157.148148 844.804350)

LINESTRING (1251.315616 750.365927, 1240.857334 853.286040)

LINESTRING (1350.973681 754.912685, 1358.076501 857.371224)

LINESTRING (1440.317374 755.953741, 1444.976720 846.349290)

LINESTRING (1540.329766 741.918009, 1544.479095 841.227274)

LINESTRING (1640.830114 753.031679, 1644.703415 858.031674)

LINESTRING (1740.154882 746.700687, 1756.130494 840.985227)

LINESTRING (1858.983143 745.482836, 1841.907346 854.140510)

LINESTRING (54.254336 851.121196, 41.227717 942.097084)

LINESTRING (155.003742 848.080397, 149.819685 955.221027)

LINESTRING (259.390700 858.043648, 251.798441 958.413013)

LINESTRING (345.038732 856.031721, 354.869807 955.126963)

LINESTRING (448.235167 843.839752, 459.677800 959.055852)

LINESTRING (559.800411 848.861532, 541.246259 956.821576)

LINESTRING (643.442307 851.740626, 642.424134 940.999321)

LINESTRING (745.955875 849.051194, 754.012692 957.775207)

LINESTRING (852.402524 850.925736, 849.217114 947.537590)

LINESTRING (956.721512 853.631432, 946.224841 957.428884)

LINESTRING (1059.658229 844.945566, 1051.798844 949.943002)

LINESTRING (1157.148148 844.804350, 1146.713116 952.717227)

LINESTRING (1240.857334 853.286040, 1244.662803 949.354454)

LINESTRING (1358.076501 857.371224, 1358.854749 946.004323)

LINESTRING (1444.976720 846.349290, 1456.410182 942.543963)

LINESTRING (1544.479095 841.227274, 1542.193011 947.201341)

LINESTRING (1644.703415 858.031674, 1644.251162 953.198504)

LINESTRING (1756.130494 840.985227, 1751.834859 945.100735)

LINESTRING (1841.907346 854.140510, 1859.973155 951.636576)

LINESTRING (41.227717 942.097084, 49.894605 1051.891313)

LINESTRING (149.819685 955.221027, 145.436042 1059.472470)

LINESTRING (251.798441 958.413013, 244.411353 1043.424938)

LINESTRING (354.869807 955.126963, 350.972507 1049.400504)

LINESTRING (459.677800 959.055852, 456.474400 1041.638573)

LINESTRING (541.246259 956.821576, 551.235639 1041.204081)

LINESTRING (642.424134 940.999321, 653.211513 1041.499436)

LINESTRING (754.012692 957.775207, 755.401944 1045.801439)

LINESTRING (849.217114 947.537590, 853.464266 1058.158965)

LINESTRING (946.224841 957.428884, 954.068056 1052.905725)

LINESTRING (1051.798844 949.943002, 1056.964618 1046.806302)

LINESTRING (1146.713116 952.717227, 1157.357656 1043.060576)

LINESTRING (1244.662803 949.354454, 1259.891069 1057.942738)

LINESTRING (1358.854749 946.004323, 1350.587805 1051.904416)

LINESTRING (1456.410182 942.543963, 1458.822157 1040.841879)

LINESTRING (1542.193011 947.201341, 1542.200374 1047.682376)

LINESTRING (1644.251162 953.198504, 1657.405426 1041.260024)

LINESTRING (1751.834859 945.100735, 1745.338970 1046.776232)

LINESTRING (1859.973155 951.636576, 1856.376790 1046.332064)

LINESTRING (49.894605 1051.891313, 54.950173 1152.354932)

LINESTRING (145.436042 1059.472470, 151.867791 1150.716052)

LINESTRING (244.411353 1043.424938, 251.080626 1156.177599)

LINESTRING (350.972507 1049.400504, 353.879268 1155.197195)

LINESTRING (456.474400 1041.638573, 451.567913 1157.051362)

LINESTRING (551.235639 1041.204081, 544.512421 1142.778232)

LINESTRING (653.211513 1041.499436, 657.721569 1145.213808)

LINESTRING (755.401944 1045.801439, 754.074511 1156.353251)

LINESTRING (853.464266 1058.158965, 840.091455 1148.705047)

LINESTRING (954.068056 1052.905725, 954.918538 1145.232155)

LINESTRING (1056.964618 1046.806302, 1053.547594 1148.644813)

LINESTRING (1157.357656 1043.060576, 1147.048987 1144.387445)

LINESTRING (1259.891069 1057.942738, 1240.001598 1157.504090)

LINESTRING (1350.587805 1051.904416, 1358.045138 1155.367423)

LINESTRING (1458.822157 1040.841879, 1441.917000 1143.653764)

LINESTRING (1542.200374 1047.682376, 1550.186202 1148.058965)

LINESTRING (1657.405426 1041.260024, 1648.608923 1146.169335)

LINESTRING (1745.338970 1046.776232, 1746.757954 1153.882321)

LINESTRING (1856.376790 1046.332064, 1850.277720 1143.518352)

LINESTRING (54.950173 1152.354932, 43.028640 1251.969734)

LINESTRING (151.867791 1150.716052, 146.530817 1244.715664)

LINESTRING (251.080626 1156.177599, 240.696025 1251.068300)

LINESTRING (353.879268 1155.197195, 348.264703 1252.040759)

LINESTRING (451.567913 1157.051362, 455.697486 1253.296675)

LINESTRING (544.512421 1142.778232, 557.613060 1252.018493)

LINESTRING (657.721569 1145.213808, 656.806634 1250.718676)

LINESTRING (754.074511 1156.353251, 741.491898 1255.258996)

LINESTRING (840.091455 1148.705047, 855.604103 1255.641828)

LINESTRING (954.918538 1145.232155, 957.692962 1254.505109)

LINESTRING (1053.547594 1148.644813, 1055.098610 1250.241196)

LINESTRING (1147.048987 1144.387445, 1149.230263 1248.756747)

LINESTRING (1240.001598 1157.504090, 1252.322881 1251.411160)

LINESTRING (1358.045138 1155.367423, 1351.468164 1247.197451)

LINESTRING (1441.917000 1143.653764, 1454.808794 1257.977142)

LINESTRING (1550.186202 1148.058965, 1555.915335 1247.811873)

LINESTRING (1648.608923 1146.169335, 1648.903670 1254.464774)

LINESTRING (1746.757954 1153.882321, 1745.607366 1259.023605)

LINESTRING (1850.277720 1143.518352, 1856.005867 1248.877484)

LINESTRING (43.028640 1251.969734, 41.171050 1347.414216)

LINESTRING (146.530817 1244.715664, 154.269890 1357.775190)

LINESTRING (240.696025 1251.068300, 249.769931 1345.988068)

LINESTRING (348.264703 1252.040759, 359.196227 1349.068165)

LINESTRING (455.697486 1253.296675, 458.569847 1348.329200)

LINESTRING (557.613060 1252.018493, 547.429608 1341.471401)

LINESTRING (656.806634 1250.718676, 657.563300 1346.716262)

LINESTRING (741.491898 1255.258996, 753.512686 1343.412171)

LINESTRING (855.604103 1255.641828, 848.476708 1350.437145)

LINESTRING (957.692962 1254.505109, 955.924154 1342.446234)

LINESTRING (1055.098610 1250.241196, 1049.105345 1344.713734)

LINESTRING (1149.230263 1248.756747, 1152.452560 1348.228735)

LINESTRING (1252.322881 1251.411160, 1245.047796 1345.760478)

LINESTRING (1351.468164 1247.197451, 1341.874398 1357.714065)

LINESTRING (1454.808794 1257.977142, 1440.012804 1357.355561)

LINESTRING (1555.915335 1247.811873, 1550.364970 1342.912607)

LINESTRING (1648.903670 1254.464774, 1644.859267 1355.251588)

LINESTRING (1745.607366 1259.023605, 1753.803583 1350.304929)

LINESTRING (1856.005867 1248.877484, 1859.435347 1347.558079)

LINESTRING (41.171050 1347.414216, 41.349548 1451.984310)

LINESTRING (154.269890 1357.775190, 140.582883 1445.748160)

LINESTRING (249.769931 1345.988068, 256.489702 1445.927590)

LINESTRING (359.196227 1349.068165, 348.705127 1448.845871)

LINESTRING (458.569847 1348.329200, 457.767701 1443.168357)

LINESTRING (547.429608 1341.471401, 558.968350 1455.374353)

LINESTRING (657.563300 1346.716262, 655.684277 1458.053486)

LINESTRING (753.512686 1343.412171, 748.290589 1440.799295)

LINESTRING (848.476708 1350.437145, 847.167354 1446.629166)

LINESTRING (955.924154 1342.446234, 942.296147 1450.917062)

LINESTRING (1049.105345 1344.713734, 1040.874351 1449.595101)

LINESTRING (1152.452560 1348.228735, 1158.060718 1454.853980)

LINESTRING (1245.047796 1345.760478, 1252.945248 1455.839434)

LINESTRING (1341.874398 1357.714065, 1354.478874 1445.828674)

LINESTRING (1440.012804 1357.355561, 1440.793622 1448.861856)

LINESTRING (1550.364970 1342.912607, 1546.967109 1455.565331)

LINESTRING (1644.859267 1355.251588, 1642.282954 1458.226050)

LINESTRING (1753.803583 1350.304929, 1751.368821 1442.828015)

LINESTRING (1859.435347 1347.558079, 1847.367898 1457.951568)

LINESTRING (41.349548 1451.984310, 55.470188 1559.977400)

LINESTRING (140.582883 1445.748160, 144.481626 1556.838358)

LINESTRING (256.489702 1445.927590, 251.125394 1544.710620)

LINESTRING (348.705127 1448.845871, 348.837097 1546.869405)

LINESTRING (457.767701 1443.168357, 444.107687 1551.074658)

LINESTRING (558.968350 1455.374353, 544.849087 1549.145668)

LINESTRING (655.684277 1458.053486, 648.787052 1542.546328)

LINESTRING (748.290589 1440.799295, 747.713409 1558.694347)

LINESTRING (847.167354 1446.629166, 840.784065 1542.254233)

LINESTRING (942.296147 1450.917062, 956.875468 1552.952992)

LINESTRING (1040.874351 1449.595101, 1049.684964 1541.443705)

LINESTRING (1158.060718 1454.853980, 1151.049098 1558.145528)

LINESTRING (1252.945248 1455.839434, 1241.649734 1555.549257)

LINESTRING (1354.478874 1445.828674, 1349.242406 1542.174029)

LINESTRING (1440.793622 1448.861856, 1459.920372 1559.974615)

LINESTRING (1546.967109 1455.565331, 1546.193725 1544.473184)

LINESTRING (1642.282954 1458.226050, 1659.069040 1551.917911)

LINESTRING (1751.368821 1442.828015, 1755.338290 1555.641825)

LINESTRING (1847.367898 1457.951568, 1845.173281 1553.837438)

LINESTRING (55.470188 1559.977400, 58.218957 1654.419400)

LINESTRING (144.481626 1556.838358, 158.953116 1655.693607)

LINESTRING (251.125394 1544.710620, 252.760071 1658.763680)

LINESTRING (348.837097 1546.869405, 359.420885 1649.801344)

LINESTRING (444.107687 1551.074658, 451.078900 1643.289075)

LINESTRING (544.849087 1549.145668, 550.059667 1642.970457)

LINESTRING (648.787052 1542.546328, 640.916720 1659.502187)

LINESTRING (747.713409 1558.694347, 750.069620 1644.948694)

LINESTRING (840.784065 1542.254233, 847.952420 1641.981861)

LINESTRING (956.875468 1552.952992, 955.060010 1654.372197)

LINESTRING (1049.684964 1541.443705, 1049.931637 1642.642768)

LINESTRING (1151.049098 1558.145528, 1143.060869 1640.930005)

LINESTRING (1241.649734 1555.549257, 1244.733936 1648.513816)

LINESTRING (1349.242406 1542.174029, 1342.783590 1649.432440)

LINESTRING (1459.920372 1559.974615, 1443.815863 1659.212053)

LINESTRING (1546.193725 1544.473184, 1541.615192 1656.726416)

LINESTRING (1659.069040 1551.917911, 1652.378290 1641.300074)

LINESTRING (1755.338290 1555.641825, 1747.963966 1655.416384)

LINESTRING (1845.173281 1553.837438, 1848.089120 1655.274152)

LINESTRING (58.218957 1654.419400, 53.516871 1759.846836)

LINESTRING (158.953116 1655.693607, 153.241839 1747.246786)

LINESTRING (252.760071 1658.763680, 240.318181 1740.298144)

LINESTRING (359.420885 1649.801344, 345.099447 1743.723927)

LINESTRING (451.078900 1643.289075, 443.182864 1752.506273)

LINESTRING (550.059667 1642.970457, 555.648183 1740.312128)

LINESTRING (640.916720 1659.502187, 651.441756 1754.774098)

LINESTRING (750.069620 1644.948694, 745.433665 1742.408380)

LINESTRING (847.952420 1641.981861, 844.018091 1740.815570)

LINESTRING (955.060010 1654.372197, 949.539235 1754.876622)

LINESTRING (1049.931637 1642.642768, 1055.841875 1743.487254)

LINESTRING (1143.060869 1640.930005, 1148.285701 1759.634636)

LINESTRING (1244.733936 1648.513816, 1254.081821 1740.099550)

LINESTRING (1342.783590 1649.432440, 1348.958046 1748.660500)

LINESTRING (1443.815863 1659.212053, 1456.966237 1741.619337)

LINESTRING (1541.615192 1656.726416, 1552.306963 1743.861834)

LINESTRING (1652.378290 1641.300074, 1642.122713 1752.259887)

LINESTRING (1747.963966 1655.416384, 1741.196332 1757.467964)

LINESTRING (1848.089120 1655.274152, 1846.051677 1748.821479)

LINESTRING (53.516871 1759.846836, 40.771345 1855.719596)

LINESTRING (153.241839 1747.246786, 158.142043 1840.044355)

LINESTRING (240.318181 1740.298144, 243.916069 1850.550199)

LINESTRING (345.099447 1743.723927, 346.387207 1840.814778)

LINESTRING (443.182864 1752.506273, 452.036231 1851.566962)

LINESTRING (555.648183 1740.312128, 556.774685 1854.174971)

LINESTRING (651.441756 1754.774098, 655.299834 1849.048655)

LINESTRING (745.433665 1742.408380, 748.726954 1844.610566)

LINESTRING (844.018091 1740.815570, 852.407554 1844.501199)

LINESTRING (949.539235 1754.876622, 951.872593 1842.913873)

LINESTRING (1055.841875 1743.487254, 1046.558455 1845.847979)

LINESTRING (1148.285701 1759.634636, 1141.724845 1852.679163)

LINESTRING (1254.081821 1740.099550, 1257.191414 1845.224395)

LINESTRING (1348.958046 1748.660500, 1358.957580 1844.114599)

LINESTRING (1456.966237 1741.619337, 1442.846509 1842.128241)

LINESTRING (1552.306963 1743.861834, 1558.140321 1854.089487)

LINESTRING (1642.122713 1752.259887, 1652.032122 1853.148459)

LINESTRING (1741.196332 1757.467964, 1747.525616 1851.159915)

LINESTRING (1846.051677 1748.821479, 1856.064897 1854.144897)

LINESTRING (1141.029530 51.788492, 1253.422412 147.401900)

LINESTRING (653.799730 146.583425, 746.796201 249.286669)

LINESTRING (1455.725874 245.836366, 1544.712907 343.921495)

LINESTRING (142.547693 356.372831, 240.562073 452.239690)

LINESTRING (556.111868 353.535130, 658.614082 441.108639)

LINESTRING (742.856237 355.720775, 852.793887 450.155432)

LINESTRING (842.894324 345.801514, 943.397394 441.112373)

LINESTRING (1057.695401 353.907208, 1140.386617 455.386243)

LINESTRING (758.568768 441.832457, 858.089930 543.136832)

LINESTRING (1247.948000 445.205059, 1356.252044 542.952494)

LINESTRING (1343.497532 448.788101, 1446.932469 558.527639)

LINESTRING (1647.989025 455.713782, 1748.444900 548.912672)

LINESTRING (1543.503518 545.187530, 1659.185463 643.603324)

LINESTRING (842.552431 656.902618, 955.635472 753.325462)

LINESTRING (1146.213746 657.115121, 1251.315616 750.365927)

LINESTRING (1455.819177 645.660375, 1540.329766 741.918009)

LINESTRING (1659.185463 643.603324, 1740.154882 746.700687)

LINESTRING (156.319579 740.965779, 259.390700 858.043648)

LINESTRING (254.343441 759.527123, 345.038732 856.031721)

LINESTRING (342.472108 755.129731, 448.235167 843.839752)

LINESTRING (648.175287 755.870948, 745.955875 849.051194)

LINESTRING (843.500328 755.283082, 956.721512 853.631432)

LINESTRING (1540.329766 741.918009, 1644.703415 858.031674)

LINESTRING (345.038732 856.031721, 459.677800 959.055852)

LINESTRING (1059.658229 844.945566, 1146.713116 952.717227)

LINESTRING (1644.703415 858.031674, 1751.834859 945.100735)

LINESTRING (1756.130494 840.985227, 1859.973155 951.636576)

LINESTRING (41.227717 942.097084, 145.436042 1059.472470)

LINESTRING (1146.713116 952.717227, 1259.891069 1057.942738)

LINESTRING (49.894605 1051.891313, 151.867791 1150.716052)

LINESTRING (350.972507 1049.400504, 451.567913 1157.051362)

LINESTRING (853.464266 1058.158965, 954.918538 1145.232155)

LINESTRING (754.074511 1156.353251, 855.604103 1255.641828)

LINESTRING (1358.045138 1155.367423, 1454.808794 1257.977142)

LINESTRING (1441.917000 1143.653764, 1555.915335 1247.811873)

LINESTRING (146.530817 1244.715664, 249.769931 1345.988068)

LINESTRING (455.697486 1253.296675, 547.429608 1341.471401)

LINESTRING (557.613060 1252.018493, 657.563300 1346.716262)

LINESTRING (656.806634 1250.718676, 753.512686 1343.412171)

LINESTRING (1055.098610 1250.241196, 1152.452560 1348.228735)

LINESTRING (1149.230263 1248.756747, 1245.047796 1345.760478)

LINESTRING (1745.607366 1259.023605, 1859.435347 1347.558079)

LINESTRING (848.476708 1350.437145, 942.296147 1450.917062)

LINESTRING (1644.859267 1355.251588, 1751.368821 1442.828015)

LINESTRING (1753.803583 1350.304929, 1847.367898 1457.951568)

LINESTRING (348.705127 1448.845871, 444.107687 1551.074658)

LINESTRING (457.767701 1443.168357, 544.849087 1549.145668)

LINESTRING (1040.874351 1449.595101, 1151.049098 1558.145528)

LINESTRING (1440.793622 1448.861856, 1546.193725 1544.473184)

LINESTRING (55.470188 1559.977400, 158.953116 1655.693607)

LINESTRING (444.107687 1551.074658, 550.059667 1642.970457)

LINESTRING (840.784065 1542.254233, 955.060010 1654.372197)

LINESTRING (1151.049098 1558.145528, 1244.733936 1648.513816)

LINESTRING (1459.920372 1559.974615, 1541.615192 1656.726416)

LINESTRING (847.952420 1641.981861, 949.539235 1754.876622)

LINESTRING (153.241839 1747.246786, 243.916069 1850.550199)

LINESTRING (949.539235 1754.876622, 1046.558455 1845.847979)

LINESTRING (1642.122713 1752.259887, 1747.525616 1851.159915)

