LINESTRING (60.000000 60.000000, 91.949570 93.541426)

LINESTRING (60.000000 60.000000, 93.645060 36.670555)

LINESTRING (60.000000 60.000000, 35.054352 66.863533)

LINESTRING (60.000000 60.000000, 82.122385 45.077198)

LINESTRING (60.000000 60.000000, 88.640956 80.378042)

LINESTRING (60.000000 60.000000, 84.313010 49.030307)

LINESTRING (60.000000 60.000000, 35.750037 57.410347)

LINESTRING (60.000000 60.000000, 61.506939 45.738080)

LINESTRING (91.949570 93.541426, 35.054352 66.863533)

LINESTRING (91.949570 93.541426, 82.122385 45.077198)

LINESTRING (91.949570 93.541426, 88.640956 80.378042)

LINESTRING (93.645060 36.670555, 35.054352 66.863533)

LINESTRING (93.645060 36.670555, 88.640956 80.378042)

LINESTRING (93.645060 36.670555, 61.506939 45.738080)

LINESTRING (35.054352 66.863533, 82.122385 45.077198)

LINESTRING (35.054352 66.863533, 35.750037 57.410347)

LINESTRING (35.054352 66.863533, 61.506939 45.738080)

LINESTRING (82.122385 45.077198, 35.750037 57.410347)

LINESTRING (88.640956 80.378042, 84.313010 49.030307)

LINESTRING (84.313010 49.030307, 35.750037 57.410347)

LINESTRING (35.750037 57.410347, 61.506939 45.738080)

LINESTRING (360.000000 60.000000, 350.666849 66.000924)

LINESTRING (360.000000 60.000000, 371.742434 74.707601)

LINESTRING (360.000000 60.000000, 342.215218 29.707734)

LINESTRING (360.000000 60.000000, 324.410688 26.761845)

LINESTRING (360.000000 60.000000, 347.475486 94.183424)

LINESTRING (360.000000 60.000000, 390.289171 91.552273)

LINESTRING (360.000000 60.000000, 339.801900 32.070139)

LINESTRING (360.000000 60.000000, 385.865031 59.881097)

LINESTRING (350.666849 66.000924, 324.410688 26.761845)

LINESTRING (350.666849 66.000924, 347.475486 94.183424)

LINESTRING (350.666849 66.000924, 339.801900 32.070139)

LINESTRING (350.666849 66.000924, 385.865031 59.881097)

LINESTRING (371.742434 74.707601, 342.215218 29.707734)

LINESTRING (371.742434 74.707601, 347.475486 94.183424)

LINESTRING (371.742434 74.707601, 390.289171 91.552273)

LINESTRING (371.742434 74.707601, 339.801900 32.070139)

LINESTRING (342.215218 29.707734, 324.410688 26.761845)

LINESTRING (342.215218 29.707734, 347.475486 94.183424)

LINESTRING (342.215218 29.707734, 390.289171 91.552273)

LINESTRING (342.215218 29.707734, 339.801900 32.070139)

LINESTRING (342.215218 29.707734, 385.865031 59.881097)

LINESTRING (324.410688 26.761845, 390.289171 91.552273)

LINESTRING (324.410688 26.761845, 385.865031 59.881097)

LINESTRING (347.475486 94.183424, 390.289171 91.552273)

LINESTRING (347.475486 94.183424, 339.801900 32.070139)

LINESTRING (390.289171 91.552273, 339.801900 32.070139)

LINESTRING (339.801900 32.070139, 385.865031 59.881097)

LINESTRING (60.000000 360.000000, 75.211135 351.929960)

LINESTRING (60.000000 360.000000, 34.255986 356.331781)

LINESTRING (60.000000 360.000000, 70.036577 359.396122)

LINESTRING (60.000000 360.000000, 68.358047 387.761762)

LINESTRING (60.000000 360.000000, 43.482915 361.084928)

LINESTRING (60.000000 360.000000, 63.308808 364.211712)

LINESTRING (60.000000 360.000000, 65.391615 363.922556)

LINESTRING (60.000000 360.000000, 27.092302 341.437210)

LINESTRING (75.211135 351.929960, 34.255986 356.331781)

LINESTRING (75.211135 351.929960, 70.036577 359.396122)

LINESTRING (75.211135 351.929960, 43.482915 361.084928)

LINESTRING (75.211135 351.929960, 27.092302 341.437210)

LINESTRING (34.255986 356.331781, 63.308808 364.211712)

LINESTRING (34.255986 356.331781, 65.391615 363.922556)

LINESTRING (70.036577 359.396122, 68.358047 387.761762)

LINESTRING (70.036577 359.396122, 43.482915 361.084928)

LINESTRING (70.036577 359.396122, 27.092302 341.437210)

LINESTRING (68.358047 387.761762, 43.482915 361.084928)

LINESTRING (68.358047 387.761762, 63.308808 364.211712)

LINESTRING (68.358047 387.761762, 27.092302 341.437210)

LINESTRING (63.308808 364.211712, 65.391615 363.922556)

LINESTRING (65.391615 363.922556, 27.092302 341.437210)

LINESTRING (91.949570 93.541426, 350.666849 66.000924)

LINESTRING (60.000000 60.000000, 360.000000 60.000000)

LINESTRING (324.410688 26.761845, 34.255986 356.331781)

LINESTRING (360.000000 60.000000, 60.000000 360.000000)

