LINESTRING (60.000000 60.000000, 39.782899 50.822961)

LINESTRING (60.000000 60.000000, 97.288337 56.018198)

LINESTRING (60.000000 60.000000, 63.640071 94.898911)

LINESTRING (60.000000 60.000000, 78.168160 63.818130)

LINESTRING (60.000000 60.000000, 40.227578 91.986438)

LINESTRING (60.000000 60.000000, 88.636812 82.778144)

LINESTRING (60.000000 60.000000, 115.590764 73.939431)

LINESTRING (60.000000 60.000000, 10.365835 72.989152)

LINESTRING (39.782899 50.822961, 63.640071 94.898911)

LINESTRING (39.782899 50.822961, 78.168160 63.818130)

LINESTRING (39.782899 50.822961, 40.227578 91.986438)

LINESTRING (39.782899 50.822961, 88.636812 82.778144)

LINESTRING (39.782899 50.822961, 115.590764 73.939431)

LINESTRING (39.782899 50.822961, 10.365835 72.989152)

LINESTRING (97.288337 56.018198, 63.640071 94.898911)

LINESTRING (97.288337 56.018198, 78.168160 63.818130)

LINESTRING (97.288337 56.018198, 40.227578 91.986438)

LINESTRING (97.288337 56.018198, 88.636812 82.778144)

LINESTRING (97.288337 56.018198, 115.590764 73.939431)

LINESTRING (97.288337 56.018198, 10.365835 72.989152)

LINESTRING (63.640071 94.898911, 78.168160 63.818130)

LINESTRING (63.640071 94.898911, 40.227578 91.986438)

LINESTRING (63.640071 94.898911, 88.636812 82.778144)

LINESTRING (63.640071 94.898911, 115.590764 73.939431)

LINESTRING (63.640071 94.898911, 10.365835 72.989152)

LINESTRING (78.168160 63.818130, 40.227578 91.986438)

LINESTRING (78.168160 63.818130, 88.636812 82.778144)

LINESTRING (78.168160 63.818130, 115.590764 73.939431)

LINESTRING (78.168160 63.818130, 10.365835 72.989152)

LINESTRING (40.227578 91.986438, 88.636812 82.778144)

LINESTRING (40.227578 91.986438, 115.590764 73.939431)

LINESTRING (40.227578 91.986438, 10.365835 72.989152)

LINESTRING (88.636812 82.778144, 115.590764 73.939431)

LINESTRING (88.636812 82.778144, 10.365835 72.989152)

LINESTRING (115.590764 73.939431, 10.365835 72.989152)

LINESTRING (560.000000 60.000000, 580.538760 76.695893)

LINESTRING (560.000000 60.000000, 595.868188 27.883492)

LINESTRING (560.000000 60.000000, 510.424867 74.546948)

LINESTRING (560.000000 60.000000, 603.525719 70.200958)

LINESTRING (560.000000 60.000000, 507.545061 108.151081)

LINESTRING (560.000000 60.000000, 553.852997 11.471842)

LINESTRING (560.000000 60.000000, 551.361064 86.656091)

LINESTRING (560.000000 60.000000, 524.892201 100.175760)

LINESTRING (580.538760 76.695893, 595.868188 27.883492)

LINESTRING (580.538760 76.695893, 510.424867 74.546948)

LINESTRING (580.538760 76.695893, 603.525719 70.200958)

LINESTRING (580.538760 76.695893, 553.852997 11.471842)

LINESTRING (580.538760 76.695893, 551.361064 86.656091)

LINESTRING (580.538760 76.695893, 524.892201 100.175760)

LINESTRING (595.868188 27.883492, 510.424867 74.546948)

LINESTRING (595.868188 27.883492, 603.525719 70.200958)

LINESTRING (595.868188 27.883492, 507.545061 108.151081)

LINESTRING (595.868188 27.883492, 553.852997 11.471842)

LINESTRING (595.868188 27.883492, 551.361064 86.656091)

LINESTRING (595.868188 27.883492, 524.892201 100.175760)

LINESTRING (510.424867 74.546948, 603.525719 70.200958)

LINESTRING (510.424867 74.546948, 507.545061 108.151081)

LINESTRING (510.424867 74.546948, 553.852997 11.471842)

LINESTRING (510.424867 74.546948, 551.361064 86.656091)

LINESTRING (603.525719 70.200958, 507.545061 108.151081)

LINESTRING (603.525719 70.200958, 524.892201 100.175760)

LINESTRING (507.545061 108.151081, 553.852997 11.471842)

LINESTRING (507.545061 108.151081, 551.361064 86.656091)

LINESTRING (507.545061 108.151081, 524.892201 100.175760)

LINESTRING (553.852997 11.471842, 551.361064 86.656091)

LINESTRING (553.852997 11.471842, 524.892201 100.175760)

LINESTRING (60.000000 560.000000, 66.005841 589.210636)

LINESTRING (60.000000 560.000000, 3.060543 573.154775)

LINESTRING (60.000000 560.000000, 104.750012 601.022095)

LINESTRING (60.000000 560.000000, 19.302787 571.646869)

LINESTRING (60.000000 560.000000, 97.840900 611.447114)

LINESTRING (60.000000 560.000000, 75.262209 503.297807)

LINESTRING (60.000000 560.000000, 40.147711 594.991706)

LINESTRING (60.000000 560.000000, 59.296514 562.447570)

LINESTRING (66.005841 589.210636, 3.060543 573.154775)

LINESTRING (66.005841 589.210636, 104.750012 601.022095)

LINESTRING (66.005841 589.210636, 19.302787 571.646869)

LINESTRING (66.005841 589.210636, 97.840900 611.447114)

LINESTRING (66.005841 589.210636, 75.262209 503.297807)

LINESTRING (66.005841 589.210636, 59.296514 562.447570)

LINESTRING (3.060543 573.154775, 104.750012 601.022095)

LINESTRING (3.060543 573.154775, 19.302787 571.646869)

LINESTRING (3.060543 573.154775, 75.262209 503.297807)

LINESTRING (3.060543 573.154775, 40.147711 594.991706)

LINESTRING (3.060543 573.154775, 59.296514 562.447570)

LINESTRING (104.750012 601.022095, 19.302787 571.646869)

LINESTRING (104.750012 601.022095, 97.840900 611.447114)

LINESTRING (104.750012 601.022095, 75.262209 503.297807)

LINESTRING (104.750012 601.022095, 40.147711 594.991706)

LINESTRING (104.750012 601.022095, 59.296514 562.447570)

LINESTRING (19.302787 571.646869, 97.840900 611.447114)

LINESTRING (19.302787 571.646869, 75.262209 503.297807)

LINESTRING (19.302787 571.646869, 40.147711 594.991706)

LINESTRING (97.840900 611.447114, 75.262209 503.297807)

LINESTRING (97.840900 611.447114, 40.147711 594.991706)

LINESTRING (97.840900 611.447114, 59.296514 562.447570)

LINESTRING (75.262209 503.297807, 40.147711 594.991706)

LINESTRING (75.262209 503.297807, 59.296514 562.447570)

LINESTRING (40.147711 594.991706, 59.296514 562.447570)

LINESTRING (115.590764 73.939431, 551.361064 86.656091)

LINESTRING (60.000000 60.000000, 560.000000 60.000000)

LINESTRING (510.424867 74.546948, 66.005841 589.210636)

LINESTRING (560.000000 60.000000, 60.000000 560.000000)

