LINESTRING (80.000000 80.000000, 778.419827 32.992078)

LINESTRING (80.000000 80.000000, 464.130905 54.145643)

LINESTRING (464.130905 54.145643, 778.419827 32.992078)

LINESTRING (80.000000 80.000000, 665.187938 464.128985)

LINESTRING (80.000000 80.000000, 401.853366 291.270941)

LINESTRING (401.853366 291.270941, 665.187938 464.128985)

LINESTRING (80.000000 80.000000, 469.842421 661.397357)

LINESTRING (80.000000 80.000000, 294.413332 399.768546)

LINESTRING (294.413332 399.768546, 469.842421 661.397357)

LINESTRING (80.000000 80.000000, 100.543404 779.698484)

LINESTRING (80.000000 80.000000, 91.298872 464.834166)

LINESTRING (91.298872 464.834166, 100.543404 779.698484)

LINESTRING (80.000000 80.000000, -262.046985 690.740419)

LINESTRING (80.000000 80.000000, -108.125842 415.907231)

LINESTRING (-108.125842 415.907231, -262.046985 690.740419)

LINESTRING (80.000000 80.000000, -535.021102 414.288864)

LINESTRING (80.000000 80.000000, -258.261606 263.858875)

LINESTRING (-258.261606 263.858875, -535.021102 414.288864)

LINESTRING (80.000000 80.000000, -619.999562 79.216905)

LINESTRING (80.000000 80.000000, -304.999759 79.569298)

LINESTRING (-304.999759 79.569298, -619.999562 79.216905)

LINESTRING (80.000000 80.000000, -550.134457 -224.845150)

LINESTRING (80.000000 80.000000, -266.573952 -87.664832)

LINESTRING (-266.573952 -87.664832, -550.134457 -224.845150)

LINESTRING (80.000000 80.000000, -290.876720 -513.675381)

LINESTRING (80.000000 80.000000, -123.982196 -246.521460)

LINESTRING (-123.982196 -246.521460, -290.876720 -513.675381)

LINESTRING (80.000000 80.000000, 49.180292 -619.321203)

LINESTRING (80.000000 80.000000, 63.049161 -304.626662)

LINESTRING (63.049161 -304.626662, 49.180292 -619.321203)

LINESTRING (80.000000 80.000000, 445.043635 -517.279787)

LINESTRING (80.000000 80.000000, 280.773999 -248.503883)

LINESTRING (280.773999 -248.503883, 445.043635 -517.279787)

LINESTRING (80.000000 80.000000, 686.156378 -270.106334)

LINESTRING (80.000000 80.000000, 413.386008 -112.558484)

LINESTRING (413.386008 -112.558484, 686.156378 -270.106334)

LINESTRING (778.419827 32.992078, 665.187938 464.128985)

LINESTRING (665.187938 464.128985, 469.842421 661.397357)

LINESTRING (469.842421 661.397357, 100.543404 779.698484)

LINESTRING (100.543404 779.698484, -262.046985 690.740419)

LINESTRING (-262.046985 690.740419, -535.021102 414.288864)

LINESTRING (-535.021102 414.288864, -619.999562 79.216905)

LINESTRING (-619.999562 79.216905, -550.134457 -224.845150)

LINESTRING (-550.134457 -224.845150, -290.876720 -513.675381)

LINESTRING (-290.876720 -513.675381, 49.180292 -619.321203)

LINESTRING (49.180292 -619.321203, 445.043635 -517.279787)

LINESTRING (445.043635 -517.279787, 686.156378 -270.106334)

LINESTRING (686.156378 -270.106334, 778.419827 32.992078)

LINESTRING (880.000000 80.000000, 1579.385574 109.322675)

LINESTRING (880.000000 80.000000, 1264.662066 96.127471)

LINESTRING (1264.662066 96.127471, 1579.385574 109.322675)

LINESTRING (880.000000 80.000000, 1496.522737 411.511260)

LINESTRING (880.000000 80.000000, 1219.087505 262.331193)

LINESTRING (1219.087505 262.331193, 1496.522737 411.511260)

LINESTRING (880.000000 80.000000, 1206.597555 699.139756)

LINESTRING (880.000000 80.000000, 1059.628655 420.526866)

LINESTRING (1059.628655 420.526866, 1206.597555 699.139756)

LINESTRING (880.000000 80.000000, 878.675319 779.998747)

LINESTRING (880.000000 80.000000, 879.271425 464.999311)

LINESTRING (879.271425 464.999311, 878.675319 779.998747)

LINESTRING (880.000000 80.000000, 555.856914 700.428287)

LINESTRING (880.000000 80.000000, 701.721302 421.235558)

LINESTRING (701.721302 421.235558, 555.856914 700.428287)

LINESTRING (880.000000 80.000000, 293.018355 461.382418)

LINESTRING (880.000000 80.000000, 557.160095 289.760330)

LINESTRING (557.160095 289.760330, 293.018355 461.382418)

LINESTRING (880.000000 80.000000, 181.318953 37.048921)

LINESTRING (880.000000 80.000000, 495.725424 56.376907)

LINESTRING (495.725424 56.376907, 181.318953 37.048921)

LINESTRING (880.000000 80.000000, 299.200475 -310.732533)

LINESTRING (880.000000 80.000000, 560.560261 -134.902893)

LINESTRING (560.560261 -134.902893, 299.200475 -310.732533)

LINESTRING (880.000000 80.000000, 520.964544 -520.910593)

LINESTRING (880.000000 80.000000, 682.530499 -250.500826)

LINESTRING (682.530499 -250.500826, 520.964544 -520.910593)

LINESTRING (880.000000 80.000000, 924.948252 -618.555406)

LINESTRING (880.000000 80.000000, 904.721539 -304.205473)

LINESTRING (904.721539 -304.205473, 924.948252 -618.555406)

LINESTRING (880.000000 80.000000, 1180.573158 -552.183341)

LINESTRING (880.000000 80.000000, 1045.315237 -267.700838)

LINESTRING (1045.315237 -267.700838, 1180.573158 -552.183341)

LINESTRING (880.000000 80.000000, 1508.446441 -228.310024)

LINESTRING (880.000000 80.000000, 1225.645542 -89.570513)

LINESTRING (1225.645542 -89.570513, 1508.446441 -228.310024)

LINESTRING (1579.385574 109.322675, 1496.522737 411.511260)

LINESTRING (1496.522737 411.511260, 1206.597555 699.139756)

LINESTRING (1206.597555 699.139756, 878.675319 779.998747)

LINESTRING (878.675319 779.998747, 555.856914 700.428287)

LINESTRING (555.856914 700.428287, 293.018355 461.382418)

LINESTRING (293.018355 461.382418, 181.318953 37.048921)

LINESTRING (181.318953 37.048921, 299.200475 -310.732533)

LINESTRING (299.200475 -310.732533, 520.964544 -520.910593)

LINESTRING (520.964544 -520.910593, 924.948252 -618.555406)

LINESTRING (924.948252 -618.555406, 1180.573158 -552.183341)

LINESTRING (1180.573158 -552.183341, 1508.446441 -228.310024)

LINESTRING (1508.446441 -228.310024, 1579.385574 109.322675)

LINESTRING (1680.000000 80.000000, 2379.944123 88.844442)

LINESTRING (1680.000000 80.000000, 2064.969268 84.864443)

LINESTRING (2064.969268 84.864443, 2379.944123 88.844442)

LINESTRING (1680.000000 80.000000, 2276.764961 445.884655)

LINESTRING (1680.000000 80.000000, 2008.220729 281.236560)

LINESTRING (2008.220729 281.236560, 2276.764961 445.884655)

LINESTRING (1680.000000 80.000000, 1994.792261 705.224626)

LINESTRING (1680.000000 80.000000, 1853.135743 423.873544)

LINESTRING (1853.135743 423.873544, 1994.792261 705.224626)

LINESTRING (1680.000000 80.000000, 1668.151654 779.899719)

LINESTRING (1680.000000 80.000000, 1673.483410 464.944845)

LINESTRING (1673.483410 464.944845, 1668.151654 779.899719)

LINESTRING (1680.000000 80.000000, 1286.929457 659.219775)

LINESTRING (1680.000000 80.000000, 1463.811201 398.570876)

LINESTRING (1463.811201 398.570876, 1286.929457 659.219775)

LINESTRING (1680.000000 80.000000, 1096.933964 467.342223)

LINESTRING (1680.000000 80.000000, 1359.313680 293.038223)

LINESTRING (1359.313680 293.038223, 1096.933964 467.342223)

LINESTRING (1680.000000 80.000000, 980.023397 74.276746)

LINESTRING (1680.000000 80.000000, 1295.012868 76.852210)

LINESTRING (1295.012868 76.852210, 980.023397 74.276746)

LINESTRING (1680.000000 80.000000, 1048.060773 -221.086056)

LINESTRING (1680.000000 80.000000, 1332.433425 -85.597331)

LINESTRING (1332.433425 -85.597331, 1048.060773 -221.086056)

LINESTRING (1680.000000 80.000000, 1315.723095 -517.747720)

LINESTRING (1680.000000 80.000000, 1479.647702 -248.761246)

LINESTRING (1479.647702 -248.761246, 1315.723095 -517.747720)

LINESTRING (1680.000000 80.000000, 1681.519039 -619.998352)

LINESTRING (1680.000000 80.000000, 1680.835472 -304.999093)

LINESTRING (1680.835472 -304.999093, 1681.519039 -619.998352)

LINESTRING (1680.000000 80.000000, 1998.259080 -543.467046)

LINESTRING (1680.000000 80.000000, 1855.042494 -262.906875)

LINESTRING (1855.042494 -262.906875, 1998.259080 -543.467046)

LINESTRING (1680.000000 80.000000, 2292.256031 -259.326617)

LINESTRING (1680.000000 80.000000, 2016.740817 -106.629639)

LINESTRING (2016.740817 -106.629639, 2292.256031 -259.326617)

LINESTRING (2379.944123 88.844442, 2276.764961 445.884655)

LINESTRING (2276.764961 445.884655, 1994.792261 705.224626)

LINESTRING (1994.792261 705.224626, 1668.151654 779.899719)

LINESTRING (1668.151654 779.899719, 1286.929457 659.219775)

LINESTRING (1286.929457 659.219775, 1096.933964 467.342223)

LINESTRING (1096.933964 467.342223, 980.023397 74.276746)

LINESTRING (980.023397 74.276746, 1048.060773 -221.086056)

LINESTRING (1048.060773 -221.086056, 1315.723095 -517.747720)

LINESTRING (1315.723095 -517.747720, 1681.519039 -619.998352)

LINESTRING (1681.519039 -619.998352, 1998.259080 -543.467046)

LINESTRING (1998.259080 -543.467046, 2292.256031 -259.326617)

LINESTRING (2292.256031 -259.326617, 2379.944123 88.844442)

LINESTRING (80.000000 80.000000, 880.000000 80.000000)

LINESTRING (880.000000 80.000000, 1680.000000 80.000000)

