LINESTRING (60.000000 60.000000, 61.480423 79.818423)

LINESTRING (60.000000 60.000000, 61.244782 61.348602)

LINESTRING (60.000000 60.000000, 70.491197 39.951725)

LINESTRING (60.000000 60.000000, 64.401898 50.362063)

LINESTRING (60.000000 60.000000, 66.494022 57.423436)

LINESTRING (60.000000 60.000000, 69.927486 74.618975)

LINESTRING (60.000000 60.000000, 53.696879 48.783614)

LINESTRING (60.000000 60.000000, 63.016776 83.570207)

LINESTRING (61.480423 79.818423, 61.244782 61.348602)

LINESTRING (61.480423 79.818423, 64.401898 50.362063)

LINESTRING (61.480423 79.818423, 53.696879 48.783614)

LINESTRING (61.480423 79.818423, 63.016776 83.570207)

LINESTRING (61.244782 61.348602, 64.401898 50.362063)

LINESTRING (61.244782 61.348602, 66.494022 57.423436)

LINESTRING (61.244782 61.348602, 69.927486 74.618975)

LINESTRING (70.491197 39.951725, 64.401898 50.362063)

LINESTRING (70.491197 39.951725, 66.494022 57.423436)

LINESTRING (70.491197 39.951725, 69.927486 74.618975)

LINESTRING (70.491197 39.951725, 53.696879 48.783614)

LINESTRING (70.491197 39.951725, 63.016776 83.570207)

LINESTRING (64.401898 50.362063, 69.927486 74.618975)

LINESTRING (64.401898 50.362063, 53.696879 48.783614)

LINESTRING (66.494022 57.423436, 69.927486 74.618975)

LINESTRING (53.696879 48.783614, 63.016776 83.570207)

LINESTRING (260.000000 60.000000, 251.808008 74.410565)

LINESTRING (260.000000 60.000000, 272.050424 36.743511)

LINESTRING (260.000000 60.000000, 260.730674 69.865318)

LINESTRING (260.000000 60.000000, 264.683360 62.020012)

LINESTRING (260.000000 60.000000, 255.613585 53.099493)

LINESTRING (260.000000 60.000000, 280.019973 57.536923)

LINESTRING (260.000000 60.000000, 245.824682 81.587944)

LINESTRING (260.000000 60.000000, 282.973090 76.782873)

LINESTRING (251.808008 74.410565, 260.730674 69.865318)

LINESTRING (251.808008 74.410565, 264.683360 62.020012)

LINESTRING (251.808008 74.410565, 255.613585 53.099493)

LINESTRING (251.808008 74.410565, 245.824682 81.587944)

LINESTRING (251.808008 74.410565, 282.973090 76.782873)

LINESTRING (272.050424 36.743511, 260.730674 69.865318)

LINESTRING (272.050424 36.743511, 264.683360 62.020012)

LINESTRING (260.730674 69.865318, 255.613585 53.099493)

LINESTRING (264.683360 62.020012, 255.613585 53.099493)

LINESTRING (264.683360 62.020012, 245.824682 81.587944)

LINESTRING (255.613585 53.099493, 280.019973 57.536923)

LINESTRING (255.613585 53.099493, 245.824682 81.587944)

LINESTRING (255.613585 53.099493, 282.973090 76.782873)

LINESTRING (280.019973 57.536923, 245.824682 81.587944)

LINESTRING (245.824682 81.587944, 282.973090 76.782873)

LINESTRING (460.000000 60.000000, 473.900589 60.375416)

LINESTRING (460.000000 60.000000, 480.295563 39.480782)

LINESTRING (460.000000 60.000000, 443.239192 55.768374)

LINESTRING (460.000000 60.000000, 440.924735 46.777354)

LINESTRING (460.000000 60.000000, 478.263873 76.022885)

LINESTRING (460.000000 60.000000, 437.138112 39.173464)

LINESTRING (460.000000 60.000000, 480.486932 46.165023)

LINESTRING (460.000000 60.000000, 461.782112 55.443390)

LINESTRING (473.900589 60.375416, 480.295563 39.480782)

LINESTRING (473.900589 60.375416, 443.239192 55.768374)

LINESTRING (473.900589 60.375416, 478.263873 76.022885)

LINESTRING (473.900589 60.375416, 437.138112 39.173464)

LINESTRING (473.900589 60.375416, 461.782112 55.443390)

LINESTRING (480.295563 39.480782, 478.263873 76.022885)

LINESTRING (480.295563 39.480782, 437.138112 39.173464)

LINESTRING (480.295563 39.480782, 480.486932 46.165023)

LINESTRING (480.295563 39.480782, 461.782112 55.443390)

LINESTRING (443.239192 55.768374, 478.263873 76.022885)

LINESTRING (443.239192 55.768374, 437.138112 39.173464)

LINESTRING (443.239192 55.768374, 480.486932 46.165023)

LINESTRING (443.239192 55.768374, 461.782112 55.443390)

LINESTRING (440.924735 46.777354, 478.263873 76.022885)

LINESTRING (478.263873 76.022885, 480.486932 46.165023)

LINESTRING (437.138112 39.173464, 480.486932 46.165023)

LINESTRING (60.000000 260.000000, 82.538764 252.137228)

LINESTRING (60.000000 260.000000, 66.078025 260.424828)

LINESTRING (60.000000 260.000000, 72.336187 275.332104)

LINESTRING (60.000000 260.000000, 81.629580 281.831091)

LINESTRING (60.000000 260.000000, 79.745624 253.885918)

LINESTRING (60.000000 260.000000, 79.247938 277.555988)

LINESTRING (60.000000 260.000000, 56.693281 251.382605)

LINESTRING (60.000000 260.000000, 68.158977 271.028985)

LINESTRING (82.538764 252.137228, 66.078025 260.424828)

LINESTRING (82.538764 252.137228, 72.336187 275.332104)

LINESTRING (82.538764 252.137228, 81.629580 281.831091)

LINESTRING (82.538764 252.137228, 79.745624 253.885918)

LINESTRING (82.538764 252.137228, 79.247938 277.555988)

LINESTRING (82.538764 252.137228, 68.158977 271.028985)

LINESTRING (66.078025 260.424828, 81.629580 281.831091)

LINESTRING (66.078025 260.424828, 79.745624 253.885918)

LINESTRING (66.078025 260.424828, 56.693281 251.382605)

LINESTRING (72.336187 275.332104, 81.629580 281.831091)

LINESTRING (72.336187 275.332104, 79.247938 277.555988)

LINESTRING (72.336187 275.332104, 68.158977 271.028985)

LINESTRING (81.629580 281.831091, 79.247938 277.555988)

LINESTRING (81.629580 281.831091, 68.158977 271.028985)

LINESTRING (79.745624 253.885918, 56.693281 251.382605)

LINESTRING (79.247938 277.555988, 56.693281 251.382605)

LINESTRING (260.000000 260.000000, 263.816468 267.596984)

LINESTRING (260.000000 260.000000, 246.321080 249.292424)

LINESTRING (260.000000 260.000000, 268.464945 256.118557)

LINESTRING (260.000000 260.000000, 266.725253 262.035170)

LINESTRING (260.000000 260.000000, 248.426134 241.362295)

LINESTRING (260.000000 260.000000, 278.735110 240.463940)

LINESTRING (260.000000 260.000000, 256.631816 256.676259)

LINESTRING (260.000000 260.000000, 248.118926 278.393233)

LINESTRING (263.816468 267.596984, 268.464945 256.118557)

LINESTRING (263.816468 267.596984, 248.426134 241.362295)

LINESTRING (263.816468 267.596984, 248.118926 278.393233)

LINESTRING (246.321080 249.292424, 268.464945 256.118557)

LINESTRING (246.321080 249.292424, 266.725253 262.035170)

LINESTRING (246.321080 249.292424, 248.426134 241.362295)

LINESTRING (246.321080 249.292424, 256.631816 256.676259)

LINESTRING (246.321080 249.292424, 248.118926 278.393233)

LINESTRING (268.464945 256.118557, 266.725253 262.035170)

LINESTRING (268.464945 256.118557, 248.426134 241.362295)

LINESTRING (268.464945 256.118557, 278.735110 240.463940)

LINESTRING (268.464945 256.118557, 256.631816 256.676259)

LINESTRING (268.464945 256.118557, 248.118926 278.393233)

LINESTRING (266.725253 262.035170, 248.118926 278.393233)

LINESTRING (248.426134 241.362295, 278.735110 240.463940)

LINESTRING (248.426134 241.362295, 248.118926 278.393233)

LINESTRING (278.735110 240.463940, 256.631816 256.676259)

LINESTRING (256.631816 256.676259, 248.118926 278.393233)

LINESTRING (460.000000 260.000000, 467.435814 274.963246)

LINESTRING (460.000000 260.000000, 445.325664 259.228749)

LINESTRING (460.000000 260.000000, 475.884277 252.414442)

LINESTRING (460.000000 260.000000, 453.919005 282.798877)

LINESTRING (460.000000 260.000000, 447.281622 283.434538)

LINESTRING (460.000000 260.000000, 475.521243 261.414878)

LINESTRING (460.000000 260.000000, 467.445999 255.058865)

LINESTRING (460.000000 260.000000, 453.434624 246.804906)

LINESTRING (467.435814 274.963246, 445.325664 259.228749)

LINESTRING (467.435814 274.963246, 475.884277 252.414442)

LINESTRING (467.435814 274.963246, 453.919005 282.798877)

LINESTRING (467.435814 274.963246, 447.281622 283.434538)

LINESTRING (445.325664 259.228749, 453.919005 282.798877)

LINESTRING (445.325664 259.228749, 475.521243 261.414878)

LINESTRING (475.884277 252.414442, 447.281622 283.434538)

LINESTRING (475.884277 252.414442, 475.521243 261.414878)

LINESTRING (475.884277 252.414442, 467.445999 255.058865)

LINESTRING (475.884277 252.414442, 453.434624 246.804906)

LINESTRING (453.919005 282.798877, 447.281622 283.434538)

LINESTRING (453.919005 282.798877, 475.521243 261.414878)

LINESTRING (447.281622 283.434538, 475.521243 261.414878)

LINESTRING (447.281622 283.434538, 453.434624 246.804906)

LINESTRING (475.521243 261.414878, 467.445999 255.058865)

LINESTRING (475.521243 261.414878, 453.434624 246.804906)

LINESTRING (467.445999 255.058865, 453.434624 246.804906)

LINESTRING (69.927486 74.618975, 282.973090 76.782873)

LINESTRING (60.000000 60.000000, 260.000000 60.000000)

LINESTRING (245.824682 81.587944, 440.924735 46.777354)

LINESTRING (260.000000 60.000000, 460.000000 60.000000)

LINESTRING (473.900589 60.375416, 72.336187 275.332104)

LINESTRING (460.000000 60.000000, 60.000000 260.000000)

LINESTRING (79.745624 253.885918, 246.321080 249.292424)

LINESTRING (60.000000 260.000000, 260.000000 260.000000)

LINESTRING (256.631816 256.676259, 467.445999 255.058865)

LINESTRING (260.000000 260.000000, 460.000000 260.000000)

