LINESTRING (483.260557 404.943963, 469.545093 446.872127)

LINESTRING (469.545093 446.872127, 421.201422 477.585074)

LINESTRING (421.201422 477.585074, 374.229297 476.736692)

LINESTRING (374.229297 476.736692, 334.917675 443.724854)

LINESTRING (334.917675 443.724854, 324.089781 404.008082)

LINESTRING (324.089781 404.008082, 332.690959 351.786191)

LINESTRING (332.690959 351.786191, 378.359936 320.276613)

LINESTRING (378.359936 320.276613, 419.910844 326.383780)

LINESTRING (419.910844 326.383780, 461.826240 357.066687)

LINESTRING (461.826240 357.066687, 483.260557 404.943963)

LINESTRING (556.115368 402.353376, 527.986250 493.545487)

LINESTRING (527.986250 493.545487, 450.373360 551.076675)

LINESTRING (450.373360 551.076675, 348.219150 548.496053)

LINESTRING (348.219150 548.496053, 269.744667 492.840696)

LINESTRING (269.744667 492.840696, 237.700141 395.683247)

LINESTRING (237.700141 395.683247, 267.491439 307.532724)

LINESTRING (267.491439 307.532724, 348.323174 247.477268)

LINESTRING (348.323174 247.477268, 448.337604 249.672355)

LINESTRING (448.337604 249.672355, 530.803446 304.272373)

LINESTRING (530.803446 304.272373, 556.115368 402.353376)

LINESTRING (643.227613 402.371569, 590.853040 540.994453)

LINESTRING (590.853040 540.994453, 475.931475 631.492273)

LINESTRING (475.931475 631.492273, 329.423596 632.546895)

LINESTRING (329.423596 632.546895, 208.766043 541.369521)

LINESTRING (208.766043 541.369521, 162.083290 395.394768)

LINESTRING (162.083290 395.394768, 204.109574 257.039160)

LINESTRING (204.109574 257.039160, 325.308237 176.213095)

LINESTRING (325.308237 176.213095, 474.120378 174.294245)

LINESTRING (474.120378 174.294245, 598.642266 256.844364)

LINESTRING (598.642266 256.844364, 643.227613 402.371569)

LINESTRING (720.238870 400.775279, 660.226780 587.474621)

LINESTRING (660.226780 587.474621, 501.216478 704.476982)

LINESTRING (501.216478 704.476982, 299.658777 703.066888)

LINESTRING (299.658777 703.066888, 145.260557 590.210910)

LINESTRING (145.260557 590.210910, 80.283741 396.020101)

LINESTRING (80.283741 396.020101, 142.629484 214.505355)

LINESTRING (142.629484 214.505355, 301.396793 92.887856)

LINESTRING (301.396793 92.887856, 499.755763 91.513329)

LINESTRING (499.755763 91.513329, 659.783408 209.350523)

LINESTRING (659.783408 209.350523, 720.238870 400.775279)

LINESTRING (796.186754 399.125110, 723.593596 631.265293)

LINESTRING (723.593596 631.265293, 520.080472 783.455630)

LINESTRING (520.080472 783.455630, 275.123882 778.225047)

LINESTRING (275.123882 778.225047, 73.814148 638.640557)

LINESTRING (73.814148 638.640557, 2.278582 400.865953)

LINESTRING (2.278582 400.865953, 81.010403 164.441383)

LINESTRING (81.010403 164.441383, 271.993137 21.624458)

LINESTRING (271.993137 21.624458, 524.671463 21.727424)

LINESTRING (524.671463 21.727424, 720.775163 166.964941)

LINESTRING (720.775163 166.964941, 796.186754 399.125110)

LINESTRING (877.758215 401.838886, 790.034646 681.417663)

LINESTRING (790.034646 681.417663, 551.793664 855.844588)

LINESTRING (551.793664 855.844588, 251.207761 854.556138)

LINESTRING (251.207761 854.556138, 9.308132 678.011172)

LINESTRING (9.308132 678.011172, -77.627618 403.678834)

LINESTRING (-77.627618 403.678834, 11.065705 117.137835)

LINESTRING (11.065705 117.137835, 255.865835 -59.325316)

LINESTRING (255.865835 -59.325316, 552.960356 -56.489174)

LINESTRING (552.960356 -56.489174, 791.894547 117.087605)

LINESTRING (791.894547 117.087605, 877.758215 401.838886)

LINESTRING (964.760619 404.888294, 849.994940 728.937217)

LINESTRING (849.994940 728.937217, 577.778481 936.633325)

LINESTRING (577.778481 936.633325, 228.003132 928.712298)

LINESTRING (228.003132 928.712298, -54.345570 733.643571)

LINESTRING (-54.345570 733.643571, -156.594215 398.066622)

LINESTRING (-156.594215 398.066622, -51.283060 71.875232)

LINESTRING (-51.283060 71.875232, 230.926384 -130.785875)

LINESTRING (230.926384 -130.785875, 568.314147 -128.331068)

LINESTRING (568.314147 -128.331068, 848.338902 68.498130)

LINESTRING (848.338902 68.498130, 964.760619 404.888294)

LINESTRING (1038.641288 398.048299, 913.499061 773.368590)

LINESTRING (913.499061 773.368590, 592.835634 1011.921962)

LINESTRING (592.835634 1011.921962, 201.662917 1005.066486)

LINESTRING (201.662917 1005.066486, -115.767031 774.996553)

LINESTRING (-115.767031 774.996553, -243.844709 403.295571)

LINESTRING (-243.844709 403.295571, -113.219532 24.040589)

LINESTRING (-113.219532 24.040589, 198.373538 -207.348452)

LINESTRING (198.373538 -207.348452, 596.646980 -207.384845)

LINESTRING (596.646980 -207.384845, 921.620558 25.977099)

LINESTRING (921.620558 25.977099, 1038.641288 398.048299)

LINESTRING (483.260557 404.943963, 556.115368 402.353376)

LINESTRING (556.115368 402.353376, 643.227613 402.371569)

LINESTRING (643.227613 402.371569, 720.238870 400.775279)

LINESTRING (720.238870 400.775279, 796.186754 399.125110)

LINESTRING (796.186754 399.125110, 877.758215 401.838886)

LINESTRING (877.758215 401.838886, 964.760619 404.888294)

LINESTRING (964.760619 404.888294, 1038.641288 398.048299)

LINESTRING (469.545093 446.872127, 527.986250 493.545487)

LINESTRING (527.986250 493.545487, 590.853040 540.994453)

LINESTRING (590.853040 540.994453, 660.226780 587.474621)

LINESTRING (660.226780 587.474621, 723.593596 631.265293)

LINESTRING (723.593596 631.265293, 790.034646 681.417663)

LINESTRING (790.034646 681.417663, 849.994940 728.937217)

LINESTRING (849.994940 728.937217, 913.499061 773.368590)

LINESTRING (421.201422 477.585074, 450.373360 551.076675)

LINESTRING (450.373360 551.076675, 475.931475 631.492273)

LINESTRING (475.931475 631.492273, 501.216478 704.476982)

LINESTRING (501.216478 704.476982, 520.080472 783.455630)

LINESTRING (520.080472 783.455630, 551.793664 855.844588)

LINESTRING (551.793664 855.844588, 577.778481 936.633325)

LINESTRING (577.778481 936.633325, 592.835634 1011.921962)

LINESTRING (374.229297 476.736692, 348.219150 548.496053)

LINESTRING (348.219150 548.496053, 329.423596 632.546895)

LINESTRING (329.423596 632.546895, 299.658777 703.066888)

LINESTRING (299.658777 703.066888, 275.123882 778.225047)

LINESTRING (275.123882 778.225047, 251.207761 854.556138)

LINESTRING (251.207761 854.556138, 228.003132 928.712298)

LINESTRING (228.003132 928.712298, 201.662917 1005.066486)

LINESTRING (334.917675 443.724854, 269.744667 492.840696)

LINESTRING (269.744667 492.840696, 208.766043 541.369521)

LINESTRING (208.766043 541.369521, 145.260557 590.210910)

LINESTRING (145.260557 590.210910, 73.814148 638.640557)

LINESTRING (73.814148 638.640557, 9.308132 678.011172)

LINESTRING (9.308132 678.011172, -54.345570 733.643571)

LINESTRING (-54.345570 733.643571, -115.767031 774.996553)

LINESTRING (324.089781 404.008082, 237.700141 395.683247)

LINESTRING (237.700141 395.683247, 162.083290 395.394768)

LINESTRING (162.083290 395.394768, 80.283741 396.020101)

LINESTRING (80.283741 396.020101, 2.278582 400.865953)

LINESTRING (2.278582 400.865953, -77.627618 403.678834)

LINESTRING (-77.627618 403.678834, -156.594215 398.066622)

LINESTRING (-156.594215 398.066622, -243.844709 403.295571)

LINESTRING (332.690959 351.786191, 267.491439 307.532724)

LINESTRING (267.491439 307.532724, 204.109574 257.039160)

LINESTRING (204.109574 257.039160, 142.629484 214.505355)

LINESTRING (142.629484 214.505355, 81.010403 164.441383)

LINESTRING (81.010403 164.441383, 11.065705 117.137835)

LINESTRING (11.065705 117.137835, -51.283060 71.875232)

LINESTRING (-51.283060 71.875232, -113.219532 24.040589)

LINESTRING (378.359936 320.276613, 348.323174 247.477268)

LINESTRING (348.323174 247.477268, 325.308237 176.213095)

LINESTRING (325.308237 176.213095, 301.396793 92.887856)

LINESTRING (301.396793 92.887856, 271.993137 21.624458)

LINESTRING (271.993137 21.624458, 255.865835 -59.325316)

LINESTRING (255.865835 -59.325316, 230.926384 -130.785875)

LINESTRING (230.926384 -130.785875, 198.373538 -207.348452)

LINESTRING (419.910844 326.383780, 448.337604 249.672355)

LINESTRING (448.337604 249.672355, 474.120378 174.294245)

LINESTRING (474.120378 174.294245, 499.755763 91.513329)

LINESTRING (499.755763 91.513329, 524.671463 21.727424)

LINESTRING (524.671463 21.727424, 552.960356 -56.489174)

LINESTRING (552.960356 -56.489174, 568.314147 -128.331068)

LINESTRING (568.314147 -128.331068, 596.646980 -207.384845)

LINESTRING (461.826240 357.066687, 530.803446 304.272373)

LINESTRING (530.803446 304.272373, 598.642266 256.844364)

LINESTRING (598.642266 256.844364, 659.783408 209.350523)

LINESTRING (659.783408 209.350523, 720.775163 166.964941)

LINESTRING (720.775163 166.964941, 791.894547 117.087605)

LINESTRING (791.894547 117.087605, 848.338902 68.498130)

LINESTRING (848.338902 68.498130, 921.620558 25.977099)

LINESTRING (400.000000 400.000000, 483.260557 404.943963)

