LINESTRING (3681.777571 7513.972008, 4721.141497 7550.476856)

LINESTRING (3681.777571 7513.972008, 3883.883618 7632.555723)

LINESTRING (3681.777571 7513.972008, 3060.870786 7436.686935)

LINESTRING (3681.777571 7513.972008, 3823.609397 6410.642197)

LINESTRING (8014.192068 6248.297539, 7265.526643 5992.292469)

LINESTRING (8014.192068 6248.297539, 7770.038445 7709.717731)

LINESTRING (1603.338678 7143.402325, 354.746313 7155.640766)

LINESTRING (1603.338678 7143.402325, 2142.337290 6522.842677)

LINESTRING (1603.338678 7143.402325, 1915.093604 6511.058353)

LINESTRING (1603.338678 7143.402325, 1048.327067 6592.261760)

LINESTRING (1603.338678 7143.402325, 1248.918235 7431.241582)

LINESTRING (1603.338678 7143.402325, 1469.675463 7651.181646)

LINESTRING (2960.853231 414.628754, 2116.590641 1730.003918)

LINESTRING (2960.853231 414.628754, 2284.040516 1832.430648)

LINESTRING (2960.853231 414.628754, 2723.505981 936.414277)

LINESTRING (2960.853231 414.628754, 1352.967103 913.945920)

LINESTRING (4650.012853 5874.958848, 5138.027227 5656.572731)

LINESTRING (4650.012853 5874.958848, 5879.265428 6972.038385)

LINESTRING (4650.012853 5874.958848, 5117.094707 5545.443899)

LINESTRING (4650.012853 5874.958848, 4746.368146 6564.633891)

LINESTRING (4650.012853 5874.958848, 5864.964419 5105.701801)

LINESTRING (4650.012853 5874.958848, 4619.759635 5598.237071)

LINESTRING (2018.672228 1287.071888, 2116.590641 1730.003918)

LINESTRING (2018.672228 1287.071888, 2723.505981 936.414277)

LINESTRING (4721.141497 7550.476856, 6349.158411 8208.506800)

LINESTRING (4721.141497 7550.476856, 3823.609397 6410.642197)

LINESTRING (6349.158411 8208.506800, 5879.265428 6972.038385)

LINESTRING (6349.158411 8208.506800, 6275.597214 7725.636463)

LINESTRING (6349.158411 8208.506800, 5811.280109 7572.209984)

LINESTRING (6349.158411 8208.506800, 6042.036266 7704.977279)

LINESTRING (6349.158411 8208.506800, 7770.038445 7709.717731)

LINESTRING (995.868181 903.603144, 1244.826477 2229.304110)

LINESTRING (995.868181 903.603144, 1153.682226 1420.942061)

LINESTRING (995.868181 903.603144, 1352.967103 913.945920)

LINESTRING (995.868181 903.603144, 570.075631 2634.086751)

LINESTRING (1244.826477 2229.304110, 278.541647 2614.933418)

LINESTRING (1244.826477 2229.304110, 1153.682226 1420.942061)

LINESTRING (1244.826477 2229.304110, 1352.967103 913.945920)

LINESTRING (1244.826477 2229.304110, 570.075631 2634.086751)

LINESTRING (1244.826477 2229.304110, 1450.438808 2178.491522)

LINESTRING (1244.826477 2229.304110, 1621.516527 1951.620188)

LINESTRING (8039.078186 927.723646, 7416.061186 700.791574)

LINESTRING (8039.078186 927.723646, 6262.010327 907.572318)

LINESTRING (8039.078186 927.723646, 6745.713747 505.680120)

LINESTRING (7870.459091 5098.028217, 7265.526643 5992.292469)

LINESTRING (7870.459091 5098.028217, 7653.748412 4470.709410)

LINESTRING (7870.459091 5098.028217, 7760.030278 4008.327163)

LINESTRING (4203.792562 4106.836540, 4229.438076 3683.180246)

LINESTRING (2862.297604 1845.375581, 2284.040516 1832.430648)

LINESTRING (2862.297604 1845.375581, 1450.438808 2178.491522)

LINESTRING (2862.297604 1845.375581, 1621.516527 1951.620188)

LINESTRING (2116.590641 1730.003918, 2284.040516 1832.430648)

LINESTRING (2116.590641 1730.003918, 1352.967103 913.945920)

LINESTRING (2116.590641 1730.003918, 570.075631 2634.086751)

LINESTRING (2116.590641 1730.003918, 2440.844360 807.369656)

LINESTRING (2116.590641 1730.003918, 1621.516527 1951.620188)

LINESTRING (5034.913046 1009.346070, 5941.373677 1963.387054)

LINESTRING (5034.913046 1009.346070, 4506.482608 2606.105281)

LINESTRING (5138.027227 5656.572731, 5117.094707 5545.443899)

LINESTRING (5138.027227 5656.572731, 5864.964419 5105.701801)

LINESTRING (5138.027227 5656.572731, 3823.609397 6410.642197)

LINESTRING (5138.027227 5656.572731, 4619.759635 5598.237071)

LINESTRING (6199.882900 3208.126315, 5104.999411 3136.090502)

LINESTRING (6199.882900 3208.126315, 7760.030278 4008.327163)

LINESTRING (6978.012052 5025.332698, 6770.851667 5675.135987)

LINESTRING (6978.012052 5025.332698, 7024.913549 5368.851285)

LINESTRING (6978.012052 5025.332698, 5978.128535 4840.336438)

LINESTRING (278.541647 2614.933418, 570.075631 2634.086751)

LINESTRING (278.541647 2614.933418, 1621.516527 1951.620188)

LINESTRING (278.541647 2614.933418, 260.961478 2641.582709)

LINESTRING (7373.032162 7062.286164, 6770.851667 5675.135987)

LINESTRING (7373.032162 7062.286164, 6814.097797 6905.444365)

LINESTRING (7373.032162 7062.286164, 6275.597214 7725.636463)

LINESTRING (7373.032162 7062.286164, 6042.036266 7704.977279)

LINESTRING (7373.032162 7062.286164, 7770.038445 7709.717731)

LINESTRING (5879.265428 6972.038385, 6814.097797 6905.444365)

LINESTRING (5879.265428 6972.038385, 4746.368146 6564.633891)

LINESTRING (4265.008131 1217.814783, 4506.482608 2606.105281)

LINESTRING (1435.380200 4011.345475, 2114.225971 3252.131500)

LINESTRING (2142.337290 6522.842677, 2180.118898 8016.668392)

LINESTRING (2142.337290 6522.842677, 3060.870786 7436.686935)

LINESTRING (2142.337290 6522.842677, 1915.093604 6511.058353)

LINESTRING (2142.337290 6522.842677, 1048.327067 6592.261760)

LINESTRING (2142.337290 6522.842677, 3823.609397 6410.642197)

LINESTRING (7265.526643 5992.292469, 6770.851667 5675.135987)

LINESTRING (7265.526643 5992.292469, 7653.748412 4470.709410)

LINESTRING (7265.526643 5992.292469, 5978.128535 4840.336438)

LINESTRING (563.802288 4247.125925, 1179.694786 4570.022812)

LINESTRING (563.802288 4247.125925, 570.075631 2634.086751)

LINESTRING (4753.159085 8224.581767, 4746.368146 6564.633891)

LINESTRING (2180.118898 8016.668392, 3060.870786 7436.686935)

LINESTRING (2180.118898 8016.668392, 1915.093604 6511.058353)

LINESTRING (6770.851667 5675.135987, 7024.913549 5368.851285)

LINESTRING (6814.097797 6905.444365, 6275.597214 7725.636463)

LINESTRING (1153.682226 1420.942061, 1352.967103 913.945920)

LINESTRING (1153.682226 1420.942061, 1450.438808 2178.491522)

LINESTRING (1153.682226 1420.942061, 260.961478 2641.582709)

LINESTRING (5117.094707 5545.443899, 5361.230517 3988.172974)

LINESTRING (5117.094707 5545.443899, 4619.759635 5598.237071)

LINESTRING (2284.040516 1832.430648, 2114.225971 3252.131500)

LINESTRING (2284.040516 1832.430648, 1450.438808 2178.491522)

LINESTRING (2284.040516 1832.430648, 1621.516527 1951.620188)

LINESTRING (3060.870786 7436.686935, 1469.675463 7651.181646)

LINESTRING (4229.438076 3683.180246, 5104.999411 3136.090502)

LINESTRING (4229.438076 3683.180246, 3890.216203 2342.203396)

LINESTRING (4229.438076 3683.180246, 5123.686432 2865.361093)

LINESTRING (7416.061186 700.791574, 7100.580758 1503.130628)

LINESTRING (7416.061186 700.791574, 6745.713747 505.680120)

LINESTRING (4746.368146 6564.633891, 5804.849403 7900.648709)

LINESTRING (5104.999411 3136.090502, 5941.373677 1963.387054)

LINESTRING (5104.999411 3136.090502, 3890.216203 2342.203396)

LINESTRING (5104.999411 3136.090502, 5123.686432 2865.361093)

LINESTRING (6275.597214 7725.636463, 5811.280109 7572.209984)

LINESTRING (6275.597214 7725.636463, 5804.849403 7900.648709)

LINESTRING (6275.597214 7725.636463, 6042.036266 7704.977279)

LINESTRING (5941.373677 1963.387054, 6745.713747 505.680120)

LINESTRING (7653.748412 4470.709410, 7024.913549 5368.851285)

LINESTRING (7653.748412 4470.709410, 7760.030278 4008.327163)

LINESTRING (7653.748412 4470.709410, 5978.128535 4840.336438)

LINESTRING (1179.694786 4570.022812, 1504.997760 5693.843435)

LINESTRING (2723.505981 936.414277, 2440.844360 807.369656)

LINESTRING (2723.505981 936.414277, 1621.516527 1951.620188)

LINESTRING (1915.093604 6511.058353, 1930.234089 5446.991482)

LINESTRING (1915.093604 6511.058353, 1469.675463 7651.181646)

LINESTRING (1915.093604 6511.058353, 1504.997760 5693.843435)

LINESTRING (1352.967103 913.945920, 1450.438808 2178.491522)

LINESTRING (1352.967103 913.945920, 2440.844360 807.369656)

LINESTRING (1352.967103 913.945920, 1621.516527 1951.620188)

LINESTRING (1048.327067 6592.261760, 1248.918235 7431.241582)

LINESTRING (1048.327067 6592.261760, 1504.997760 5693.843435)

LINESTRING (1930.234089 5446.991482, 1504.997760 5693.843435)

LINESTRING (5864.964419 5105.701801, 7024.913549 5368.851285)

LINESTRING (5864.964419 5105.701801, 5978.128535 4840.336438)

LINESTRING (5811.280109 7572.209984, 5804.849403 7900.648709)

LINESTRING (5811.280109 7572.209984, 6042.036266 7704.977279)

LINESTRING (570.075631 2634.086751, 260.961478 2641.582709)

LINESTRING (3890.216203 2342.203396, 3316.305661 3738.009620)

LINESTRING (6262.010327 907.572318, 6745.713747 505.680120)

LINESTRING (5123.686432 2865.361093, 5361.230517 3988.172974)

LINESTRING (2114.225971 3252.131500, 1450.438808 2178.491522)

LINESTRING (1450.438808 2178.491522, 1621.516527 1951.620188)

LINESTRING (2440.844360 807.369656, 1621.516527 1951.620188)

LINESTRING (3823.609397 6410.642197, 4619.759635 5598.237071)

LINESTRING (5804.849403 7900.648709, 6042.036266 7704.977279)

LINESTRING (5361.230517 3988.172974, 4619.759635 5598.237071)

LINESTRING (1248.918235 7431.241582, 1469.675463 7651.181646)

LINESTRING (6042.036266 7704.977279, 7770.038445 7709.717731)

