LINESTRING (7020.478837 3208.078143, 6271.921817 4528.249448)

LINESTRING (5649.115266 2108.465388, 5554.194037 1691.558377)

LINESTRING (5649.115266 2108.465388, 5124.046469 1096.833834)

LINESTRING (5649.115266 2108.465388, 4190.435864 1722.762639)

LINESTRING (5649.115266 2108.465388, 4120.984607 1267.673411)

LINESTRING (4591.698432 7458.955176, 4621.103387 7595.426039)

LINESTRING (4591.698432 7458.955176, 4901.527335 8038.690590)

LINESTRING (4591.698432 7458.955176, 4741.851300 7093.521202)

LINESTRING (4591.698432 7458.955176, 5756.432063 6716.039796)

LINESTRING (630.510218 6544.804379, 1149.749002 7504.301981)

LINESTRING (630.510218 6544.804379, 105.407987 7819.287256)

LINESTRING (630.510218 6544.804379, 677.669379 5020.685251)

LINESTRING (630.510218 6544.804379, 218.292910 6339.744266)

LINESTRING (1867.681333 8131.156406, 826.586892 7499.875588)

LINESTRING (1867.681333 8131.156406, 1997.298872 8172.292543)

LINESTRING (768.430080 129.472875, 1165.105893 509.147516)

LINESTRING (768.430080 129.472875, 192.830536 411.352111)

LINESTRING (2437.880222 936.769295, 3511.341542 754.192796)

LINESTRING (2437.880222 936.769295, 1165.105893 509.147516)

LINESTRING (2437.880222 936.769295, 3280.399194 2054.424542)

LINESTRING (2437.880222 936.769295, 2815.998744 1101.091863)

LINESTRING (2235.795580 3591.976114, 2534.621091 4724.451689)

LINESTRING (2235.795580 3591.976114, 3659.000356 3327.682812)

LINESTRING (4113.433353 1851.858803, 5254.735130 1341.781272)

LINESTRING (4113.433353 1851.858803, 5554.194037 1691.558377)

LINESTRING (4113.433353 1851.858803, 3566.717945 2578.192901)

LINESTRING (4113.433353 1851.858803, 3151.169229 1434.089355)

LINESTRING (4113.433353 1851.858803, 3511.341542 754.192796)

LINESTRING (4113.433353 1851.858803, 3821.236048 1711.197690)

LINESTRING (4113.433353 1851.858803, 4685.785785 951.374023)

LINESTRING (4113.433353 1851.858803, 2815.998744 1101.091863)

LINESTRING (4113.433353 1851.858803, 4190.435864 1722.762639)

LINESTRING (4113.433353 1851.858803, 4120.984607 1267.673411)

LINESTRING (1149.749002 7504.301981, 105.407987 7819.287256)

LINESTRING (1149.749002 7504.301981, 826.586892 7499.875588)

LINESTRING (1149.749002 7504.301981, 1997.298872 8172.292543)

LINESTRING (5254.735130 1341.781272, 5554.194037 1691.558377)

LINESTRING (5254.735130 1341.781272, 6252.566583 1128.597429)

LINESTRING (5254.735130 1341.781272, 3821.236048 1711.197690)

LINESTRING (5254.735130 1341.781272, 5124.046469 1096.833834)

LINESTRING (5254.735130 1341.781272, 6549.334702 2262.608695)

LINESTRING (3980.713318 2884.046783, 3566.717945 2578.192901)

LINESTRING (3980.713318 2884.046783, 3151.169229 1434.089355)

LINESTRING (3980.713318 2884.046783, 4265.942840 3007.132546)

LINESTRING (3980.713318 2884.046783, 5348.741327 4001.242287)

LINESTRING (3980.713318 2884.046783, 3821.236048 1711.197690)

LINESTRING (3980.713318 2884.046783, 3280.399194 2054.424542)

LINESTRING (3980.713318 2884.046783, 4190.435864 1722.762639)

LINESTRING (3980.713318 2884.046783, 3659.000356 3327.682812)

LINESTRING (3258.677870 2897.502209, 3566.717945 2578.192901)

LINESTRING (3258.677870 2897.502209, 3151.169229 1434.089355)

LINESTRING (3258.677870 2897.502209, 3659.000356 3327.682812)

LINESTRING (4621.103387 7595.426039, 4901.527335 8038.690590)

LINESTRING (4621.103387 7595.426039, 4909.184364 8050.691165)

LINESTRING (4621.103387 7595.426039, 4741.851300 7093.521202)

LINESTRING (4621.103387 7595.426039, 5756.432063 6716.039796)

LINESTRING (4621.103387 7595.426039, 3852.197085 7767.441631)

LINESTRING (376.191526 8041.489236, 105.407987 7819.287256)

LINESTRING (376.191526 8041.489236, 1997.298872 8172.292543)

LINESTRING (4952.852493 4052.657802, 4916.060065 3903.604112)

LINESTRING (4952.852493 4052.657802, 5348.741327 4001.242287)

LINESTRING (3823.795967 6223.237412, 4741.851300 7093.521202)

LINESTRING (3823.795967 6223.237412, 3340.430838 6045.203744)

LINESTRING (3823.795967 6223.237412, 3657.469744 4819.536872)

LINESTRING (3823.795967 6223.237412, 4208.290605 5851.953583)

LINESTRING (3823.795967 6223.237412, 3852.197085 7767.441631)

LINESTRING (3823.795967 6223.237412, 4496.822721 5245.028421)

LINESTRING (105.407987 7819.287256, 826.586892 7499.875588)

LINESTRING (5040.894445 6122.820411, 5295.008189 6401.522491)

LINESTRING (5040.894445 6122.820411, 6426.660677 6106.732079)

LINESTRING (5040.894445 6122.820411, 6170.399683 6223.229312)

LINESTRING (5040.894445 6122.820411, 4208.290605 5851.953583)

LINESTRING (5295.008189 6401.522491, 6426.660677 6106.732079)

LINESTRING (5295.008189 6401.522491, 5756.432063 6716.039796)

LINESTRING (5295.008189 6401.522491, 4208.290605 5851.953583)

LINESTRING (2534.621091 4724.451689, 2094.755619 4480.344629)

LINESTRING (2534.621091 4724.451689, 2795.950764 4727.266977)

LINESTRING (2534.621091 4724.451689, 1481.540452 3524.504984)

LINESTRING (2534.621091 4724.451689, 3340.430838 6045.203744)

LINESTRING (1102.962687 2200.508238, 533.834474 3731.901658)

LINESTRING (1102.962687 2200.508238, 1481.540452 3524.504984)

LINESTRING (2645.806720 6523.394923, 4158.740007 5599.628667)

LINESTRING (2645.806720 6523.394923, 3340.430838 6045.203744)

LINESTRING (6426.660677 6106.732079, 6170.399683 6223.229312)

LINESTRING (6426.660677 6106.732079, 6271.921817 4528.249448)

LINESTRING (5554.194037 1691.558377, 6252.566583 1128.597429)

LINESTRING (5554.194037 1691.558377, 6549.334702 2262.608695)

LINESTRING (6458.828567 3758.363412, 5747.417585 4719.997194)

LINESTRING (4623.006296 635.533461, 3511.341542 754.192796)

LINESTRING (4623.006296 635.533461, 6252.566583 1128.597429)

LINESTRING (4623.006296 635.533461, 3821.236048 1711.197690)

LINESTRING (4623.006296 635.533461, 4685.785785 951.374023)

LINESTRING (4623.006296 635.533461, 5124.046469 1096.833834)

LINESTRING (4623.006296 635.533461, 4190.435864 1722.762639)

LINESTRING (4901.527335 8038.690590, 4909.184364 8050.691165)

LINESTRING (4901.527335 8038.690590, 5756.432063 6716.039796)

LINESTRING (2094.755619 4480.344629, 533.834474 3731.901658)

LINESTRING (2094.755619 4480.344629, 3657.469744 4819.536872)

LINESTRING (2795.950764 4727.266977, 1481.540452 3524.504984)

LINESTRING (2795.950764 4727.266977, 4108.879486 3696.331134)

LINESTRING (2795.950764 4727.266977, 2563.003878 5457.620630)

LINESTRING (2795.950764 4727.266977, 4496.822721 5245.028421)

LINESTRING (4741.851300 7093.521202, 5756.432063 6716.039796)

LINESTRING (4741.851300 7093.521202, 6170.399683 6223.229312)

LINESTRING (7995.365940 958.439352, 6252.566583 1128.597429)

LINESTRING (7995.365940 958.439352, 7677.082914 1143.340359)

LINESTRING (533.834474 3731.901658, 677.669379 5020.685251)

LINESTRING (533.834474 3731.901658, 1481.540452 3524.504984)

LINESTRING (533.834474 3731.901658, 283.279234 4748.789825)

LINESTRING (3566.717945 2578.192901, 4108.879486 3696.331134)

LINESTRING (3566.717945 2578.192901, 3280.399194 2054.424542)

LINESTRING (3566.717945 2578.192901, 4120.984607 1267.673411)

LINESTRING (4158.740007 5599.628667, 5559.953857 4501.160790)

LINESTRING (4158.740007 5599.628667, 3657.469744 4819.536872)

LINESTRING (4158.740007 5599.628667, 4208.290605 5851.953583)

LINESTRING (4158.740007 5599.628667, 4496.822721 5245.028421)

LINESTRING (677.669379 5020.685251, 1481.540452 3524.504984)

LINESTRING (677.669379 5020.685251, 283.279234 4748.789825)

LINESTRING (1481.540452 3524.504984, 283.279234 4748.789825)

LINESTRING (826.586892 7499.875588, 1997.298872 8172.292543)

LINESTRING (3340.430838 6045.203744, 3197.675342 6207.137446)

LINESTRING (3340.430838 6045.203744, 3852.197085 7767.441631)

LINESTRING (3340.430838 6045.203744, 4496.822721 5245.028421)

LINESTRING (4108.879486 3696.331134, 4265.942840 3007.132546)

LINESTRING (4108.879486 3696.331134, 3659.000356 3327.682812)

LINESTRING (2563.003878 5457.620630, 3657.469744 4819.536872)

LINESTRING (2563.003878 5457.620630, 3197.675342 6207.137446)

LINESTRING (3151.169229 1434.089355, 4685.785785 951.374023)

LINESTRING (3151.169229 1434.089355, 2815.998744 1101.091863)

LINESTRING (3511.341542 754.192796, 2815.998744 1101.091863)

LINESTRING (6252.566583 1128.597429, 6899.319542 368.648926)

LINESTRING (6252.566583 1128.597429, 4685.785785 951.374023)

LINESTRING (6252.566583 1128.597429, 6549.334702 2262.608695)

LINESTRING (4916.060065 3903.604112, 5348.741327 4001.242287)

LINESTRING (4916.060065 3903.604112, 3659.000356 3327.682812)

LINESTRING (5559.953857 4501.160790, 5348.741327 4001.242287)

LINESTRING (5559.953857 4501.160790, 6271.921817 4528.249448)

LINESTRING (5559.953857 4501.160790, 5747.417585 4719.997194)

LINESTRING (5559.953857 4501.160790, 4496.822721 5245.028421)

LINESTRING (3657.469744 4819.536872, 3197.675342 6207.137446)

LINESTRING (4265.942840 3007.132546, 3821.236048 1711.197690)

LINESTRING (4265.942840 3007.132546, 3280.399194 2054.424542)

LINESTRING (5756.432063 6716.039796, 6662.700911 7933.844873)

LINESTRING (6170.399683 6223.229312, 6662.700911 7933.844873)

LINESTRING (6170.399683 6223.229312, 6271.921817 4528.249448)

LINESTRING (6899.319542 368.648926, 7677.082914 1143.340359)

LINESTRING (6899.319542 368.648926, 6761.502735 131.055141)

LINESTRING (3821.236048 1711.197690, 3280.399194 2054.424542)

LINESTRING (3821.236048 1711.197690, 4190.435864 1722.762639)

LINESTRING (3821.236048 1711.197690, 4120.984607 1267.673411)

LINESTRING (283.279234 4748.789825, 218.292910 6339.744266)

LINESTRING (4685.785785 951.374023, 5124.046469 1096.833834)

LINESTRING (6271.921817 4528.249448, 5747.417585 4719.997194)

LINESTRING (3280.399194 2054.424542, 4190.435864 1722.762639)

LINESTRING (2815.998744 1101.091863, 4120.984607 1267.673411)

LINESTRING (5124.046469 1096.833834, 4120.984607 1267.673411)

LINESTRING (4190.435864 1722.762639, 3659.000356 3327.682812)

LINESTRING (4190.435864 1722.762639, 4120.984607 1267.673411)

