LINESTRING (1374.682330 1847.455707, 1428.680705 1812.029882)

LINESTRING (1374.682330 1847.455707, 1303.679026 1774.145257)

LINESTRING (1374.682330 1847.455707, 1304.985595 1784.690831)

LINESTRING (1974.148600 1331.661812, 2147.838813 1240.737674)

LINESTRING (1974.148600 1331.661812, 2398.645430 1603.903144)

LINESTRING (350.180488 592.019166, 347.212927 869.843540)

LINESTRING (350.180488 592.019166, 244.931203 891.022892)

LINESTRING (350.180488 592.019166, 218.946934 642.663900)

LINESTRING (350.180488 592.019166, 828.310357 660.374262)

LINESTRING (350.180488 592.019166, 761.745616 223.849346)

LINESTRING (350.180488 592.019166, 751.346972 983.348564)

LINESTRING (1913.600043 1778.580551, 1428.680705 1812.029882)

LINESTRING (1913.600043 1778.580551, 1719.470377 2234.778761)

LINESTRING (147.532401 2209.587559, 125.651550 2122.643646)

LINESTRING (147.532401 2209.587559, 318.065490 2150.653222)

LINESTRING (648.548929 188.395556, 828.310357 660.374262)

LINESTRING (648.548929 188.395556, 761.745616 223.849346)

LINESTRING (648.548929 188.395556, 1231.089065 309.815614)

LINESTRING (1722.553112 346.848736, 1539.836188 133.799877)

LINESTRING (1722.553112 346.848736, 1863.571500 692.956458)

LINESTRING (1722.553112 346.848736, 1253.788364 711.870772)

LINESTRING (1722.553112 346.848736, 2220.123692 493.603067)

LINESTRING (1722.553112 346.848736, 1940.506870 187.922213)

LINESTRING (2036.096926 2007.308712, 1639.533536 2239.873157)

LINESTRING (2036.096926 2007.308712, 1719.470377 2234.778761)

LINESTRING (2347.727148 2400.880681, 2476.905573 2505.985148)

LINESTRING (1428.680705 1812.029882, 1639.533536 2239.873157)

LINESTRING (1428.680705 1812.029882, 1154.800513 2104.823705)

LINESTRING (1428.680705 1812.029882, 1303.679026 1774.145257)

LINESTRING (1428.680705 1812.029882, 1304.985595 1784.690831)

LINESTRING (2272.319705 496.179402, 2307.808729 872.105177)

LINESTRING (2272.319705 496.179402, 2140.041542 923.306365)

LINESTRING (2272.319705 496.179402, 2292.719205 387.628412)

LINESTRING (2272.319705 496.179402, 2429.523863 498.258795)

LINESTRING (2272.319705 496.179402, 2220.123692 493.603067)

LINESTRING (802.726212 580.307738, 828.310357 660.374262)

LINESTRING (1639.533536 2239.873157, 1422.823779 2292.288377)

LINESTRING (1639.533536 2239.873157, 1719.470377 2234.778761)

LINESTRING (1639.533536 2239.873157, 1669.702621 2169.812444)

LINESTRING (2399.962834 1233.468895, 2307.808729 872.105177)

LINESTRING (2399.962834 1233.468895, 2140.041542 923.306365)

LINESTRING (719.895126 1972.373139, 869.589752 1799.486134)

LINESTRING (719.895126 1972.373139, 318.065490 2150.653222)

LINESTRING (347.212927 869.843540, 244.931203 891.022892)

LINESTRING (2307.808729 872.105177, 2147.838813 1240.737674)

LINESTRING (2307.808729 872.105177, 2140.041542 923.306365)

LINESTRING (1422.823779 2292.288377, 1154.800513 2104.823705)

LINESTRING (1422.823779 2292.288377, 1719.470377 2234.778761)

LINESTRING (1422.823779 2292.288377, 1669.702621 2169.812444)

LINESTRING (2147.838813 1240.737674, 2140.041542 923.306365)

LINESTRING (2147.838813 1240.737674, 2398.645430 1603.903144)

LINESTRING (1081.812141 1082.874575, 1403.220980 761.045011)

LINESTRING (1081.812141 1082.874575, 751.346972 983.348564)

LINESTRING (1081.812141 1082.874575, 1315.878808 1586.295429)

LINESTRING (1081.812141 1082.874575, 1445.786427 1233.978704)

LINESTRING (1081.812141 1082.874575, 1028.846369 948.918649)

LINESTRING (896.804622 100.343800, 761.745616 223.849346)

LINESTRING (629.352704 2301.013814, 869.589752 1799.486134)

LINESTRING (629.352704 2301.013814, 318.065490 2150.653222)

LINESTRING (1542.046093 888.361131, 2140.041542 923.306365)

LINESTRING (1542.046093 888.361131, 1403.220980 761.045011)

LINESTRING (1542.046093 888.361131, 1419.430168 1038.571981)

LINESTRING (1542.046093 888.361131, 1863.571500 692.956458)

LINESTRING (218.946934 642.663900, 122.723894 678.657157)

LINESTRING (218.946934 642.663900, 228.680209 309.776508)

LINESTRING (2140.041542 923.306365, 1923.489647 640.455501)

LINESTRING (1403.220980 761.045011, 828.310357 660.374262)

LINESTRING (1403.220980 761.045011, 1923.489647 640.455501)

LINESTRING (1403.220980 761.045011, 1253.788364 711.870772)

LINESTRING (1419.430168 1038.571981, 1253.788364 711.870772)

LINESTRING (1419.430168 1038.571981, 1315.878808 1586.295429)

LINESTRING (1419.430168 1038.571981, 1549.830365 1523.079635)

LINESTRING (1419.430168 1038.571981, 1582.444069 556.252699)

LINESTRING (1419.430168 1038.571981, 1445.786427 1233.978704)

LINESTRING (1419.430168 1038.571981, 1028.846369 948.918649)

LINESTRING (122.723894 678.657157, 371.432596 1206.310391)

LINESTRING (869.589752 1799.486134, 1303.679026 1774.145257)

LINESTRING (869.589752 1799.486134, 992.037497 1862.446019)

LINESTRING (1863.571500 692.956458, 1923.489647 640.455501)

LINESTRING (1863.571500 692.956458, 2429.523863 498.258795)

LINESTRING (1923.489647 640.455501, 2292.719205 387.628412)

LINESTRING (2292.719205 387.628412, 2429.523863 498.258795)

LINESTRING (2292.719205 387.628412, 2220.123692 493.603067)

LINESTRING (371.432596 1206.310391, 344.436341 1422.701725)

LINESTRING (371.432596 1206.310391, 751.346972 983.348564)

LINESTRING (1303.679026 1774.145257, 992.037497 1862.446019)

LINESTRING (1303.679026 1774.145257, 1315.878808 1586.295429)

LINESTRING (1303.679026 1774.145257, 1304.985595 1784.690831)

LINESTRING (992.037497 1862.446019, 1315.878808 1586.295429)

LINESTRING (1719.470377 2234.778761, 1669.702621 2169.812444)

LINESTRING (1253.788364 711.870772, 1028.846369 948.918649)

LINESTRING (1315.878808 1586.295429, 1445.786427 1233.978704)

LINESTRING (1315.878808 1586.295429, 1304.985595 1784.690831)

LINESTRING (125.651550 2122.643646, 318.065490 2150.653222)

LINESTRING (2220.123692 493.603067, 1940.506870 187.922213)

LINESTRING (1304.985595 1784.690831, 1669.702621 2169.812444)

