LINESTRING (80.000000 80.000000, 379.856113 89.290389)

LINESTRING (80.000000 80.000000, 244.920862 85.109714)

LINESTRING (244.920862 85.109714, 379.856113 89.290389)

LINESTRING (80.000000 80.000000, 308.498422 274.392569)

LINESTRING (80.000000 80.000000, 205.674132 186.915913)

LINESTRING (205.674132 186.915913, 308.498422 274.392569)

LINESTRING (80.000000 80.000000, 169.929221 366.204010)

LINESTRING (80.000000 80.000000, 129.461071 237.412205)

LINESTRING (129.461071 237.412205, 169.929221 366.204010)

LINESTRING (80.000000 80.000000, -10.233542 366.108210)

LINESTRING (80.000000 80.000000, 30.371552 237.359516)

LINESTRING (30.371552 237.359516, -10.233542 366.108210)

LINESTRING (80.000000 80.000000, -169.777947 246.165512)

LINESTRING (80.000000 80.000000, -57.377871 171.391031)

LINESTRING (-57.377871 171.391031, -169.777947 246.165512)

LINESTRING (80.000000 80.000000, -219.528778 96.808064)

LINESTRING (80.000000 80.000000, -84.740828 89.244435)

LINESTRING (-84.740828 89.244435, -219.528778 96.808064)

LINESTRING (80.000000 80.000000, -152.417899 -109.689009)

LINESTRING (80.000000 80.000000, -47.829845 -24.328955)

LINESTRING (-47.829845 -24.328955, -152.417899 -109.689009)

LINESTRING (80.000000 80.000000, -25.616264 -200.793883)

LINESTRING (80.000000 80.000000, 21.911055 -74.436636)

LINESTRING (21.911055 -74.436636, -25.616264 -200.793883)

LINESTRING (80.000000 80.000000, 169.823861 -206.237094)

LINESTRING (80.000000 80.000000, 129.403124 -77.430402)

LINESTRING (129.403124 -77.430402, 169.823861 -206.237094)

LINESTRING (80.000000 80.000000, 310.321362 -112.229212)

LINESTRING (80.000000 80.000000, 206.676749 -25.726067)

LINESTRING (206.676749 -25.726067, 310.321362 -112.229212)

LINESTRING (379.856113 89.290389, 308.498422 274.392569)

LINESTRING (308.498422 274.392569, 169.929221 366.204010)

LINESTRING (169.929221 366.204010, -10.233542 366.108210)

LINESTRING (-10.233542 366.108210, -169.777947 246.165512)

LINESTRING (-169.777947 246.165512, -219.528778 96.808064)

LINESTRING (-219.528778 96.808064, -152.417899 -109.689009)

LINESTRING (-152.417899 -109.689009, -25.616264 -200.793883)

LINESTRING (-25.616264 -200.793883, 169.823861 -206.237094)

LINESTRING (169.823861 -206.237094, 310.321362 -112.229212)

LINESTRING (310.321362 -112.229212, 379.856113 89.290389)

LINESTRING (480.000000 80.000000, 779.401774 61.063855)

LINESTRING (480.000000 80.000000, 644.670976 69.585120)

LINESTRING (644.670976 69.585120, 779.401774 61.063855)

LINESTRING (480.000000 80.000000, 721.517568 257.958602)

LINESTRING (480.000000 80.000000, 612.834663 177.877231)

LINESTRING (612.834663 177.877231, 721.517568 257.958602)

LINESTRING (480.000000 80.000000, 553.783669 370.785093)

LINESTRING (480.000000 80.000000, 520.581018 239.931801)

LINESTRING (520.581018 239.931801, 553.783669 370.785093)

LINESTRING (480.000000 80.000000, 404.841448 370.432767)

LINESTRING (480.000000 80.000000, 438.662796 239.738022)

LINESTRING (438.662796 239.738022, 404.841448 370.432767)

LINESTRING (480.000000 80.000000, 235.303715 253.561885)

LINESTRING (480.000000 80.000000, 345.417043 175.459037)

LINESTRING (345.417043 175.459037, 235.303715 253.561885)

LINESTRING (480.000000 80.000000, 180.002831 78.696611)

LINESTRING (480.000000 80.000000, 315.001557 79.283136)

LINESTRING (315.001557 79.283136, 180.002831 78.696611)

LINESTRING (480.000000 80.000000, 241.320718 -101.747628)

LINESTRING (480.000000 80.000000, 348.726395 -19.961195)

LINESTRING (348.726395 -19.961195, 241.320718 -101.747628)

LINESTRING (480.000000 80.000000, 391.927264 -206.780740)

LINESTRING (480.000000 80.000000, 431.559995 -77.729407)

LINESTRING (431.559995 -77.729407, 391.927264 -206.780740)

LINESTRING (480.000000 80.000000, 585.501185 -200.837141)

LINESTRING (480.000000 80.000000, 538.025652 -74.460428)

LINESTRING (538.025652 -74.460428, 585.501185 -200.837141)

LINESTRING (480.000000 80.000000, 723.008667 -95.916992)

LINESTRING (480.000000 80.000000, 613.654767 -16.754345)

LINESTRING (613.654767 -16.754345, 723.008667 -95.916992)

LINESTRING (779.401774 61.063855, 721.517568 257.958602)

LINESTRING (721.517568 257.958602, 553.783669 370.785093)

LINESTRING (553.783669 370.785093, 404.841448 370.432767)

LINESTRING (404.841448 370.432767, 235.303715 253.561885)

LINESTRING (235.303715 253.561885, 180.002831 78.696611)

LINESTRING (180.002831 78.696611, 241.320718 -101.747628)

LINESTRING (241.320718 -101.747628, 391.927264 -206.780740)

LINESTRING (391.927264 -206.780740, 585.501185 -200.837141)

LINESTRING (585.501185 -200.837141, 723.008667 -95.916992)

LINESTRING (723.008667 -95.916992, 779.401774 61.063855)

LINESTRING (880.000000 80.000000, 1179.959688 75.082099)

LINESTRING (880.000000 80.000000, 1044.977828 77.295154)

LINESTRING (1044.977828 77.295154, 1179.959688 75.082099)

LINESTRING (880.000000 80.000000, 1120.872898 258.830219)

LINESTRING (880.000000 80.000000, 1012.480094 178.356620)

LINESTRING (1012.480094 178.356620, 1120.872898 258.830219)

LINESTRING (880.000000 80.000000, 977.926541 363.567263)

LINESTRING (880.000000 80.000000, 933.859597 235.961995)

LINESTRING (933.859597 235.961995, 977.926541 363.567263)

LINESTRING (880.000000 80.000000, 768.088977 358.344971)

LINESTRING (880.000000 80.000000, 818.448938 233.089734)

LINESTRING (818.448938 233.089734, 768.088977 358.344971)

LINESTRING (880.000000 80.000000, 643.663582 264.783922)

LINESTRING (880.000000 80.000000, 750.014970 181.631157)

LINESTRING (750.014970 181.631157, 643.663582 264.783922)

LINESTRING (880.000000 80.000000, 580.043928 74.866284)

LINESTRING (880.000000 80.000000, 715.024161 77.176456)

LINESTRING (715.024161 77.176456, 580.043928 74.866284)

LINESTRING (880.000000 80.000000, 628.421884 -83.427206)

LINESTRING (880.000000 80.000000, 741.632036 -9.884963)

LINESTRING (741.632036 -9.884963, 628.421884 -83.427206)

LINESTRING (880.000000 80.000000, 775.280579 -201.129584)

LINESTRING (880.000000 80.000000, 822.404319 -74.621271)

LINESTRING (822.404319 -74.621271, 775.280579 -201.129584)

LINESTRING (880.000000 80.000000, 983.203158 -201.689737)

LINESTRING (880.000000 80.000000, 936.761737 -74.929356)

LINESTRING (936.761737 -74.929356, 983.203158 -201.689737)

LINESTRING (880.000000 80.000000, 1108.826042 -114.006811)

LINESTRING (880.000000 80.000000, 1005.854323 -26.703746)

LINESTRING (1005.854323 -26.703746, 1108.826042 -114.006811)

LINESTRING (1179.959688 75.082099, 1120.872898 258.830219)

LINESTRING (1120.872898 258.830219, 977.926541 363.567263)

LINESTRING (977.926541 363.567263, 768.088977 358.344971)

LINESTRING (768.088977 358.344971, 643.663582 264.783922)

LINESTRING (643.663582 264.783922, 580.043928 74.866284)

LINESTRING (580.043928 74.866284, 628.421884 -83.427206)

LINESTRING (628.421884 -83.427206, 775.280579 -201.129584)

LINESTRING (775.280579 -201.129584, 983.203158 -201.689737)

LINESTRING (983.203158 -201.689737, 1108.826042 -114.006811)

LINESTRING (1108.826042 -114.006811, 1179.959688 75.082099)

LINESTRING (80.000000 80.000000, 480.000000 80.000000)

LINESTRING (480.000000 80.000000, 880.000000 80.000000)

