LINESTRING (80.000000 80.000000, 175.680756 80.801427)

LINESTRING (175.680756 80.801427, 265.888643 65.647679)

LINESTRING (265.888643 65.647679, 304.241307 7.572651)

LINESTRING (304.241307 7.572651, 316.686437 -84.954530)

LINESTRING (316.686437 -84.954530, 290.955867 -169.990209)

LINESTRING (290.955867 -169.990209, 237.752829 -206.619951)

LINESTRING (290.955867 -169.990209, 321.812366 -236.411778)

LINESTRING (316.686437 -84.954530, 375.534134 -122.626300)

LINESTRING (375.534134 -122.626300, 402.237297 -211.416119)

LINESTRING (375.534134 -122.626300, 456.561873 -144.451933)

LINESTRING (304.241307 7.572651, 391.145234 -18.051693)

LINESTRING (391.145234 -18.051693, 428.561212 -66.327142)

LINESTRING (428.561212 -66.327142, 455.330867 -162.054418)

LINESTRING (428.561212 -66.327142, 516.200792 -70.241109)

LINESTRING (391.145234 -18.051693, 454.508844 -16.893072)

LINESTRING (454.508844 -16.893072, 538.722490 -51.477833)

LINESTRING (454.508844 -16.893072, 517.451484 52.484102)

LINESTRING (265.888643 65.647679, 340.148407 84.290379)

LINESTRING (340.148407 84.290379, 399.514214 63.801158)

LINESTRING (399.514214 63.801158, 438.184314 22.988467)

LINESTRING (438.184314 22.988467, 455.704116 -47.185240)

LINESTRING (438.184314 22.988467, 507.815177 1.113398)

LINESTRING (399.514214 63.801158, 496.009940 99.212501)

LINESTRING (496.009940 99.212501, 583.096993 91.313334)

LINESTRING (496.009940 99.212501, 535.100244 155.321398)

LINESTRING (340.148407 84.290379, 382.978725 124.757097)

LINESTRING (382.978725 124.757097, 449.157254 145.347785)

LINESTRING (449.157254 145.347785, 539.307628 139.278016)

LINESTRING (449.157254 145.347785, 490.211861 206.186182)

LINESTRING (382.978725 124.757097, 391.684981 194.498762)

LINESTRING (391.684981 194.498762, 459.568087 267.691312)

LINESTRING (391.684981 194.498762, 376.189586 280.217318)

LINESTRING (175.680756 80.801427, 247.782474 138.552492)

LINESTRING (247.782474 138.552492, 316.769430 144.802357)

LINESTRING (316.769430 144.802357, 385.976651 121.893635)

LINESTRING (385.976651 121.893635, 455.019328 79.393815)

LINESTRING (455.019328 79.393815, 476.165490 8.098119)

LINESTRING (455.019328 79.393815, 536.553632 45.331910)

LINESTRING (385.976651 121.893635, 468.059866 151.309876)

LINESTRING (468.059866 151.309876, 534.462801 119.939419)

LINESTRING (468.059866 151.309876, 534.234129 209.495766)

LINESTRING (316.769430 144.802357, 362.561168 197.933912)

LINESTRING (362.561168 197.933912, 428.441333 224.628636)

LINESTRING (428.441333 224.628636, 509.077362 212.837043)

LINESTRING (428.441333 224.628636, 470.583499 298.406370)

LINESTRING (362.561168 197.933912, 386.569456 282.297584)

LINESTRING (386.569456 282.297584, 443.989195 357.198403)

LINESTRING (386.569456 282.297584, 365.451168 350.351762)

LINESTRING (247.782474 138.552492, 255.004574 215.247354)

LINESTRING (255.004574 215.247354, 315.899424 266.019241)

LINESTRING (315.899424 266.019241, 383.247456 273.385217)

LINESTRING (383.247456 273.385217, 446.662456 267.896414)

LINESTRING (383.247456 273.385217, 428.057000 322.351355)

LINESTRING (315.899424 266.019241, 347.146538 343.750730)

LINESTRING (347.146538 343.750730, 406.958726 380.559368)

LINESTRING (347.146538 343.750730, 323.576711 422.952383)

LINESTRING (255.004574 215.247354, 238.368566 284.186878)

LINESTRING (238.368566 284.186878, 268.122689 368.882198)

LINESTRING (268.122689 368.882198, 312.393786 411.435651)

LINESTRING (268.122689 368.882198, 246.682634 462.167184)

LINESTRING (238.368566 284.186878, 169.993622 359.073857)

LINESTRING (169.993622 359.073857, 133.335035 420.488564)

LINESTRING (169.993622 359.073857, 87.042447 384.779254)

LINESTRING (80.000000 80.000000, 90.170726 146.377232)

LINESTRING (90.170726 146.377232, 159.984043 188.361899)

LINESTRING (159.984043 188.361899, 236.857353 223.202997)

LINESTRING (236.857353 223.202997, 305.603603 192.791925)

LINESTRING (305.603603 192.791925, 373.061136 127.938429)

LINESTRING (373.061136 127.938429, 409.592062 62.535161)

LINESTRING (373.061136 127.938429, 460.096350 105.031568)

LINESTRING (305.603603 192.791925, 399.103274 212.765513)

LINESTRING (399.103274 212.765513, 491.861855 205.142438)

LINESTRING (399.103274 212.765513, 475.659987 250.527125)

LINESTRING (236.857353 223.202997, 287.433222 292.365974)

LINESTRING (287.433222 292.365974, 371.964591 318.430744)

LINESTRING (371.964591 318.430744, 435.809513 305.654177)

LINESTRING (371.964591 318.430744, 424.514437 365.943557)

LINESTRING (287.433222 292.365974, 297.512435 351.108517)

LINESTRING (297.512435 351.108517, 334.628420 389.685192)

LINESTRING (297.512435 351.108517, 272.113001 409.113980)

LINESTRING (159.984043 188.361899, 185.283311 250.015738)

LINESTRING (185.283311 250.015738, 236.311481 290.184254)

LINESTRING (236.311481 290.184254, 333.138715 316.133585)

LINESTRING (333.138715 316.133585, 429.692905 302.213997)

LINESTRING (333.138715 316.133585, 373.026046 374.284699)

LINESTRING (236.311481 290.184254, 246.934433 377.200261)

LINESTRING (246.934433 377.200261, 287.024077 423.940655)

LINESTRING (246.934433 377.200261, 217.944238 453.530726)

LINESTRING (185.283311 250.015738, 150.378073 337.480765)

LINESTRING (150.378073 337.480765, 170.325676 401.818751)

LINESTRING (170.325676 401.818751, 207.565852 463.876073)

LINESTRING (170.325676 401.818751, 143.746334 491.718200)

LINESTRING (150.378073 337.480765, 94.163355 375.991932)

LINESTRING (94.163355 375.991932, 59.320048 456.256988)

LINESTRING (94.163355 375.991932, 6.079219 397.746422)

LINESTRING (90.170726 146.377232, 50.880969 230.571610)

LINESTRING (50.880969 230.571610, 58.360437 315.494091)

LINESTRING (58.360437 315.494091, 107.801085 362.457802)

LINESTRING (107.801085 362.457802, 200.159360 394.364050)

LINESTRING (200.159360 394.364050, 276.854443 392.792130)

LINESTRING (200.159360 394.364050, 266.809234 461.336353)

LINESTRING (107.801085 362.457802, 123.435107 450.043786)

LINESTRING (123.435107 450.043786, 199.599822 506.787869)

LINESTRING (123.435107 450.043786, 113.692370 519.975045)

LINESTRING (58.360437 315.494091, 28.179479 400.336441)

LINESTRING (28.179479 400.336441, 63.344980 463.935883)

LINESTRING (63.344980 463.935883, 108.181296 521.170626)

LINESTRING (63.344980 463.935883, 24.662620 525.968551)

LINESTRING (28.179479 400.336441, -39.887121 437.018058)

LINESTRING (-39.887121 437.018058, -55.917264 506.432218)

LINESTRING (-39.887121 437.018058, -131.460163 463.039498)

LINESTRING (50.880969 230.571610, -11.406895 293.536386)

LINESTRING (-11.406895 293.536386, -43.736148 383.606174)

LINESTRING (-43.736148 383.606174, -20.986358 468.682143)

LINESTRING (-20.986358 468.682143, 29.594893 515.118815)

LINESTRING (-20.986358 468.682143, -55.077678 548.707504)

LINESTRING (-43.736148 383.606174, -110.548916 440.524920)

LINESTRING (-110.548916 440.524920, -147.059676 511.097079)

LINESTRING (-110.548916 440.524920, -170.258307 461.958877)

LINESTRING (-11.406895 293.536386, -81.995520 326.871367)

LINESTRING (-81.995520 326.871367, -130.076552 383.701192)

LINESTRING (-130.076552 383.701192, -168.156719 467.425516)

LINESTRING (-130.076552 383.701192, -200.150943 415.509589)

LINESTRING (-81.995520 326.871367, -163.930475 318.025988)

LINESTRING (-163.930475 318.025988, -236.307782 327.671964)

LINESTRING (-163.930475 318.025988, -200.762448 271.298311)

