LINESTRING (80.000000 80.000000, 579.625262 99.354528)

LINESTRING (80.000000 80.000000, 354.793894 90.644990)

LINESTRING (354.793894 90.644990, 579.625262 99.354528)

LINESTRING (80.000000 80.000000, 483.051116 375.888150)

LINESTRING (80.000000 80.000000, 301.678114 242.738483)

LINESTRING (301.678114 242.738483, 483.051116 375.888150)

LINESTRING (80.000000 80.000000, 198.019406 565.871814)

LINESTRING (80.000000 80.000000, 144.910673 347.229498)

LINESTRING (144.910673 347.229498, 198.019406 565.871814)

LINESTRING (80.000000 80.000000, -58.111524 560.546779)

LINESTRING (80.000000 80.000000, 4.038662 344.300729)

LINESTRING (4.038662 344.300729, -58.111524 560.546779)

LINESTRING (80.000000 80.000000, -327.498011 369.733275)

LINESTRING (80.000000 80.000000, -144.123906 239.353301)

LINESTRING (-144.123906 239.353301, -327.498011 369.733275)

LINESTRING (80.000000 80.000000, -419.706580 62.873011)

LINESTRING (80.000000 80.000000, -194.838619 70.580156)

LINESTRING (-194.838619 70.580156, -419.706580 62.873011)

LINESTRING (80.000000 80.000000, -319.149133 -221.131151)

LINESTRING (80.000000 80.000000, -139.532023 -85.622133)

LINESTRING (-139.532023 -85.622133, -319.149133 -221.131151)

LINESTRING (80.000000 80.000000, -63.153399 -399.068997)

LINESTRING (80.000000 80.000000, 1.265630 -183.487949)

LINESTRING (1.265630 -183.487949, -63.153399 -399.068997)

LINESTRING (80.000000 80.000000, 271.588302 -381.837550)

LINESTRING (80.000000 80.000000, 185.373566 -174.010652)

LINESTRING (185.373566 -174.010652, 271.588302 -381.837550)

LINESTRING (80.000000 80.000000, 506.667677 -180.681210)

LINESTRING (80.000000 80.000000, 314.667223 -63.374665)

LINESTRING (314.667223 -63.374665, 506.667677 -180.681210)

LINESTRING (579.625262 99.354528, 483.051116 375.888150)

LINESTRING (483.051116 375.888150, 198.019406 565.871814)

LINESTRING (198.019406 565.871814, -58.111524 560.546779)

LINESTRING (-58.111524 560.546779, -327.498011 369.733275)

LINESTRING (-327.498011 369.733275, -419.706580 62.873011)

LINESTRING (-419.706580 62.873011, -319.149133 -221.131151)

LINESTRING (-319.149133 -221.131151, -63.153399 -399.068997)

LINESTRING (-63.153399 -399.068997, 271.588302 -381.837550)

LINESTRING (271.588302 -381.837550, 506.667677 -180.681210)

LINESTRING (506.667677 -180.681210, 579.625262 99.354528)

