LINESTRING (60.000000 60.000000, 49.365112 53.465382)

LINESTRING (60.000000 60.000000, 56.416791 60.131068)

LINESTRING (60.000000 60.000000, 59.081277 60.238608)

LINESTRING (60.000000 60.000000, 69.918803 62.400292)

LINESTRING (60.000000 60.000000, 62.099410 64.496690)

LINESTRING (60.000000 60.000000, 49.052494 74.330535)

LINESTRING (60.000000 60.000000, 63.412579 45.696531)

LINESTRING (60.000000 60.000000, 69.586502 66.052395)

LINESTRING (60.000000 60.000000, 67.261200 64.459096)

LINESTRING (60.000000 60.000000, 56.934961 68.520843)

LINESTRING (60.000000 60.000000, 64.324575 46.021110)

LINESTRING (60.000000 60.000000, 66.774958 70.967736)

LINESTRING (60.000000 60.000000, 58.693107 53.243336)

LINESTRING (60.000000 60.000000, 45.613980 48.182643)

LINESTRING (60.000000 60.000000, 63.861604 62.120580)

LINESTRING (60.000000 60.000000, 74.011375 73.687067)

LINESTRING (60.000000 60.000000, 60.807628 72.460926)

LINESTRING (60.000000 60.000000, 59.259850 65.411824)

LINESTRING (60.000000 60.000000, 53.168776 61.703946)

LINESTRING (60.000000 60.000000, 51.569372 67.414316)

LINESTRING (60.000000 60.000000, 60.961541 65.819913)

LINESTRING (60.000000 60.000000, 65.730397 63.008895)

LINESTRING (60.000000 60.000000, 73.055269 64.428074)

LINESTRING (60.000000 60.000000, 60.405788 55.587514)

LINESTRING (60.000000 60.000000, 52.604585 48.615501)

LINESTRING (49.365112 53.465382, 59.081277 60.238608)

LINESTRING (49.365112 53.465382, 62.099410 64.496690)

LINESTRING (49.365112 53.465382, 49.052494 74.330535)

LINESTRING (49.365112 53.465382, 63.412579 45.696531)

LINESTRING (49.365112 53.465382, 56.934961 68.520843)

LINESTRING (49.365112 53.465382, 64.324575 46.021110)

LINESTRING (49.365112 53.465382, 63.861604 62.120580)

LINESTRING (49.365112 53.465382, 53.168776 61.703946)

LINESTRING (49.365112 53.465382, 65.730397 63.008895)

LINESTRING (49.365112 53.465382, 60.405788 55.587514)

LINESTRING (49.365112 53.465382, 52.604585 48.615501)

LINESTRING (56.416791 60.131068, 62.099410 64.496690)

LINESTRING (56.416791 60.131068, 49.052494 74.330535)

LINESTRING (56.416791 60.131068, 63.412579 45.696531)

LINESTRING (56.416791 60.131068, 69.586502 66.052395)

LINESTRING (56.416791 60.131068, 67.261200 64.459096)

LINESTRING (56.416791 60.131068, 64.324575 46.021110)

LINESTRING (56.416791 60.131068, 60.807628 72.460926)

LINESTRING (56.416791 60.131068, 59.259850 65.411824)

LINESTRING (56.416791 60.131068, 53.168776 61.703946)

LINESTRING (56.416791 60.131068, 51.569372 67.414316)

LINESTRING (56.416791 60.131068, 60.961541 65.819913)

LINESTRING (56.416791 60.131068, 65.730397 63.008895)

LINESTRING (56.416791 60.131068, 52.604585 48.615501)

LINESTRING (59.081277 60.238608, 69.586502 66.052395)

LINESTRING (59.081277 60.238608, 67.261200 64.459096)

LINESTRING (59.081277 60.238608, 56.934961 68.520843)

LINESTRING (59.081277 60.238608, 64.324575 46.021110)

LINESTRING (59.081277 60.238608, 63.861604 62.120580)

LINESTRING (59.081277 60.238608, 74.011375 73.687067)

LINESTRING (59.081277 60.238608, 53.168776 61.703946)

LINESTRING (59.081277 60.238608, 51.569372 67.414316)

LINESTRING (59.081277 60.238608, 73.055269 64.428074)

LINESTRING (59.081277 60.238608, 60.405788 55.587514)

LINESTRING (69.918803 62.400292, 69.586502 66.052395)

LINESTRING (69.918803 62.400292, 56.934961 68.520843)

LINESTRING (69.918803 62.400292, 66.774958 70.967736)

LINESTRING (69.918803 62.400292, 58.693107 53.243336)

LINESTRING (69.918803 62.400292, 74.011375 73.687067)

LINESTRING (69.918803 62.400292, 59.259850 65.411824)

LINESTRING (69.918803 62.400292, 53.168776 61.703946)

LINESTRING (69.918803 62.400292, 51.569372 67.414316)

LINESTRING (69.918803 62.400292, 65.730397 63.008895)

LINESTRING (62.099410 64.496690, 69.586502 66.052395)

LINESTRING (62.099410 64.496690, 64.324575 46.021110)

LINESTRING (62.099410 64.496690, 45.613980 48.182643)

LINESTRING (62.099410 64.496690, 63.861604 62.120580)

LINESTRING (62.099410 64.496690, 74.011375 73.687067)

LINESTRING (62.099410 64.496690, 59.259850 65.411824)

LINESTRING (62.099410 64.496690, 60.961541 65.819913)

LINESTRING (62.099410 64.496690, 73.055269 64.428074)

LINESTRING (62.099410 64.496690, 60.405788 55.587514)

LINESTRING (62.099410 64.496690, 52.604585 48.615501)

LINESTRING (49.052494 74.330535, 69.586502 66.052395)

LINESTRING (49.052494 74.330535, 67.261200 64.459096)

LINESTRING (49.052494 74.330535, 64.324575 46.021110)

LINESTRING (49.052494 74.330535, 59.259850 65.411824)

LINESTRING (49.052494 74.330535, 53.168776 61.703946)

LINESTRING (49.052494 74.330535, 65.730397 63.008895)

LINESTRING (49.052494 74.330535, 60.405788 55.587514)

LINESTRING (63.412579 45.696531, 67.261200 64.459096)

LINESTRING (63.412579 45.696531, 56.934961 68.520843)

LINESTRING (63.412579 45.696531, 64.324575 46.021110)

LINESTRING (63.412579 45.696531, 63.861604 62.120580)

LINESTRING (63.412579 45.696531, 60.807628 72.460926)

LINESTRING (63.412579 45.696531, 53.168776 61.703946)

LINESTRING (63.412579 45.696531, 65.730397 63.008895)

LINESTRING (63.412579 45.696531, 73.055269 64.428074)

LINESTRING (63.412579 45.696531, 52.604585 48.615501)

LINESTRING (69.586502 66.052395, 67.261200 64.459096)

LINESTRING (69.586502 66.052395, 56.934961 68.520843)

LINESTRING (69.586502 66.052395, 66.774958 70.967736)

LINESTRING (69.586502 66.052395, 58.693107 53.243336)

LINESTRING (69.586502 66.052395, 45.613980 48.182643)

LINESTRING (69.586502 66.052395, 63.861604 62.120580)

LINESTRING (69.586502 66.052395, 60.807628 72.460926)

LINESTRING (69.586502 66.052395, 51.569372 67.414316)

LINESTRING (69.586502 66.052395, 52.604585 48.615501)

LINESTRING (67.261200 64.459096, 66.774958 70.967736)

LINESTRING (67.261200 64.459096, 45.613980 48.182643)

LINESTRING (67.261200 64.459096, 74.011375 73.687067)

LINESTRING (67.261200 64.459096, 60.807628 72.460926)

LINESTRING (67.261200 64.459096, 59.259850 65.411824)

LINESTRING (67.261200 64.459096, 53.168776 61.703946)

LINESTRING (67.261200 64.459096, 51.569372 67.414316)

LINESTRING (67.261200 64.459096, 73.055269 64.428074)

LINESTRING (56.934961 68.520843, 64.324575 46.021110)

LINESTRING (56.934961 68.520843, 58.693107 53.243336)

LINESTRING (56.934961 68.520843, 63.861604 62.120580)

LINESTRING (56.934961 68.520843, 74.011375 73.687067)

LINESTRING (56.934961 68.520843, 60.807628 72.460926)

LINESTRING (56.934961 68.520843, 59.259850 65.411824)

LINESTRING (56.934961 68.520843, 51.569372 67.414316)

LINESTRING (56.934961 68.520843, 73.055269 64.428074)

LINESTRING (56.934961 68.520843, 60.405788 55.587514)

LINESTRING (64.324575 46.021110, 66.774958 70.967736)

LINESTRING (64.324575 46.021110, 58.693107 53.243336)

LINESTRING (64.324575 46.021110, 45.613980 48.182643)

LINESTRING (64.324575 46.021110, 63.861604 62.120580)

LINESTRING (64.324575 46.021110, 59.259850 65.411824)

LINESTRING (64.324575 46.021110, 53.168776 61.703946)

LINESTRING (64.324575 46.021110, 51.569372 67.414316)

LINESTRING (64.324575 46.021110, 60.961541 65.819913)

LINESTRING (64.324575 46.021110, 65.730397 63.008895)

LINESTRING (64.324575 46.021110, 73.055269 64.428074)

LINESTRING (64.324575 46.021110, 60.405788 55.587514)

LINESTRING (66.774958 70.967736, 58.693107 53.243336)

LINESTRING (66.774958 70.967736, 60.807628 72.460926)

LINESTRING (66.774958 70.967736, 53.168776 61.703946)

LINESTRING (66.774958 70.967736, 60.961541 65.819913)

LINESTRING (66.774958 70.967736, 73.055269 64.428074)

LINESTRING (66.774958 70.967736, 60.405788 55.587514)

LINESTRING (66.774958 70.967736, 52.604585 48.615501)

LINESTRING (58.693107 53.243336, 63.861604 62.120580)

LINESTRING (58.693107 53.243336, 74.011375 73.687067)

LINESTRING (58.693107 53.243336, 73.055269 64.428074)

LINESTRING (58.693107 53.243336, 52.604585 48.615501)

LINESTRING (45.613980 48.182643, 63.861604 62.120580)

LINESTRING (45.613980 48.182643, 53.168776 61.703946)

LINESTRING (45.613980 48.182643, 51.569372 67.414316)

LINESTRING (45.613980 48.182643, 60.961541 65.819913)

LINESTRING (45.613980 48.182643, 65.730397 63.008895)

LINESTRING (45.613980 48.182643, 73.055269 64.428074)

LINESTRING (45.613980 48.182643, 60.405788 55.587514)

LINESTRING (63.861604 62.120580, 74.011375 73.687067)

LINESTRING (63.861604 62.120580, 60.807628 72.460926)

LINESTRING (63.861604 62.120580, 59.259850 65.411824)

LINESTRING (63.861604 62.120580, 53.168776 61.703946)

LINESTRING (63.861604 62.120580, 73.055269 64.428074)

LINESTRING (63.861604 62.120580, 52.604585 48.615501)

LINESTRING (74.011375 73.687067, 59.259850 65.411824)

LINESTRING (74.011375 73.687067, 51.569372 67.414316)

LINESTRING (74.011375 73.687067, 60.961541 65.819913)

LINESTRING (74.011375 73.687067, 65.730397 63.008895)

LINESTRING (74.011375 73.687067, 60.405788 55.587514)

LINESTRING (60.807628 72.460926, 53.168776 61.703946)

LINESTRING (60.807628 72.460926, 60.405788 55.587514)

LINESTRING (59.259850 65.411824, 53.168776 61.703946)

LINESTRING (59.259850 65.411824, 60.961541 65.819913)

LINESTRING (59.259850 65.411824, 73.055269 64.428074)

LINESTRING (59.259850 65.411824, 60.405788 55.587514)

LINESTRING (53.168776 61.703946, 60.961541 65.819913)

LINESTRING (53.168776 61.703946, 73.055269 64.428074)

LINESTRING (53.168776 61.703946, 60.405788 55.587514)

LINESTRING (53.168776 61.703946, 52.604585 48.615501)

LINESTRING (51.569372 67.414316, 65.730397 63.008895)

LINESTRING (51.569372 67.414316, 52.604585 48.615501)

LINESTRING (60.961541 65.819913, 73.055269 64.428074)

LINESTRING (60.961541 65.819913, 60.405788 55.587514)

LINESTRING (60.961541 65.819913, 52.604585 48.615501)

LINESTRING (65.730397 63.008895, 60.405788 55.587514)

LINESTRING (73.055269 64.428074, 60.405788 55.587514)

LINESTRING (180.000000 60.000000, 189.753097 57.671106)

LINESTRING (180.000000 60.000000, 179.072290 72.646725)

LINESTRING (180.000000 60.000000, 188.344838 48.976653)

LINESTRING (180.000000 60.000000, 170.523666 57.475791)

LINESTRING (180.000000 60.000000, 191.581478 52.247646)

LINESTRING (180.000000 60.000000, 175.544792 65.118373)

LINESTRING (180.000000 60.000000, 185.937868 62.781529)

LINESTRING (180.000000 60.000000, 192.319092 53.712809)

LINESTRING (180.000000 60.000000, 168.651582 65.891239)

LINESTRING (180.000000 60.000000, 165.769192 63.598346)

LINESTRING (180.000000 60.000000, 187.427887 60.350261)

LINESTRING (180.000000 60.000000, 182.287245 47.648554)

LINESTRING (180.000000 60.000000, 174.129472 70.523889)

LINESTRING (180.000000 60.000000, 171.974664 72.919614)

LINESTRING (180.000000 60.000000, 184.144748 55.867241)

LINESTRING (180.000000 60.000000, 185.280874 61.406305)

LINESTRING (180.000000 60.000000, 174.701475 45.788006)

LINESTRING (180.000000 60.000000, 170.899955 62.106148)

LINESTRING (180.000000 60.000000, 189.549083 64.617330)

LINESTRING (180.000000 60.000000, 166.875889 60.651977)

LINESTRING (180.000000 60.000000, 170.646738 52.040814)

LINESTRING (180.000000 60.000000, 181.180778 69.866328)

LINESTRING (180.000000 60.000000, 169.143618 67.043303)

LINESTRING (180.000000 60.000000, 177.032398 62.916882)

LINESTRING (180.000000 60.000000, 170.206605 69.086507)

LINESTRING (189.753097 57.671106, 179.072290 72.646725)

LINESTRING (189.753097 57.671106, 191.581478 52.247646)

LINESTRING (189.753097 57.671106, 175.544792 65.118373)

LINESTRING (189.753097 57.671106, 192.319092 53.712809)

LINESTRING (189.753097 57.671106, 165.769192 63.598346)

LINESTRING (189.753097 57.671106, 174.129472 70.523889)

LINESTRING (189.753097 57.671106, 184.144748 55.867241)

LINESTRING (189.753097 57.671106, 185.280874 61.406305)

LINESTRING (189.753097 57.671106, 189.549083 64.617330)

LINESTRING (189.753097 57.671106, 170.646738 52.040814)

LINESTRING (179.072290 72.646725, 191.581478 52.247646)

LINESTRING (179.072290 72.646725, 175.544792 65.118373)

LINESTRING (179.072290 72.646725, 165.769192 63.598346)

LINESTRING (179.072290 72.646725, 174.129472 70.523889)

LINESTRING (179.072290 72.646725, 184.144748 55.867241)

LINESTRING (179.072290 72.646725, 185.280874 61.406305)

LINESTRING (179.072290 72.646725, 174.701475 45.788006)

LINESTRING (179.072290 72.646725, 170.899955 62.106148)

LINESTRING (179.072290 72.646725, 189.549083 64.617330)

LINESTRING (179.072290 72.646725, 166.875889 60.651977)

LINESTRING (179.072290 72.646725, 169.143618 67.043303)

LINESTRING (179.072290 72.646725, 177.032398 62.916882)

LINESTRING (188.344838 48.976653, 170.523666 57.475791)

LINESTRING (188.344838 48.976653, 192.319092 53.712809)

LINESTRING (188.344838 48.976653, 187.427887 60.350261)

LINESTRING (188.344838 48.976653, 174.129472 70.523889)

LINESTRING (188.344838 48.976653, 184.144748 55.867241)

LINESTRING (188.344838 48.976653, 185.280874 61.406305)

LINESTRING (188.344838 48.976653, 174.701475 45.788006)

LINESTRING (188.344838 48.976653, 170.899955 62.106148)

LINESTRING (188.344838 48.976653, 189.549083 64.617330)

LINESTRING (188.344838 48.976653, 170.646738 52.040814)

LINESTRING (188.344838 48.976653, 169.143618 67.043303)

LINESTRING (188.344838 48.976653, 170.206605 69.086507)

LINESTRING (170.523666 57.475791, 165.769192 63.598346)

LINESTRING (170.523666 57.475791, 174.129472 70.523889)

LINESTRING (170.523666 57.475791, 184.144748 55.867241)

LINESTRING (170.523666 57.475791, 185.280874 61.406305)

LINESTRING (170.523666 57.475791, 174.701475 45.788006)

LINESTRING (170.523666 57.475791, 189.549083 64.617330)

LINESTRING (170.523666 57.475791, 181.180778 69.866328)

LINESTRING (170.523666 57.475791, 177.032398 62.916882)

LINESTRING (170.523666 57.475791, 170.206605 69.086507)

LINESTRING (191.581478 52.247646, 185.937868 62.781529)

LINESTRING (191.581478 52.247646, 165.769192 63.598346)

LINESTRING (191.581478 52.247646, 187.427887 60.350261)

LINESTRING (191.581478 52.247646, 171.974664 72.919614)

LINESTRING (191.581478 52.247646, 184.144748 55.867241)

LINESTRING (191.581478 52.247646, 169.143618 67.043303)

LINESTRING (175.544792 65.118373, 168.651582 65.891239)

LINESTRING (175.544792 65.118373, 165.769192 63.598346)

LINESTRING (175.544792 65.118373, 174.129472 70.523889)

LINESTRING (175.544792 65.118373, 171.974664 72.919614)

LINESTRING (175.544792 65.118373, 170.899955 62.106148)

LINESTRING (175.544792 65.118373, 166.875889 60.651977)

LINESTRING (175.544792 65.118373, 181.180778 69.866328)

LINESTRING (175.544792 65.118373, 177.032398 62.916882)

LINESTRING (175.544792 65.118373, 170.206605 69.086507)

LINESTRING (185.937868 62.781529, 168.651582 65.891239)

LINESTRING (185.937868 62.781529, 165.769192 63.598346)

LINESTRING (185.937868 62.781529, 171.974664 72.919614)

LINESTRING (185.937868 62.781529, 174.701475 45.788006)

LINESTRING (185.937868 62.781529, 170.899955 62.106148)

LINESTRING (185.937868 62.781529, 181.180778 69.866328)

LINESTRING (192.319092 53.712809, 168.651582 65.891239)

LINESTRING (192.319092 53.712809, 187.427887 60.350261)

LINESTRING (192.319092 53.712809, 174.129472 70.523889)

LINESTRING (192.319092 53.712809, 184.144748 55.867241)

LINESTRING (192.319092 53.712809, 185.280874 61.406305)

LINESTRING (192.319092 53.712809, 174.701475 45.788006)

LINESTRING (192.319092 53.712809, 189.549083 64.617330)

LINESTRING (192.319092 53.712809, 181.180778 69.866328)

LINESTRING (192.319092 53.712809, 169.143618 67.043303)

LINESTRING (192.319092 53.712809, 177.032398 62.916882)

LINESTRING (192.319092 53.712809, 170.206605 69.086507)

LINESTRING (168.651582 65.891239, 187.427887 60.350261)

LINESTRING (168.651582 65.891239, 182.287245 47.648554)

LINESTRING (168.651582 65.891239, 174.129472 70.523889)

LINESTRING (168.651582 65.891239, 184.144748 55.867241)

LINESTRING (168.651582 65.891239, 170.899955 62.106148)

LINESTRING (168.651582 65.891239, 189.549083 64.617330)

LINESTRING (168.651582 65.891239, 166.875889 60.651977)

LINESTRING (168.651582 65.891239, 170.646738 52.040814)

LINESTRING (168.651582 65.891239, 181.180778 69.866328)

LINESTRING (168.651582 65.891239, 170.206605 69.086507)

LINESTRING (165.769192 63.598346, 187.427887 60.350261)

LINESTRING (165.769192 63.598346, 174.129472 70.523889)

LINESTRING (165.769192 63.598346, 184.144748 55.867241)

LINESTRING (165.769192 63.598346, 174.701475 45.788006)

LINESTRING (165.769192 63.598346, 170.899955 62.106148)

LINESTRING (165.769192 63.598346, 170.646738 52.040814)

LINESTRING (165.769192 63.598346, 177.032398 62.916882)

LINESTRING (187.427887 60.350261, 174.129472 70.523889)

LINESTRING (187.427887 60.350261, 171.974664 72.919614)

LINESTRING (187.427887 60.350261, 184.144748 55.867241)

LINESTRING (187.427887 60.350261, 174.701475 45.788006)

LINESTRING (187.427887 60.350261, 170.899955 62.106148)

LINESTRING (187.427887 60.350261, 169.143618 67.043303)

LINESTRING (182.287245 47.648554, 174.129472 70.523889)

LINESTRING (182.287245 47.648554, 185.280874 61.406305)

LINESTRING (182.287245 47.648554, 174.701475 45.788006)

LINESTRING (182.287245 47.648554, 189.549083 64.617330)

LINESTRING (182.287245 47.648554, 177.032398 62.916882)

LINESTRING (174.129472 70.523889, 185.280874 61.406305)

LINESTRING (174.129472 70.523889, 174.701475 45.788006)

LINESTRING (174.129472 70.523889, 189.549083 64.617330)

LINESTRING (174.129472 70.523889, 169.143618 67.043303)

LINESTRING (174.129472 70.523889, 170.206605 69.086507)

LINESTRING (171.974664 72.919614, 184.144748 55.867241)

LINESTRING (171.974664 72.919614, 174.701475 45.788006)

LINESTRING (171.974664 72.919614, 170.899955 62.106148)

LINESTRING (171.974664 72.919614, 189.549083 64.617330)

LINESTRING (171.974664 72.919614, 166.875889 60.651977)

LINESTRING (171.974664 72.919614, 177.032398 62.916882)

LINESTRING (171.974664 72.919614, 170.206605 69.086507)

LINESTRING (184.144748 55.867241, 170.899955 62.106148)

LINESTRING (184.144748 55.867241, 181.180778 69.866328)

LINESTRING (184.144748 55.867241, 169.143618 67.043303)

LINESTRING (184.144748 55.867241, 170.206605 69.086507)

LINESTRING (185.280874 61.406305, 174.701475 45.788006)

LINESTRING (185.280874 61.406305, 170.899955 62.106148)

LINESTRING (185.280874 61.406305, 189.549083 64.617330)

LINESTRING (185.280874 61.406305, 166.875889 60.651977)

LINESTRING (185.280874 61.406305, 170.646738 52.040814)

LINESTRING (185.280874 61.406305, 169.143618 67.043303)

LINESTRING (185.280874 61.406305, 170.206605 69.086507)

LINESTRING (174.701475 45.788006, 189.549083 64.617330)

LINESTRING (174.701475 45.788006, 166.875889 60.651977)

LINESTRING (174.701475 45.788006, 170.646738 52.040814)

LINESTRING (174.701475 45.788006, 181.180778 69.866328)

LINESTRING (174.701475 45.788006, 177.032398 62.916882)

LINESTRING (174.701475 45.788006, 170.206605 69.086507)

LINESTRING (170.899955 62.106148, 189.549083 64.617330)

LINESTRING (170.899955 62.106148, 169.143618 67.043303)

LINESTRING (170.899955 62.106148, 177.032398 62.916882)

LINESTRING (189.549083 64.617330, 169.143618 67.043303)

LINESTRING (166.875889 60.651977, 170.646738 52.040814)

LINESTRING (166.875889 60.651977, 169.143618 67.043303)

LINESTRING (166.875889 60.651977, 170.206605 69.086507)

LINESTRING (170.646738 52.040814, 181.180778 69.866328)

LINESTRING (170.646738 52.040814, 177.032398 62.916882)

LINESTRING (181.180778 69.866328, 177.032398 62.916882)

LINESTRING (169.143618 67.043303, 170.206605 69.086507)

LINESTRING (177.032398 62.916882, 170.206605 69.086507)

LINESTRING (60.000000 180.000000, 73.868808 171.175583)

LINESTRING (60.000000 180.000000, 47.397876 169.528977)

LINESTRING (60.000000 180.000000, 49.995920 178.506137)

LINESTRING (60.000000 180.000000, 67.144513 169.790169)

LINESTRING (60.000000 180.000000, 64.827440 171.606915)

LINESTRING (60.000000 180.000000, 70.469917 166.990305)

LINESTRING (60.000000 180.000000, 61.999460 189.088282)

LINESTRING (60.000000 180.000000, 65.515292 191.233974)

LINESTRING (60.000000 180.000000, 62.682420 193.373757)

LINESTRING (60.000000 180.000000, 68.105513 192.442648)

LINESTRING (60.000000 180.000000, 72.708861 172.183754)

LINESTRING (60.000000 180.000000, 63.369869 189.616957)

LINESTRING (60.000000 180.000000, 51.748390 189.271919)

LINESTRING (60.000000 180.000000, 61.340891 168.453883)

LINESTRING (60.000000 180.000000, 66.987785 182.457931)

LINESTRING (60.000000 180.000000, 67.704099 179.827312)

LINESTRING (60.000000 180.000000, 50.039429 191.302030)

LINESTRING (60.000000 180.000000, 60.446538 180.183582)

LINESTRING (60.000000 180.000000, 71.221612 171.533613)

LINESTRING (60.000000 180.000000, 57.784475 166.463266)

LINESTRING (60.000000 180.000000, 65.841497 174.629814)

LINESTRING (60.000000 180.000000, 66.294823 190.470723)

LINESTRING (60.000000 180.000000, 60.962427 172.730542)

LINESTRING (60.000000 180.000000, 61.857102 192.471510)

LINESTRING (60.000000 180.000000, 54.719581 173.821735)

LINESTRING (73.868808 171.175583, 47.397876 169.528977)

LINESTRING (73.868808 171.175583, 49.995920 178.506137)

LINESTRING (73.868808 171.175583, 67.144513 169.790169)

LINESTRING (73.868808 171.175583, 64.827440 171.606915)

LINESTRING (73.868808 171.175583, 70.469917 166.990305)

LINESTRING (73.868808 171.175583, 68.105513 192.442648)

LINESTRING (73.868808 171.175583, 72.708861 172.183754)

LINESTRING (73.868808 171.175583, 63.369869 189.616957)

LINESTRING (73.868808 171.175583, 61.340891 168.453883)

LINESTRING (73.868808 171.175583, 60.446538 180.183582)

LINESTRING (73.868808 171.175583, 66.294823 190.470723)

LINESTRING (73.868808 171.175583, 54.719581 173.821735)

LINESTRING (47.397876 169.528977, 49.995920 178.506137)

LINESTRING (47.397876 169.528977, 64.827440 171.606915)

LINESTRING (47.397876 169.528977, 70.469917 166.990305)

LINESTRING (47.397876 169.528977, 61.999460 189.088282)

LINESTRING (47.397876 169.528977, 65.515292 191.233974)

LINESTRING (47.397876 169.528977, 68.105513 192.442648)

LINESTRING (47.397876 169.528977, 63.369869 189.616957)

LINESTRING (47.397876 169.528977, 61.340891 168.453883)

LINESTRING (47.397876 169.528977, 66.987785 182.457931)

LINESTRING (47.397876 169.528977, 67.704099 179.827312)

LINESTRING (47.397876 169.528977, 71.221612 171.533613)

LINESTRING (47.397876 169.528977, 57.784475 166.463266)

LINESTRING (47.397876 169.528977, 60.962427 172.730542)

LINESTRING (47.397876 169.528977, 61.857102 192.471510)

LINESTRING (49.995920 178.506137, 64.827440 171.606915)

LINESTRING (49.995920 178.506137, 70.469917 166.990305)

LINESTRING (49.995920 178.506137, 61.999460 189.088282)

LINESTRING (49.995920 178.506137, 63.369869 189.616957)

LINESTRING (49.995920 178.506137, 61.340891 168.453883)

LINESTRING (49.995920 178.506137, 66.987785 182.457931)

LINESTRING (49.995920 178.506137, 50.039429 191.302030)

LINESTRING (49.995920 178.506137, 71.221612 171.533613)

LINESTRING (49.995920 178.506137, 57.784475 166.463266)

LINESTRING (49.995920 178.506137, 66.294823 190.470723)

LINESTRING (49.995920 178.506137, 60.962427 172.730542)

LINESTRING (49.995920 178.506137, 61.857102 192.471510)

LINESTRING (67.144513 169.790169, 64.827440 171.606915)

LINESTRING (67.144513 169.790169, 68.105513 192.442648)

LINESTRING (67.144513 169.790169, 72.708861 172.183754)

LINESTRING (67.144513 169.790169, 63.369869 189.616957)

LINESTRING (67.144513 169.790169, 51.748390 189.271919)

LINESTRING (67.144513 169.790169, 66.987785 182.457931)

LINESTRING (67.144513 169.790169, 67.704099 179.827312)

LINESTRING (67.144513 169.790169, 60.446538 180.183582)

LINESTRING (67.144513 169.790169, 71.221612 171.533613)

LINESTRING (67.144513 169.790169, 66.294823 190.470723)

LINESTRING (64.827440 171.606915, 70.469917 166.990305)

LINESTRING (64.827440 171.606915, 65.515292 191.233974)

LINESTRING (64.827440 171.606915, 62.682420 193.373757)

LINESTRING (64.827440 171.606915, 63.369869 189.616957)

LINESTRING (64.827440 171.606915, 66.987785 182.457931)

LINESTRING (64.827440 171.606915, 50.039429 191.302030)

LINESTRING (64.827440 171.606915, 71.221612 171.533613)

LINESTRING (64.827440 171.606915, 57.784475 166.463266)

LINESTRING (64.827440 171.606915, 65.841497 174.629814)

LINESTRING (64.827440 171.606915, 66.294823 190.470723)

LINESTRING (64.827440 171.606915, 60.962427 172.730542)

LINESTRING (70.469917 166.990305, 61.999460 189.088282)

LINESTRING (70.469917 166.990305, 65.515292 191.233974)

LINESTRING (70.469917 166.990305, 68.105513 192.442648)

LINESTRING (70.469917 166.990305, 61.340891 168.453883)

LINESTRING (70.469917 166.990305, 60.446538 180.183582)

LINESTRING (70.469917 166.990305, 71.221612 171.533613)

LINESTRING (70.469917 166.990305, 65.841497 174.629814)

LINESTRING (70.469917 166.990305, 66.294823 190.470723)

LINESTRING (70.469917 166.990305, 60.962427 172.730542)

LINESTRING (61.999460 189.088282, 72.708861 172.183754)

LINESTRING (61.999460 189.088282, 61.340891 168.453883)

LINESTRING (61.999460 189.088282, 50.039429 191.302030)

LINESTRING (61.999460 189.088282, 60.446538 180.183582)

LINESTRING (61.999460 189.088282, 57.784475 166.463266)

LINESTRING (61.999460 189.088282, 65.841497 174.629814)

LINESTRING (61.999460 189.088282, 60.962427 172.730542)

LINESTRING (61.999460 189.088282, 61.857102 192.471510)

LINESTRING (65.515292 191.233974, 68.105513 192.442648)

LINESTRING (65.515292 191.233974, 63.369869 189.616957)

LINESTRING (65.515292 191.233974, 67.704099 179.827312)

LINESTRING (65.515292 191.233974, 50.039429 191.302030)

LINESTRING (65.515292 191.233974, 60.446538 180.183582)

LINESTRING (65.515292 191.233974, 71.221612 171.533613)

LINESTRING (65.515292 191.233974, 57.784475 166.463266)

LINESTRING (65.515292 191.233974, 65.841497 174.629814)

LINESTRING (65.515292 191.233974, 61.857102 192.471510)

LINESTRING (65.515292 191.233974, 54.719581 173.821735)

LINESTRING (62.682420 193.373757, 51.748390 189.271919)

LINESTRING (62.682420 193.373757, 71.221612 171.533613)

LINESTRING (62.682420 193.373757, 66.294823 190.470723)

LINESTRING (62.682420 193.373757, 60.962427 172.730542)

LINESTRING (62.682420 193.373757, 61.857102 192.471510)

LINESTRING (62.682420 193.373757, 54.719581 173.821735)

LINESTRING (68.105513 192.442648, 72.708861 172.183754)

LINESTRING (68.105513 192.442648, 51.748390 189.271919)

LINESTRING (68.105513 192.442648, 66.987785 182.457931)

LINESTRING (68.105513 192.442648, 60.446538 180.183582)

LINESTRING (68.105513 192.442648, 66.294823 190.470723)

LINESTRING (68.105513 192.442648, 60.962427 172.730542)

LINESTRING (68.105513 192.442648, 61.857102 192.471510)

LINESTRING (68.105513 192.442648, 54.719581 173.821735)

LINESTRING (72.708861 172.183754, 51.748390 189.271919)

LINESTRING (72.708861 172.183754, 61.340891 168.453883)

LINESTRING (72.708861 172.183754, 60.446538 180.183582)

LINESTRING (72.708861 172.183754, 65.841497 174.629814)

LINESTRING (72.708861 172.183754, 66.294823 190.470723)

LINESTRING (72.708861 172.183754, 54.719581 173.821735)

LINESTRING (63.369869 189.616957, 51.748390 189.271919)

LINESTRING (63.369869 189.616957, 61.340891 168.453883)

LINESTRING (63.369869 189.616957, 67.704099 179.827312)

LINESTRING (63.369869 189.616957, 60.446538 180.183582)

LINESTRING (63.369869 189.616957, 71.221612 171.533613)

LINESTRING (63.369869 189.616957, 57.784475 166.463266)

LINESTRING (63.369869 189.616957, 65.841497 174.629814)

LINESTRING (51.748390 189.271919, 66.987785 182.457931)

LINESTRING (51.748390 189.271919, 67.704099 179.827312)

LINESTRING (51.748390 189.271919, 71.221612 171.533613)

LINESTRING (51.748390 189.271919, 57.784475 166.463266)

LINESTRING (51.748390 189.271919, 65.841497 174.629814)

LINESTRING (51.748390 189.271919, 66.294823 190.470723)

LINESTRING (51.748390 189.271919, 61.857102 192.471510)

LINESTRING (51.748390 189.271919, 54.719581 173.821735)

LINESTRING (61.340891 168.453883, 66.987785 182.457931)

LINESTRING (61.340891 168.453883, 67.704099 179.827312)

LINESTRING (61.340891 168.453883, 65.841497 174.629814)

LINESTRING (61.340891 168.453883, 66.294823 190.470723)

LINESTRING (61.340891 168.453883, 60.962427 172.730542)

LINESTRING (61.340891 168.453883, 61.857102 192.471510)

LINESTRING (61.340891 168.453883, 54.719581 173.821735)

LINESTRING (66.987785 182.457931, 67.704099 179.827312)

LINESTRING (66.987785 182.457931, 60.446538 180.183582)

LINESTRING (66.987785 182.457931, 71.221612 171.533613)

LINESTRING (66.987785 182.457931, 66.294823 190.470723)

LINESTRING (66.987785 182.457931, 60.962427 172.730542)

LINESTRING (66.987785 182.457931, 61.857102 192.471510)

LINESTRING (67.704099 179.827312, 50.039429 191.302030)

LINESTRING (67.704099 179.827312, 60.446538 180.183582)

LINESTRING (67.704099 179.827312, 71.221612 171.533613)

LINESTRING (67.704099 179.827312, 57.784475 166.463266)

LINESTRING (50.039429 191.302030, 61.857102 192.471510)

LINESTRING (50.039429 191.302030, 54.719581 173.821735)

LINESTRING (60.446538 180.183582, 57.784475 166.463266)

LINESTRING (60.446538 180.183582, 65.841497 174.629814)

LINESTRING (60.446538 180.183582, 61.857102 192.471510)

LINESTRING (71.221612 171.533613, 65.841497 174.629814)

LINESTRING (71.221612 171.533613, 66.294823 190.470723)

LINESTRING (71.221612 171.533613, 60.962427 172.730542)

LINESTRING (71.221612 171.533613, 61.857102 192.471510)

LINESTRING (57.784475 166.463266, 65.841497 174.629814)

LINESTRING (57.784475 166.463266, 60.962427 172.730542)

LINESTRING (57.784475 166.463266, 61.857102 192.471510)

LINESTRING (66.294823 190.470723, 61.857102 192.471510)

LINESTRING (66.294823 190.470723, 54.719581 173.821735)

LINESTRING (60.962427 172.730542, 61.857102 192.471510)

LINESTRING (60.962427 172.730542, 54.719581 173.821735)

LINESTRING (61.857102 192.471510, 54.719581 173.821735)

LINESTRING (49.365112 53.465382, 166.875889 60.651977)

LINESTRING (60.000000 60.000000, 180.000000 60.000000)

LINESTRING (184.144748 55.867241, 66.294823 190.470723)

LINESTRING (180.000000 60.000000, 60.000000 180.000000)

