LINESTRING (127.133987 126.573184, 112.811952 100.605583)

LINESTRING (127.133987 126.573184, 127.390649 168.856880)

LINESTRING (127.133987 126.573184, 163.004815 128.126554)

LINESTRING (127.133987 126.573184, 153.017356 104.656815)

LINESTRING (127.133987 126.573184, 128.182439 161.455874)

LINESTRING (127.133987 126.573184, 119.428813 164.912993)

LINESTRING (127.133987 126.573184, 155.097266 107.181613)

LINESTRING (127.133987 126.573184, 131.262800 105.454560)

LINESTRING (127.133987 126.573184, 158.616635 108.022446)

LINESTRING (127.133987 126.573184, 156.013386 148.495033)

LINESTRING (127.133987 126.573184, 104.778314 113.856605)

LINESTRING (127.133987 126.573184, 136.799686 102.465623)

LINESTRING (127.133987 126.573184, 136.159366 129.684679)

LINESTRING (127.133987 126.573184, 110.349111 135.026470)

LINESTRING (127.133987 126.573184, 126.982674 102.087868)

LINESTRING (127.133987 126.573184, 168.645349 172.271769)

LINESTRING (127.133987 126.573184, 116.000916 161.126186)

LINESTRING (127.133987 126.573184, 157.530220 135.725951)

LINESTRING (127.133987 126.573184, 147.463284 152.240056)

LINESTRING (127.133987 126.573184, 165.277062 111.777843)

LINESTRING (127.133987 126.573184, 134.411127 149.258317)

LINESTRING (127.133987 126.573184, 131.467138 127.610167)

LINESTRING (127.133987 126.573184, 154.344479 177.824965)

LINESTRING (127.133987 126.573184, 108.592645 115.991127)

LINESTRING (127.133987 126.573184, 118.982854 133.248266)

LINESTRING (127.133987 126.573184, 176.511144 110.581278)

LINESTRING (127.133987 126.573184, 107.496211 159.841281)

LINESTRING (127.133987 126.573184, 111.949312 135.940315)

LINESTRING (100.612543 118.842307, 112.811952 100.605583)

LINESTRING (100.612543 118.842307, 127.632398 107.736904)

LINESTRING (100.612543 118.842307, 127.390649 168.856880)

LINESTRING (100.612543 118.842307, 108.432665 175.288687)

LINESTRING (100.612543 118.842307, 102.257572 146.330135)

LINESTRING (100.612543 118.842307, 128.182439 161.455874)

LINESTRING (100.612543 118.842307, 119.428813 164.912993)

LINESTRING (100.612543 118.842307, 155.097266 107.181613)

LINESTRING (100.612543 118.842307, 131.262800 105.454560)

LINESTRING (100.612543 118.842307, 158.616635 108.022446)

LINESTRING (100.612543 118.842307, 136.799686 102.465623)

LINESTRING (100.612543 118.842307, 166.238781 178.136194)

LINESTRING (100.612543 118.842307, 136.159366 129.684679)

LINESTRING (100.612543 118.842307, 107.889910 144.557177)

LINESTRING (100.612543 118.842307, 168.645349 172.271769)

LINESTRING (100.612543 118.842307, 116.000916 161.126186)

LINESTRING (100.612543 118.842307, 133.099803 139.358741)

LINESTRING (100.612543 118.842307, 147.463284 152.240056)

LINESTRING (100.612543 118.842307, 165.277062 111.777843)

LINESTRING (100.612543 118.842307, 134.411127 149.258317)

LINESTRING (100.612543 118.842307, 108.592645 115.991127)

LINESTRING (100.612543 118.842307, 107.496211 159.841281)

LINESTRING (112.811952 100.605583, 108.432665 175.288687)

LINESTRING (112.811952 100.605583, 102.257572 146.330135)

LINESTRING (112.811952 100.605583, 153.017356 104.656815)

LINESTRING (112.811952 100.605583, 128.182439 161.455874)

LINESTRING (112.811952 100.605583, 119.428813 164.912993)

LINESTRING (112.811952 100.605583, 155.097266 107.181613)

LINESTRING (112.811952 100.605583, 131.262800 105.454560)

LINESTRING (112.811952 100.605583, 158.616635 108.022446)

LINESTRING (112.811952 100.605583, 156.013386 148.495033)

LINESTRING (112.811952 100.605583, 104.778314 113.856605)

LINESTRING (112.811952 100.605583, 136.799686 102.465623)

LINESTRING (112.811952 100.605583, 166.238781 178.136194)

LINESTRING (112.811952 100.605583, 136.159366 129.684679)

LINESTRING (112.811952 100.605583, 107.889910 144.557177)

LINESTRING (112.811952 100.605583, 126.982674 102.087868)

LINESTRING (112.811952 100.605583, 168.645349 172.271769)

LINESTRING (112.811952 100.605583, 157.530220 135.725951)

LINESTRING (112.811952 100.605583, 147.463284 152.240056)

LINESTRING (112.811952 100.605583, 137.420756 135.851975)

LINESTRING (112.811952 100.605583, 131.467138 127.610167)

LINESTRING (112.811952 100.605583, 154.344479 177.824965)

LINESTRING (112.811952 100.605583, 118.982854 133.248266)

LINESTRING (127.632398 107.736904, 127.390649 168.856880)

LINESTRING (127.632398 107.736904, 163.004815 128.126554)

LINESTRING (127.632398 107.736904, 102.257572 146.330135)

LINESTRING (127.632398 107.736904, 153.017356 104.656815)

LINESTRING (127.632398 107.736904, 119.428813 164.912993)

LINESTRING (127.632398 107.736904, 131.262800 105.454560)

LINESTRING (127.632398 107.736904, 158.616635 108.022446)

LINESTRING (127.632398 107.736904, 107.718231 128.065544)

LINESTRING (127.632398 107.736904, 104.778314 113.856605)

LINESTRING (127.632398 107.736904, 107.889910 144.557177)

LINESTRING (127.632398 107.736904, 110.423472 145.764938)

LINESTRING (127.632398 107.736904, 126.982674 102.087868)

LINESTRING (127.632398 107.736904, 116.000916 161.126186)

LINESTRING (127.632398 107.736904, 157.530220 135.725951)

LINESTRING (127.632398 107.736904, 137.420756 135.851975)

LINESTRING (127.632398 107.736904, 165.277062 111.777843)

LINESTRING (127.632398 107.736904, 134.411127 149.258317)

LINESTRING (127.632398 107.736904, 154.344479 177.824965)

LINESTRING (127.632398 107.736904, 108.592645 115.991127)

LINESTRING (127.390649 168.856880, 108.432665 175.288687)

LINESTRING (127.390649 168.856880, 128.182439 161.455874)

LINESTRING (127.390649 168.856880, 155.097266 107.181613)

LINESTRING (127.390649 168.856880, 107.718231 128.065544)

LINESTRING (127.390649 168.856880, 104.778314 113.856605)

LINESTRING (127.390649 168.856880, 136.799686 102.465623)

LINESTRING (127.390649 168.856880, 166.238781 178.136194)

LINESTRING (127.390649 168.856880, 126.982674 102.087868)

LINESTRING (127.390649 168.856880, 116.000916 161.126186)

LINESTRING (127.390649 168.856880, 157.530220 135.725951)

LINESTRING (127.390649 168.856880, 133.099803 139.358741)

LINESTRING (127.390649 168.856880, 147.463284 152.240056)

LINESTRING (127.390649 168.856880, 134.411127 149.258317)

LINESTRING (127.390649 168.856880, 131.467138 127.610167)

LINESTRING (127.390649 168.856880, 154.344479 177.824965)

LINESTRING (127.390649 168.856880, 108.592645 115.991127)

LINESTRING (108.432665 175.288687, 163.004815 128.126554)

LINESTRING (108.432665 175.288687, 102.257572 146.330135)

LINESTRING (108.432665 175.288687, 153.017356 104.656815)

LINESTRING (108.432665 175.288687, 128.182439 161.455874)

LINESTRING (108.432665 175.288687, 119.428813 164.912993)

LINESTRING (108.432665 175.288687, 131.262800 105.454560)

LINESTRING (108.432665 175.288687, 158.616635 108.022446)

LINESTRING (108.432665 175.288687, 156.013386 148.495033)

LINESTRING (108.432665 175.288687, 136.799686 102.465623)

LINESTRING (108.432665 175.288687, 166.238781 178.136194)

LINESTRING (108.432665 175.288687, 110.423472 145.764938)

LINESTRING (108.432665 175.288687, 126.982674 102.087868)

LINESTRING (108.432665 175.288687, 168.645349 172.271769)

LINESTRING (108.432665 175.288687, 116.000916 161.126186)

LINESTRING (108.432665 175.288687, 157.530220 135.725951)

LINESTRING (108.432665 175.288687, 147.463284 152.240056)

LINESTRING (108.432665 175.288687, 137.420756 135.851975)

LINESTRING (108.432665 175.288687, 165.277062 111.777843)

LINESTRING (108.432665 175.288687, 154.344479 177.824965)

LINESTRING (108.432665 175.288687, 118.982854 133.248266)

LINESTRING (108.432665 175.288687, 176.511144 110.581278)

LINESTRING (108.432665 175.288687, 107.496211 159.841281)

LINESTRING (108.432665 175.288687, 111.949312 135.940315)

LINESTRING (163.004815 128.126554, 116.749152 146.646479)

LINESTRING (163.004815 128.126554, 153.017356 104.656815)

LINESTRING (163.004815 128.126554, 119.428813 164.912993)

LINESTRING (163.004815 128.126554, 155.097266 107.181613)

LINESTRING (163.004815 128.126554, 131.262800 105.454560)

LINESTRING (163.004815 128.126554, 158.616635 108.022446)

LINESTRING (163.004815 128.126554, 156.013386 148.495033)

LINESTRING (163.004815 128.126554, 136.799686 102.465623)

LINESTRING (163.004815 128.126554, 166.238781 178.136194)

LINESTRING (163.004815 128.126554, 136.159366 129.684679)

LINESTRING (163.004815 128.126554, 110.349111 135.026470)

LINESTRING (163.004815 128.126554, 107.889910 144.557177)

LINESTRING (163.004815 128.126554, 110.423472 145.764938)

LINESTRING (163.004815 128.126554, 126.982674 102.087868)

LINESTRING (163.004815 128.126554, 168.645349 172.271769)

LINESTRING (163.004815 128.126554, 116.000916 161.126186)

LINESTRING (163.004815 128.126554, 157.530220 135.725951)

LINESTRING (163.004815 128.126554, 133.099803 139.358741)

LINESTRING (163.004815 128.126554, 147.463284 152.240056)

LINESTRING (163.004815 128.126554, 137.420756 135.851975)

LINESTRING (163.004815 128.126554, 165.277062 111.777843)

LINESTRING (163.004815 128.126554, 154.344479 177.824965)

LINESTRING (163.004815 128.126554, 118.982854 133.248266)

LINESTRING (163.004815 128.126554, 107.496211 159.841281)

LINESTRING (163.004815 128.126554, 111.949312 135.940315)

LINESTRING (116.749152 146.646479, 102.257572 146.330135)

LINESTRING (116.749152 146.646479, 128.182439 161.455874)

LINESTRING (116.749152 146.646479, 155.097266 107.181613)

LINESTRING (116.749152 146.646479, 131.262800 105.454560)

LINESTRING (116.749152 146.646479, 107.718231 128.065544)

LINESTRING (116.749152 146.646479, 156.013386 148.495033)

LINESTRING (116.749152 146.646479, 136.799686 102.465623)

LINESTRING (116.749152 146.646479, 166.238781 178.136194)

LINESTRING (116.749152 146.646479, 136.159366 129.684679)

LINESTRING (116.749152 146.646479, 126.982674 102.087868)

LINESTRING (116.749152 146.646479, 116.000916 161.126186)

LINESTRING (116.749152 146.646479, 157.530220 135.725951)

LINESTRING (116.749152 146.646479, 133.099803 139.358741)

LINESTRING (116.749152 146.646479, 137.420756 135.851975)

LINESTRING (116.749152 146.646479, 134.411127 149.258317)

LINESTRING (116.749152 146.646479, 154.344479 177.824965)

LINESTRING (116.749152 146.646479, 108.592645 115.991127)

LINESTRING (116.749152 146.646479, 118.982854 133.248266)

LINESTRING (116.749152 146.646479, 107.496211 159.841281)

LINESTRING (116.749152 146.646479, 111.949312 135.940315)

LINESTRING (102.257572 146.330135, 153.017356 104.656815)

LINESTRING (102.257572 146.330135, 128.182439 161.455874)

LINESTRING (102.257572 146.330135, 155.097266 107.181613)

LINESTRING (102.257572 146.330135, 158.616635 108.022446)

LINESTRING (102.257572 146.330135, 107.718231 128.065544)

LINESTRING (102.257572 146.330135, 156.013386 148.495033)

LINESTRING (102.257572 146.330135, 104.778314 113.856605)

LINESTRING (102.257572 146.330135, 136.799686 102.465623)

LINESTRING (102.257572 146.330135, 166.238781 178.136194)

LINESTRING (102.257572 146.330135, 110.349111 135.026470)

LINESTRING (102.257572 146.330135, 126.982674 102.087868)

LINESTRING (102.257572 146.330135, 168.645349 172.271769)

LINESTRING (102.257572 146.330135, 157.530220 135.725951)

LINESTRING (102.257572 146.330135, 133.099803 139.358741)

LINESTRING (102.257572 146.330135, 165.277062 111.777843)

LINESTRING (102.257572 146.330135, 134.411127 149.258317)

LINESTRING (102.257572 146.330135, 154.344479 177.824965)

LINESTRING (102.257572 146.330135, 108.592645 115.991127)

LINESTRING (102.257572 146.330135, 118.982854 133.248266)

LINESTRING (102.257572 146.330135, 107.496211 159.841281)

LINESTRING (102.257572 146.330135, 111.949312 135.940315)

LINESTRING (153.017356 104.656815, 128.182439 161.455874)

LINESTRING (153.017356 104.656815, 131.262800 105.454560)

LINESTRING (153.017356 104.656815, 158.616635 108.022446)

LINESTRING (153.017356 104.656815, 107.718231 128.065544)

LINESTRING (153.017356 104.656815, 156.013386 148.495033)

LINESTRING (153.017356 104.656815, 104.778314 113.856605)

LINESTRING (153.017356 104.656815, 136.159366 129.684679)

LINESTRING (153.017356 104.656815, 107.889910 144.557177)

LINESTRING (153.017356 104.656815, 110.423472 145.764938)

LINESTRING (153.017356 104.656815, 126.982674 102.087868)

LINESTRING (153.017356 104.656815, 168.645349 172.271769)

LINESTRING (153.017356 104.656815, 116.000916 161.126186)

LINESTRING (153.017356 104.656815, 157.530220 135.725951)

LINESTRING (153.017356 104.656815, 147.463284 152.240056)

LINESTRING (153.017356 104.656815, 137.420756 135.851975)

LINESTRING (153.017356 104.656815, 131.467138 127.610167)

LINESTRING (153.017356 104.656815, 154.344479 177.824965)

LINESTRING (153.017356 104.656815, 108.592645 115.991127)

LINESTRING (153.017356 104.656815, 111.949312 135.940315)

LINESTRING (128.182439 161.455874, 119.428813 164.912993)

LINESTRING (128.182439 161.455874, 131.262800 105.454560)

LINESTRING (128.182439 161.455874, 156.013386 148.495033)

LINESTRING (128.182439 161.455874, 104.778314 113.856605)

LINESTRING (128.182439 161.455874, 136.799686 102.465623)

LINESTRING (128.182439 161.455874, 166.238781 178.136194)

LINESTRING (128.182439 161.455874, 136.159366 129.684679)

LINESTRING (128.182439 161.455874, 110.423472 145.764938)

LINESTRING (128.182439 161.455874, 168.645349 172.271769)

LINESTRING (128.182439 161.455874, 157.530220 135.725951)

LINESTRING (128.182439 161.455874, 133.099803 139.358741)

LINESTRING (128.182439 161.455874, 165.277062 111.777843)

LINESTRING (128.182439 161.455874, 134.411127 149.258317)

LINESTRING (128.182439 161.455874, 154.344479 177.824965)

LINESTRING (128.182439 161.455874, 108.592645 115.991127)

LINESTRING (128.182439 161.455874, 176.511144 110.581278)

LINESTRING (119.428813 164.912993, 158.616635 108.022446)

LINESTRING (119.428813 164.912993, 156.013386 148.495033)

LINESTRING (119.428813 164.912993, 104.778314 113.856605)

LINESTRING (119.428813 164.912993, 136.799686 102.465623)

LINESTRING (119.428813 164.912993, 166.238781 178.136194)

LINESTRING (119.428813 164.912993, 136.159366 129.684679)

LINESTRING (119.428813 164.912993, 110.349111 135.026470)

LINESTRING (119.428813 164.912993, 168.645349 172.271769)

LINESTRING (119.428813 164.912993, 116.000916 161.126186)

LINESTRING (119.428813 164.912993, 133.099803 139.358741)

LINESTRING (119.428813 164.912993, 147.463284 152.240056)

LINESTRING (119.428813 164.912993, 137.420756 135.851975)

LINESTRING (119.428813 164.912993, 134.411127 149.258317)

LINESTRING (119.428813 164.912993, 131.467138 127.610167)

LINESTRING (119.428813 164.912993, 118.982854 133.248266)

LINESTRING (119.428813 164.912993, 176.511144 110.581278)

LINESTRING (119.428813 164.912993, 107.496211 159.841281)

LINESTRING (119.428813 164.912993, 111.949312 135.940315)

LINESTRING (155.097266 107.181613, 158.616635 108.022446)

LINESTRING (155.097266 107.181613, 107.718231 128.065544)

LINESTRING (155.097266 107.181613, 136.799686 102.465623)

LINESTRING (155.097266 107.181613, 166.238781 178.136194)

LINESTRING (155.097266 107.181613, 110.349111 135.026470)

LINESTRING (155.097266 107.181613, 107.889910 144.557177)

LINESTRING (155.097266 107.181613, 126.982674 102.087868)

LINESTRING (155.097266 107.181613, 168.645349 172.271769)

LINESTRING (155.097266 107.181613, 116.000916 161.126186)

LINESTRING (155.097266 107.181613, 157.530220 135.725951)

LINESTRING (155.097266 107.181613, 133.099803 139.358741)

LINESTRING (155.097266 107.181613, 147.463284 152.240056)

LINESTRING (155.097266 107.181613, 137.420756 135.851975)

LINESTRING (155.097266 107.181613, 165.277062 111.777843)

LINESTRING (155.097266 107.181613, 134.411127 149.258317)

LINESTRING (155.097266 107.181613, 131.467138 127.610167)

LINESTRING (155.097266 107.181613, 154.344479 177.824965)

LINESTRING (155.097266 107.181613, 108.592645 115.991127)

LINESTRING (155.097266 107.181613, 111.949312 135.940315)

LINESTRING (131.262800 105.454560, 156.013386 148.495033)

LINESTRING (131.262800 105.454560, 136.799686 102.465623)

LINESTRING (131.262800 105.454560, 107.889910 144.557177)

LINESTRING (131.262800 105.454560, 126.982674 102.087868)

LINESTRING (131.262800 105.454560, 168.645349 172.271769)

LINESTRING (131.262800 105.454560, 157.530220 135.725951)

LINESTRING (131.262800 105.454560, 133.099803 139.358741)

LINESTRING (131.262800 105.454560, 147.463284 152.240056)

LINESTRING (131.262800 105.454560, 137.420756 135.851975)

LINESTRING (131.262800 105.454560, 165.277062 111.777843)

LINESTRING (131.262800 105.454560, 131.467138 127.610167)

LINESTRING (131.262800 105.454560, 154.344479 177.824965)

LINESTRING (131.262800 105.454560, 108.592645 115.991127)

LINESTRING (131.262800 105.454560, 118.982854 133.248266)

LINESTRING (131.262800 105.454560, 176.511144 110.581278)

LINESTRING (131.262800 105.454560, 107.496211 159.841281)

LINESTRING (158.616635 108.022446, 107.718231 128.065544)

LINESTRING (158.616635 108.022446, 156.013386 148.495033)

LINESTRING (158.616635 108.022446, 104.778314 113.856605)

LINESTRING (158.616635 108.022446, 136.799686 102.465623)

LINESTRING (158.616635 108.022446, 166.238781 178.136194)

LINESTRING (158.616635 108.022446, 110.349111 135.026470)

LINESTRING (158.616635 108.022446, 107.889910 144.557177)

LINESTRING (158.616635 108.022446, 110.423472 145.764938)

LINESTRING (158.616635 108.022446, 126.982674 102.087868)

LINESTRING (158.616635 108.022446, 168.645349 172.271769)

LINESTRING (158.616635 108.022446, 157.530220 135.725951)

LINESTRING (158.616635 108.022446, 133.099803 139.358741)

LINESTRING (158.616635 108.022446, 165.277062 111.777843)

LINESTRING (158.616635 108.022446, 118.982854 133.248266)

LINESTRING (158.616635 108.022446, 176.511144 110.581278)

LINESTRING (158.616635 108.022446, 107.496211 159.841281)

LINESTRING (158.616635 108.022446, 111.949312 135.940315)

LINESTRING (107.718231 128.065544, 136.799686 102.465623)

LINESTRING (107.718231 128.065544, 136.159366 129.684679)

LINESTRING (107.718231 128.065544, 110.349111 135.026470)

LINESTRING (107.718231 128.065544, 107.889910 144.557177)

LINESTRING (107.718231 128.065544, 157.530220 135.725951)

LINESTRING (107.718231 128.065544, 133.099803 139.358741)

LINESTRING (107.718231 128.065544, 147.463284 152.240056)

LINESTRING (107.718231 128.065544, 134.411127 149.258317)

LINESTRING (107.718231 128.065544, 154.344479 177.824965)

LINESTRING (107.718231 128.065544, 108.592645 115.991127)

LINESTRING (107.718231 128.065544, 107.496211 159.841281)

LINESTRING (156.013386 148.495033, 104.778314 113.856605)

LINESTRING (156.013386 148.495033, 136.799686 102.465623)

LINESTRING (156.013386 148.495033, 136.159366 129.684679)

LINESTRING (156.013386 148.495033, 126.982674 102.087868)

LINESTRING (156.013386 148.495033, 168.645349 172.271769)

LINESTRING (156.013386 148.495033, 116.000916 161.126186)

LINESTRING (156.013386 148.495033, 137.420756 135.851975)

LINESTRING (156.013386 148.495033, 165.277062 111.777843)

LINESTRING (156.013386 148.495033, 134.411127 149.258317)

LINESTRING (156.013386 148.495033, 131.467138 127.610167)

LINESTRING (156.013386 148.495033, 154.344479 177.824965)

LINESTRING (156.013386 148.495033, 176.511144 110.581278)

LINESTRING (156.013386 148.495033, 107.496211 159.841281)

LINESTRING (156.013386 148.495033, 111.949312 135.940315)

LINESTRING (104.778314 113.856605, 136.799686 102.465623)

LINESTRING (104.778314 113.856605, 136.159366 129.684679)

LINESTRING (104.778314 113.856605, 110.349111 135.026470)

LINESTRING (104.778314 113.856605, 107.889910 144.557177)

LINESTRING (104.778314 113.856605, 126.982674 102.087868)

LINESTRING (104.778314 113.856605, 168.645349 172.271769)

LINESTRING (104.778314 113.856605, 116.000916 161.126186)

LINESTRING (104.778314 113.856605, 133.099803 139.358741)

LINESTRING (104.778314 113.856605, 137.420756 135.851975)

LINESTRING (104.778314 113.856605, 165.277062 111.777843)

LINESTRING (104.778314 113.856605, 134.411127 149.258317)

LINESTRING (104.778314 113.856605, 131.467138 127.610167)

LINESTRING (104.778314 113.856605, 108.592645 115.991127)

LINESTRING (104.778314 113.856605, 107.496211 159.841281)

LINESTRING (136.799686 102.465623, 136.159366 129.684679)

LINESTRING (136.799686 102.465623, 107.889910 144.557177)

LINESTRING (136.799686 102.465623, 110.423472 145.764938)

LINESTRING (136.799686 102.465623, 126.982674 102.087868)

LINESTRING (136.799686 102.465623, 168.645349 172.271769)

LINESTRING (136.799686 102.465623, 116.000916 161.126186)

LINESTRING (136.799686 102.465623, 157.530220 135.725951)

LINESTRING (136.799686 102.465623, 133.099803 139.358741)

LINESTRING (136.799686 102.465623, 165.277062 111.777843)

LINESTRING (136.799686 102.465623, 134.411127 149.258317)

LINESTRING (136.799686 102.465623, 131.467138 127.610167)

LINESTRING (136.799686 102.465623, 154.344479 177.824965)

LINESTRING (136.799686 102.465623, 108.592645 115.991127)

LINESTRING (136.799686 102.465623, 118.982854 133.248266)

LINESTRING (136.799686 102.465623, 176.511144 110.581278)

LINESTRING (136.799686 102.465623, 111.949312 135.940315)

LINESTRING (166.238781 178.136194, 136.159366 129.684679)

LINESTRING (166.238781 178.136194, 110.349111 135.026470)

LINESTRING (166.238781 178.136194, 110.423472 145.764938)

LINESTRING (166.238781 178.136194, 126.982674 102.087868)

LINESTRING (166.238781 178.136194, 133.099803 139.358741)

LINESTRING (166.238781 178.136194, 147.463284 152.240056)

LINESTRING (166.238781 178.136194, 165.277062 111.777843)

LINESTRING (166.238781 178.136194, 131.467138 127.610167)

LINESTRING (166.238781 178.136194, 154.344479 177.824965)

LINESTRING (166.238781 178.136194, 111.949312 135.940315)

LINESTRING (136.159366 129.684679, 110.349111 135.026470)

LINESTRING (136.159366 129.684679, 107.889910 144.557177)

LINESTRING (136.159366 129.684679, 126.982674 102.087868)

LINESTRING (136.159366 129.684679, 168.645349 172.271769)

LINESTRING (136.159366 129.684679, 116.000916 161.126186)

LINESTRING (136.159366 129.684679, 157.530220 135.725951)

LINESTRING (136.159366 129.684679, 165.277062 111.777843)

LINESTRING (136.159366 129.684679, 154.344479 177.824965)

LINESTRING (136.159366 129.684679, 118.982854 133.248266)

LINESTRING (136.159366 129.684679, 176.511144 110.581278)

LINESTRING (136.159366 129.684679, 107.496211 159.841281)

LINESTRING (136.159366 129.684679, 111.949312 135.940315)

LINESTRING (110.349111 135.026470, 116.000916 161.126186)

LINESTRING (110.349111 135.026470, 157.530220 135.725951)

LINESTRING (110.349111 135.026470, 133.099803 139.358741)

LINESTRING (110.349111 135.026470, 147.463284 152.240056)

LINESTRING (110.349111 135.026470, 137.420756 135.851975)

LINESTRING (110.349111 135.026470, 165.277062 111.777843)

LINESTRING (110.349111 135.026470, 131.467138 127.610167)

LINESTRING (110.349111 135.026470, 154.344479 177.824965)

LINESTRING (110.349111 135.026470, 118.982854 133.248266)

LINESTRING (110.349111 135.026470, 176.511144 110.581278)

LINESTRING (110.349111 135.026470, 107.496211 159.841281)

LINESTRING (110.349111 135.026470, 111.949312 135.940315)

LINESTRING (107.889910 144.557177, 110.423472 145.764938)

LINESTRING (107.889910 144.557177, 126.982674 102.087868)

LINESTRING (107.889910 144.557177, 157.530220 135.725951)

LINESTRING (107.889910 144.557177, 133.099803 139.358741)

LINESTRING (107.889910 144.557177, 147.463284 152.240056)

LINESTRING (107.889910 144.557177, 165.277062 111.777843)

LINESTRING (107.889910 144.557177, 134.411127 149.258317)

LINESTRING (107.889910 144.557177, 131.467138 127.610167)

LINESTRING (107.889910 144.557177, 154.344479 177.824965)

LINESTRING (107.889910 144.557177, 118.982854 133.248266)

LINESTRING (107.889910 144.557177, 176.511144 110.581278)

LINESTRING (110.423472 145.764938, 126.982674 102.087868)

LINESTRING (110.423472 145.764938, 116.000916 161.126186)

LINESTRING (110.423472 145.764938, 133.099803 139.358741)

LINESTRING (110.423472 145.764938, 147.463284 152.240056)

LINESTRING (110.423472 145.764938, 137.420756 135.851975)

LINESTRING (110.423472 145.764938, 165.277062 111.777843)

LINESTRING (110.423472 145.764938, 134.411127 149.258317)

LINESTRING (110.423472 145.764938, 154.344479 177.824965)

LINESTRING (110.423472 145.764938, 108.592645 115.991127)

LINESTRING (110.423472 145.764938, 118.982854 133.248266)

LINESTRING (110.423472 145.764938, 111.949312 135.940315)

LINESTRING (126.982674 102.087868, 133.099803 139.358741)

LINESTRING (126.982674 102.087868, 137.420756 135.851975)

LINESTRING (126.982674 102.087868, 165.277062 111.777843)

LINESTRING (126.982674 102.087868, 131.467138 127.610167)

LINESTRING (126.982674 102.087868, 176.511144 110.581278)

LINESTRING (168.645349 172.271769, 157.530220 135.725951)

LINESTRING (168.645349 172.271769, 133.099803 139.358741)

LINESTRING (168.645349 172.271769, 147.463284 152.240056)

LINESTRING (168.645349 172.271769, 165.277062 111.777843)

LINESTRING (168.645349 172.271769, 154.344479 177.824965)

LINESTRING (168.645349 172.271769, 108.592645 115.991127)

LINESTRING (168.645349 172.271769, 118.982854 133.248266)

LINESTRING (168.645349 172.271769, 176.511144 110.581278)

LINESTRING (116.000916 161.126186, 133.099803 139.358741)

LINESTRING (116.000916 161.126186, 147.463284 152.240056)

LINESTRING (116.000916 161.126186, 137.420756 135.851975)

LINESTRING (116.000916 161.126186, 165.277062 111.777843)

LINESTRING (116.000916 161.126186, 134.411127 149.258317)

LINESTRING (116.000916 161.126186, 131.467138 127.610167)

LINESTRING (116.000916 161.126186, 108.592645 115.991127)

LINESTRING (116.000916 161.126186, 107.496211 159.841281)

LINESTRING (116.000916 161.126186, 111.949312 135.940315)

LINESTRING (157.530220 135.725951, 133.099803 139.358741)

LINESTRING (157.530220 135.725951, 147.463284 152.240056)

LINESTRING (157.530220 135.725951, 137.420756 135.851975)

LINESTRING (157.530220 135.725951, 165.277062 111.777843)

LINESTRING (157.530220 135.725951, 134.411127 149.258317)

LINESTRING (157.530220 135.725951, 131.467138 127.610167)

LINESTRING (157.530220 135.725951, 154.344479 177.824965)

LINESTRING (157.530220 135.725951, 107.496211 159.841281)

LINESTRING (157.530220 135.725951, 111.949312 135.940315)

LINESTRING (133.099803 139.358741, 147.463284 152.240056)

LINESTRING (133.099803 139.358741, 165.277062 111.777843)

LINESTRING (133.099803 139.358741, 134.411127 149.258317)

LINESTRING (133.099803 139.358741, 108.592645 115.991127)

LINESTRING (133.099803 139.358741, 118.982854 133.248266)

LINESTRING (133.099803 139.358741, 176.511144 110.581278)

LINESTRING (133.099803 139.358741, 107.496211 159.841281)

LINESTRING (147.463284 152.240056, 137.420756 135.851975)

LINESTRING (147.463284 152.240056, 134.411127 149.258317)

LINESTRING (147.463284 152.240056, 154.344479 177.824965)

LINESTRING (147.463284 152.240056, 108.592645 115.991127)

LINESTRING (147.463284 152.240056, 118.982854 133.248266)

LINESTRING (147.463284 152.240056, 176.511144 110.581278)

LINESTRING (147.463284 152.240056, 107.496211 159.841281)

LINESTRING (137.420756 135.851975, 154.344479 177.824965)

LINESTRING (137.420756 135.851975, 108.592645 115.991127)

LINESTRING (137.420756 135.851975, 118.982854 133.248266)

LINESTRING (137.420756 135.851975, 176.511144 110.581278)

LINESTRING (137.420756 135.851975, 107.496211 159.841281)

LINESTRING (137.420756 135.851975, 111.949312 135.940315)

LINESTRING (165.277062 111.777843, 134.411127 149.258317)

LINESTRING (165.277062 111.777843, 131.467138 127.610167)

LINESTRING (165.277062 111.777843, 154.344479 177.824965)

LINESTRING (165.277062 111.777843, 176.511144 110.581278)

LINESTRING (165.277062 111.777843, 107.496211 159.841281)

LINESTRING (134.411127 149.258317, 154.344479 177.824965)

LINESTRING (134.411127 149.258317, 108.592645 115.991127)

LINESTRING (134.411127 149.258317, 176.511144 110.581278)

LINESTRING (131.467138 127.610167, 108.592645 115.991127)

LINESTRING (131.467138 127.610167, 118.982854 133.248266)

LINESTRING (131.467138 127.610167, 107.496211 159.841281)

LINESTRING (131.467138 127.610167, 111.949312 135.940315)

LINESTRING (154.344479 177.824965, 176.511144 110.581278)

LINESTRING (108.592645 115.991127, 107.496211 159.841281)

LINESTRING (108.592645 115.991127, 111.949312 135.940315)

LINESTRING (118.982854 133.248266, 176.511144 110.581278)

LINESTRING (118.982854 133.248266, 107.496211 159.841281)

LINESTRING (118.982854 133.248266, 111.949312 135.940315)

LINESTRING (176.511144 110.581278, 107.496211 159.841281)

LINESTRING (176.511144 110.581278, 111.949312 135.940315)

LINESTRING (107.496211 159.841281, 111.949312 135.940315)

LINESTRING (484.884721 168.836552, 474.749810 127.210969)

LINESTRING (484.884721 168.836552, 501.755799 126.861431)

LINESTRING (484.884721 168.836552, 474.600579 130.205051)

LINESTRING (484.884721 168.836552, 470.103368 175.314593)

LINESTRING (484.884721 168.836552, 454.702996 113.081171)

LINESTRING (484.884721 168.836552, 500.055625 112.585958)

LINESTRING (484.884721 168.836552, 460.691165 133.344962)

LINESTRING (484.884721 168.836552, 525.311625 115.375550)

LINESTRING (484.884721 168.836552, 515.303857 164.133456)

LINESTRING (484.884721 168.836552, 522.073555 142.832537)

LINESTRING (484.884721 168.836552, 514.173476 124.066818)

LINESTRING (484.884721 168.836552, 483.912937 138.402561)

LINESTRING (484.884721 168.836552, 528.970805 139.146032)

LINESTRING (484.884721 168.836552, 485.352581 168.532026)

LINESTRING (484.884721 168.836552, 503.147254 166.384888)

LINESTRING (484.884721 168.836552, 518.345729 163.571901)

LINESTRING (484.884721 168.836552, 490.371229 145.445573)

LINESTRING (484.884721 168.836552, 479.345419 118.006690)

LINESTRING (484.884721 168.836552, 526.466913 117.322614)

LINESTRING (484.884721 168.836552, 471.097529 101.382088)

LINESTRING (484.884721 168.836552, 487.056639 103.724139)

LINESTRING (484.884721 168.836552, 491.454328 144.452556)

LINESTRING (474.749810 127.210969, 481.077106 144.044173)

LINESTRING (474.749810 127.210969, 473.840861 115.552725)

LINESTRING (474.749810 127.210969, 452.535616 108.000764)

LINESTRING (474.749810 127.210969, 474.600579 130.205051)

LINESTRING (474.749810 127.210969, 470.103368 175.314593)

LINESTRING (474.749810 127.210969, 454.702996 113.081171)

LINESTRING (474.749810 127.210969, 500.055625 112.585958)

LINESTRING (474.749810 127.210969, 525.311625 115.375550)

LINESTRING (474.749810 127.210969, 515.303857 164.133456)

LINESTRING (474.749810 127.210969, 514.173476 124.066818)

LINESTRING (474.749810 127.210969, 483.912937 138.402561)

LINESTRING (474.749810 127.210969, 481.998722 127.712656)

LINESTRING (474.749810 127.210969, 528.970805 139.146032)

LINESTRING (474.749810 127.210969, 514.599270 151.826536)

LINESTRING (474.749810 127.210969, 457.183838 135.107735)

LINESTRING (474.749810 127.210969, 480.132880 118.344722)

LINESTRING (474.749810 127.210969, 490.371229 145.445573)

LINESTRING (474.749810 127.210969, 487.380950 172.102132)

LINESTRING (474.749810 127.210969, 457.416003 139.818163)

LINESTRING (474.749810 127.210969, 513.254557 130.446846)

LINESTRING (474.749810 127.210969, 471.368072 154.103608)

LINESTRING (474.749810 127.210969, 479.345419 118.006690)

LINESTRING (474.749810 127.210969, 526.466913 117.322614)

LINESTRING (474.749810 127.210969, 471.097529 101.382088)

LINESTRING (474.749810 127.210969, 487.056639 103.724139)

LINESTRING (474.749810 127.210969, 491.454328 144.452556)

LINESTRING (474.749810 127.210969, 529.392325 103.766955)

LINESTRING (480.562026 131.398166, 501.755799 126.861431)

LINESTRING (480.562026 131.398166, 473.840861 115.552725)

LINESTRING (480.562026 131.398166, 452.535616 108.000764)

LINESTRING (480.562026 131.398166, 474.600579 130.205051)

LINESTRING (480.562026 131.398166, 470.103368 175.314593)

LINESTRING (480.562026 131.398166, 522.312942 133.712077)

LINESTRING (480.562026 131.398166, 500.055625 112.585958)

LINESTRING (480.562026 131.398166, 460.691165 133.344962)

LINESTRING (480.562026 131.398166, 525.311625 115.375550)

LINESTRING (480.562026 131.398166, 515.303857 164.133456)

LINESTRING (480.562026 131.398166, 522.073555 142.832537)

LINESTRING (480.562026 131.398166, 481.998722 127.712656)

LINESTRING (480.562026 131.398166, 528.970805 139.146032)

LINESTRING (480.562026 131.398166, 503.147254 166.384888)

LINESTRING (480.562026 131.398166, 480.132880 118.344722)

LINESTRING (480.562026 131.398166, 490.371229 145.445573)

LINESTRING (480.562026 131.398166, 487.380950 172.102132)

LINESTRING (480.562026 131.398166, 510.728560 119.826803)

LINESTRING (480.562026 131.398166, 513.254557 130.446846)

LINESTRING (480.562026 131.398166, 466.776831 123.841571)

LINESTRING (480.562026 131.398166, 471.097529 101.382088)

LINESTRING (480.562026 131.398166, 487.056639 103.724139)

LINESTRING (480.562026 131.398166, 491.454328 144.452556)

LINESTRING (480.562026 131.398166, 529.392325 103.766955)

LINESTRING (501.755799 126.861431, 452.535616 108.000764)

LINESTRING (501.755799 126.861431, 474.600579 130.205051)

LINESTRING (501.755799 126.861431, 522.312942 133.712077)

LINESTRING (501.755799 126.861431, 500.055625 112.585958)

LINESTRING (501.755799 126.861431, 460.691165 133.344962)

LINESTRING (501.755799 126.861431, 525.311625 115.375550)

LINESTRING (501.755799 126.861431, 515.303857 164.133456)

LINESTRING (501.755799 126.861431, 522.073555 142.832537)

LINESTRING (501.755799 126.861431, 514.173476 124.066818)

LINESTRING (501.755799 126.861431, 483.912937 138.402561)

LINESTRING (501.755799 126.861431, 481.998722 127.712656)

LINESTRING (501.755799 126.861431, 485.352581 168.532026)

LINESTRING (501.755799 126.861431, 494.858627 145.435266)

LINESTRING (501.755799 126.861431, 457.183838 135.107735)

LINESTRING (501.755799 126.861431, 518.345729 163.571901)

LINESTRING (501.755799 126.861431, 487.380950 172.102132)

LINESTRING (501.755799 126.861431, 457.416003 139.818163)

LINESTRING (501.755799 126.861431, 510.728560 119.826803)

LINESTRING (501.755799 126.861431, 513.254557 130.446846)

LINESTRING (501.755799 126.861431, 487.056639 103.724139)

LINESTRING (501.755799 126.861431, 491.454328 144.452556)

LINESTRING (501.755799 126.861431, 529.392325 103.766955)

LINESTRING (481.077106 144.044173, 473.840861 115.552725)

LINESTRING (481.077106 144.044173, 470.103368 175.314593)

LINESTRING (481.077106 144.044173, 454.702996 113.081171)

LINESTRING (481.077106 144.044173, 522.312942 133.712077)

LINESTRING (481.077106 144.044173, 460.691165 133.344962)

LINESTRING (481.077106 144.044173, 515.303857 164.133456)

LINESTRING (481.077106 144.044173, 522.073555 142.832537)

LINESTRING (481.077106 144.044173, 483.912937 138.402561)

LINESTRING (481.077106 144.044173, 481.998722 127.712656)

LINESTRING (481.077106 144.044173, 528.970805 139.146032)

LINESTRING (481.077106 144.044173, 485.352581 168.532026)

LINESTRING (481.077106 144.044173, 503.147254 166.384888)

LINESTRING (481.077106 144.044173, 480.132880 118.344722)

LINESTRING (481.077106 144.044173, 518.345729 163.571901)

LINESTRING (481.077106 144.044173, 490.371229 145.445573)

LINESTRING (481.077106 144.044173, 487.380950 172.102132)

LINESTRING (481.077106 144.044173, 457.416003 139.818163)

LINESTRING (481.077106 144.044173, 510.728560 119.826803)

LINESTRING (481.077106 144.044173, 466.776831 123.841571)

LINESTRING (481.077106 144.044173, 471.368072 154.103608)

LINESTRING (481.077106 144.044173, 479.345419 118.006690)

LINESTRING (481.077106 144.044173, 526.466913 117.322614)

LINESTRING (481.077106 144.044173, 471.097529 101.382088)

LINESTRING (481.077106 144.044173, 487.056639 103.724139)

LINESTRING (481.077106 144.044173, 529.392325 103.766955)

LINESTRING (473.840861 115.552725, 452.535616 108.000764)

LINESTRING (473.840861 115.552725, 474.600579 130.205051)

LINESTRING (473.840861 115.552725, 470.103368 175.314593)

LINESTRING (473.840861 115.552725, 522.312942 133.712077)

LINESTRING (473.840861 115.552725, 500.055625 112.585958)

LINESTRING (473.840861 115.552725, 460.691165 133.344962)

LINESTRING (473.840861 115.552725, 525.311625 115.375550)

LINESTRING (473.840861 115.552725, 515.303857 164.133456)

LINESTRING (473.840861 115.552725, 522.073555 142.832537)

LINESTRING (473.840861 115.552725, 483.912937 138.402561)

LINESTRING (473.840861 115.552725, 485.352581 168.532026)

LINESTRING (473.840861 115.552725, 514.599270 151.826536)

LINESTRING (473.840861 115.552725, 457.183838 135.107735)

LINESTRING (473.840861 115.552725, 487.380950 172.102132)

LINESTRING (473.840861 115.552725, 513.254557 130.446846)

LINESTRING (473.840861 115.552725, 471.368072 154.103608)

LINESTRING (473.840861 115.552725, 526.466913 117.322614)

LINESTRING (473.840861 115.552725, 487.056639 103.724139)

LINESTRING (473.840861 115.552725, 491.454328 144.452556)

LINESTRING (473.840861 115.552725, 529.392325 103.766955)

LINESTRING (452.535616 108.000764, 474.600579 130.205051)

LINESTRING (452.535616 108.000764, 470.103368 175.314593)

LINESTRING (452.535616 108.000764, 522.312942 133.712077)

LINESTRING (452.535616 108.000764, 500.055625 112.585958)

LINESTRING (452.535616 108.000764, 515.303857 164.133456)

LINESTRING (452.535616 108.000764, 522.073555 142.832537)

LINESTRING (452.535616 108.000764, 483.912937 138.402561)

LINESTRING (452.535616 108.000764, 481.998722 127.712656)

LINESTRING (452.535616 108.000764, 485.352581 168.532026)

LINESTRING (452.535616 108.000764, 514.599270 151.826536)

LINESTRING (452.535616 108.000764, 494.858627 145.435266)

LINESTRING (452.535616 108.000764, 457.183838 135.107735)

LINESTRING (452.535616 108.000764, 480.132880 118.344722)

LINESTRING (452.535616 108.000764, 518.345729 163.571901)

LINESTRING (452.535616 108.000764, 490.371229 145.445573)

LINESTRING (452.535616 108.000764, 487.380950 172.102132)

LINESTRING (452.535616 108.000764, 457.416003 139.818163)

LINESTRING (452.535616 108.000764, 510.728560 119.826803)

LINESTRING (452.535616 108.000764, 466.776831 123.841571)

LINESTRING (452.535616 108.000764, 471.368072 154.103608)

LINESTRING (452.535616 108.000764, 479.345419 118.006690)

LINESTRING (452.535616 108.000764, 526.466913 117.322614)

LINESTRING (452.535616 108.000764, 487.056639 103.724139)

LINESTRING (474.600579 130.205051, 470.103368 175.314593)

LINESTRING (474.600579 130.205051, 500.055625 112.585958)

LINESTRING (474.600579 130.205051, 525.311625 115.375550)

LINESTRING (474.600579 130.205051, 515.303857 164.133456)

LINESTRING (474.600579 130.205051, 514.173476 124.066818)

LINESTRING (474.600579 130.205051, 481.998722 127.712656)

LINESTRING (474.600579 130.205051, 485.352581 168.532026)

LINESTRING (474.600579 130.205051, 494.858627 145.435266)

LINESTRING (474.600579 130.205051, 503.147254 166.384888)

LINESTRING (474.600579 130.205051, 457.183838 135.107735)

LINESTRING (474.600579 130.205051, 480.132880 118.344722)

LINESTRING (474.600579 130.205051, 518.345729 163.571901)

LINESTRING (474.600579 130.205051, 490.371229 145.445573)

LINESTRING (474.600579 130.205051, 457.416003 139.818163)

LINESTRING (474.600579 130.205051, 510.728560 119.826803)

LINESTRING (474.600579 130.205051, 513.254557 130.446846)

LINESTRING (474.600579 130.205051, 471.368072 154.103608)

LINESTRING (470.103368 175.314593, 454.702996 113.081171)

LINESTRING (470.103368 175.314593, 522.312942 133.712077)

LINESTRING (470.103368 175.314593, 500.055625 112.585958)

LINESTRING (470.103368 175.314593, 525.311625 115.375550)

LINESTRING (470.103368 175.314593, 514.173476 124.066818)

LINESTRING (470.103368 175.314593, 483.912937 138.402561)

LINESTRING (470.103368 175.314593, 481.998722 127.712656)

LINESTRING (470.103368 175.314593, 528.970805 139.146032)

LINESTRING (470.103368 175.314593, 485.352581 168.532026)

LINESTRING (470.103368 175.314593, 514.599270 151.826536)

LINESTRING (470.103368 175.314593, 494.858627 145.435266)

LINESTRING (470.103368 175.314593, 503.147254 166.384888)

LINESTRING (470.103368 175.314593, 457.183838 135.107735)

LINESTRING (470.103368 175.314593, 480.132880 118.344722)

LINESTRING (470.103368 175.314593, 518.345729 163.571901)

LINESTRING (470.103368 175.314593, 513.254557 130.446846)

LINESTRING (470.103368 175.314593, 466.776831 123.841571)

LINESTRING (470.103368 175.314593, 471.368072 154.103608)

LINESTRING (470.103368 175.314593, 526.466913 117.322614)

LINESTRING (470.103368 175.314593, 487.056639 103.724139)

LINESTRING (470.103368 175.314593, 491.454328 144.452556)

LINESTRING (454.702996 113.081171, 460.691165 133.344962)

LINESTRING (454.702996 113.081171, 525.311625 115.375550)

LINESTRING (454.702996 113.081171, 522.073555 142.832537)

LINESTRING (454.702996 113.081171, 514.173476 124.066818)

LINESTRING (454.702996 113.081171, 481.998722 127.712656)

LINESTRING (454.702996 113.081171, 485.352581 168.532026)

LINESTRING (454.702996 113.081171, 514.599270 151.826536)

LINESTRING (454.702996 113.081171, 457.183838 135.107735)

LINESTRING (454.702996 113.081171, 480.132880 118.344722)

LINESTRING (454.702996 113.081171, 518.345729 163.571901)

LINESTRING (454.702996 113.081171, 487.380950 172.102132)

LINESTRING (454.702996 113.081171, 457.416003 139.818163)

LINESTRING (454.702996 113.081171, 466.776831 123.841571)

LINESTRING (454.702996 113.081171, 471.368072 154.103608)

LINESTRING (454.702996 113.081171, 491.454328 144.452556)

LINESTRING (454.702996 113.081171, 529.392325 103.766955)

LINESTRING (522.312942 133.712077, 500.055625 112.585958)

LINESTRING (522.312942 133.712077, 515.303857 164.133456)

LINESTRING (522.312942 133.712077, 514.173476 124.066818)

LINESTRING (522.312942 133.712077, 528.970805 139.146032)

LINESTRING (522.312942 133.712077, 485.352581 168.532026)

LINESTRING (522.312942 133.712077, 514.599270 151.826536)

LINESTRING (522.312942 133.712077, 494.858627 145.435266)

LINESTRING (522.312942 133.712077, 503.147254 166.384888)

LINESTRING (522.312942 133.712077, 457.183838 135.107735)

LINESTRING (522.312942 133.712077, 480.132880 118.344722)

LINESTRING (522.312942 133.712077, 490.371229 145.445573)

LINESTRING (522.312942 133.712077, 487.380950 172.102132)

LINESTRING (522.312942 133.712077, 457.416003 139.818163)

LINESTRING (522.312942 133.712077, 510.728560 119.826803)

LINESTRING (522.312942 133.712077, 466.776831 123.841571)

LINESTRING (522.312942 133.712077, 471.368072 154.103608)

LINESTRING (522.312942 133.712077, 479.345419 118.006690)

LINESTRING (522.312942 133.712077, 471.097529 101.382088)

LINESTRING (522.312942 133.712077, 491.454328 144.452556)

LINESTRING (522.312942 133.712077, 529.392325 103.766955)

LINESTRING (500.055625 112.585958, 460.691165 133.344962)

LINESTRING (500.055625 112.585958, 515.303857 164.133456)

LINESTRING (500.055625 112.585958, 522.073555 142.832537)

LINESTRING (500.055625 112.585958, 514.173476 124.066818)

LINESTRING (500.055625 112.585958, 481.998722 127.712656)

LINESTRING (500.055625 112.585958, 485.352581 168.532026)

LINESTRING (500.055625 112.585958, 514.599270 151.826536)

LINESTRING (500.055625 112.585958, 494.858627 145.435266)

LINESTRING (500.055625 112.585958, 503.147254 166.384888)

LINESTRING (500.055625 112.585958, 518.345729 163.571901)

LINESTRING (500.055625 112.585958, 487.380950 172.102132)

LINESTRING (500.055625 112.585958, 471.097529 101.382088)

LINESTRING (500.055625 112.585958, 487.056639 103.724139)

LINESTRING (460.691165 133.344962, 515.303857 164.133456)

LINESTRING (460.691165 133.344962, 522.073555 142.832537)

LINESTRING (460.691165 133.344962, 528.970805 139.146032)

LINESTRING (460.691165 133.344962, 503.147254 166.384888)

LINESTRING (460.691165 133.344962, 457.183838 135.107735)

LINESTRING (460.691165 133.344962, 518.345729 163.571901)

LINESTRING (460.691165 133.344962, 487.380950 172.102132)

LINESTRING (460.691165 133.344962, 513.254557 130.446846)

LINESTRING (460.691165 133.344962, 466.776831 123.841571)

LINESTRING (460.691165 133.344962, 479.345419 118.006690)

LINESTRING (460.691165 133.344962, 526.466913 117.322614)

LINESTRING (460.691165 133.344962, 487.056639 103.724139)

LINESTRING (460.691165 133.344962, 491.454328 144.452556)

LINESTRING (525.311625 115.375550, 522.073555 142.832537)

LINESTRING (525.311625 115.375550, 514.173476 124.066818)

LINESTRING (525.311625 115.375550, 514.599270 151.826536)

LINESTRING (525.311625 115.375550, 457.183838 135.107735)

LINESTRING (525.311625 115.375550, 480.132880 118.344722)

LINESTRING (525.311625 115.375550, 490.371229 145.445573)

LINESTRING (525.311625 115.375550, 487.380950 172.102132)

LINESTRING (525.311625 115.375550, 457.416003 139.818163)

LINESTRING (525.311625 115.375550, 510.728560 119.826803)

LINESTRING (525.311625 115.375550, 513.254557 130.446846)

LINESTRING (525.311625 115.375550, 466.776831 123.841571)

LINESTRING (525.311625 115.375550, 526.466913 117.322614)

LINESTRING (525.311625 115.375550, 487.056639 103.724139)

LINESTRING (525.311625 115.375550, 491.454328 144.452556)

LINESTRING (515.303857 164.133456, 481.998722 127.712656)

LINESTRING (515.303857 164.133456, 528.970805 139.146032)

LINESTRING (515.303857 164.133456, 503.147254 166.384888)

LINESTRING (515.303857 164.133456, 457.183838 135.107735)

LINESTRING (515.303857 164.133456, 480.132880 118.344722)

LINESTRING (515.303857 164.133456, 518.345729 163.571901)

LINESTRING (515.303857 164.133456, 490.371229 145.445573)

LINESTRING (515.303857 164.133456, 487.380950 172.102132)

LINESTRING (515.303857 164.133456, 457.416003 139.818163)

LINESTRING (515.303857 164.133456, 466.776831 123.841571)

LINESTRING (515.303857 164.133456, 479.345419 118.006690)

LINESTRING (515.303857 164.133456, 529.392325 103.766955)

LINESTRING (522.073555 142.832537, 483.912937 138.402561)

LINESTRING (522.073555 142.832537, 481.998722 127.712656)

LINESTRING (522.073555 142.832537, 528.970805 139.146032)

LINESTRING (522.073555 142.832537, 485.352581 168.532026)

LINESTRING (522.073555 142.832537, 514.599270 151.826536)

LINESTRING (522.073555 142.832537, 457.183838 135.107735)

LINESTRING (522.073555 142.832537, 480.132880 118.344722)

LINESTRING (522.073555 142.832537, 490.371229 145.445573)

LINESTRING (522.073555 142.832537, 457.416003 139.818163)

LINESTRING (522.073555 142.832537, 513.254557 130.446846)

LINESTRING (522.073555 142.832537, 466.776831 123.841571)

LINESTRING (522.073555 142.832537, 471.368072 154.103608)

LINESTRING (522.073555 142.832537, 479.345419 118.006690)

LINESTRING (522.073555 142.832537, 526.466913 117.322614)

LINESTRING (522.073555 142.832537, 471.097529 101.382088)

LINESTRING (522.073555 142.832537, 491.454328 144.452556)

LINESTRING (514.173476 124.066818, 481.998722 127.712656)

LINESTRING (514.173476 124.066818, 528.970805 139.146032)

LINESTRING (514.173476 124.066818, 514.599270 151.826536)

LINESTRING (514.173476 124.066818, 494.858627 145.435266)

LINESTRING (514.173476 124.066818, 503.147254 166.384888)

LINESTRING (514.173476 124.066818, 457.183838 135.107735)

LINESTRING (514.173476 124.066818, 480.132880 118.344722)

LINESTRING (514.173476 124.066818, 518.345729 163.571901)

LINESTRING (514.173476 124.066818, 457.416003 139.818163)

LINESTRING (514.173476 124.066818, 510.728560 119.826803)

LINESTRING (514.173476 124.066818, 513.254557 130.446846)

LINESTRING (514.173476 124.066818, 466.776831 123.841571)

LINESTRING (514.173476 124.066818, 526.466913 117.322614)

LINESTRING (514.173476 124.066818, 487.056639 103.724139)

LINESTRING (514.173476 124.066818, 491.454328 144.452556)

LINESTRING (514.173476 124.066818, 529.392325 103.766955)

LINESTRING (483.912937 138.402561, 481.998722 127.712656)

LINESTRING (483.912937 138.402561, 485.352581 168.532026)

LINESTRING (483.912937 138.402561, 494.858627 145.435266)

LINESTRING (483.912937 138.402561, 503.147254 166.384888)

LINESTRING (483.912937 138.402561, 457.183838 135.107735)

LINESTRING (483.912937 138.402561, 480.132880 118.344722)

LINESTRING (483.912937 138.402561, 518.345729 163.571901)

LINESTRING (483.912937 138.402561, 487.380950 172.102132)

LINESTRING (483.912937 138.402561, 513.254557 130.446846)

LINESTRING (483.912937 138.402561, 466.776831 123.841571)

LINESTRING (483.912937 138.402561, 471.368072 154.103608)

LINESTRING (483.912937 138.402561, 479.345419 118.006690)

LINESTRING (483.912937 138.402561, 471.097529 101.382088)

LINESTRING (483.912937 138.402561, 529.392325 103.766955)

LINESTRING (481.998722 127.712656, 485.352581 168.532026)

LINESTRING (481.998722 127.712656, 514.599270 151.826536)

LINESTRING (481.998722 127.712656, 494.858627 145.435266)

LINESTRING (481.998722 127.712656, 503.147254 166.384888)

LINESTRING (481.998722 127.712656, 480.132880 118.344722)

LINESTRING (481.998722 127.712656, 518.345729 163.571901)

LINESTRING (481.998722 127.712656, 490.371229 145.445573)

LINESTRING (481.998722 127.712656, 457.416003 139.818163)

LINESTRING (481.998722 127.712656, 513.254557 130.446846)

LINESTRING (481.998722 127.712656, 466.776831 123.841571)

LINESTRING (481.998722 127.712656, 479.345419 118.006690)

LINESTRING (481.998722 127.712656, 471.097529 101.382088)

LINESTRING (528.970805 139.146032, 514.599270 151.826536)

LINESTRING (528.970805 139.146032, 503.147254 166.384888)

LINESTRING (528.970805 139.146032, 457.183838 135.107735)

LINESTRING (528.970805 139.146032, 510.728560 119.826803)

LINESTRING (528.970805 139.146032, 471.368072 154.103608)

LINESTRING (528.970805 139.146032, 479.345419 118.006690)

LINESTRING (528.970805 139.146032, 471.097529 101.382088)

LINESTRING (528.970805 139.146032, 487.056639 103.724139)

LINESTRING (528.970805 139.146032, 529.392325 103.766955)

LINESTRING (485.352581 168.532026, 494.858627 145.435266)

LINESTRING (485.352581 168.532026, 503.147254 166.384888)

LINESTRING (485.352581 168.532026, 457.183838 135.107735)

LINESTRING (485.352581 168.532026, 518.345729 163.571901)

LINESTRING (485.352581 168.532026, 487.380950 172.102132)

LINESTRING (485.352581 168.532026, 457.416003 139.818163)

LINESTRING (485.352581 168.532026, 510.728560 119.826803)

LINESTRING (485.352581 168.532026, 513.254557 130.446846)

LINESTRING (485.352581 168.532026, 466.776831 123.841571)

LINESTRING (485.352581 168.532026, 471.368072 154.103608)

LINESTRING (485.352581 168.532026, 526.466913 117.322614)

LINESTRING (485.352581 168.532026, 471.097529 101.382088)

LINESTRING (485.352581 168.532026, 487.056639 103.724139)

LINESTRING (485.352581 168.532026, 491.454328 144.452556)

LINESTRING (485.352581 168.532026, 529.392325 103.766955)

LINESTRING (514.599270 151.826536, 503.147254 166.384888)

LINESTRING (514.599270 151.826536, 457.183838 135.107735)

LINESTRING (514.599270 151.826536, 480.132880 118.344722)

LINESTRING (514.599270 151.826536, 490.371229 145.445573)

LINESTRING (514.599270 151.826536, 457.416003 139.818163)

LINESTRING (514.599270 151.826536, 466.776831 123.841571)

LINESTRING (514.599270 151.826536, 526.466913 117.322614)

LINESTRING (514.599270 151.826536, 471.097529 101.382088)

LINESTRING (494.858627 145.435266, 503.147254 166.384888)

LINESTRING (494.858627 145.435266, 457.183838 135.107735)

LINESTRING (494.858627 145.435266, 480.132880 118.344722)

LINESTRING (494.858627 145.435266, 518.345729 163.571901)

LINESTRING (494.858627 145.435266, 490.371229 145.445573)

LINESTRING (494.858627 145.435266, 471.368072 154.103608)

LINESTRING (494.858627 145.435266, 526.466913 117.322614)

LINESTRING (494.858627 145.435266, 471.097529 101.382088)

LINESTRING (494.858627 145.435266, 487.056639 103.724139)

LINESTRING (494.858627 145.435266, 491.454328 144.452556)

LINESTRING (494.858627 145.435266, 529.392325 103.766955)

LINESTRING (503.147254 166.384888, 480.132880 118.344722)

LINESTRING (503.147254 166.384888, 518.345729 163.571901)

LINESTRING (503.147254 166.384888, 487.380950 172.102132)

LINESTRING (503.147254 166.384888, 457.416003 139.818163)

LINESTRING (503.147254 166.384888, 510.728560 119.826803)

LINESTRING (503.147254 166.384888, 513.254557 130.446846)

LINESTRING (503.147254 166.384888, 466.776831 123.841571)

LINESTRING (503.147254 166.384888, 471.368072 154.103608)

LINESTRING (503.147254 166.384888, 479.345419 118.006690)

LINESTRING (503.147254 166.384888, 526.466913 117.322614)

LINESTRING (503.147254 166.384888, 471.097529 101.382088)

LINESTRING (503.147254 166.384888, 487.056639 103.724139)

LINESTRING (503.147254 166.384888, 491.454328 144.452556)

LINESTRING (503.147254 166.384888, 529.392325 103.766955)

LINESTRING (457.183838 135.107735, 518.345729 163.571901)

LINESTRING (457.183838 135.107735, 487.380950 172.102132)

LINESTRING (457.183838 135.107735, 457.416003 139.818163)

LINESTRING (457.183838 135.107735, 510.728560 119.826803)

LINESTRING (457.183838 135.107735, 513.254557 130.446846)

LINESTRING (457.183838 135.107735, 471.368072 154.103608)

LINESTRING (457.183838 135.107735, 479.345419 118.006690)

LINESTRING (457.183838 135.107735, 526.466913 117.322614)

LINESTRING (457.183838 135.107735, 491.454328 144.452556)

LINESTRING (457.183838 135.107735, 529.392325 103.766955)

LINESTRING (480.132880 118.344722, 518.345729 163.571901)

LINESTRING (480.132880 118.344722, 487.380950 172.102132)

LINESTRING (480.132880 118.344722, 457.416003 139.818163)

LINESTRING (480.132880 118.344722, 466.776831 123.841571)

LINESTRING (480.132880 118.344722, 471.368072 154.103608)

LINESTRING (480.132880 118.344722, 479.345419 118.006690)

LINESTRING (480.132880 118.344722, 526.466913 117.322614)

LINESTRING (480.132880 118.344722, 471.097529 101.382088)

LINESTRING (480.132880 118.344722, 487.056639 103.724139)

LINESTRING (480.132880 118.344722, 529.392325 103.766955)

LINESTRING (518.345729 163.571901, 487.380950 172.102132)

LINESTRING (518.345729 163.571901, 457.416003 139.818163)

LINESTRING (518.345729 163.571901, 510.728560 119.826803)

LINESTRING (518.345729 163.571901, 466.776831 123.841571)

LINESTRING (518.345729 163.571901, 479.345419 118.006690)

LINESTRING (518.345729 163.571901, 526.466913 117.322614)

LINESTRING (518.345729 163.571901, 471.097529 101.382088)

LINESTRING (518.345729 163.571901, 487.056639 103.724139)

LINESTRING (518.345729 163.571901, 491.454328 144.452556)

LINESTRING (518.345729 163.571901, 529.392325 103.766955)

LINESTRING (490.371229 145.445573, 487.380950 172.102132)

LINESTRING (490.371229 145.445573, 457.416003 139.818163)

LINESTRING (490.371229 145.445573, 510.728560 119.826803)

LINESTRING (490.371229 145.445573, 466.776831 123.841571)

LINESTRING (490.371229 145.445573, 526.466913 117.322614)

LINESTRING (490.371229 145.445573, 491.454328 144.452556)

LINESTRING (487.380950 172.102132, 457.416003 139.818163)

LINESTRING (487.380950 172.102132, 510.728560 119.826803)

LINESTRING (487.380950 172.102132, 466.776831 123.841571)

LINESTRING (487.380950 172.102132, 471.368072 154.103608)

LINESTRING (487.380950 172.102132, 479.345419 118.006690)

LINESTRING (487.380950 172.102132, 471.097529 101.382088)

LINESTRING (487.380950 172.102132, 487.056639 103.724139)

LINESTRING (487.380950 172.102132, 491.454328 144.452556)

LINESTRING (457.416003 139.818163, 510.728560 119.826803)

LINESTRING (457.416003 139.818163, 466.776831 123.841571)

LINESTRING (457.416003 139.818163, 471.368072 154.103608)

LINESTRING (457.416003 139.818163, 479.345419 118.006690)

LINESTRING (457.416003 139.818163, 471.097529 101.382088)

LINESTRING (457.416003 139.818163, 487.056639 103.724139)

LINESTRING (457.416003 139.818163, 491.454328 144.452556)

LINESTRING (457.416003 139.818163, 529.392325 103.766955)

LINESTRING (510.728560 119.826803, 466.776831 123.841571)

LINESTRING (510.728560 119.826803, 479.345419 118.006690)

LINESTRING (510.728560 119.826803, 526.466913 117.322614)

LINESTRING (510.728560 119.826803, 471.097529 101.382088)

LINESTRING (510.728560 119.826803, 487.056639 103.724139)

LINESTRING (510.728560 119.826803, 491.454328 144.452556)

LINESTRING (513.254557 130.446846, 471.097529 101.382088)

LINESTRING (513.254557 130.446846, 487.056639 103.724139)

LINESTRING (513.254557 130.446846, 491.454328 144.452556)

LINESTRING (513.254557 130.446846, 529.392325 103.766955)

LINESTRING (466.776831 123.841571, 471.368072 154.103608)

LINESTRING (466.776831 123.841571, 479.345419 118.006690)

LINESTRING (466.776831 123.841571, 526.466913 117.322614)

LINESTRING (466.776831 123.841571, 471.097529 101.382088)

LINESTRING (466.776831 123.841571, 487.056639 103.724139)

LINESTRING (466.776831 123.841571, 491.454328 144.452556)

LINESTRING (466.776831 123.841571, 529.392325 103.766955)

LINESTRING (471.368072 154.103608, 479.345419 118.006690)

LINESTRING (471.368072 154.103608, 526.466913 117.322614)

LINESTRING (471.368072 154.103608, 471.097529 101.382088)

LINESTRING (471.368072 154.103608, 487.056639 103.724139)

LINESTRING (479.345419 118.006690, 491.454328 144.452556)

LINESTRING (526.466913 117.322614, 487.056639 103.724139)

LINESTRING (526.466913 117.322614, 529.392325 103.766955)

LINESTRING (471.097529 101.382088, 491.454328 144.452556)

LINESTRING (487.056639 103.724139, 529.392325 103.766955)

LINESTRING (108.432665 175.288687, 491.454328 144.452556)

LINESTRING (116.000916 161.126186, 479.345419 118.006690)

LINESTRING (131.262800 105.454560, 487.380950 172.102132)

LINESTRING (127.133987 126.573184, 484.884721 168.836552)

