LINESTRING (60.000000 60.000000, 80.265225 50.575976)

LINESTRING (60.000000 60.000000, 39.410126 57.670598)

LINESTRING (60.000000 60.000000, 51.612428 51.034688)

LINESTRING (60.000000 60.000000, 79.237976 65.618029)

LINESTRING (60.000000 60.000000, 46.333501 68.206765)

LINESTRING (60.000000 60.000000, 59.048581 43.950305)

LINESTRING (60.000000 60.000000, 47.988141 73.622225)

LINESTRING (60.000000 60.000000, 77.655439 63.584110)

LINESTRING (80.265225 50.575976, 39.410126 57.670598)

LINESTRING (80.265225 50.575976, 51.612428 51.034688)

LINESTRING (80.265225 50.575976, 79.237976 65.618029)

LINESTRING (80.265225 50.575976, 46.333501 68.206765)

LINESTRING (80.265225 50.575976, 47.988141 73.622225)

LINESTRING (39.410126 57.670598, 79.237976 65.618029)

LINESTRING (39.410126 57.670598, 46.333501 68.206765)

LINESTRING (39.410126 57.670598, 59.048581 43.950305)

LINESTRING (39.410126 57.670598, 47.988141 73.622225)

LINESTRING (51.612428 51.034688, 79.237976 65.618029)

LINESTRING (51.612428 51.034688, 46.333501 68.206765)

LINESTRING (51.612428 51.034688, 47.988141 73.622225)

LINESTRING (79.237976 65.618029, 46.333501 68.206765)

LINESTRING (79.237976 65.618029, 47.988141 73.622225)

LINESTRING (79.237976 65.618029, 77.655439 63.584110)

LINESTRING (46.333501 68.206765, 59.048581 43.950305)

LINESTRING (46.333501 68.206765, 47.988141 73.622225)

LINESTRING (59.048581 43.950305, 47.988141 73.622225)

LINESTRING (260.000000 60.000000, 280.309465 44.432722)

LINESTRING (260.000000 60.000000, 256.710532 47.950605)

LINESTRING (260.000000 60.000000, 258.099642 38.408088)

LINESTRING (260.000000 60.000000, 264.443023 78.476606)

LINESTRING (260.000000 60.000000, 267.629288 42.976423)

LINESTRING (260.000000 60.000000, 267.925712 65.921557)

LINESTRING (260.000000 60.000000, 283.914066 44.034588)

LINESTRING (260.000000 60.000000, 253.197483 75.950609)

LINESTRING (280.309465 44.432722, 256.710532 47.950605)

LINESTRING (280.309465 44.432722, 264.443023 78.476606)

LINESTRING (280.309465 44.432722, 267.629288 42.976423)

LINESTRING (280.309465 44.432722, 283.914066 44.034588)

LINESTRING (280.309465 44.432722, 253.197483 75.950609)

LINESTRING (256.710532 47.950605, 258.099642 38.408088)

LINESTRING (256.710532 47.950605, 264.443023 78.476606)

LINESTRING (256.710532 47.950605, 267.629288 42.976423)

LINESTRING (256.710532 47.950605, 267.925712 65.921557)

LINESTRING (256.710532 47.950605, 283.914066 44.034588)

LINESTRING (258.099642 38.408088, 267.925712 65.921557)

LINESTRING (264.443023 78.476606, 267.925712 65.921557)

LINESTRING (264.443023 78.476606, 283.914066 44.034588)

LINESTRING (267.629288 42.976423, 267.925712 65.921557)

LINESTRING (267.629288 42.976423, 283.914066 44.034588)

LINESTRING (267.629288 42.976423, 253.197483 75.950609)

LINESTRING (267.925712 65.921557, 253.197483 75.950609)

LINESTRING (283.914066 44.034588, 253.197483 75.950609)

LINESTRING (60.000000 260.000000, 73.946139 257.417594)

LINESTRING (60.000000 260.000000, 67.631480 261.115221)

LINESTRING (60.000000 260.000000, 51.072933 239.068397)

LINESTRING (60.000000 260.000000, 66.123423 273.832404)

LINESTRING (60.000000 260.000000, 63.819168 279.355559)

LINESTRING (60.000000 260.000000, 83.850534 283.879788)

LINESTRING (60.000000 260.000000, 44.559327 250.878295)

LINESTRING (60.000000 260.000000, 59.544807 265.371380)

LINESTRING (73.946139 257.417594, 51.072933 239.068397)

LINESTRING (73.946139 257.417594, 63.819168 279.355559)

LINESTRING (73.946139 257.417594, 83.850534 283.879788)

LINESTRING (73.946139 257.417594, 44.559327 250.878295)

LINESTRING (73.946139 257.417594, 59.544807 265.371380)

LINESTRING (67.631480 261.115221, 51.072933 239.068397)

LINESTRING (67.631480 261.115221, 44.559327 250.878295)

LINESTRING (51.072933 239.068397, 66.123423 273.832404)

LINESTRING (51.072933 239.068397, 63.819168 279.355559)

LINESTRING (51.072933 239.068397, 83.850534 283.879788)

LINESTRING (51.072933 239.068397, 44.559327 250.878295)

LINESTRING (51.072933 239.068397, 59.544807 265.371380)

LINESTRING (66.123423 273.832404, 63.819168 279.355559)

LINESTRING (66.123423 273.832404, 83.850534 283.879788)

LINESTRING (66.123423 273.832404, 44.559327 250.878295)

LINESTRING (63.819168 279.355559, 59.544807 265.371380)

LINESTRING (83.850534 283.879788, 44.559327 250.878295)

LINESTRING (59.048581 43.950305, 253.197483 75.950609)

LINESTRING (51.612428 51.034688, 256.710532 47.950605)

LINESTRING (60.000000 60.000000, 260.000000 60.000000)

LINESTRING (264.443023 78.476606, 67.631480 261.115221)

LINESTRING (256.710532 47.950605, 73.946139 257.417594)

LINESTRING (260.000000 60.000000, 60.000000 260.000000)

