LINESTRING (80.000000 80.000000, 188.034285 109.398735)

LINESTRING (188.034285 109.398735, 312.883162 82.330423)

LINESTRING (312.883162 82.330423, 393.561105 -2.531261)

LINESTRING (393.561105 -2.531261, 419.802589 -117.789538)

LINESTRING (393.561105 -2.531261, 480.506914 -91.213762)

LINESTRING (393.561105 -2.531261, 504.669801 -26.755589)

LINESTRING (312.883162 82.330423, 420.162869 55.723884)

LINESTRING (420.162869 55.723884, 502.187166 -24.942173)

LINESTRING (420.162869 55.723884, 530.878141 33.684074)

LINESTRING (420.162869 55.723884, 541.949171 86.387561)

LINESTRING (312.883162 82.330423, 437.504690 103.596492)

LINESTRING (437.504690 103.596492, 561.089474 82.171255)

LINESTRING (437.504690 103.596492, 543.633570 142.741997)

LINESTRING (437.504690 103.596492, 512.438774 186.636384)

LINESTRING (188.034285 109.398735, 302.830977 141.390901)

LINESTRING (302.830977 141.390901, 415.561494 105.061279)

LINESTRING (415.561494 105.061279, 491.440474 29.732471)

LINESTRING (415.561494 105.061279, 541.388414 83.425670)

LINESTRING (415.561494 105.061279, 532.768853 142.601757)

LINESTRING (302.830977 141.390901, 422.327851 165.813354)

LINESTRING (422.327851 165.813354, 528.876801 127.599653)

LINESTRING (422.327851 165.813354, 538.846011 187.896697)

LINESTRING (422.327851 165.813354, 502.446779 252.494276)

LINESTRING (302.830977 141.390901, 378.118729 217.914745)

LINESTRING (378.118729 217.914745, 492.983226 254.179472)

LINESTRING (378.118729 217.914745, 462.073631 302.478084)

LINESTRING (378.118729 217.914745, 410.107981 331.338945)

LINESTRING (188.034285 109.398735, 270.072718 192.034467)

LINESTRING (270.072718 192.034467, 376.463380 220.859911)

LINESTRING (376.463380 220.859911, 483.464431 186.924950)

LINESTRING (376.463380 220.859911, 495.231847 244.267216)

LINESTRING (376.463380 220.859911, 465.833851 315.628970)

LINESTRING (270.072718 192.034467, 348.416103 275.074696)

LINESTRING (348.416103 275.074696, 454.924247 298.318349)

LINESTRING (348.416103 275.074696, 435.411931 365.614054)

LINESTRING (348.416103 275.074696, 380.258910 387.319362)

LINESTRING (270.072718 192.034467, 301.120533 301.029702)

LINESTRING (301.120533 301.029702, 394.426806 379.853547)

LINESTRING (301.120533 301.029702, 330.387724 415.806634)

LINESTRING (301.120533 301.029702, 268.653587 415.570965)

LINESTRING (80.000000 80.000000, 159.316574 173.565831)

LINESTRING (159.316574 173.565831, 267.132018 211.466690)

LINESTRING (267.132018 211.466690, 381.113736 184.029562)

LINESTRING (381.113736 184.029562, 473.631108 90.870140)

LINESTRING (381.113736 184.029562, 493.644536 152.743950)

LINESTRING (381.113736 184.029562, 504.127986 218.402481)

LINESTRING (267.132018 211.466690, 376.957670 248.935392)

LINESTRING (376.957670 248.935392, 490.884103 208.790509)

LINESTRING (376.957670 248.935392, 491.237228 272.826229)

LINESTRING (376.957670 248.935392, 454.893851 331.067915)

LINESTRING (267.132018 211.466690, 359.301575 293.399442)

LINESTRING (359.301575 293.399442, 471.817768 317.177472)

LINESTRING (359.301575 293.399442, 445.979968 381.319142)

LINESTRING (359.301575 293.399442, 391.856949 401.764565)

LINESTRING (159.316574 173.565831, 248.039581 263.205998)

LINESTRING (248.039581 263.205998, 363.996661 296.042655)

LINESTRING (363.996661 296.042655, 472.636445 257.735498)

LINESTRING (363.996661 296.042655, 481.093551 335.496828)

LINESTRING (363.996661 296.042655, 451.535496 372.417988)

LINESTRING (248.039581 263.205998, 325.701520 353.119345)

LINESTRING (325.701520 353.119345, 437.001884 392.721880)

LINESTRING (325.701520 353.119345, 404.025562 443.772921)

LINESTRING (325.701520 353.119345, 358.830511 477.713705)

LINESTRING (248.039581 263.205998, 280.158534 386.523320)

LINESTRING (280.158534 386.523320, 356.838265 473.168001)

LINESTRING (280.158534 386.523320, 318.914886 508.854006)

LINESTRING (280.158534 386.523320, 257.472621 510.687199)

LINESTRING (159.316574 173.565831, 200.362285 298.492726)

LINESTRING (200.362285 298.492726, 287.805598 383.367629)

LINESTRING (287.805598 383.367629, 394.299112 417.402759)

LINESTRING (287.805598 383.367629, 376.398925 467.822143)

LINESTRING (287.805598 383.367629, 322.602909 500.316022)

LINESTRING (200.362285 298.492726, 224.086050 406.991849)

LINESTRING (224.086050 406.991849, 311.725775 487.053177)

LINESTRING (224.086050 406.991849, 250.417156 518.995478)

LINESTRING (224.086050 406.991849, 197.681073 532.377166)

LINESTRING (200.362285 298.492726, 178.438923 405.886903)

LINESTRING (178.438923 405.886903, 208.413690 527.127686)

LINESTRING (178.438923 405.886903, 144.836889 511.804695)

LINESTRING (178.438923 405.886903, 101.117785 490.146125)

LINESTRING (80.000000 80.000000, 104.036208 188.179331)

LINESTRING (104.036208 188.179331, 198.345240 281.484948)

LINESTRING (198.345240 281.484948, 309.917089 305.200710)

LINESTRING (309.917089 305.200710, 420.622571 266.070151)

LINESTRING (309.917089 305.200710, 429.971080 340.878690)

LINESTRING (309.917089 305.200710, 388.315370 387.188804)

LINESTRING (198.345240 281.484948, 292.523169 370.823752)

LINESTRING (292.523169 370.823752, 416.169169 406.683436)

LINESTRING (292.523169 370.823752, 370.897852 451.241978)

LINESTRING (292.523169 370.823752, 325.890055 479.448412)

LINESTRING (198.345240 281.484948, 219.677007 394.571402)

LINESTRING (219.677007 394.571402, 303.888339 481.388070)

LINESTRING (219.677007 394.571402, 247.990000 520.395825)

LINESTRING (219.677007 394.571402, 183.217891 500.791649)

LINESTRING (104.036208 188.179331, 126.194019 299.497589)

LINESTRING (126.194019 299.497589, 211.236392 382.294253)

LINESTRING (211.236392 382.294253, 317.671104 417.480606)

LINESTRING (211.236392 382.294253, 294.762134 469.447686)

LINESTRING (211.236392 382.294253, 246.457816 493.299816)

LINESTRING (126.194019 299.497589, 160.305315 415.707681)

LINESTRING (160.305315 415.707681, 244.883800 492.255040)

LINESTRING (160.305315 415.707681, 188.138674 540.126128)

LINESTRING (160.305315 415.707681, 129.152266 528.122827)

LINESTRING (126.194019 299.497589, 85.166031 417.086585)

LINESTRING (85.166031 417.086585, 109.572894 539.490489)

LINESTRING (85.166031 417.086585, 62.881828 529.894548)

LINESTRING (85.166031 417.086585, -4.609134 508.763106)

LINESTRING (104.036208 188.179331, 75.187863 298.815076)

LINESTRING (75.187863 298.815076, 110.338399 423.802372)

LINESTRING (110.338399 423.802372, 191.212790 511.573096)

LINESTRING (110.338399 423.802372, 151.335252 532.339352)

LINESTRING (110.338399 423.802372, 86.973783 532.150473)

LINESTRING (75.187863 298.815076, 44.707546 416.362750)

LINESTRING (44.707546 416.362750, 68.877220 523.713904)

LINESTRING (44.707546 416.362750, 11.607012 523.246020)

LINESTRING (44.707546 416.362750, -40.717124 505.391133)

LINESTRING (75.187863 298.815076, -0.644029 390.100570)

LINESTRING (-0.644029 390.100570, -35.934346 503.511463)

LINESTRING (-0.644029 390.100570, -77.571857 475.684216)

LINESTRING (-0.644029 390.100570, -123.453824 429.937780)

