LINESTRING (80.000000 80.000000, 203.020546 105.088898)

LINESTRING (203.020546 105.088898, 311.273204 70.645453)

LINESTRING (311.273204 70.645453, 388.953210 -19.688001)

LINESTRING (388.953210 -19.688001, 414.043332 -132.934015)

LINESTRING (388.953210 -19.688001, 478.503747 -95.772794)

LINESTRING (388.953210 -19.688001, 504.720418 -45.949475)

LINESTRING (311.273204 70.645453, 432.623783 47.437615)

LINESTRING (432.623783 47.437615, 515.159457 -44.526787)

LINESTRING (432.623783 47.437615, 552.701353 13.406987)

LINESTRING (432.623783 47.437615, 550.473702 85.580482)

LINESTRING (311.273204 70.645453, 428.386150 109.786590)

LINESTRING (428.386150 109.786590, 545.173273 86.913710)

LINESTRING (428.386150 109.786590, 553.799599 147.237046)

LINESTRING (428.386150 109.786590, 515.781098 191.868727)

LINESTRING (203.020546 105.088898, 324.914987 126.545168)

LINESTRING (324.914987 126.545168, 449.766096 88.071031)

LINESTRING (449.766096 88.071031, 527.436911 8.192204)

LINESTRING (449.766096 88.071031, 560.841144 62.916015)

LINESTRING (449.766096 88.071031, 564.695567 124.030392)

LINESTRING (324.914987 126.545168, 438.397614 158.628239)

LINESTRING (438.397614 158.628239, 558.933858 135.848272)

LINESTRING (438.397614 158.628239, 554.467929 190.923251)

LINESTRING (438.397614 158.628239, 518.143432 253.009723)

LINESTRING (324.914987 126.545168, 419.066478 211.939098)

LINESTRING (419.066478 211.939098, 540.179906 242.938363)

LINESTRING (419.066478 211.939098, 513.731967 299.671017)

LINESTRING (419.066478 211.939098, 445.203261 322.879601)

LINESTRING (203.020546 105.088898, 293.573317 189.800113)

LINESTRING (293.573317 189.800113, 406.214125 230.754411)

LINESTRING (406.214125 230.754411, 516.314190 199.612672)

LINESTRING (406.214125 230.754411, 518.327343 268.013334)

LINESTRING (406.214125 230.754411, 483.186647 308.770371)

LINESTRING (293.573317 189.800113, 384.429611 277.216291)

LINESTRING (384.429611 277.216291, 495.159068 312.334040)

LINESTRING (384.429611 277.216291, 477.906699 359.457981)

LINESTRING (384.429611 277.216291, 415.926189 397.715279)

LINESTRING (293.573317 189.800113, 322.353486 309.059864)

LINESTRING (322.353486 309.059864, 412.486284 401.754997)

LINESTRING (322.353486 309.059864, 359.661465 420.371667)

LINESTRING (322.353486 309.059864, 297.528270 418.453927)

LINESTRING (80.000000 80.000000, 173.366035 160.779785)

LINESTRING (173.366035 160.779785, 290.953301 199.057633)

LINESTRING (290.953301 199.057633, 401.045025 159.486890)

LINESTRING (401.045025 159.486890, 493.911298 69.460015)

LINESTRING (401.045025 159.486890, 512.150142 134.543341)

LINESTRING (401.045025 159.486890, 522.769575 190.406044)

LINESTRING (290.953301 199.057633, 407.159112 223.982774)

LINESTRING (407.159112 223.982774, 530.673998 187.132099)

LINESTRING (407.159112 223.982774, 517.114672 252.542973)

LINESTRING (407.159112 223.982774, 490.617508 311.618540)

LINESTRING (290.953301 199.057633, 366.295331 290.111996)

LINESTRING (366.295331 290.111996, 483.940950 316.671364)

LINESTRING (366.295331 290.111996, 448.889333 380.163380)

LINESTRING (366.295331 290.111996, 397.657728 411.521136)

LINESTRING (173.366035 160.779785, 261.566806 254.379123)

LINESTRING (261.566806 254.379123, 374.650040 295.135131)

LINESTRING (374.650040 295.135131, 487.717408 273.983734)

LINESTRING (374.650040 295.135131, 496.309204 334.264158)

LINESTRING (374.650040 295.135131, 462.622169 382.716741)

LINESTRING (261.566806 254.379123, 345.663798 336.721923)

LINESTRING (345.663798 336.721923, 461.624895 364.494226)

LINESTRING (345.663798 336.721923, 426.538799 420.398188)

LINESTRING (345.663798 336.721923, 370.312187 448.177232)

LINESTRING (261.566806 254.379123, 298.174011 371.015248)

LINESTRING (298.174011 371.015248, 384.043812 462.068873)

LINESTRING (298.174011 371.015248, 321.188087 477.472786)

LINESTRING (298.174011 371.015248, 263.197498 483.364167)

LINESTRING (173.366035 160.779785, 198.712216 282.873708)

LINESTRING (198.712216 282.873708, 287.386264 358.295427)

LINESTRING (287.386264 358.295427, 411.332398 393.551378)

LINESTRING (287.386264 358.295427, 369.310195 446.209194)

LINESTRING (287.386264 358.295427, 310.778919 467.179557)

LINESTRING (198.712216 282.873708, 227.352898 408.626392)

LINESTRING (227.352898 408.626392, 311.708052 486.665648)

LINESTRING (227.352898 408.626392, 265.980249 521.565518)

LINESTRING (227.352898 408.626392, 203.815583 521.182739)

LINESTRING (198.712216 282.873708, 174.600812 403.122514)

LINESTRING (174.600812 403.122514, 199.400669 528.514323)

LINESTRING (174.600812 403.122514, 151.653403 519.770689)

LINESTRING (174.600812 403.122514, 80.554031 485.498895)

LINESTRING (80.000000 80.000000, 114.815831 203.233462)

LINESTRING (114.815831 203.233462, 201.370230 292.112601)

LINESTRING (201.370230 292.112601, 313.509362 327.356608)

LINESTRING (313.509362 327.356608, 427.656284 304.177603)

LINESTRING (313.509362 327.356608, 438.762088 353.328312)

LINESTRING (313.509362 327.356608, 388.959503 403.569538)

LINESTRING (201.370230 292.112601, 280.170708 377.887914)

LINESTRING (280.170708 377.887914, 394.673883 401.841923)

LINESTRING (280.170708 377.887914, 363.650201 455.815144)

LINESTRING (280.170708 377.887914, 306.166573 488.048664)

LINESTRING (201.370230 292.112601, 231.725481 404.989468)

LINESTRING (231.725481 404.989468, 322.891558 493.239665)

LINESTRING (231.725481 404.989468, 260.959389 529.046729)

LINESTRING (231.725481 404.989468, 204.768880 517.601624)

LINESTRING (114.815831 203.233462, 150.120741 310.731354)

LINESTRING (150.120741 310.731354, 240.818323 396.489142)

LINESTRING (240.818323 396.489142, 365.993029 431.758087)

LINESTRING (240.818323 396.489142, 322.054535 490.902202)

LINESTRING (240.818323 396.489142, 277.857719 517.383521)

LINESTRING (150.120741 310.731354, 186.824363 419.290453)

LINESTRING (186.824363 419.290453, 267.138950 512.840575)

LINESTRING (186.824363 419.290453, 227.693618 544.566682)

LINESTRING (186.824363 419.290453, 154.919139 532.409333)

LINESTRING (150.120741 310.731354, 128.466264 425.907805)

LINESTRING (128.466264 425.907805, 167.617341 541.906508)

LINESTRING (128.466264 425.907805, 95.082549 544.971420)

LINESTRING (128.466264 425.907805, 42.275311 512.405321)

LINESTRING (114.815831 203.233462, 87.587772 318.442556)

LINESTRING (87.587772 318.442556, 110.603320 429.169844)

LINESTRING (110.603320 429.169844, 190.185942 520.604450)

LINESTRING (110.603320 429.169844, 135.341711 547.835881)

LINESTRING (110.603320 429.169844, 71.807037 541.240961)

LINESTRING (87.587772 318.442556, 64.544859 428.324084)

LINESTRING (64.544859 428.324084, 103.450380 541.845266)

LINESTRING (64.544859 428.324084, 33.985600 538.978348)

LINESTRING (64.544859 428.324084, -17.244864 513.980130)

LINESTRING (87.587772 318.442556, 9.172494 395.194625)

LINESTRING (9.172494 395.194625, -18.366575 505.923536)

LINESTRING (9.172494 395.194625, -67.232970 475.242884)

LINESTRING (9.172494 395.194625, -112.587691 416.689887)

