LINESTRING (80.000000 80.000000, 162.299581 95.488971)

LINESTRING (162.299581 95.488971, 232.090754 73.141063)

LINESTRING (232.090754 73.141063, 293.116362 16.559629)

LINESTRING (293.116362 16.559629, 321.661035 -66.130751)

LINESTRING (321.661035 -66.130751, 296.045138 -144.799408)

LINESTRING (296.045138 -144.799408, 245.524212 -211.122025)

LINESTRING (296.045138 -144.799408, 324.380863 -226.566299)

LINESTRING (321.661035 -66.130751, 372.778084 -122.091274)

LINESTRING (372.778084 -122.091274, 386.143623 -205.899601)

LINESTRING (372.778084 -122.091274, 458.321501 -139.143784)

LINESTRING (293.116362 16.559629, 377.595848 -13.905057)

LINESTRING (377.595848 -13.905057, 434.510609 -63.474083)

LINESTRING (434.510609 -63.474083, 457.937555 -131.258447)

LINESTRING (434.510609 -63.474083, 518.066780 -80.815300)

LINESTRING (377.595848 -13.905057, 463.821484 15.931552)

LINESTRING (463.821484 15.931552, 538.505369 -2.989534)

LINESTRING (463.821484 15.931552, 514.157023 76.131289)

LINESTRING (232.090754 73.141063, 300.033499 102.331799)

LINESTRING (300.033499 102.331799, 376.776677 71.754449)

LINESTRING (376.776677 71.754449, 428.109353 6.105726)

LINESTRING (428.109353 6.105726, 444.988059 -80.197587)

LINESTRING (428.109353 6.105726, 511.676366 -24.251996)

LINESTRING (376.776677 71.754449, 460.350766 102.203022)

LINESTRING (460.350766 102.203022, 546.686925 88.928538)

LINESTRING (460.350766 102.203022, 516.499136 164.182485)

LINESTRING (300.033499 102.331799, 356.739262 155.400607)

LINESTRING (356.739262 155.400607, 442.938630 176.882536)

LINESTRING (442.938630 176.882536, 515.385664 152.101120)

LINESTRING (442.938630 176.882536, 494.877028 229.257187)

LINESTRING (356.739262 155.400607, 377.881238 225.569814)

LINESTRING (377.881238 225.569814, 430.375615 272.226838)

LINESTRING (377.881238 225.569814, 349.738360 296.810437)

LINESTRING (162.299581 95.488971, 211.779328 151.349868)

LINESTRING (211.779328 151.349868, 286.750594 174.734509)

LINESTRING (286.750594 174.734509, 361.596792 156.035820)

LINESTRING (361.596792 156.035820, 413.927112 99.918852)

LINESTRING (413.927112 99.918852, 426.583816 28.733308)

LINESTRING (413.927112 99.918852, 488.759672 84.657730)

LINESTRING (361.596792 156.035820, 440.228639 169.071406)

LINESTRING (440.228639 169.071406, 512.662931 155.811088)

LINESTRING (440.228639 169.071406, 495.409792 233.592930)

LINESTRING (286.750594 174.734509, 342.264787 239.381373)

LINESTRING (342.264787 239.381373, 419.272732 256.368865)

LINESTRING (419.272732 256.368865, 497.065964 235.167433)

LINESTRING (419.272732 256.368865, 479.501876 307.488967)

LINESTRING (342.264787 239.381373, 365.624588 320.837533)

LINESTRING (365.624588 320.837533, 418.205226 371.031425)

LINESTRING (365.624588 320.837533, 341.335421 388.759552)

LINESTRING (211.779328 151.349868, 228.826312 237.211360)

LINESTRING (228.826312 237.211360, 293.971276 292.426673)

LINESTRING (293.971276 292.426673, 380.997377 323.122017)

LINESTRING (380.997377 323.122017, 454.747418 305.875510)

LINESTRING (380.997377 323.122017, 437.274262 385.477061)

LINESTRING (293.971276 292.426673, 317.154310 377.125226)

LINESTRING (317.154310 377.125226, 367.987022 436.643590)

LINESTRING (317.154310 377.125226, 288.625583 454.628190)

LINESTRING (228.826312 237.211360, 199.007927 318.917106)

LINESTRING (199.007927 318.917106, 225.659632 399.900574)

LINESTRING (225.659632 399.900574, 292.200786 455.123994)

LINESTRING (225.659632 399.900574, 201.769822 485.229520)

LINESTRING (199.007927 318.917106, 138.324628 378.794827)

LINESTRING (138.324628 378.794827, 123.406100 457.173910)

LINESTRING (138.324628 378.794827, 67.357963 406.871558)

LINESTRING (80.000000 80.000000, 94.610939 155.409680)

LINESTRING (94.610939 155.409680, 142.098784 215.727268)

LINESTRING (142.098784 215.727268, 227.504769 242.206145)

LINESTRING (227.504769 242.206145, 303.008534 222.957410)

LINESTRING (303.008534 222.957410, 351.380113 166.557067)

LINESTRING (351.380113 166.557067, 364.460834 81.232783)

LINESTRING (351.380113 166.557067, 424.343943 140.138296)

LINESTRING (303.008534 222.957410, 381.231559 237.800274)

LINESTRING (381.231559 237.800274, 465.007629 221.367101)

LINESTRING (381.231559 237.800274, 445.327348 299.651284)

LINESTRING (227.504769 242.206145, 288.454834 294.467104)

LINESTRING (288.454834 294.467104, 371.107077 320.350245)

LINESTRING (371.107077 320.350245, 443.822458 301.576732)

LINESTRING (371.107077 320.350245, 436.962198 375.205555)

LINESTRING (288.454834 294.467104, 300.211753 380.115268)

LINESTRING (300.211753 380.115268, 354.605007 430.291157)

LINESTRING (300.211753 380.115268, 280.575741 465.696886)

LINESTRING (142.098784 215.727268, 165.760427 291.012720)

LINESTRING (165.760427 291.012720, 230.806971 344.055722)

LINESTRING (230.806971 344.055722, 304.598596 374.612943)

LINESTRING (304.598596 374.612943, 390.542225 363.472903)

LINESTRING (304.598596 374.612943, 366.889496 425.702915)

LINESTRING (230.806971 344.055722, 248.627061 424.609162)

LINESTRING (248.627061 424.609162, 298.290570 484.899052)

LINESTRING (248.627061 424.609162, 233.368008 505.550916)

LINESTRING (165.760427 291.012720, 135.057974 360.920934)

LINESTRING (135.057974 360.920934, 157.633724 433.928942)

LINESTRING (157.633724 433.928942, 223.273503 488.145052)

LINESTRING (157.633724 433.928942, 143.463072 517.023194)

LINESTRING (135.057974 360.920934, 70.039467 410.499205)

LINESTRING (70.039467 410.499205, 57.540013 479.306614)

LINESTRING (70.039467 410.499205, -10.501631 429.729505)

LINESTRING (94.610939 155.409680, 77.096982 242.635180)

LINESTRING (77.096982 242.635180, 92.924067 329.900760)

LINESTRING (92.924067 329.900760, 142.823292 395.266541)

LINESTRING (142.823292 395.266541, 210.267147 410.815568)

LINESTRING (210.267147 410.815568, 280.857493 385.683770)

LINESTRING (210.267147 410.815568, 267.539116 467.434313)

LINESTRING (142.823292 395.266541, 160.890814 462.798833)

LINESTRING (160.890814 462.798833, 217.583517 511.084292)

LINESTRING (160.890814 462.798833, 134.462876 533.455056)

LINESTRING (92.924067 329.900760, 67.475519 401.860094)

LINESTRING (67.475519 401.860094, 80.081218 471.673933)

LINESTRING (80.081218 471.673933, 137.170628 519.834012)

LINESTRING (80.081218 471.673933, 68.134951 544.096684)

LINESTRING (67.475519 401.860094, 19.609682 455.371441)

LINESTRING (19.609682 455.371441, -10.344134 538.586588)

LINESTRING (19.609682 455.371441, -54.768916 476.840964)

LINESTRING (77.096982 242.635180, 13.488661 299.638885)

LINESTRING (13.488661 299.638885, -5.626474 373.167016)

LINESTRING (-5.626474 373.167016, 5.457364 445.339499)

LINESTRING (5.457364 445.339499, 58.925509 505.174583)

LINESTRING (5.457364 445.339499, -23.699939 528.789961)

LINESTRING (-5.626474 373.167016, -57.872997 430.589164)

LINESTRING (-57.872997 430.589164, -84.303566 515.923731)

LINESTRING (-57.872997 430.589164, -137.506502 452.609462)

LINESTRING (13.488661 299.638885, -58.051919 318.813582)

LINESTRING (-58.051919 318.813582, -122.648929 380.080252)

LINESTRING (-122.648929 380.080252, -134.842301 457.944151)

LINESTRING (-122.648929 380.080252, -205.793107 405.905493)

LINESTRING (-58.051919 318.813582, -132.594973 292.687213)

LINESTRING (-132.594973 292.687213, -210.416747 312.286279)

LINESTRING (-132.594973 292.687213, -189.415935 244.220979)

