LINESTRING (40.000000 46.000000, 120.000000 46.000000)

LINESTRING (50.000000 58.666667, 50.000000 46.000000)

LINESTRING (50.000000 33.333333, 50.000000 46.000000)

LINESTRING (70.000000 58.666667, 70.000000 46.000000)

LINESTRING (70.000000 33.333333, 70.000000 46.000000)

LINESTRING (50.000000 46.000000, 70.000000 46.000000)

LINESTRING (90.000000 58.666667, 90.000000 46.000000)

LINESTRING (90.000000 33.333333, 90.000000 46.000000)

LINESTRING (70.000000 46.000000, 90.000000 46.000000)

LINESTRING (110.000000 58.666667, 110.000000 46.000000)

LINESTRING (110.000000 33.333333, 110.000000 46.000000)

LINESTRING (90.000000 46.000000, 110.000000 46.000000)

LINESTRING (170.000000 46.000000, 250.000000 46.000000)

LINESTRING (180.000000 58.666667, 180.000000 46.000000)

LINESTRING (180.000000 33.333333, 180.000000 46.000000)

LINESTRING (200.000000 58.666667, 200.000000 46.000000)

LINESTRING (200.000000 33.333333, 200.000000 46.000000)

LINESTRING (180.000000 46.000000, 200.000000 46.000000)

LINESTRING (220.000000 58.666667, 220.000000 46.000000)

LINESTRING (220.000000 33.333333, 220.000000 46.000000)

LINESTRING (200.000000 46.000000, 220.000000 46.000000)

LINESTRING (240.000000 58.666667, 240.000000 46.000000)

LINESTRING (240.000000 33.333333, 240.000000 46.000000)

LINESTRING (220.000000 46.000000, 240.000000 46.000000)

LINESTRING (120.000000 46.000000, 170.000000 46.000000)

LINESTRING (300.000000 46.000000, 380.000000 46.000000)

LINESTRING (310.000000 58.666667, 310.000000 46.000000)

LINESTRING (310.000000 33.333333, 310.000000 46.000000)

LINESTRING (330.000000 58.666667, 330.000000 46.000000)

LINESTRING (330.000000 33.333333, 330.000000 46.000000)

LINESTRING (310.000000 46.000000, 330.000000 46.000000)

LINESTRING (350.000000 58.666667, 350.000000 46.000000)

LINESTRING (350.000000 33.333333, 350.000000 46.000000)

LINESTRING (330.000000 46.000000, 350.000000 46.000000)

LINESTRING (370.000000 58.666667, 370.000000 46.000000)

LINESTRING (370.000000 33.333333, 370.000000 46.000000)

LINESTRING (350.000000 46.000000, 370.000000 46.000000)

LINESTRING (250.000000 46.000000, 300.000000 46.000000)

LINESTRING (430.000000 46.000000, 510.000000 46.000000)

LINESTRING (440.000000 58.666667, 440.000000 46.000000)

LINESTRING (440.000000 33.333333, 440.000000 46.000000)

LINESTRING (460.000000 58.666667, 460.000000 46.000000)

LINESTRING (460.000000 33.333333, 460.000000 46.000000)

LINESTRING (440.000000 46.000000, 460.000000 46.000000)

LINESTRING (480.000000 58.666667, 480.000000 46.000000)

LINESTRING (480.000000 33.333333, 480.000000 46.000000)

LINESTRING (460.000000 46.000000, 480.000000 46.000000)

LINESTRING (500.000000 58.666667, 500.000000 46.000000)

LINESTRING (500.000000 33.333333, 500.000000 46.000000)

LINESTRING (480.000000 46.000000, 500.000000 46.000000)

LINESTRING (380.000000 46.000000, 430.000000 46.000000)

LINESTRING (560.000000 46.000000, 640.000000 46.000000)

LINESTRING (570.000000 58.666667, 570.000000 46.000000)

LINESTRING (570.000000 33.333333, 570.000000 46.000000)

LINESTRING (590.000000 58.666667, 590.000000 46.000000)

LINESTRING (590.000000 33.333333, 590.000000 46.000000)

LINESTRING (570.000000 46.000000, 590.000000 46.000000)

LINESTRING (610.000000 58.666667, 610.000000 46.000000)

LINESTRING (610.000000 33.333333, 610.000000 46.000000)

LINESTRING (590.000000 46.000000, 610.000000 46.000000)

LINESTRING (630.000000 58.666667, 630.000000 46.000000)

LINESTRING (630.000000 33.333333, 630.000000 46.000000)

LINESTRING (610.000000 46.000000, 630.000000 46.000000)

LINESTRING (510.000000 46.000000, 560.000000 46.000000)

