LINESTRING (604.989947 401.903488, 544.479735 539.550654)

LINESTRING (544.479735 539.550654, 395.657978 601.173503)

LINESTRING (395.657978 601.173503, 261.130776 541.688095)

LINESTRING (261.130776 541.688095, 203.796390 400.754272)

LINESTRING (203.796390 400.754272, 259.542839 256.142494)

LINESTRING (259.542839 256.142494, 404.517444 201.094909)

LINESTRING (404.517444 201.094909, 538.951798 259.828250)

LINESTRING (538.951798 259.828250, 604.989947 401.903488)

LINESTRING (798.938722 401.680094, 681.179308 681.377087)

LINESTRING (681.179308 681.377087, 398.969671 804.806913)

LINESTRING (398.969671 804.806913, 115.612154 680.823553)

LINESTRING (115.612154 680.823553, -3.875948 395.444326)

LINESTRING (-3.875948 395.444326, 120.168302 114.548777)

LINESTRING (120.168302 114.548777, 398.609118 3.776034)

LINESTRING (398.609118 3.776034, 679.043357 115.654392)

LINESTRING (679.043357 115.654392, 798.938722 401.680094)

LINESTRING (995.915884 396.675699, 820.671334 820.570879)

LINESTRING (820.671334 820.570879, 395.513020 998.342641)

LINESTRING (395.513020 998.342641, -27.903714 823.592285)

LINESTRING (-27.903714 823.592285, -204.390759 395.155091)

LINESTRING (-204.390759 395.155091, -24.890695 -27.428661)

LINESTRING (-24.890695 -27.428661, 400.948408 -204.620187)

LINESTRING (400.948408 -204.620187, 821.104622 -19.414422)

LINESTRING (821.104622 -19.414422, 995.915884 396.675699)

LINESTRING (1203.348790 403.609748, 967.348771 969.436416)

LINESTRING (967.348771 969.436416, 404.932456 1203.299857)

LINESTRING (404.932456 1203.299857, -168.171248 969.673615)

LINESTRING (-168.171248 969.673615, -403.923176 395.389499)

LINESTRING (-403.923176 395.389499, -170.172654 -161.622173)

LINESTRING (-170.172654 -161.622173, 403.503421 -398.584551)

LINESTRING (403.503421 -398.584551, 963.557667 -162.241073)

LINESTRING (963.557667 -162.241073, 1203.348790 403.609748)

LINESTRING (604.989947 401.903488, 798.938722 401.680094)

LINESTRING (798.938722 401.680094, 995.915884 396.675699)

LINESTRING (995.915884 396.675699, 1203.348790 403.609748)

LINESTRING (544.479735 539.550654, 681.179308 681.377087)

LINESTRING (681.179308 681.377087, 820.671334 820.570879)

LINESTRING (820.671334 820.570879, 967.348771 969.436416)

LINESTRING (395.657978 601.173503, 398.969671 804.806913)

LINESTRING (398.969671 804.806913, 395.513020 998.342641)

LINESTRING (395.513020 998.342641, 404.932456 1203.299857)

LINESTRING (261.130776 541.688095, 115.612154 680.823553)

LINESTRING (115.612154 680.823553, -27.903714 823.592285)

LINESTRING (-27.903714 823.592285, -168.171248 969.673615)

LINESTRING (203.796390 400.754272, -3.875948 395.444326)

LINESTRING (-3.875948 395.444326, -204.390759 395.155091)

LINESTRING (-204.390759 395.155091, -403.923176 395.389499)

LINESTRING (259.542839 256.142494, 120.168302 114.548777)

LINESTRING (120.168302 114.548777, -24.890695 -27.428661)

LINESTRING (-24.890695 -27.428661, -170.172654 -161.622173)

LINESTRING (404.517444 201.094909, 398.609118 3.776034)

LINESTRING (398.609118 3.776034, 400.948408 -204.620187)

LINESTRING (400.948408 -204.620187, 403.503421 -398.584551)

LINESTRING (538.951798 259.828250, 679.043357 115.654392)

LINESTRING (679.043357 115.654392, 821.104622 -19.414422)

LINESTRING (821.104622 -19.414422, 963.557667 -162.241073)

LINESTRING (400.000000 400.000000, 604.989947 401.903488)

