LINESTRING (684.478797 654.558747, 1421.385377 1185.444420)

LINESTRING (684.478797 654.558747, 1450.273344 534.006719)

LINESTRING (2099.074993 2743.784615, 2401.813147 2719.049217)

LINESTRING (2099.074993 2743.784615, 2028.196586 2914.653148)

LINESTRING (2099.074993 2743.784615, 2293.420822 3230.568525)

LINESTRING (2099.074993 2743.784615, 577.254342 3565.744851)

LINESTRING (2099.074993 2743.784615, 1096.440837 4075.915765)

LINESTRING (5706.513217 3128.299340, 6950.454585 4205.345667)

LINESTRING (5706.513217 3128.299340, 5538.017408 2536.016435)

LINESTRING (5706.513217 3128.299340, 5197.689118 4285.387446)

LINESTRING (5706.513217 3128.299340, 5542.937165 2930.854355)

LINESTRING (7551.049725 7727.851294, 7427.429084 7569.247742)

LINESTRING (969.615512 6313.787218, 1118.698688 5115.573863)

LINESTRING (969.615512 6313.787218, 1912.628056 7762.989580)

LINESTRING (969.615512 6313.787218, 1874.252354 6696.589472)

LINESTRING (1421.385377 1185.444420, 1661.017330 1290.194659)

LINESTRING (1421.385377 1185.444420, 2209.793493 421.765321)

LINESTRING (3408.081134 1394.518386, 4500.351577 760.091907)

LINESTRING (3408.081134 1394.518386, 3311.424522 2952.027518)

LINESTRING (3408.081134 1394.518386, 1661.017330 1290.194659)

LINESTRING (3408.081134 1394.518386, 3639.655817 2576.966062)

LINESTRING (4500.351577 760.091907, 5441.334755 1598.332162)

LINESTRING (4500.351577 760.091907, 4274.900415 594.264760)

LINESTRING (4500.351577 760.091907, 4126.994313 407.338088)

LINESTRING (5601.851566 2151.527696, 5441.334755 1598.332162)

LINESTRING (5601.851566 2151.527696, 6203.755701 1148.737725)

LINESTRING (5601.851566 2151.527696, 5538.017408 2536.016435)

LINESTRING (5601.851566 2151.527696, 5985.843658 2548.997724)

LINESTRING (5601.851566 2151.527696, 6131.556021 3864.184264)

LINESTRING (6950.454585 4205.345667, 6520.960912 5389.512946)

LINESTRING (6950.454585 4205.345667, 6371.548721 4169.643112)

LINESTRING (6950.454585 4205.345667, 6889.812666 4622.408931)

LINESTRING (6950.454585 4205.345667, 8011.674406 2951.780793)

LINESTRING (3058.420485 7613.323656, 2634.662637 7876.787370)

LINESTRING (3058.420485 7613.323656, 1974.954631 6787.518483)

LINESTRING (3058.420485 7613.323656, 3535.780453 7509.650097)

LINESTRING (2634.662637 7876.787370, 1974.954631 6787.518483)

LINESTRING (2634.662637 7876.787370, 1912.628056 7762.989580)

LINESTRING (2634.662637 7876.787370, 1874.252354 6696.589472)

LINESTRING (2401.813147 2719.049217, 646.968171 2799.787111)

LINESTRING (2401.813147 2719.049217, 2028.196586 2914.653148)

LINESTRING (2401.813147 2719.049217, 2293.420822 3230.568525)

LINESTRING (2401.813147 2719.049217, 2938.047747 2360.015796)

LINESTRING (7081.107556 3366.241279, 7454.305233 3158.075632)

LINESTRING (7081.107556 3366.241279, 5538.017408 2536.016435)

LINESTRING (7081.107556 3366.241279, 6868.091651 2875.522568)

LINESTRING (7081.107556 3366.241279, 5985.843658 2548.997724)

LINESTRING (7081.107556 3366.241279, 6371.548721 4169.643112)

LINESTRING (7081.107556 3366.241279, 5542.937165 2930.854355)

LINESTRING (7081.107556 3366.241279, 7326.298235 1652.701794)

LINESTRING (7081.107556 3366.241279, 6889.812666 4622.408931)

LINESTRING (3311.424522 2952.027518, 2028.196586 2914.653148)

LINESTRING (3311.424522 2952.027518, 3691.432999 3361.422821)

LINESTRING (3311.424522 2952.027518, 2293.420822 3230.568525)

LINESTRING (3311.424522 2952.027518, 2938.047747 2360.015796)

LINESTRING (3311.424522 2952.027518, 3639.655817 2576.966062)

LINESTRING (3311.424522 2952.027518, 3052.101617 4523.002252)

LINESTRING (6520.960912 5389.512946, 5367.808397 5517.143036)

LINESTRING (6520.960912 5389.512946, 6460.431288 5948.187154)

LINESTRING (6520.960912 5389.512946, 5764.434938 5802.369708)

LINESTRING (6520.960912 5389.512946, 6371.548721 4169.643112)

LINESTRING (6520.960912 5389.512946, 5197.689118 4285.387446)

LINESTRING (6520.960912 5389.512946, 6880.173558 6941.893304)

LINESTRING (6520.960912 5389.512946, 6889.812666 4622.408931)

LINESTRING (6520.960912 5389.512946, 7926.768544 5079.764079)

LINESTRING (6481.872352 3246.074253, 7454.305233 3158.075632)

LINESTRING (6481.872352 3246.074253, 5538.017408 2536.016435)

LINESTRING (6481.872352 3246.074253, 7747.181057 3787.984543)

LINESTRING (6481.872352 3246.074253, 6868.091651 2875.522568)

LINESTRING (6481.872352 3246.074253, 6131.556021 3864.184264)

LINESTRING (3350.868200 6194.975129, 3535.780453 7509.650097)

LINESTRING (3350.868200 6194.975129, 1874.252354 6696.589472)

LINESTRING (3350.868200 6194.975129, 1939.354407 6199.535243)

LINESTRING (3350.868200 6194.975129, 3052.101617 4523.002252)

LINESTRING (1974.954631 6787.518483, 1874.252354 6696.589472)

LINESTRING (1974.954631 6787.518483, 1939.354407 6199.535243)

LINESTRING (3535.780453 7509.650097, 3948.341610 6535.008065)

LINESTRING (1661.017330 1290.194659, 2028.196586 2914.653148)

LINESTRING (5441.334755 1598.332162, 5538.017408 2536.016435)

LINESTRING (5441.334755 1598.332162, 6395.238098 118.553893)

LINESTRING (5441.334755 1598.332162, 7072.344743 1178.059966)

LINESTRING (5441.334755 1598.332162, 4972.564193 1476.922584)

LINESTRING (5441.334755 1598.332162, 4126.994313 407.338088)

LINESTRING (6437.320458 6284.591086, 6603.477341 6846.329107)

LINESTRING (6437.320458 6284.591086, 6460.431288 5948.187154)

LINESTRING (6437.320458 6284.591086, 6889.812666 4622.408931)

LINESTRING (6437.320458 6284.591086, 4953.448899 5551.517303)

LINESTRING (6437.320458 6284.591086, 7427.429084 7569.247742)

LINESTRING (1118.698688 5115.573863, 1939.354407 6199.535243)

LINESTRING (6603.477341 6846.329107, 5441.459079 5537.478007)

LINESTRING (6603.477341 6846.329107, 6880.173558 6941.893304)

LINESTRING (646.968171 2799.787111, 2028.196586 2914.653148)

LINESTRING (646.968171 2799.787111, 1096.440837 4075.915765)

LINESTRING (7454.305233 3158.075632, 7747.181057 3787.984543)

LINESTRING (7454.305233 3158.075632, 5985.843658 2548.997724)

LINESTRING (7454.305233 3158.075632, 6371.548721 4169.643112)

LINESTRING (7454.305233 3158.075632, 6131.556021 3864.184264)

LINESTRING (7454.305233 3158.075632, 7326.298235 1652.701794)

LINESTRING (7454.305233 3158.075632, 8011.674406 2951.780793)

LINESTRING (5367.808397 5517.143036, 6460.431288 5948.187154)

LINESTRING (5367.808397 5517.143036, 3948.341610 6535.008065)

LINESTRING (5367.808397 5517.143036, 5441.459079 5537.478007)

LINESTRING (5367.808397 5517.143036, 5764.434938 5802.369708)

LINESTRING (5367.808397 5517.143036, 6371.548721 4169.643112)

LINESTRING (5367.808397 5517.143036, 5473.424944 4951.431541)

LINESTRING (5367.808397 5517.143036, 4953.448899 5551.517303)

LINESTRING (7522.368390 2513.422067, 7747.181057 3787.984543)

LINESTRING (7522.368390 2513.422067, 7326.298235 1652.701794)

LINESTRING (7522.368390 2513.422067, 7072.344743 1178.059966)

LINESTRING (7522.368390 2513.422067, 8011.674406 2951.780793)

LINESTRING (6460.431288 5948.187154, 5764.434938 5802.369708)

LINESTRING (6460.431288 5948.187154, 5473.424944 4951.431541)

LINESTRING (6460.431288 5948.187154, 7926.768544 5079.764079)

LINESTRING (8175.125182 137.542219, 7611.079006 1511.727671)

LINESTRING (8175.125182 137.542219, 7072.344743 1178.059966)

LINESTRING (8175.125182 137.542219, 8097.635549 1176.866812)

LINESTRING (1912.628056 7762.989580, 1939.354407 6199.535243)

LINESTRING (1874.252354 6696.589472, 1939.354407 6199.535243)

LINESTRING (6203.755701 1148.737725, 5538.017408 2536.016435)

LINESTRING (6203.755701 1148.737725, 6395.238098 118.553893)

LINESTRING (6203.755701 1148.737725, 7326.298235 1652.701794)

LINESTRING (2028.196586 2914.653148, 2293.420822 3230.568525)

LINESTRING (2028.196586 2914.653148, 577.254342 3565.744851)

LINESTRING (5538.017408 2536.016435, 6868.091651 2875.522568)

LINESTRING (5538.017408 2536.016435, 4522.954340 3753.379621)

LINESTRING (5538.017408 2536.016435, 5985.843658 2548.997724)

LINESTRING (5538.017408 2536.016435, 6834.571476 1935.817621)

LINESTRING (5538.017408 2536.016435, 5542.937165 2930.854355)

LINESTRING (5441.459079 5537.478007, 5764.434938 5802.369708)

LINESTRING (5441.459079 5537.478007, 6371.548721 4169.643112)

LINESTRING (5441.459079 5537.478007, 5473.424944 4951.431541)

LINESTRING (5441.459079 5537.478007, 4953.448899 5551.517303)

LINESTRING (7747.181057 3787.984543, 6131.556021 3864.184264)

LINESTRING (5764.434938 5802.369708, 6880.173558 6941.893304)

LINESTRING (5764.434938 5802.369708, 4953.448899 5551.517303)

LINESTRING (6868.091651 2875.522568, 6371.548721 4169.643112)

LINESTRING (6868.091651 2875.522568, 6834.571476 1935.817621)

LINESTRING (6868.091651 2875.522568, 8011.674406 2951.780793)

LINESTRING (4522.954340 3753.379621, 5542.937165 2930.854355)

LINESTRING (5985.843658 2548.997724, 6371.548721 4169.643112)

LINESTRING (5985.843658 2548.997724, 6131.556021 3864.184264)

LINESTRING (5985.843658 2548.997724, 5542.937165 2930.854355)

LINESTRING (5985.843658 2548.997724, 7326.298235 1652.701794)

LINESTRING (5985.843658 2548.997724, 4972.564193 1476.922584)

LINESTRING (3691.432999 3361.422821, 5197.689118 4285.387446)

LINESTRING (3691.432999 3361.422821, 3967.665156 4012.313764)

LINESTRING (6371.548721 4169.643112, 6131.556021 3864.184264)

LINESTRING (6371.548721 4169.643112, 6889.812666 4622.408931)

LINESTRING (2293.420822 3230.568525, 2938.047747 2360.015796)

LINESTRING (2293.420822 3230.568525, 577.254342 3565.744851)

LINESTRING (2293.420822 3230.568525, 3639.655817 2576.966062)

LINESTRING (7611.079006 1511.727671, 7326.298235 1652.701794)

LINESTRING (7611.079006 1511.727671, 8097.635549 1176.866812)

LINESTRING (7611.079006 1511.727671, 8011.674406 2951.780793)

LINESTRING (6131.556021 3864.184264, 5197.689118 4285.387446)

LINESTRING (2938.047747 2360.015796, 3639.655817 2576.966062)

LINESTRING (6834.571476 1935.817621, 7326.298235 1652.701794)

LINESTRING (6834.571476 1935.817621, 8097.635549 1176.866812)

LINESTRING (6834.571476 1935.817621, 8011.674406 2951.780793)

LINESTRING (5197.689118 4285.387446, 6889.812666 4622.408931)

LINESTRING (7326.298235 1652.701794, 7072.344743 1178.059966)

LINESTRING (6880.173558 6941.893304, 7631.413139 6099.310500)

LINESTRING (3967.665156 4012.313764, 3052.101617 4523.002252)

LINESTRING (7577.153025 5639.496939, 6889.812666 4622.408931)

LINESTRING (7577.153025 5639.496939, 7631.413139 6099.310500)

LINESTRING (6889.812666 4622.408931, 5473.424944 4951.431541)

LINESTRING (6889.812666 4622.408931, 7926.768544 5079.764079)

LINESTRING (6889.812666 4622.408931, 7631.413139 6099.310500)

LINESTRING (4274.900415 594.264760, 4972.564193 1476.922584)

LINESTRING (4274.900415 594.264760, 4126.994313 407.338088)

LINESTRING (7926.768544 5079.764079, 7631.413139 6099.310500)

LINESTRING (4972.564193 1476.922584, 4126.994313 407.338088)

