LINESTRING (788.451075 2420.690159, 616.166737 2240.480216)

LINESTRING (788.451075 2420.690159, 684.260117 2792.845643)

LINESTRING (3921.667163 2636.250070, 4107.180572 2639.818435)

LINESTRING (3921.667163 2636.250070, 4124.149000 2594.724347)

LINESTRING (3921.667163 2636.250070, 3841.552487 2812.065588)

LINESTRING (3921.667163 2636.250070, 3421.688802 3697.210191)

LINESTRING (3921.667163 2636.250070, 4299.590281 1963.187821)

LINESTRING (616.166737 2240.480216, 1498.843655 1431.836791)

LINESTRING (616.166737 2240.480216, 1218.933706 1295.851282)

LINESTRING (616.166737 2240.480216, 1550.617962 2992.289998)

LINESTRING (794.344470 3812.239948, 200.606685 3631.412521)

LINESTRING (794.344470 3812.239948, 1550.617962 2992.289998)

LINESTRING (794.344470 3812.239948, 372.131584 4610.572822)

LINESTRING (2175.558646 862.086947, 2596.832920 1004.749682)

LINESTRING (2175.558646 862.086947, 2267.266679 313.344152)

LINESTRING (2175.558646 862.086947, 1218.933706 1295.851282)

LINESTRING (2175.558646 862.086947, 1892.416529 664.709821)

LINESTRING (4966.432410 5007.428182, 5166.279494 4699.789773)

LINESTRING (4966.432410 5007.428182, 4401.176994 5075.489399)

LINESTRING (1478.505982 2808.141603, 2140.199017 2221.049843)

LINESTRING (1478.505982 2808.141603, 1722.958237 2576.279781)

LINESTRING (1478.505982 2808.141603, 1550.617962 2992.289998)

LINESTRING (3400.469421 1477.429061, 2596.832920 1004.749682)

LINESTRING (3400.469421 1477.429061, 3560.178401 1201.964316)

LINESTRING (4107.180572 2639.818435, 4124.149000 2594.724347)

LINESTRING (4107.180572 2639.818435, 3841.552487 2812.065588)

LINESTRING (4107.180572 2639.818435, 4299.590281 1963.187821)

LINESTRING (4107.180572 2639.818435, 4345.074554 2916.480271)

LINESTRING (4107.180572 2639.818435, 3132.861197 2620.936124)

LINESTRING (2596.832920 1004.749682, 1498.843655 1431.836791)

LINESTRING (2596.832920 1004.749682, 2267.266679 313.344152)

LINESTRING (2596.832920 1004.749682, 1892.416529 664.709821)

LINESTRING (200.606685 3631.412521, 582.832283 4469.274955)

LINESTRING (200.606685 3631.412521, 519.803629 4566.094416)

LINESTRING (4124.149000 2594.724347, 3841.552487 2812.065588)

LINESTRING (4124.149000 2594.724347, 4345.074554 2916.480271)

LINESTRING (1498.843655 1431.836791, 1218.933706 1295.851282)

LINESTRING (1498.843655 1431.836791, 1707.330713 1101.834778)

LINESTRING (1498.843655 1431.836791, 874.863382 783.386079)

LINESTRING (1498.843655 1431.836791, 1668.905883 1625.574118)

LINESTRING (4317.954824 3722.801657, 3924.049464 3709.048377)

LINESTRING (4317.954824 3722.801657, 4148.752214 4841.635847)

LINESTRING (1849.882934 4354.119167, 2026.250436 4547.776548)

LINESTRING (1849.882934 4354.119167, 1661.743960 3426.950191)

LINESTRING (2140.199017 2221.049843, 1809.472475 2015.397721)

LINESTRING (1698.193485 186.176158, 787.756014 537.297396)

LINESTRING (3841.552487 2812.065588, 2955.703196 3588.088535)

LINESTRING (1722.958237 2576.279781, 996.831218 3387.643845)

LINESTRING (1722.958237 2576.279781, 684.260117 2792.845643)

LINESTRING (3276.993058 5182.604637, 3589.963190 4720.400313)

LINESTRING (3276.993058 5182.604637, 3035.189969 4788.592110)

LINESTRING (342.954505 1540.685796, 311.181561 1847.657543)

LINESTRING (342.954505 1540.685796, 143.306833 1767.986918)

LINESTRING (1218.933706 1295.851282, 1892.416529 664.709821)

LINESTRING (4631.058702 2134.645243, 4299.590281 1963.187821)

LINESTRING (4631.058702 2134.645243, 5068.779913 1536.248450)

LINESTRING (996.831218 3387.643845, 582.832283 4469.274955)

LINESTRING (684.260117 2792.845643, 1661.743960 3426.950191)

LINESTRING (874.863382 783.386079, 787.756014 537.297396)

LINESTRING (874.863382 783.386079, 1668.905883 1625.574118)

LINESTRING (2118.245660 3699.378093, 1661.743960 3426.950191)

LINESTRING (2533.278184 1490.143378, 3075.723157 1010.297441)

LINESTRING (2533.278184 1490.143378, 1809.472475 2015.397721)

LINESTRING (4318.730669 4239.794964, 4148.752214 4841.635847)

LINESTRING (4318.730669 4239.794964, 4401.176994 5075.489399)

LINESTRING (3589.963190 4720.400313, 3924.049464 3709.048377)

LINESTRING (3589.963190 4720.400313, 3621.741965 4911.581248)

LINESTRING (3589.963190 4720.400313, 4195.475037 4971.401272)

LINESTRING (3589.963190 4720.400313, 4148.752214 4841.635847)

LINESTRING (3075.723157 1010.297441, 3357.356374 652.951095)

LINESTRING (1809.472475 2015.397721, 1668.905883 1625.574118)

LINESTRING (311.181561 1847.657543, 143.306833 1767.986918)

LINESTRING (2985.167533 3972.075088, 2707.828806 4184.871091)

LINESTRING (2985.167533 3972.075088, 2955.703196 3588.088535)

LINESTRING (2985.167533 3972.075088, 3753.488782 3919.851503)

LINESTRING (582.832283 4469.274955, 372.131584 4610.572822)

LINESTRING (582.832283 4469.274955, 519.803629 4566.094416)

LINESTRING (582.832283 4469.274955, 581.745220 4530.052752)

LINESTRING (3924.049464 3709.048377, 4720.382408 3501.628794)

LINESTRING (3924.049464 3709.048377, 3753.488782 3919.851503)

LINESTRING (3924.049464 3709.048377, 4345.074554 2916.480271)

LINESTRING (2707.828806 4184.871091, 3621.741965 4911.581248)

LINESTRING (787.756014 537.297396, 1892.416529 664.709821)

LINESTRING (3421.688802 3697.210191, 2955.703196 3588.088535)

LINESTRING (3421.688802 3697.210191, 3753.488782 3919.851503)

LINESTRING (2362.299088 3167.040686, 3132.861197 2620.936124)

LINESTRING (3035.189969 4788.592110, 4148.752214 4841.635847)

LINESTRING (4195.475037 4971.401272, 4148.752214 4841.635847)

LINESTRING (4195.475037 4971.401272, 4401.176994 5075.489399)

LINESTRING (3357.356374 652.951095, 3529.484739 1011.647869)

LINESTRING (372.131584 4610.572822, 519.803629 4566.094416)

LINESTRING (372.131584 4610.572822, 581.745220 4530.052752)

LINESTRING (3529.484739 1011.647869, 3560.178401 1201.964316)

LINESTRING (519.803629 4566.094416, 581.745220 4530.052752)

LINESTRING (4299.590281 1963.187821, 5068.779913 1536.248450)

LINESTRING (4148.752214 4841.635847, 4401.176994 5075.489399)

