LINESTRING (111.005029 107.118219, 116.346264 109.132255)

LINESTRING (111.005029 107.118219, 130.694632 111.815277)

LINESTRING (111.005029 107.118219, 108.476040 147.916135)

LINESTRING (111.005029 107.118219, 176.467199 145.638722)

LINESTRING (111.005029 107.118219, 128.696152 129.951583)

LINESTRING (111.005029 107.118219, 100.370260 127.144326)

LINESTRING (111.005029 107.118219, 126.897784 112.256117)

LINESTRING (111.005029 107.118219, 165.833618 145.760574)

LINESTRING (107.507841 111.647096, 116.346264 109.132255)

LINESTRING (107.507841 111.647096, 130.694632 111.815277)

LINESTRING (107.507841 111.647096, 169.022214 139.270932)

LINESTRING (107.507841 111.647096, 134.899926 117.587872)

LINESTRING (107.507841 111.647096, 176.467199 145.638722)

LINESTRING (107.507841 111.647096, 128.696152 129.951583)

LINESTRING (107.507841 111.647096, 173.219875 111.897646)

LINESTRING (107.507841 111.647096, 100.370260 127.144326)

LINESTRING (107.507841 111.647096, 165.833618 145.760574)

LINESTRING (116.346264 109.132255, 169.022214 139.270932)

LINESTRING (116.346264 109.132255, 134.899926 117.587872)

LINESTRING (116.346264 109.132255, 126.936385 167.812483)

LINESTRING (116.346264 109.132255, 176.467199 145.638722)

LINESTRING (116.346264 109.132255, 128.696152 129.951583)

LINESTRING (116.346264 109.132255, 100.370260 127.144326)

LINESTRING (116.346264 109.132255, 144.064904 168.421018)

LINESTRING (116.346264 109.132255, 126.897784 112.256117)

LINESTRING (116.346264 109.132255, 165.833618 145.760574)

LINESTRING (130.694632 111.815277, 169.022214 139.270932)

LINESTRING (130.694632 111.815277, 126.936385 167.812483)

LINESTRING (130.694632 111.815277, 176.467199 145.638722)

LINESTRING (130.694632 111.815277, 128.696152 129.951583)

LINESTRING (130.694632 111.815277, 173.219875 111.897646)

LINESTRING (130.694632 111.815277, 126.897784 112.256117)

LINESTRING (130.694632 111.815277, 165.833618 145.760574)

LINESTRING (108.476040 147.916135, 134.899926 117.587872)

LINESTRING (108.476040 147.916135, 126.936385 167.812483)

LINESTRING (108.476040 147.916135, 128.696152 129.951583)

LINESTRING (108.476040 147.916135, 100.370260 127.144326)

LINESTRING (108.476040 147.916135, 144.064904 168.421018)

LINESTRING (108.476040 147.916135, 126.897784 112.256117)

LINESTRING (108.476040 147.916135, 165.833618 145.760574)

LINESTRING (169.022214 139.270932, 126.936385 167.812483)

LINESTRING (169.022214 139.270932, 128.696152 129.951583)

LINESTRING (169.022214 139.270932, 173.219875 111.897646)

LINESTRING (134.899926 117.587872, 126.936385 167.812483)

LINESTRING (134.899926 117.587872, 176.467199 145.638722)

LINESTRING (134.899926 117.587872, 173.219875 111.897646)

LINESTRING (134.899926 117.587872, 100.370260 127.144326)

LINESTRING (134.899926 117.587872, 144.064904 168.421018)

LINESTRING (134.899926 117.587872, 126.897784 112.256117)

LINESTRING (126.936385 167.812483, 128.696152 129.951583)

LINESTRING (126.936385 167.812483, 173.219875 111.897646)

LINESTRING (126.936385 167.812483, 165.833618 145.760574)

LINESTRING (176.467199 145.638722, 128.696152 129.951583)

LINESTRING (176.467199 145.638722, 100.370260 127.144326)

LINESTRING (176.467199 145.638722, 144.064904 168.421018)

LINESTRING (176.467199 145.638722, 126.897784 112.256117)

LINESTRING (176.467199 145.638722, 165.833618 145.760574)

LINESTRING (128.696152 129.951583, 100.370260 127.144326)

LINESTRING (128.696152 129.951583, 165.833618 145.760574)

LINESTRING (173.219875 111.897646, 165.833618 145.760574)

LINESTRING (100.370260 127.144326, 165.833618 145.760574)

LINESTRING (144.064904 168.421018, 126.897784 112.256117)

LINESTRING (144.064904 168.421018, 165.833618 145.760574)

LINESTRING (126.897784 112.256117, 165.833618 145.760574)

LINESTRING (458.448811 165.154897, 522.511728 111.635002)

LINESTRING (458.448811 165.154897, 526.472450 113.939900)

LINESTRING (458.448811 165.154897, 513.139842 149.714764)

LINESTRING (458.448811 165.154897, 516.196078 152.345657)

LINESTRING (458.448811 165.154897, 511.371545 137.248956)

LINESTRING (458.448811 165.154897, 473.621823 138.328075)

LINESTRING (458.448811 165.154897, 474.358375 154.461787)

LINESTRING (458.448811 165.154897, 495.001713 117.831316)

LINESTRING (458.448811 165.154897, 481.489946 157.354588)

LINESTRING (522.511728 111.635002, 451.635454 161.515472)

LINESTRING (522.511728 111.635002, 479.806387 115.510993)

LINESTRING (522.511728 111.635002, 511.371545 137.248956)

LINESTRING (522.511728 111.635002, 473.621823 138.328075)

LINESTRING (522.511728 111.635002, 474.358375 154.461787)

LINESTRING (522.511728 111.635002, 455.219995 177.275389)

LINESTRING (522.511728 111.635002, 481.489946 157.354588)

LINESTRING (451.635454 161.515472, 526.472450 113.939900)

LINESTRING (451.635454 161.515472, 479.806387 115.510993)

LINESTRING (451.635454 161.515472, 513.139842 149.714764)

LINESTRING (451.635454 161.515472, 516.196078 152.345657)

LINESTRING (451.635454 161.515472, 511.371545 137.248956)

LINESTRING (451.635454 161.515472, 474.358375 154.461787)

LINESTRING (451.635454 161.515472, 481.489946 157.354588)

LINESTRING (526.472450 113.939900, 513.139842 149.714764)

LINESTRING (526.472450 113.939900, 472.389249 102.187089)

LINESTRING (526.472450 113.939900, 516.196078 152.345657)

LINESTRING (526.472450 113.939900, 455.219995 177.275389)

LINESTRING (526.472450 113.939900, 495.001713 117.831316)

LINESTRING (526.472450 113.939900, 502.080745 103.921192)

LINESTRING (479.806387 115.510993, 513.139842 149.714764)

LINESTRING (479.806387 115.510993, 516.196078 152.345657)

LINESTRING (479.806387 115.510993, 455.219995 177.275389)

LINESTRING (479.806387 115.510993, 495.001713 117.831316)

LINESTRING (479.806387 115.510993, 481.489946 157.354588)

LINESTRING (513.139842 149.714764, 472.389249 102.187089)

LINESTRING (513.139842 149.714764, 473.621823 138.328075)

LINESTRING (513.139842 149.714764, 455.219995 177.275389)

LINESTRING (513.139842 149.714764, 495.001713 117.831316)

LINESTRING (513.139842 149.714764, 502.080745 103.921192)

LINESTRING (472.389249 102.187089, 516.196078 152.345657)

LINESTRING (472.389249 102.187089, 511.371545 137.248956)

LINESTRING (472.389249 102.187089, 473.621823 138.328075)

LINESTRING (472.389249 102.187089, 502.080745 103.921192)

LINESTRING (516.196078 152.345657, 511.371545 137.248956)

LINESTRING (516.196078 152.345657, 473.621823 138.328075)

LINESTRING (516.196078 152.345657, 455.219995 177.275389)

LINESTRING (516.196078 152.345657, 495.001713 117.831316)

LINESTRING (516.196078 152.345657, 481.489946 157.354588)

LINESTRING (516.196078 152.345657, 502.080745 103.921192)

LINESTRING (511.371545 137.248956, 473.621823 138.328075)

LINESTRING (511.371545 137.248956, 495.001713 117.831316)

LINESTRING (511.371545 137.248956, 481.489946 157.354588)

LINESTRING (473.621823 138.328075, 474.358375 154.461787)

LINESTRING (473.621823 138.328075, 455.219995 177.275389)

LINESTRING (473.621823 138.328075, 495.001713 117.831316)

LINESTRING (473.621823 138.328075, 502.080745 103.921192)

LINESTRING (474.358375 154.461787, 455.219995 177.275389)

LINESTRING (474.358375 154.461787, 481.489946 157.354588)

LINESTRING (474.358375 154.461787, 502.080745 103.921192)

LINESTRING (455.219995 177.275389, 495.001713 117.831316)

LINESTRING (455.219995 177.275389, 481.489946 157.354588)

LINESTRING (455.219995 177.275389, 502.080745 103.921192)

LINESTRING (495.001713 117.831316, 502.080745 103.921192)

LINESTRING (481.489946 157.354588, 502.080745 103.921192)

LINESTRING (852.951709 142.538579, 824.198154 172.574822)

LINESTRING (852.951709 142.538579, 809.214963 149.072530)

LINESTRING (852.951709 142.538579, 833.860386 127.608355)

LINESTRING (856.102261 123.813607, 875.363905 173.430055)

LINESTRING (856.102261 123.813607, 877.233726 159.861408)

LINESTRING (856.102261 123.813607, 856.681884 166.659106)

LINESTRING (856.102261 123.813607, 805.303394 148.117533)

LINESTRING (824.851904 102.970529, 875.363905 173.430055)

LINESTRING (824.851904 102.970529, 809.214963 149.072530)

LINESTRING (824.851904 102.970529, 863.434655 143.142644)

LINESTRING (824.851904 102.970529, 806.221735 107.751022)

LINESTRING (824.851904 102.970529, 833.860386 127.608355)

LINESTRING (824.851904 102.970529, 805.303394 148.117533)

LINESTRING (858.909295 104.419602, 875.363905 173.430055)

LINESTRING (858.909295 104.419602, 806.221735 107.751022)

LINESTRING (858.909295 104.419602, 877.233726 159.861408)

LINESTRING (858.909295 104.419602, 805.303394 148.117533)

LINESTRING (850.022005 122.674772, 875.363905 173.430055)

LINESTRING (850.022005 122.674772, 863.434655 143.142644)

LINESTRING (850.022005 122.674772, 877.233726 159.861408)

LINESTRING (824.198154 172.574822, 875.363905 173.430055)

LINESTRING (824.198154 172.574822, 862.309948 124.949027)

LINESTRING (824.198154 172.574822, 863.434655 143.142644)

LINESTRING (824.198154 172.574822, 806.221735 107.751022)

LINESTRING (824.198154 172.574822, 877.233726 159.861408)

LINESTRING (824.198154 172.574822, 856.681884 166.659106)

LINESTRING (824.198154 172.574822, 833.860386 127.608355)

LINESTRING (875.363905 173.430055, 809.214963 149.072530)

LINESTRING (875.363905 173.430055, 877.233726 159.861408)

LINESTRING (875.363905 173.430055, 833.860386 127.608355)

LINESTRING (875.363905 173.430055, 805.303394 148.117533)

LINESTRING (862.309948 124.949027, 806.221735 107.751022)

LINESTRING (862.309948 124.949027, 856.681884 166.659106)

LINESTRING (809.214963 149.072530, 806.221735 107.751022)

LINESTRING (809.214963 149.072530, 877.233726 159.861408)

LINESTRING (809.214963 149.072530, 856.681884 166.659106)

LINESTRING (809.214963 149.072530, 833.860386 127.608355)

LINESTRING (863.434655 143.142644, 806.221735 107.751022)

LINESTRING (863.434655 143.142644, 877.233726 159.861408)

LINESTRING (863.434655 143.142644, 856.681884 166.659106)

LINESTRING (863.434655 143.142644, 833.860386 127.608355)

LINESTRING (806.221735 107.751022, 877.233726 159.861408)

LINESTRING (877.233726 159.861408, 856.681884 166.659106)

LINESTRING (877.233726 159.861408, 833.860386 127.608355)

LINESTRING (877.233726 159.861408, 805.303394 148.117533)

LINESTRING (856.681884 166.659106, 805.303394 148.117533)

LINESTRING (833.860386 127.608355, 805.303394 148.117533)

LINESTRING (130.694632 111.815277, 479.806387 115.510993)

LINESTRING (128.696152 129.951583, 455.219995 177.275389)

LINESTRING (111.005029 107.118219, 458.448811 165.154897)

LINESTRING (516.196078 152.345657, 824.851904 102.970529)

LINESTRING (451.635454 161.515472, 856.681884 166.659106)

LINESTRING (458.448811 165.154897, 852.951709 142.538579)

