LINESTRING (60.000000 60.000000, 80.972918 38.446728)

LINESTRING (60.000000 60.000000, 68.010486 41.096011)

LINESTRING (60.000000 60.000000, 73.849871 39.418003)

LINESTRING (60.000000 60.000000, 68.442453 69.989087)

LINESTRING (60.000000 60.000000, 69.417684 66.396267)

LINESTRING (60.000000 60.000000, 77.282421 40.488448)

LINESTRING (60.000000 60.000000, 73.093365 68.318552)

LINESTRING (60.000000 60.000000, 57.465956 62.380245)

LINESTRING (80.972918 38.446728, 68.010486 41.096011)

LINESTRING (80.972918 38.446728, 68.442453 69.989087)

LINESTRING (80.972918 38.446728, 69.417684 66.396267)

LINESTRING (80.972918 38.446728, 73.093365 68.318552)

LINESTRING (68.010486 41.096011, 73.849871 39.418003)

LINESTRING (68.010486 41.096011, 68.442453 69.989087)

LINESTRING (68.010486 41.096011, 69.417684 66.396267)

LINESTRING (68.010486 41.096011, 73.093365 68.318552)

LINESTRING (73.849871 39.418003, 57.465956 62.380245)

LINESTRING (68.442453 69.989087, 69.417684 66.396267)

LINESTRING (69.417684 66.396267, 57.465956 62.380245)

LINESTRING (77.282421 40.488448, 57.465956 62.380245)

LINESTRING (260.000000 60.000000, 264.279485 46.734419)

LINESTRING (260.000000 60.000000, 237.376909 47.058825)

LINESTRING (260.000000 60.000000, 264.167653 40.266591)

LINESTRING (260.000000 60.000000, 247.504997 82.620284)

LINESTRING (260.000000 60.000000, 257.038368 57.794662)

LINESTRING (260.000000 60.000000, 241.368327 58.224859)

LINESTRING (260.000000 60.000000, 250.118451 46.148815)

LINESTRING (260.000000 60.000000, 274.230776 53.101596)

LINESTRING (264.279485 46.734419, 237.376909 47.058825)

LINESTRING (264.279485 46.734419, 264.167653 40.266591)

LINESTRING (264.279485 46.734419, 247.504997 82.620284)

LINESTRING (264.279485 46.734419, 257.038368 57.794662)

LINESTRING (264.279485 46.734419, 250.118451 46.148815)

LINESTRING (264.279485 46.734419, 274.230776 53.101596)

LINESTRING (237.376909 47.058825, 241.368327 58.224859)

LINESTRING (264.167653 40.266591, 247.504997 82.620284)

LINESTRING (264.167653 40.266591, 250.118451 46.148815)

LINESTRING (247.504997 82.620284, 250.118451 46.148815)

LINESTRING (241.368327 58.224859, 250.118451 46.148815)

LINESTRING (241.368327 58.224859, 274.230776 53.101596)

LINESTRING (250.118451 46.148815, 274.230776 53.101596)

LINESTRING (460.000000 60.000000, 443.431339 61.396943)

LINESTRING (460.000000 60.000000, 436.604502 51.118607)

LINESTRING (460.000000 60.000000, 450.685124 67.411992)

LINESTRING (460.000000 60.000000, 438.554271 42.195386)

LINESTRING (460.000000 60.000000, 467.306818 81.135323)

LINESTRING (460.000000 60.000000, 436.420736 59.801481)

LINESTRING (460.000000 60.000000, 467.650021 55.545560)

LINESTRING (460.000000 60.000000, 460.502236 48.914831)

LINESTRING (443.431339 61.396943, 436.604502 51.118607)

LINESTRING (443.431339 61.396943, 438.554271 42.195386)

LINESTRING (436.604502 51.118607, 438.554271 42.195386)

LINESTRING (436.604502 51.118607, 436.420736 59.801481)

LINESTRING (436.604502 51.118607, 467.650021 55.545560)

LINESTRING (450.685124 67.411992, 460.502236 48.914831)

LINESTRING (438.554271 42.195386, 467.306818 81.135323)

LINESTRING (438.554271 42.195386, 467.650021 55.545560)

LINESTRING (438.554271 42.195386, 460.502236 48.914831)

LINESTRING (467.306818 81.135323, 436.420736 59.801481)

LINESTRING (467.306818 81.135323, 467.650021 55.545560)

LINESTRING (467.306818 81.135323, 460.502236 48.914831)

LINESTRING (436.420736 59.801481, 460.502236 48.914831)

LINESTRING (60.000000 260.000000, 51.603149 242.832611)

LINESTRING (60.000000 260.000000, 71.875307 239.385603)

LINESTRING (60.000000 260.000000, 55.745629 240.565533)

LINESTRING (60.000000 260.000000, 38.854983 257.420104)

LINESTRING (60.000000 260.000000, 73.081569 281.157182)

LINESTRING (60.000000 260.000000, 69.702251 258.171623)

LINESTRING (60.000000 260.000000, 39.714974 258.300382)

LINESTRING (60.000000 260.000000, 69.683819 244.953953)

LINESTRING (51.603149 242.832611, 55.745629 240.565533)

LINESTRING (51.603149 242.832611, 73.081569 281.157182)

LINESTRING (51.603149 242.832611, 39.714974 258.300382)

LINESTRING (51.603149 242.832611, 69.683819 244.953953)

LINESTRING (71.875307 239.385603, 55.745629 240.565533)

LINESTRING (71.875307 239.385603, 38.854983 257.420104)

LINESTRING (71.875307 239.385603, 73.081569 281.157182)

LINESTRING (71.875307 239.385603, 39.714974 258.300382)

LINESTRING (55.745629 240.565533, 39.714974 258.300382)

LINESTRING (38.854983 257.420104, 73.081569 281.157182)

LINESTRING (38.854983 257.420104, 69.702251 258.171623)

LINESTRING (38.854983 257.420104, 39.714974 258.300382)

LINESTRING (73.081569 281.157182, 69.702251 258.171623)

LINESTRING (69.702251 258.171623, 39.714974 258.300382)

LINESTRING (260.000000 260.000000, 251.056310 264.857261)

LINESTRING (260.000000 260.000000, 253.422920 261.718542)

LINESTRING (260.000000 260.000000, 261.825992 247.359908)

LINESTRING (260.000000 260.000000, 261.672916 249.151722)

LINESTRING (260.000000 260.000000, 267.029045 242.504790)

LINESTRING (260.000000 260.000000, 276.538658 239.208693)

LINESTRING (260.000000 260.000000, 277.962631 236.879441)

LINESTRING (260.000000 260.000000, 274.872836 248.838060)

LINESTRING (251.056310 264.857261, 253.422920 261.718542)

LINESTRING (251.056310 264.857261, 261.672916 249.151722)

LINESTRING (251.056310 264.857261, 267.029045 242.504790)

LINESTRING (251.056310 264.857261, 277.962631 236.879441)

LINESTRING (251.056310 264.857261, 274.872836 248.838060)

LINESTRING (253.422920 261.718542, 261.672916 249.151722)

LINESTRING (253.422920 261.718542, 276.538658 239.208693)

LINESTRING (261.825992 247.359908, 261.672916 249.151722)

LINESTRING (261.825992 247.359908, 267.029045 242.504790)

LINESTRING (261.825992 247.359908, 276.538658 239.208693)

LINESTRING (261.825992 247.359908, 277.962631 236.879441)

LINESTRING (261.672916 249.151722, 276.538658 239.208693)

LINESTRING (261.672916 249.151722, 277.962631 236.879441)

LINESTRING (261.672916 249.151722, 274.872836 248.838060)

LINESTRING (267.029045 242.504790, 276.538658 239.208693)

LINESTRING (267.029045 242.504790, 277.962631 236.879441)

LINESTRING (267.029045 242.504790, 274.872836 248.838060)

LINESTRING (276.538658 239.208693, 277.962631 236.879441)

LINESTRING (460.000000 260.000000, 462.860725 237.709608)

LINESTRING (460.000000 260.000000, 462.919975 263.559660)

LINESTRING (460.000000 260.000000, 452.449579 246.965362)

LINESTRING (460.000000 260.000000, 474.494755 250.897283)

LINESTRING (460.000000 260.000000, 453.324205 241.133832)

LINESTRING (460.000000 260.000000, 466.421681 246.893277)

LINESTRING (460.000000 260.000000, 441.614144 277.965444)

LINESTRING (460.000000 260.000000, 449.064171 255.926522)

LINESTRING (462.860725 237.709608, 462.919975 263.559660)

LINESTRING (462.860725 237.709608, 453.324205 241.133832)

LINESTRING (462.860725 237.709608, 449.064171 255.926522)

LINESTRING (462.919975 263.559660, 474.494755 250.897283)

LINESTRING (462.919975 263.559660, 441.614144 277.965444)

LINESTRING (452.449579 246.965362, 466.421681 246.893277)

LINESTRING (452.449579 246.965362, 449.064171 255.926522)

LINESTRING (474.494755 250.897283, 441.614144 277.965444)

LINESTRING (474.494755 250.897283, 449.064171 255.926522)

LINESTRING (453.324205 241.133832, 466.421681 246.893277)

LINESTRING (453.324205 241.133832, 449.064171 255.926522)

LINESTRING (466.421681 246.893277, 449.064171 255.926522)

LINESTRING (441.614144 277.965444, 449.064171 255.926522)

LINESTRING (60.000000 460.000000, 56.690822 471.496180)

LINESTRING (60.000000 460.000000, 48.473232 448.713791)

LINESTRING (60.000000 460.000000, 62.125110 441.363738)

LINESTRING (60.000000 460.000000, 78.011424 462.699247)

LINESTRING (60.000000 460.000000, 65.515362 439.017415)

LINESTRING (60.000000 460.000000, 49.249021 468.452630)

LINESTRING (60.000000 460.000000, 76.004324 454.135442)

LINESTRING (60.000000 460.000000, 80.456537 460.009595)

LINESTRING (56.690822 471.496180, 48.473232 448.713791)

LINESTRING (56.690822 471.496180, 78.011424 462.699247)

LINESTRING (56.690822 471.496180, 80.456537 460.009595)

LINESTRING (48.473232 448.713791, 62.125110 441.363738)

LINESTRING (48.473232 448.713791, 65.515362 439.017415)

LINESTRING (48.473232 448.713791, 76.004324 454.135442)

LINESTRING (62.125110 441.363738, 65.515362 439.017415)

LINESTRING (78.011424 462.699247, 49.249021 468.452630)

LINESTRING (65.515362 439.017415, 49.249021 468.452630)

LINESTRING (49.249021 468.452630, 80.456537 460.009595)

LINESTRING (260.000000 460.000000, 272.106653 455.730208)

LINESTRING (260.000000 460.000000, 257.684425 452.398265)

LINESTRING (260.000000 460.000000, 252.416010 456.378681)

LINESTRING (260.000000 460.000000, 240.895750 458.949819)

LINESTRING (260.000000 460.000000, 253.507913 445.632187)

LINESTRING (260.000000 460.000000, 265.313646 443.225451)

LINESTRING (260.000000 460.000000, 281.196439 472.733220)

LINESTRING (260.000000 460.000000, 253.406463 444.698601)

LINESTRING (272.106653 455.730208, 257.684425 452.398265)

LINESTRING (272.106653 455.730208, 252.416010 456.378681)

LINESTRING (272.106653 455.730208, 240.895750 458.949819)

LINESTRING (272.106653 455.730208, 265.313646 443.225451)

LINESTRING (272.106653 455.730208, 281.196439 472.733220)

LINESTRING (272.106653 455.730208, 253.406463 444.698601)

LINESTRING (257.684425 452.398265, 252.416010 456.378681)

LINESTRING (257.684425 452.398265, 253.507913 445.632187)

LINESTRING (257.684425 452.398265, 265.313646 443.225451)

LINESTRING (257.684425 452.398265, 253.406463 444.698601)

LINESTRING (252.416010 456.378681, 240.895750 458.949819)

LINESTRING (252.416010 456.378681, 281.196439 472.733220)

LINESTRING (252.416010 456.378681, 253.406463 444.698601)

LINESTRING (240.895750 458.949819, 253.507913 445.632187)

LINESTRING (240.895750 458.949819, 265.313646 443.225451)

LINESTRING (253.507913 445.632187, 265.313646 443.225451)

LINESTRING (253.507913 445.632187, 281.196439 472.733220)

LINESTRING (253.507913 445.632187, 253.406463 444.698601)

LINESTRING (265.313646 443.225451, 281.196439 472.733220)

LINESTRING (68.442453 69.989087, 247.504997 82.620284)

LINESTRING (77.282421 40.488448, 274.230776 53.101596)

LINESTRING (60.000000 60.000000, 260.000000 60.000000)

LINESTRING (241.368327 58.224859, 460.502236 48.914831)

LINESTRING (250.118451 46.148815, 438.554271 42.195386)

LINESTRING (260.000000 60.000000, 460.000000 60.000000)

LINESTRING (467.306818 81.135323, 69.702251 258.171623)

LINESTRING (436.420736 59.801481, 69.683819 244.953953)

LINESTRING (460.000000 60.000000, 60.000000 260.000000)

LINESTRING (39.714974 258.300382, 261.825992 247.359908)

LINESTRING (39.714974 258.300382, 276.538658 239.208693)

LINESTRING (60.000000 260.000000, 260.000000 260.000000)

LINESTRING (277.962631 236.879441, 452.449579 246.965362)

LINESTRING (276.538658 239.208693, 462.860725 237.709608)

LINESTRING (260.000000 260.000000, 460.000000 260.000000)

LINESTRING (466.421681 246.893277, 65.515362 439.017415)

LINESTRING (462.919975 263.559660, 56.690822 471.496180)

LINESTRING (460.000000 260.000000, 60.000000 460.000000)

LINESTRING (48.473232 448.713791, 281.196439 472.733220)

LINESTRING (65.515362 439.017415, 265.313646 443.225451)

LINESTRING (60.000000 460.000000, 260.000000 460.000000)

