LINESTRING (80.000000 80.000000, 778.239394 30.383991)

LINESTRING (80.000000 80.000000, 464.031667 52.711195)

LINESTRING (464.031667 52.711195, 778.239394 30.383991)

LINESTRING (80.000000 80.000000, 630.580321 512.274577)

LINESTRING (80.000000 80.000000, 382.819176 317.751018)

LINESTRING (382.819176 317.751018, 630.580321 512.274577)

LINESTRING (80.000000 80.000000, 348.464141 726.472741)

LINESTRING (80.000000 80.000000, 227.655278 435.560008)

LINESTRING (227.655278 435.560008, 348.464141 726.472741)

LINESTRING (80.000000 80.000000, -185.554810 727.673253)

LINESTRING (80.000000 80.000000, -66.055145 436.220289)

LINESTRING (-66.055145 436.220289, -185.554810 727.673253)

LINESTRING (80.000000 80.000000, -451.856985 535.113334)

LINESTRING (80.000000 80.000000, -212.521342 330.312334)

LINESTRING (-212.521342 330.312334, -451.856985 535.113334)

LINESTRING (80.000000 80.000000, -619.979773 85.321359)

LINESTRING (80.000000 80.000000, -304.988875 82.926748)

LINESTRING (-304.988875 82.926748, -619.979773 85.321359)

LINESTRING (80.000000 80.000000, -472.341071 -350.022489)

LINESTRING (80.000000 80.000000, -223.787589 -156.512369)

LINESTRING (-223.787589 -156.512369, -472.341071 -350.022489)

LINESTRING (80.000000 80.000000, -131.025606 -587.434037)

LINESTRING (80.000000 80.000000, -36.064083 -287.088720)

LINESTRING (-36.064083 -287.088720, -131.025606 -587.434037)

LINESTRING (80.000000 80.000000, 292.260344 -587.042387)

LINESTRING (80.000000 80.000000, 196.743189 -286.873313)

LINESTRING (196.743189 -286.873313, 292.260344 -587.042387)

LINESTRING (80.000000 80.000000, 636.612889 -344.478611)

LINESTRING (80.000000 80.000000, 386.137089 -153.463236)

LINESTRING (386.137089 -153.463236, 636.612889 -344.478611)

LINESTRING (778.239394 30.383991, 630.580321 512.274577)

LINESTRING (630.580321 512.274577, 348.464141 726.472741)

LINESTRING (348.464141 726.472741, -185.554810 727.673253)

LINESTRING (-185.554810 727.673253, -451.856985 535.113334)

LINESTRING (-451.856985 535.113334, -619.979773 85.321359)

LINESTRING (-619.979773 85.321359, -472.341071 -350.022489)

LINESTRING (-472.341071 -350.022489, -131.025606 -587.434037)

LINESTRING (-131.025606 -587.434037, 292.260344 -587.042387)

LINESTRING (292.260344 -587.042387, 636.612889 -344.478611)

LINESTRING (636.612889 -344.478611, 778.239394 30.383991)

LINESTRING (880.000000 80.000000, 1579.149802 114.489921)

LINESTRING (880.000000 80.000000, 1264.532391 98.969456)

LINESTRING (1264.532391 98.969456, 1579.149802 114.489921)

LINESTRING (880.000000 80.000000, 1477.073317 445.381245)

LINESTRING (880.000000 80.000000, 1208.390324 280.959685)

LINESTRING (1208.390324 280.959685, 1477.073317 445.381245)

LINESTRING (880.000000 80.000000, 1125.331473 735.600845)

LINESTRING (880.000000 80.000000, 1014.932310 440.580465)

LINESTRING (1014.932310 440.580465, 1125.331473 735.600845)

LINESTRING (880.000000 80.000000, 706.371374 758.124694)

LINESTRING (880.000000 80.000000, 784.504256 452.968582)

LINESTRING (784.504256 452.968582, 706.371374 758.124694)

LINESTRING (880.000000 80.000000, 294.042595 462.954200)

LINESTRING (880.000000 80.000000, 557.723427 290.624810)

LINESTRING (557.723427 290.624810, 294.042595 462.954200)

LINESTRING (880.000000 80.000000, 180.987254 117.164239)

LINESTRING (880.000000 80.000000, 495.542990 100.440331)

LINESTRING (495.542990 100.440331, 180.987254 117.164239)

LINESTRING (880.000000 80.000000, 313.640835 -331.384609)

LINESTRING (880.000000 80.000000, 568.502459 -146.261535)

LINESTRING (568.502459 -146.261535, 313.640835 -331.384609)

LINESTRING (880.000000 80.000000, 665.236132 -586.240558)

LINESTRING (880.000000 80.000000, 761.879873 -286.432307)

LINESTRING (761.879873 -286.432307, 665.236132 -586.240558)

LINESTRING (880.000000 80.000000, 1044.240230 -600.459511)

LINESTRING (880.000000 80.000000, 970.332127 -294.252731)

LINESTRING (970.332127 -294.252731, 1044.240230 -600.459511)

LINESTRING (880.000000 80.000000, 1470.364405 -296.124806)

LINESTRING (880.000000 80.000000, 1204.700423 -126.868643)

LINESTRING (1204.700423 -126.868643, 1470.364405 -296.124806)

LINESTRING (1579.149802 114.489921, 1477.073317 445.381245)

LINESTRING (1477.073317 445.381245, 1125.331473 735.600845)

LINESTRING (1125.331473 735.600845, 706.371374 758.124694)

LINESTRING (706.371374 758.124694, 294.042595 462.954200)

LINESTRING (294.042595 462.954200, 180.987254 117.164239)

LINESTRING (180.987254 117.164239, 313.640835 -331.384609)

LINESTRING (313.640835 -331.384609, 665.236132 -586.240558)

LINESTRING (665.236132 -586.240558, 1044.240230 -600.459511)

LINESTRING (1044.240230 -600.459511, 1470.364405 -296.124806)

LINESTRING (1470.364405 -296.124806, 1579.149802 114.489921)

LINESTRING (1680.000000 80.000000, 2379.997193 81.982444)

LINESTRING (1680.000000 80.000000, 2064.998456 81.090344)

LINESTRING (2064.998456 81.090344, 2379.997193 81.982444)

LINESTRING (1680.000000 80.000000, 2218.813052 526.856235)

LINESTRING (1680.000000 80.000000, 1976.347179 325.770929)

LINESTRING (1976.347179 325.770929, 2218.813052 526.856235)

LINESTRING (1680.000000 80.000000, 1855.571290 757.624322)

LINESTRING (1680.000000 80.000000, 1776.564210 452.693377)

LINESTRING (1776.564210 452.693377, 1855.571290 757.624322)

LINESTRING (1680.000000 80.000000, 1432.065268 734.620782)

LINESTRING (1680.000000 80.000000, 1543.635898 440.041430)

LINESTRING (1543.635898 440.041430, 1432.065268 734.620782)

LINESTRING (1680.000000 80.000000, 1114.379077 492.399043)

LINESTRING (1680.000000 80.000000, 1368.908492 306.819474)

LINESTRING (1368.908492 306.819474, 1114.379077 492.399043)

LINESTRING (1680.000000 80.000000, 980.114741 92.673755)

LINESTRING (1680.000000 80.000000, 1295.063107 86.970565)

LINESTRING (1295.063107 86.970565, 980.114741 92.673755)

LINESTRING (1680.000000 80.000000, 1099.928925 -311.813154)

LINESTRING (1680.000000 80.000000, 1360.960909 -135.497235)

LINESTRING (1360.960909 -135.497235, 1099.928925 -311.813154)

LINESTRING (1680.000000 80.000000, 1499.481495 -596.323199)

LINESTRING (1680.000000 80.000000, 1580.714822 -291.977759)

LINESTRING (1580.714822 -291.977759, 1499.481495 -596.323199)

LINESTRING (1680.000000 80.000000, 1908.072764 -581.802701)

LINESTRING (1680.000000 80.000000, 1805.440020 -283.991485)

LINESTRING (1805.440020 -283.991485, 1908.072764 -581.802701)

LINESTRING (1680.000000 80.000000, 2237.584754 -343.201184)

LINESTRING (1680.000000 80.000000, 1986.671615 -152.760651)

LINESTRING (1986.671615 -152.760651, 2237.584754 -343.201184)

LINESTRING (2379.997193 81.982444, 2218.813052 526.856235)

LINESTRING (2218.813052 526.856235, 1855.571290 757.624322)

LINESTRING (1855.571290 757.624322, 1432.065268 734.620782)

LINESTRING (1432.065268 734.620782, 1114.379077 492.399043)

LINESTRING (1114.379077 492.399043, 980.114741 92.673755)

LINESTRING (980.114741 92.673755, 1099.928925 -311.813154)

LINESTRING (1099.928925 -311.813154, 1499.481495 -596.323199)

LINESTRING (1499.481495 -596.323199, 1908.072764 -581.802701)

LINESTRING (1908.072764 -581.802701, 2237.584754 -343.201184)

LINESTRING (2237.584754 -343.201184, 2379.997193 81.982444)

LINESTRING (80.000000 80.000000, 880.000000 80.000000)

LINESTRING (880.000000 80.000000, 1680.000000 80.000000)

