LINESTRING (60.000000 60.000000, 77.894199 38.658749)

LINESTRING (60.000000 60.000000, 50.708404 74.708273)

LINESTRING (60.000000 60.000000, 67.343863 78.840820)

LINESTRING (60.000000 60.000000, 72.801387 60.918311)

LINESTRING (60.000000 60.000000, 76.197828 66.705893)

LINESTRING (60.000000 60.000000, 65.005881 69.938571)

LINESTRING (60.000000 60.000000, 58.758408 65.427975)

LINESTRING (60.000000 60.000000, 42.326884 43.271311)

LINESTRING (60.000000 60.000000, 66.993067 40.891748)

LINESTRING (60.000000 60.000000, 52.590215 54.529860)

LINESTRING (77.894199 38.658749, 50.708404 74.708273)

LINESTRING (77.894199 38.658749, 65.005881 69.938571)

LINESTRING (77.894199 38.658749, 58.758408 65.427975)

LINESTRING (77.894199 38.658749, 42.326884 43.271311)

LINESTRING (77.894199 38.658749, 66.993067 40.891748)

LINESTRING (77.894199 38.658749, 52.590215 54.529860)

LINESTRING (50.708404 74.708273, 72.801387 60.918311)

LINESTRING (50.708404 74.708273, 65.005881 69.938571)

LINESTRING (50.708404 74.708273, 58.758408 65.427975)

LINESTRING (50.708404 74.708273, 42.326884 43.271311)

LINESTRING (67.343863 78.840820, 72.801387 60.918311)

LINESTRING (67.343863 78.840820, 76.197828 66.705893)

LINESTRING (72.801387 60.918311, 76.197828 66.705893)

LINESTRING (72.801387 60.918311, 58.758408 65.427975)

LINESTRING (72.801387 60.918311, 52.590215 54.529860)

LINESTRING (76.197828 66.705893, 65.005881 69.938571)

LINESTRING (76.197828 66.705893, 58.758408 65.427975)

LINESTRING (76.197828 66.705893, 42.326884 43.271311)

LINESTRING (76.197828 66.705893, 66.993067 40.891748)

LINESTRING (76.197828 66.705893, 52.590215 54.529860)

LINESTRING (65.005881 69.938571, 66.993067 40.891748)

LINESTRING (58.758408 65.427975, 42.326884 43.271311)

LINESTRING (58.758408 65.427975, 52.590215 54.529860)

LINESTRING (66.993067 40.891748, 52.590215 54.529860)

LINESTRING (260.000000 60.000000, 279.498900 64.164965)

LINESTRING (260.000000 60.000000, 281.710097 45.239283)

LINESTRING (260.000000 60.000000, 250.116401 44.061943)

LINESTRING (260.000000 60.000000, 254.301074 65.870693)

LINESTRING (260.000000 60.000000, 261.268690 59.050562)

LINESTRING (260.000000 60.000000, 266.363207 40.225169)

LINESTRING (260.000000 60.000000, 283.360448 39.786395)

LINESTRING (260.000000 60.000000, 247.618359 49.746726)

LINESTRING (260.000000 60.000000, 264.021798 54.842039)

LINESTRING (260.000000 60.000000, 280.899890 68.776379)

LINESTRING (279.498900 64.164965, 261.268690 59.050562)

LINESTRING (279.498900 64.164965, 266.363207 40.225169)

LINESTRING (279.498900 64.164965, 247.618359 49.746726)

LINESTRING (279.498900 64.164965, 264.021798 54.842039)

LINESTRING (279.498900 64.164965, 280.899890 68.776379)

LINESTRING (281.710097 45.239283, 250.116401 44.061943)

LINESTRING (281.710097 45.239283, 254.301074 65.870693)

LINESTRING (281.710097 45.239283, 266.363207 40.225169)

LINESTRING (281.710097 45.239283, 247.618359 49.746726)

LINESTRING (281.710097 45.239283, 264.021798 54.842039)

LINESTRING (250.116401 44.061943, 261.268690 59.050562)

LINESTRING (250.116401 44.061943, 247.618359 49.746726)

LINESTRING (250.116401 44.061943, 264.021798 54.842039)

LINESTRING (250.116401 44.061943, 280.899890 68.776379)

LINESTRING (254.301074 65.870693, 261.268690 59.050562)

LINESTRING (254.301074 65.870693, 266.363207 40.225169)

LINESTRING (261.268690 59.050562, 266.363207 40.225169)

LINESTRING (261.268690 59.050562, 264.021798 54.842039)

LINESTRING (261.268690 59.050562, 280.899890 68.776379)

LINESTRING (266.363207 40.225169, 283.360448 39.786395)

LINESTRING (266.363207 40.225169, 264.021798 54.842039)

LINESTRING (283.360448 39.786395, 264.021798 54.842039)

LINESTRING (283.360448 39.786395, 280.899890 68.776379)

LINESTRING (247.618359 49.746726, 280.899890 68.776379)

LINESTRING (460.000000 60.000000, 457.004762 43.500340)

LINESTRING (460.000000 60.000000, 472.056872 59.198060)

LINESTRING (460.000000 60.000000, 466.300176 79.107451)

LINESTRING (460.000000 60.000000, 476.118908 43.386053)

LINESTRING (460.000000 60.000000, 464.061341 71.277625)

LINESTRING (460.000000 60.000000, 445.211252 76.488472)

LINESTRING (460.000000 60.000000, 474.707073 51.255637)

LINESTRING (460.000000 60.000000, 468.680718 58.306057)

LINESTRING (460.000000 60.000000, 442.056324 74.469454)

LINESTRING (460.000000 60.000000, 463.111365 64.004448)

LINESTRING (457.004762 43.500340, 472.056872 59.198060)

LINESTRING (457.004762 43.500340, 476.118908 43.386053)

LINESTRING (457.004762 43.500340, 445.211252 76.488472)

LINESTRING (457.004762 43.500340, 474.707073 51.255637)

LINESTRING (457.004762 43.500340, 468.680718 58.306057)

LINESTRING (457.004762 43.500340, 442.056324 74.469454)

LINESTRING (457.004762 43.500340, 463.111365 64.004448)

LINESTRING (472.056872 59.198060, 466.300176 79.107451)

LINESTRING (472.056872 59.198060, 464.061341 71.277625)

LINESTRING (472.056872 59.198060, 445.211252 76.488472)

LINESTRING (466.300176 79.107451, 476.118908 43.386053)

LINESTRING (466.300176 79.107451, 464.061341 71.277625)

LINESTRING (466.300176 79.107451, 445.211252 76.488472)

LINESTRING (466.300176 79.107451, 474.707073 51.255637)

LINESTRING (466.300176 79.107451, 442.056324 74.469454)

LINESTRING (476.118908 43.386053, 445.211252 76.488472)

LINESTRING (476.118908 43.386053, 442.056324 74.469454)

LINESTRING (464.061341 71.277625, 474.707073 51.255637)

LINESTRING (464.061341 71.277625, 442.056324 74.469454)

LINESTRING (464.061341 71.277625, 463.111365 64.004448)

LINESTRING (445.211252 76.488472, 442.056324 74.469454)

LINESTRING (445.211252 76.488472, 463.111365 64.004448)

LINESTRING (474.707073 51.255637, 468.680718 58.306057)

LINESTRING (474.707073 51.255637, 442.056324 74.469454)

LINESTRING (468.680718 58.306057, 463.111365 64.004448)

LINESTRING (442.056324 74.469454, 463.111365 64.004448)

LINESTRING (60.000000 260.000000, 42.629645 263.175656)

LINESTRING (60.000000 260.000000, 73.482015 242.945950)

LINESTRING (60.000000 260.000000, 55.263314 252.504458)

LINESTRING (60.000000 260.000000, 56.292290 240.431432)

LINESTRING (60.000000 260.000000, 76.326985 274.074553)

LINESTRING (60.000000 260.000000, 73.905655 278.948522)

LINESTRING (60.000000 260.000000, 69.606780 270.876990)

LINESTRING (60.000000 260.000000, 74.955182 276.286672)

LINESTRING (60.000000 260.000000, 82.844595 252.909499)

LINESTRING (60.000000 260.000000, 77.880535 244.246583)

LINESTRING (42.629645 263.175656, 73.482015 242.945950)

LINESTRING (42.629645 263.175656, 56.292290 240.431432)

LINESTRING (42.629645 263.175656, 76.326985 274.074553)

LINESTRING (42.629645 263.175656, 69.606780 270.876990)

LINESTRING (42.629645 263.175656, 82.844595 252.909499)

LINESTRING (42.629645 263.175656, 77.880535 244.246583)

LINESTRING (73.482015 242.945950, 76.326985 274.074553)

LINESTRING (73.482015 242.945950, 73.905655 278.948522)

LINESTRING (73.482015 242.945950, 82.844595 252.909499)

LINESTRING (55.263314 252.504458, 73.905655 278.948522)

LINESTRING (55.263314 252.504458, 69.606780 270.876990)

LINESTRING (56.292290 240.431432, 73.905655 278.948522)

LINESTRING (76.326985 274.074553, 73.905655 278.948522)

LINESTRING (76.326985 274.074553, 74.955182 276.286672)

LINESTRING (76.326985 274.074553, 77.880535 244.246583)

LINESTRING (73.905655 278.948522, 74.955182 276.286672)

LINESTRING (69.606780 270.876990, 82.844595 252.909499)

LINESTRING (69.606780 270.876990, 77.880535 244.246583)

LINESTRING (74.955182 276.286672, 77.880535 244.246583)

LINESTRING (260.000000 260.000000, 283.220874 243.914144)

LINESTRING (260.000000 260.000000, 253.057294 282.168559)

LINESTRING (260.000000 260.000000, 254.163952 255.265753)

LINESTRING (260.000000 260.000000, 274.109974 239.877961)

LINESTRING (260.000000 260.000000, 262.271292 276.075699)

LINESTRING (260.000000 260.000000, 251.002094 278.961665)

LINESTRING (260.000000 260.000000, 253.072672 250.454346)

LINESTRING (260.000000 260.000000, 267.813062 262.103078)

LINESTRING (260.000000 260.000000, 272.830564 239.447065)

LINESTRING (260.000000 260.000000, 275.591234 256.384594)

LINESTRING (283.220874 243.914144, 253.057294 282.168559)

LINESTRING (283.220874 243.914144, 274.109974 239.877961)

LINESTRING (283.220874 243.914144, 253.072672 250.454346)

LINESTRING (283.220874 243.914144, 267.813062 262.103078)

LINESTRING (283.220874 243.914144, 272.830564 239.447065)

LINESTRING (283.220874 243.914144, 275.591234 256.384594)

LINESTRING (253.057294 282.168559, 254.163952 255.265753)

LINESTRING (253.057294 282.168559, 274.109974 239.877961)

LINESTRING (253.057294 282.168559, 262.271292 276.075699)

LINESTRING (253.057294 282.168559, 253.072672 250.454346)

LINESTRING (253.057294 282.168559, 267.813062 262.103078)

LINESTRING (253.057294 282.168559, 272.830564 239.447065)

LINESTRING (253.057294 282.168559, 275.591234 256.384594)

LINESTRING (254.163952 255.265753, 267.813062 262.103078)

LINESTRING (274.109974 239.877961, 251.002094 278.961665)

LINESTRING (274.109974 239.877961, 272.830564 239.447065)

LINESTRING (274.109974 239.877961, 275.591234 256.384594)

LINESTRING (262.271292 276.075699, 267.813062 262.103078)

LINESTRING (251.002094 278.961665, 267.813062 262.103078)

LINESTRING (251.002094 278.961665, 272.830564 239.447065)

LINESTRING (251.002094 278.961665, 275.591234 256.384594)

LINESTRING (253.072672 250.454346, 267.813062 262.103078)

LINESTRING (267.813062 262.103078, 272.830564 239.447065)

LINESTRING (267.813062 262.103078, 275.591234 256.384594)

LINESTRING (272.830564 239.447065, 275.591234 256.384594)

LINESTRING (460.000000 260.000000, 450.688569 258.351337)

LINESTRING (460.000000 260.000000, 461.406095 256.510243)

LINESTRING (460.000000 260.000000, 440.692975 266.381800)

LINESTRING (460.000000 260.000000, 465.193116 239.411879)

LINESTRING (460.000000 260.000000, 474.665814 281.830945)

LINESTRING (460.000000 260.000000, 465.454743 251.918110)

LINESTRING (460.000000 260.000000, 467.571180 249.789800)

LINESTRING (460.000000 260.000000, 451.460173 270.489257)

LINESTRING (460.000000 260.000000, 477.897251 253.024182)

LINESTRING (460.000000 260.000000, 477.675946 256.136610)

LINESTRING (450.688569 258.351337, 461.406095 256.510243)

LINESTRING (450.688569 258.351337, 440.692975 266.381800)

LINESTRING (450.688569 258.351337, 465.193116 239.411879)

LINESTRING (450.688569 258.351337, 474.665814 281.830945)

LINESTRING (450.688569 258.351337, 467.571180 249.789800)

LINESTRING (450.688569 258.351337, 451.460173 270.489257)

LINESTRING (450.688569 258.351337, 477.897251 253.024182)

LINESTRING (450.688569 258.351337, 477.675946 256.136610)

LINESTRING (461.406095 256.510243, 440.692975 266.381800)

LINESTRING (461.406095 256.510243, 474.665814 281.830945)

LINESTRING (461.406095 256.510243, 465.454743 251.918110)

LINESTRING (461.406095 256.510243, 467.571180 249.789800)

LINESTRING (461.406095 256.510243, 451.460173 270.489257)

LINESTRING (461.406095 256.510243, 477.897251 253.024182)

LINESTRING (440.692975 266.381800, 465.193116 239.411879)

LINESTRING (440.692975 266.381800, 474.665814 281.830945)

LINESTRING (440.692975 266.381800, 467.571180 249.789800)

LINESTRING (440.692975 266.381800, 477.897251 253.024182)

LINESTRING (440.692975 266.381800, 477.675946 256.136610)

LINESTRING (465.193116 239.411879, 467.571180 249.789800)

LINESTRING (474.665814 281.830945, 477.675946 256.136610)

LINESTRING (465.454743 251.918110, 477.897251 253.024182)

LINESTRING (465.454743 251.918110, 477.675946 256.136610)

LINESTRING (467.571180 249.789800, 451.460173 270.489257)

LINESTRING (467.571180 249.789800, 477.675946 256.136610)

LINESTRING (451.460173 270.489257, 477.897251 253.024182)

LINESTRING (451.460173 270.489257, 477.675946 256.136610)

LINESTRING (477.897251 253.024182, 477.675946 256.136610)

LINESTRING (60.000000 460.000000, 39.071378 469.182811)

LINESTRING (60.000000 460.000000, 57.392050 472.344014)

LINESTRING (60.000000 460.000000, 62.908147 479.481587)

LINESTRING (60.000000 460.000000, 65.586453 481.507837)

LINESTRING (60.000000 460.000000, 55.682906 458.519865)

LINESTRING (60.000000 460.000000, 55.590676 442.548327)

LINESTRING (60.000000 460.000000, 39.799718 464.241258)

LINESTRING (60.000000 460.000000, 40.486722 440.928202)

LINESTRING (60.000000 460.000000, 44.867720 467.417685)

LINESTRING (60.000000 460.000000, 37.617238 463.319348)

LINESTRING (39.071378 469.182811, 62.908147 479.481587)

LINESTRING (39.071378 469.182811, 65.586453 481.507837)

LINESTRING (39.071378 469.182811, 55.590676 442.548327)

LINESTRING (39.071378 469.182811, 37.617238 463.319348)

LINESTRING (57.392050 472.344014, 65.586453 481.507837)

LINESTRING (57.392050 472.344014, 55.682906 458.519865)

LINESTRING (57.392050 472.344014, 40.486722 440.928202)

LINESTRING (62.908147 479.481587, 55.590676 442.548327)

LINESTRING (62.908147 479.481587, 39.799718 464.241258)

LINESTRING (62.908147 479.481587, 40.486722 440.928202)

LINESTRING (62.908147 479.481587, 37.617238 463.319348)

LINESTRING (65.586453 481.507837, 55.682906 458.519865)

LINESTRING (65.586453 481.507837, 39.799718 464.241258)

LINESTRING (65.586453 481.507837, 40.486722 440.928202)

LINESTRING (65.586453 481.507837, 44.867720 467.417685)

LINESTRING (65.586453 481.507837, 37.617238 463.319348)

LINESTRING (55.682906 458.519865, 55.590676 442.548327)

LINESTRING (55.682906 458.519865, 37.617238 463.319348)

LINESTRING (55.590676 442.548327, 39.799718 464.241258)

LINESTRING (55.590676 442.548327, 37.617238 463.319348)

LINESTRING (39.799718 464.241258, 40.486722 440.928202)

LINESTRING (39.799718 464.241258, 44.867720 467.417685)

LINESTRING (39.799718 464.241258, 37.617238 463.319348)

LINESTRING (40.486722 440.928202, 44.867720 467.417685)

LINESTRING (260.000000 460.000000, 276.057965 477.855089)

LINESTRING (260.000000 460.000000, 279.939135 456.431886)

LINESTRING (260.000000 460.000000, 239.770557 439.454322)

LINESTRING (260.000000 460.000000, 265.467117 478.731608)

LINESTRING (260.000000 460.000000, 276.331570 441.286656)

LINESTRING (260.000000 460.000000, 238.669920 479.090415)

LINESTRING (260.000000 460.000000, 281.441147 453.062784)

LINESTRING (260.000000 460.000000, 241.976588 446.378159)

LINESTRING (260.000000 460.000000, 273.342779 477.810484)

LINESTRING (260.000000 460.000000, 277.008526 466.995135)

LINESTRING (276.057965 477.855089, 239.770557 439.454322)

LINESTRING (276.057965 477.855089, 265.467117 478.731608)

LINESTRING (276.057965 477.855089, 276.331570 441.286656)

LINESTRING (276.057965 477.855089, 238.669920 479.090415)

LINESTRING (276.057965 477.855089, 241.976588 446.378159)

LINESTRING (279.939135 456.431886, 276.331570 441.286656)

LINESTRING (279.939135 456.431886, 281.441147 453.062784)

LINESTRING (279.939135 456.431886, 241.976588 446.378159)

LINESTRING (279.939135 456.431886, 273.342779 477.810484)

LINESTRING (279.939135 456.431886, 277.008526 466.995135)

LINESTRING (239.770557 439.454322, 238.669920 479.090415)

LINESTRING (239.770557 439.454322, 281.441147 453.062784)

LINESTRING (239.770557 439.454322, 277.008526 466.995135)

LINESTRING (265.467117 478.731608, 276.331570 441.286656)

LINESTRING (265.467117 478.731608, 281.441147 453.062784)

LINESTRING (265.467117 478.731608, 241.976588 446.378159)

LINESTRING (265.467117 478.731608, 273.342779 477.810484)

LINESTRING (276.331570 441.286656, 281.441147 453.062784)

LINESTRING (276.331570 441.286656, 277.008526 466.995135)

LINESTRING (238.669920 479.090415, 241.976588 446.378159)

LINESTRING (238.669920 479.090415, 277.008526 466.995135)

LINESTRING (281.441147 453.062784, 241.976588 446.378159)

LINESTRING (281.441147 453.062784, 273.342779 477.810484)

LINESTRING (77.894199 38.658749, 280.899890 68.776379)

LINESTRING (58.758408 65.427975, 247.618359 49.746726)

LINESTRING (60.000000 60.000000, 260.000000 60.000000)

LINESTRING (254.301074 65.870693, 445.211252 76.488472)

LINESTRING (280.899890 68.776379, 445.211252 76.488472)

LINESTRING (260.000000 60.000000, 460.000000 60.000000)

LINESTRING (457.004762 43.500340, 73.482015 242.945950)

LINESTRING (476.118908 43.386053, 69.606780 270.876990)

LINESTRING (460.000000 60.000000, 60.000000 260.000000)

LINESTRING (76.326985 274.074553, 274.109974 239.877961)

LINESTRING (73.482015 242.945950, 253.072672 250.454346)

LINESTRING (60.000000 260.000000, 260.000000 260.000000)

LINESTRING (275.591234 256.384594, 450.688569 258.351337)

LINESTRING (283.220874 243.914144, 465.454743 251.918110)

LINESTRING (260.000000 260.000000, 460.000000 260.000000)

LINESTRING (450.688569 258.351337, 57.392050 472.344014)

LINESTRING (440.692975 266.381800, 44.867720 467.417685)

LINESTRING (460.000000 260.000000, 60.000000 460.000000)

LINESTRING (55.590676 442.548327, 276.057965 477.855089)

LINESTRING (57.392050 472.344014, 265.467117 478.731608)

LINESTRING (60.000000 460.000000, 260.000000 460.000000)

