LINESTRING (60.000000 60.000000, 160.000000 60.000000)

LINESTRING (60.000000 60.000000, 260.000000 60.000000)

LINESTRING (60.000000 60.000000, 360.000000 60.000000)

LINESTRING (60.000000 60.000000, 60.000000 160.000000)

LINESTRING (60.000000 60.000000, 160.000000 160.000000)

LINESTRING (60.000000 60.000000, 260.000000 160.000000)

LINESTRING (60.000000 60.000000, 360.000000 160.000000)

LINESTRING (60.000000 60.000000, 60.000000 260.000000)

LINESTRING (60.000000 60.000000, 260.000000 260.000000)

LINESTRING (60.000000 60.000000, 360.000000 260.000000)

LINESTRING (160.000000 60.000000, 60.000000 160.000000)

LINESTRING (160.000000 60.000000, 160.000000 160.000000)

LINESTRING (160.000000 60.000000, 260.000000 160.000000)

LINESTRING (160.000000 60.000000, 360.000000 160.000000)

LINESTRING (160.000000 60.000000, 160.000000 260.000000)

LINESTRING (260.000000 60.000000, 60.000000 160.000000)

LINESTRING (260.000000 60.000000, 360.000000 160.000000)

LINESTRING (260.000000 60.000000, 60.000000 260.000000)

LINESTRING (260.000000 60.000000, 360.000000 260.000000)

LINESTRING (360.000000 60.000000, 160.000000 160.000000)

LINESTRING (360.000000 60.000000, 260.000000 160.000000)

LINESTRING (360.000000 60.000000, 260.000000 260.000000)

LINESTRING (360.000000 60.000000, 360.000000 260.000000)

LINESTRING (60.000000 160.000000, 160.000000 160.000000)

LINESTRING (60.000000 160.000000, 260.000000 160.000000)

LINESTRING (60.000000 160.000000, 60.000000 260.000000)

LINESTRING (60.000000 160.000000, 160.000000 260.000000)

LINESTRING (160.000000 160.000000, 260.000000 160.000000)

LINESTRING (160.000000 160.000000, 60.000000 260.000000)

LINESTRING (160.000000 160.000000, 160.000000 260.000000)

LINESTRING (160.000000 160.000000, 260.000000 260.000000)

LINESTRING (160.000000 160.000000, 360.000000 260.000000)

LINESTRING (260.000000 160.000000, 160.000000 260.000000)

LINESTRING (260.000000 160.000000, 260.000000 260.000000)

LINESTRING (260.000000 160.000000, 360.000000 260.000000)

LINESTRING (360.000000 160.000000, 160.000000 260.000000)

LINESTRING (360.000000 160.000000, 260.000000 260.000000)

LINESTRING (360.000000 160.000000, 360.000000 260.000000)

LINESTRING (60.000000 260.000000, 260.000000 260.000000)

LINESTRING (60.000000 260.000000, 360.000000 260.000000)

LINESTRING (160.000000 260.000000, 260.000000 260.000000)

LINESTRING (160.000000 260.000000, 360.000000 260.000000)

LINESTRING (260.000000 260.000000, 360.000000 260.000000)

LINESTRING (310.000000 160.000000, 280.710678 230.710678)

LINESTRING (310.000000 160.000000, 60.000000 60.000000)

LINESTRING (280.710678 230.710678, 210.000000 260.000000)

LINESTRING (280.710678 230.710678, 160.000000 60.000000)

LINESTRING (210.000000 260.000000, 139.289322 230.710678)

LINESTRING (210.000000 260.000000, 260.000000 60.000000)

LINESTRING (139.289322 230.710678, 110.000000 160.000000)

LINESTRING (139.289322 230.710678, 360.000000 60.000000)

LINESTRING (110.000000 160.000000, 139.289322 89.289322)

LINESTRING (110.000000 160.000000, 60.000000 160.000000)

LINESTRING (139.289322 89.289322, 210.000000 60.000000)

LINESTRING (139.289322 89.289322, 160.000000 160.000000)

LINESTRING (210.000000 60.000000, 280.710678 89.289322)

LINESTRING (210.000000 60.000000, 260.000000 160.000000)

LINESTRING (280.710678 89.289322, 310.000000 160.000000)

LINESTRING (280.710678 89.289322, 360.000000 160.000000)

