LINESTRING (80.000000 80.000000, 156.486236 106.717517)

LINESTRING (156.486236 106.717517, 228.141686 92.753905)

LINESTRING (228.141686 92.753905, 286.959392 30.005757)

LINESTRING (286.959392 30.005757, 307.276494 -54.032275)

LINESTRING (286.959392 30.005757, 362.150171 7.744200)

LINESTRING (228.141686 92.753905, 302.695558 115.268428)

LINESTRING (302.695558 115.268428, 373.306937 86.341525)

LINESTRING (302.695558 115.268428, 355.420886 176.736367)

LINESTRING (156.486236 106.717517, 206.741202 156.829464)

LINESTRING (206.741202 156.829464, 282.946114 173.868472)

LINESTRING (282.946114 173.868472, 360.441396 149.953553)

LINESTRING (282.946114 173.868472, 340.826162 225.047467)

LINESTRING (206.741202 156.829464, 236.476720 226.459210)

LINESTRING (236.476720 226.459210, 285.207559 287.075146)

LINESTRING (236.476720 226.459210, 210.709274 302.295797)

LINESTRING (80.000000 80.000000, 110.574575 159.139210)

LINESTRING (110.574575 159.139210, 162.099878 214.326887)

LINESTRING (162.099878 214.326887, 241.997441 243.160624)

LINESTRING (241.997441 243.160624, 318.580067 222.436097)

LINESTRING (241.997441 243.160624, 304.402565 308.018564)

LINESTRING (162.099878 214.326887, 174.529962 290.582615)

LINESTRING (174.529962 290.582615, 235.672732 338.616551)

LINESTRING (174.529962 290.582615, 158.265249 374.298432)

LINESTRING (110.574575 159.139210, 92.539656 244.690703)

LINESTRING (92.539656 244.690703, 117.559517 315.288979)

LINESTRING (117.559517 315.288979, 179.706616 362.671375)

LINESTRING (117.559517 315.288979, 97.667594 386.855511)

LINESTRING (92.539656 244.690703, 31.158886 299.077857)

LINESTRING (31.158886 299.077857, 19.299647 373.766095)

LINESTRING (31.158886 299.077857, -36.560659 329.418544)

