LINESTRING (80.000000 80.000000, 229.987820 78.088476)

LINESTRING (80.000000 80.000000, 162.493301 78.948662)

LINESTRING (162.493301 78.948662, 229.987820 78.088476)

LINESTRING (80.000000 80.000000, 205.358781 162.372181)

LINESTRING (80.000000 80.000000, 148.947329 125.304699)

LINESTRING (148.947329 125.304699, 205.358781 162.372181)

LINESTRING (80.000000 80.000000, 115.819036 225.660553)

LINESTRING (80.000000 80.000000, 99.700470 160.113304)

LINESTRING (99.700470 160.113304, 115.819036 225.660553)

LINESTRING (80.000000 80.000000, 24.363257 219.300226)

LINESTRING (80.000000 80.000000, 49.399792 156.615124)

LINESTRING (49.399792 156.615124, 24.363257 219.300226)

LINESTRING (80.000000 80.000000, -40.105137 169.859647)

LINESTRING (80.000000 80.000000, 13.942175 129.422806)

LINESTRING (13.942175 129.422806, -40.105137 169.859647)

LINESTRING (80.000000 80.000000, -69.569941 68.649554)

LINESTRING (80.000000 80.000000, -2.263468 73.757255)

LINESTRING (-2.263468 73.757255, -69.569941 68.649554)

LINESTRING (80.000000 80.000000, -46.311213 -0.904126)

LINESTRING (80.000000 80.000000, 10.528833 35.502731)

LINESTRING (10.528833 35.502731, -46.311213 -0.904126)

LINESTRING (80.000000 80.000000, 34.984376 -63.085966)

LINESTRING (80.000000 80.000000, 55.241407 1.302719)

LINESTRING (55.241407 1.302719, 34.984376 -63.085966)

LINESTRING (80.000000 80.000000, 123.698156 -63.493802)

LINESTRING (80.000000 80.000000, 104.033986 1.078409)

LINESTRING (104.033986 1.078409, 123.698156 -63.493802)

LINESTRING (80.000000 80.000000, 201.878859 -7.438800)

LINESTRING (80.000000 80.000000, 147.033372 31.908660)

LINESTRING (147.033372 31.908660, 201.878859 -7.438800)

LINESTRING (229.987820 78.088476, 205.358781 162.372181)

LINESTRING (205.358781 162.372181, 115.819036 225.660553)

LINESTRING (115.819036 225.660553, 24.363257 219.300226)

LINESTRING (24.363257 219.300226, -40.105137 169.859647)

LINESTRING (-40.105137 169.859647, -69.569941 68.649554)

LINESTRING (-69.569941 68.649554, -46.311213 -0.904126)

LINESTRING (-46.311213 -0.904126, 34.984376 -63.085966)

LINESTRING (34.984376 -63.085966, 123.698156 -63.493802)

LINESTRING (123.698156 -63.493802, 201.878859 -7.438800)

LINESTRING (201.878859 -7.438800, 229.987820 78.088476)

