LINESTRING (160.373370 133.329295, 125.792496 144.996204)

LINESTRING (160.373370 133.329295, 154.684385 131.356353)

LINESTRING (160.373370 133.329295, 138.468247 136.986568)

LINESTRING (160.373370 133.329295, 170.151148 102.337199)

LINESTRING (160.373370 133.329295, 121.396633 111.708046)

LINESTRING (160.373370 133.329295, 100.023186 135.412865)

LINESTRING (160.373370 133.329295, 149.457252 178.443631)

LINESTRING (160.373370 133.329295, 148.622026 151.832261)

LINESTRING (160.373370 133.329295, 109.765112 176.268899)

LINESTRING (160.373370 133.329295, 101.975968 144.878833)

LINESTRING (160.373370 133.329295, 100.235115 116.616016)

LINESTRING (160.373370 133.329295, 175.510115 131.041695)

LINESTRING (160.373370 133.329295, 148.632838 165.544266)

LINESTRING (160.373370 133.329295, 119.074376 153.679766)

LINESTRING (160.373370 133.329295, 130.326995 139.285647)

LINESTRING (160.373370 133.329295, 157.210120 134.192706)

LINESTRING (160.373370 133.329295, 162.423533 111.968176)

LINESTRING (160.373370 133.329295, 158.495667 126.796252)

LINESTRING (160.373370 133.329295, 118.435826 139.441657)

LINESTRING (160.373370 133.329295, 114.825228 179.997368)

LINESTRING (160.373370 133.329295, 115.831854 153.065853)

LINESTRING (160.373370 133.329295, 147.780590 150.361811)

LINESTRING (160.373370 133.329295, 167.257002 128.828693)

LINESTRING (160.373370 133.329295, 154.854637 171.470145)

LINESTRING (160.373370 133.329295, 178.422032 137.646796)

LINESTRING (160.373370 133.329295, 135.615964 145.670396)

LINESTRING (125.792496 144.996204, 154.684385 131.356353)

LINESTRING (125.792496 144.996204, 138.468247 136.986568)

LINESTRING (125.792496 144.996204, 143.243054 150.524905)

LINESTRING (125.792496 144.996204, 126.885509 171.230163)

LINESTRING (125.792496 144.996204, 100.235115 116.616016)

LINESTRING (125.792496 144.996204, 134.088163 135.475561)

LINESTRING (125.792496 144.996204, 104.456478 147.753206)

LINESTRING (125.792496 144.996204, 175.510115 131.041695)

LINESTRING (125.792496 144.996204, 167.514419 178.202180)

LINESTRING (125.792496 144.996204, 148.632838 165.544266)

LINESTRING (125.792496 144.996204, 151.515220 158.448914)

LINESTRING (125.792496 144.996204, 120.940282 133.029410)

LINESTRING (125.792496 144.996204, 162.423533 111.968176)

LINESTRING (125.792496 144.996204, 119.403007 159.385723)

LINESTRING (125.792496 144.996204, 118.435826 139.441657)

LINESTRING (125.792496 144.996204, 115.831854 153.065853)

LINESTRING (125.792496 144.996204, 176.419442 133.796554)

LINESTRING (125.792496 144.996204, 139.658037 174.987358)

LINESTRING (125.792496 144.996204, 157.027913 152.146328)

LINESTRING (125.792496 144.996204, 147.780590 150.361811)

LINESTRING (125.792496 144.996204, 121.525178 146.787920)

LINESTRING (125.792496 144.996204, 105.528056 123.265292)

LINESTRING (154.684385 131.356353, 138.468247 136.986568)

LINESTRING (154.684385 131.356353, 143.243054 150.524905)

LINESTRING (154.684385 131.356353, 100.023186 135.412865)

LINESTRING (154.684385 131.356353, 148.622026 151.832261)

LINESTRING (154.684385 131.356353, 109.765112 176.268899)

LINESTRING (154.684385 131.356353, 115.653904 151.426163)

LINESTRING (154.684385 131.356353, 149.930676 148.685432)

LINESTRING (154.684385 131.356353, 134.088163 135.475561)

LINESTRING (154.684385 131.356353, 175.510115 131.041695)

LINESTRING (154.684385 131.356353, 120.940282 133.029410)

LINESTRING (154.684385 131.356353, 162.423533 111.968176)

LINESTRING (154.684385 131.356353, 114.825228 179.997368)

LINESTRING (154.684385 131.356353, 118.682967 154.725634)

LINESTRING (154.684385 131.356353, 115.831854 153.065853)

LINESTRING (154.684385 131.356353, 157.027913 152.146328)

LINESTRING (154.684385 131.356353, 121.525178 146.787920)

LINESTRING (154.684385 131.356353, 154.854637 171.470145)

LINESTRING (154.684385 131.356353, 165.204202 179.219855)

LINESTRING (154.684385 131.356353, 105.528056 123.265292)

LINESTRING (129.287639 131.370894, 149.930676 148.685432)

LINESTRING (129.287639 131.370894, 104.456478 147.753206)

LINESTRING (129.287639 131.370894, 125.667783 169.636106)

LINESTRING (129.287639 131.370894, 119.074376 153.679766)

LINESTRING (129.287639 131.370894, 151.515220 158.448914)

LINESTRING (129.287639 131.370894, 174.220268 137.408263)

LINESTRING (129.287639 131.370894, 130.024845 173.246629)

LINESTRING (129.287639 131.370894, 162.423533 111.968176)

LINESTRING (129.287639 131.370894, 158.495667 126.796252)

LINESTRING (129.287639 131.370894, 172.113906 179.780674)

LINESTRING (129.287639 131.370894, 118.682967 154.725634)

LINESTRING (129.287639 131.370894, 115.831854 153.065853)

LINESTRING (129.287639 131.370894, 167.257002 128.828693)

LINESTRING (129.287639 131.370894, 178.422032 137.646796)

LINESTRING (129.287639 131.370894, 105.528056 123.265292)

LINESTRING (129.287639 131.370894, 135.615964 145.670396)

LINESTRING (138.468247 136.986568, 121.396633 111.708046)

LINESTRING (138.468247 136.986568, 179.084842 161.860417)

LINESTRING (138.468247 136.986568, 148.622026 151.832261)

LINESTRING (138.468247 136.986568, 109.765112 176.268899)

LINESTRING (138.468247 136.986568, 101.975968 144.878833)

LINESTRING (138.468247 136.986568, 115.653904 151.426163)

LINESTRING (138.468247 136.986568, 151.515220 158.448914)

LINESTRING (138.468247 136.986568, 118.766663 125.339022)

LINESTRING (138.468247 136.986568, 157.210120 134.192706)

LINESTRING (138.468247 136.986568, 119.403007 159.385723)

LINESTRING (138.468247 136.986568, 116.565179 104.800565)

LINESTRING (138.468247 136.986568, 139.658037 174.987358)

LINESTRING (138.468247 136.986568, 157.027913 152.146328)

LINESTRING (138.468247 136.986568, 121.525178 146.787920)

LINESTRING (138.468247 136.986568, 165.204202 179.219855)

LINESTRING (170.151148 102.337199, 143.243054 150.524905)

LINESTRING (170.151148 102.337199, 179.084842 161.860417)

LINESTRING (170.151148 102.337199, 126.629062 142.415259)

LINESTRING (170.151148 102.337199, 125.792087 118.417242)

LINESTRING (170.151148 102.337199, 101.975968 144.878833)

LINESTRING (170.151148 102.337199, 115.653904 151.426163)

LINESTRING (170.151148 102.337199, 175.510115 131.041695)

LINESTRING (170.151148 102.337199, 175.998408 127.625868)

LINESTRING (170.151148 102.337199, 148.632838 165.544266)

LINESTRING (170.151148 102.337199, 125.667783 169.636106)

LINESTRING (170.151148 102.337199, 160.613406 176.551349)

LINESTRING (170.151148 102.337199, 130.326995 139.285647)

LINESTRING (170.151148 102.337199, 130.024845 173.246629)

LINESTRING (170.151148 102.337199, 139.658037 174.987358)

LINESTRING (170.151148 102.337199, 121.525178 146.787920)

LINESTRING (170.151148 102.337199, 165.204202 179.219855)

LINESTRING (170.151148 102.337199, 178.422032 137.646796)

LINESTRING (170.151148 102.337199, 135.615964 145.670396)

LINESTRING (121.396633 111.708046, 179.084842 161.860417)

LINESTRING (121.396633 111.708046, 109.765112 176.268899)

LINESTRING (121.396633 111.708046, 101.975968 144.878833)

LINESTRING (121.396633 111.708046, 115.653904 151.426163)

LINESTRING (121.396633 111.708046, 134.088163 135.475561)

LINESTRING (121.396633 111.708046, 167.514419 178.202180)

LINESTRING (121.396633 111.708046, 125.667783 169.636106)

LINESTRING (121.396633 111.708046, 119.074376 153.679766)

LINESTRING (121.396633 111.708046, 130.326995 139.285647)

LINESTRING (121.396633 111.708046, 174.220268 137.408263)

LINESTRING (121.396633 111.708046, 120.940282 133.029410)

LINESTRING (121.396633 111.708046, 157.210120 134.192706)

LINESTRING (121.396633 111.708046, 162.423533 111.968176)

LINESTRING (121.396633 111.708046, 119.403007 159.385723)

LINESTRING (121.396633 111.708046, 116.565179 104.800565)

LINESTRING (121.396633 111.708046, 176.419442 133.796554)

LINESTRING (121.396633 111.708046, 157.027913 152.146328)

LINESTRING (121.396633 111.708046, 147.780590 150.361811)

LINESTRING (121.396633 111.708046, 121.525178 146.787920)

LINESTRING (121.396633 111.708046, 154.854637 171.470145)

LINESTRING (102.320473 163.303725, 126.629062 142.415259)

LINESTRING (102.320473 163.303725, 125.792087 118.417242)

LINESTRING (102.320473 163.303725, 149.930676 148.685432)

LINESTRING (102.320473 163.303725, 100.235115 116.616016)

LINESTRING (102.320473 163.303725, 175.510115 131.041695)

LINESTRING (102.320473 163.303725, 167.514419 178.202180)

LINESTRING (102.320473 163.303725, 175.998408 127.625868)

LINESTRING (102.320473 163.303725, 148.632838 165.544266)

LINESTRING (102.320473 163.303725, 125.667783 169.636106)

LINESTRING (102.320473 163.303725, 119.074376 153.679766)

LINESTRING (102.320473 163.303725, 151.515220 158.448914)

LINESTRING (102.320473 163.303725, 174.220268 137.408263)

LINESTRING (102.320473 163.303725, 119.403007 159.385723)

LINESTRING (102.320473 163.303725, 118.435826 139.441657)

LINESTRING (102.320473 163.303725, 118.682967 154.725634)

LINESTRING (102.320473 163.303725, 165.204202 179.219855)

LINESTRING (102.320473 163.303725, 105.528056 123.265292)

LINESTRING (102.320473 163.303725, 142.685765 106.595930)

LINESTRING (102.320473 163.303725, 135.615964 145.670396)

LINESTRING (143.243054 150.524905, 149.457252 178.443631)

LINESTRING (143.243054 150.524905, 148.622026 151.832261)

LINESTRING (143.243054 150.524905, 101.975968 144.878833)

LINESTRING (143.243054 150.524905, 126.885509 171.230163)

LINESTRING (143.243054 150.524905, 149.930676 148.685432)

LINESTRING (143.243054 150.524905, 167.514419 178.202180)

LINESTRING (143.243054 150.524905, 175.998408 127.625868)

LINESTRING (143.243054 150.524905, 142.449127 122.414704)

LINESTRING (143.243054 150.524905, 119.074376 153.679766)

LINESTRING (143.243054 150.524905, 160.613406 176.551349)

LINESTRING (143.243054 150.524905, 130.326995 139.285647)

LINESTRING (143.243054 150.524905, 161.179039 163.130775)

LINESTRING (143.243054 150.524905, 119.403007 159.385723)

LINESTRING (143.243054 150.524905, 157.027913 152.146328)

LINESTRING (143.243054 150.524905, 147.780590 150.361811)

LINESTRING (143.243054 150.524905, 178.422032 137.646796)

LINESTRING (143.243054 150.524905, 142.685765 106.595930)

LINESTRING (143.243054 150.524905, 135.615964 145.670396)

LINESTRING (100.023186 135.412865, 149.457252 178.443631)

LINESTRING (100.023186 135.412865, 101.975968 144.878833)

LINESTRING (100.023186 135.412865, 126.885509 171.230163)

LINESTRING (100.023186 135.412865, 134.088163 135.475561)

LINESTRING (100.023186 135.412865, 104.456478 147.753206)

LINESTRING (100.023186 135.412865, 175.510115 131.041695)

LINESTRING (100.023186 135.412865, 167.514419 178.202180)

LINESTRING (100.023186 135.412865, 119.074376 153.679766)

LINESTRING (100.023186 135.412865, 130.326995 139.285647)

LINESTRING (100.023186 135.412865, 161.179039 163.130775)

LINESTRING (100.023186 135.412865, 120.940282 133.029410)

LINESTRING (100.023186 135.412865, 162.423533 111.968176)

LINESTRING (100.023186 135.412865, 119.403007 159.385723)

LINESTRING (100.023186 135.412865, 158.495667 126.796252)

LINESTRING (100.023186 135.412865, 172.113906 179.780674)

LINESTRING (100.023186 135.412865, 118.435826 139.441657)

LINESTRING (100.023186 135.412865, 139.658037 174.987358)

LINESTRING (100.023186 135.412865, 121.525178 146.787920)

LINESTRING (100.023186 135.412865, 105.528056 123.265292)

LINESTRING (100.023186 135.412865, 135.615964 145.670396)

LINESTRING (149.457252 178.443631, 126.629062 142.415259)

LINESTRING (149.457252 178.443631, 125.792087 118.417242)

LINESTRING (149.457252 178.443631, 101.975968 144.878833)

LINESTRING (149.457252 178.443631, 126.885509 171.230163)

LINESTRING (149.457252 178.443631, 149.930676 148.685432)

LINESTRING (149.457252 178.443631, 100.235115 116.616016)

LINESTRING (149.457252 178.443631, 104.456478 147.753206)

LINESTRING (149.457252 178.443631, 167.514419 178.202180)

LINESTRING (149.457252 178.443631, 175.998408 127.625868)

LINESTRING (149.457252 178.443631, 148.632838 165.544266)

LINESTRING (149.457252 178.443631, 130.326995 139.285647)

LINESTRING (149.457252 178.443631, 161.179039 163.130775)

LINESTRING (149.457252 178.443631, 162.423533 111.968176)

LINESTRING (149.457252 178.443631, 158.495667 126.796252)

LINESTRING (149.457252 178.443631, 116.565179 104.800565)

LINESTRING (149.457252 178.443631, 118.435826 139.441657)

LINESTRING (149.457252 178.443631, 118.682967 154.725634)

LINESTRING (149.457252 178.443631, 139.658037 174.987358)

LINESTRING (149.457252 178.443631, 147.780590 150.361811)

LINESTRING (149.457252 178.443631, 105.528056 123.265292)

LINESTRING (149.457252 178.443631, 135.615964 145.670396)

LINESTRING (179.084842 161.860417, 148.622026 151.832261)

LINESTRING (179.084842 161.860417, 126.629062 142.415259)

LINESTRING (179.084842 161.860417, 101.975968 144.878833)

LINESTRING (179.084842 161.860417, 149.930676 148.685432)

LINESTRING (179.084842 161.860417, 100.235115 116.616016)

LINESTRING (179.084842 161.860417, 134.088163 135.475561)

LINESTRING (179.084842 161.860417, 104.456478 147.753206)

LINESTRING (179.084842 161.860417, 142.449127 122.414704)

LINESTRING (179.084842 161.860417, 119.074376 153.679766)

LINESTRING (179.084842 161.860417, 151.515220 158.448914)

LINESTRING (179.084842 161.860417, 174.220268 137.408263)

LINESTRING (179.084842 161.860417, 161.179039 163.130775)

LINESTRING (179.084842 161.860417, 157.210120 134.192706)

LINESTRING (179.084842 161.860417, 162.423533 111.968176)

LINESTRING (179.084842 161.860417, 119.403007 159.385723)

LINESTRING (179.084842 161.860417, 116.565179 104.800565)

LINESTRING (179.084842 161.860417, 115.831854 153.065853)

LINESTRING (179.084842 161.860417, 147.780590 150.361811)

LINESTRING (179.084842 161.860417, 167.257002 128.828693)

LINESTRING (179.084842 161.860417, 154.854637 171.470145)

LINESTRING (179.084842 161.860417, 135.615964 145.670396)

LINESTRING (148.622026 151.832261, 109.765112 176.268899)

LINESTRING (148.622026 151.832261, 104.456478 147.753206)

LINESTRING (148.622026 151.832261, 175.510115 131.041695)

LINESTRING (148.622026 151.832261, 167.514419 178.202180)

LINESTRING (148.622026 151.832261, 175.998408 127.625868)

LINESTRING (148.622026 151.832261, 142.449127 122.414704)

LINESTRING (148.622026 151.832261, 130.326995 139.285647)

LINESTRING (148.622026 151.832261, 120.940282 133.029410)

LINESTRING (148.622026 151.832261, 119.403007 159.385723)

LINESTRING (148.622026 151.832261, 158.495667 126.796252)

LINESTRING (148.622026 151.832261, 118.435826 139.441657)

LINESTRING (148.622026 151.832261, 114.825228 179.997368)

LINESTRING (148.622026 151.832261, 118.682967 154.725634)

LINESTRING (148.622026 151.832261, 157.027913 152.146328)

LINESTRING (148.622026 151.832261, 147.780590 150.361811)

LINESTRING (148.622026 151.832261, 167.257002 128.828693)

LINESTRING (148.622026 151.832261, 165.204202 179.219855)

LINESTRING (148.622026 151.832261, 178.422032 137.646796)

LINESTRING (148.622026 151.832261, 142.685765 106.595930)

LINESTRING (126.629062 142.415259, 101.975968 144.878833)

LINESTRING (126.629062 142.415259, 149.930676 148.685432)

LINESTRING (126.629062 142.415259, 100.235115 116.616016)

LINESTRING (126.629062 142.415259, 167.514419 178.202180)

LINESTRING (126.629062 142.415259, 148.632838 165.544266)

LINESTRING (126.629062 142.415259, 125.667783 169.636106)

LINESTRING (126.629062 142.415259, 160.613406 176.551349)

LINESTRING (126.629062 142.415259, 174.220268 137.408263)

LINESTRING (126.629062 142.415259, 119.403007 159.385723)

LINESTRING (126.629062 142.415259, 118.435826 139.441657)

LINESTRING (126.629062 142.415259, 121.525178 146.787920)

LINESTRING (126.629062 142.415259, 165.204202 179.219855)

LINESTRING (126.629062 142.415259, 135.615964 145.670396)

LINESTRING (125.792087 118.417242, 109.765112 176.268899)

LINESTRING (125.792087 118.417242, 126.885509 171.230163)

LINESTRING (125.792087 118.417242, 149.930676 148.685432)

LINESTRING (125.792087 118.417242, 100.235115 116.616016)

LINESTRING (125.792087 118.417242, 175.510115 131.041695)

LINESTRING (125.792087 118.417242, 167.514419 178.202180)

LINESTRING (125.792087 118.417242, 142.449127 122.414704)

LINESTRING (125.792087 118.417242, 119.074376 153.679766)

LINESTRING (125.792087 118.417242, 160.613406 176.551349)

LINESTRING (125.792087 118.417242, 151.515220 158.448914)

LINESTRING (125.792087 118.417242, 161.179039 163.130775)

LINESTRING (125.792087 118.417242, 162.423533 111.968176)

LINESTRING (125.792087 118.417242, 118.435826 139.441657)

LINESTRING (125.792087 118.417242, 114.825228 179.997368)

LINESTRING (125.792087 118.417242, 118.682967 154.725634)

LINESTRING (125.792087 118.417242, 115.831854 153.065853)

LINESTRING (125.792087 118.417242, 176.419442 133.796554)

LINESTRING (125.792087 118.417242, 157.027913 152.146328)

LINESTRING (125.792087 118.417242, 121.525178 146.787920)

LINESTRING (125.792087 118.417242, 154.854637 171.470145)

LINESTRING (125.792087 118.417242, 105.528056 123.265292)

LINESTRING (125.792087 118.417242, 142.685765 106.595930)

LINESTRING (109.765112 176.268899, 115.653904 151.426163)

LINESTRING (109.765112 176.268899, 100.235115 116.616016)

LINESTRING (109.765112 176.268899, 175.510115 131.041695)

LINESTRING (109.765112 176.268899, 167.514419 178.202180)

LINESTRING (109.765112 176.268899, 175.998408 127.625868)

LINESTRING (109.765112 176.268899, 148.632838 165.544266)

LINESTRING (109.765112 176.268899, 130.326995 139.285647)

LINESTRING (109.765112 176.268899, 120.940282 133.029410)

LINESTRING (109.765112 176.268899, 118.766663 125.339022)

LINESTRING (109.765112 176.268899, 119.403007 159.385723)

LINESTRING (109.765112 176.268899, 118.682967 154.725634)

LINESTRING (109.765112 176.268899, 176.419442 133.796554)

LINESTRING (109.765112 176.268899, 121.525178 146.787920)

LINESTRING (109.765112 176.268899, 154.854637 171.470145)

LINESTRING (109.765112 176.268899, 142.685765 106.595930)

LINESTRING (101.975968 144.878833, 175.510115 131.041695)

LINESTRING (101.975968 144.878833, 167.514419 178.202180)

LINESTRING (101.975968 144.878833, 175.998408 127.625868)

LINESTRING (101.975968 144.878833, 151.515220 158.448914)

LINESTRING (101.975968 144.878833, 130.326995 139.285647)

LINESTRING (101.975968 144.878833, 174.220268 137.408263)

LINESTRING (101.975968 144.878833, 130.024845 173.246629)

LINESTRING (101.975968 144.878833, 119.403007 159.385723)

LINESTRING (101.975968 144.878833, 158.495667 126.796252)

LINESTRING (101.975968 144.878833, 116.565179 104.800565)

LINESTRING (101.975968 144.878833, 114.825228 179.997368)

LINESTRING (101.975968 144.878833, 167.257002 128.828693)

LINESTRING (101.975968 144.878833, 154.854637 171.470145)

LINESTRING (101.975968 144.878833, 165.204202 179.219855)

LINESTRING (126.885509 171.230163, 149.930676 148.685432)

LINESTRING (126.885509 171.230163, 134.088163 135.475561)

LINESTRING (126.885509 171.230163, 175.510115 131.041695)

LINESTRING (126.885509 171.230163, 167.514419 178.202180)

LINESTRING (126.885509 171.230163, 175.998408 127.625868)

LINESTRING (126.885509 171.230163, 142.449127 122.414704)

LINESTRING (126.885509 171.230163, 125.667783 169.636106)

LINESTRING (126.885509 171.230163, 160.613406 176.551349)

LINESTRING (126.885509 171.230163, 161.179039 163.130775)

LINESTRING (126.885509 171.230163, 120.940282 133.029410)

LINESTRING (126.885509 171.230163, 130.024845 173.246629)

LINESTRING (126.885509 171.230163, 172.113906 179.780674)

LINESTRING (126.885509 171.230163, 139.658037 174.987358)

LINESTRING (126.885509 171.230163, 157.027913 152.146328)

LINESTRING (126.885509 171.230163, 147.780590 150.361811)

LINESTRING (126.885509 171.230163, 154.854637 171.470145)

LINESTRING (126.885509 171.230163, 178.422032 137.646796)

LINESTRING (126.885509 171.230163, 142.685765 106.595930)

LINESTRING (115.653904 151.426163, 175.510115 131.041695)

LINESTRING (115.653904 151.426163, 167.514419 178.202180)

LINESTRING (115.653904 151.426163, 175.998408 127.625868)

LINESTRING (115.653904 151.426163, 148.632838 165.544266)

LINESTRING (115.653904 151.426163, 160.613406 176.551349)

LINESTRING (115.653904 151.426163, 130.326995 139.285647)

LINESTRING (115.653904 151.426163, 174.220268 137.408263)

LINESTRING (115.653904 151.426163, 120.940282 133.029410)

LINESTRING (115.653904 151.426163, 157.210120 134.192706)

LINESTRING (115.653904 151.426163, 130.024845 173.246629)

LINESTRING (115.653904 151.426163, 119.403007 159.385723)

LINESTRING (115.653904 151.426163, 158.495667 126.796252)

LINESTRING (115.653904 151.426163, 116.565179 104.800565)

LINESTRING (115.653904 151.426163, 114.825228 179.997368)

LINESTRING (115.653904 151.426163, 157.027913 152.146328)

LINESTRING (115.653904 151.426163, 167.257002 128.828693)

LINESTRING (115.653904 151.426163, 165.204202 179.219855)

LINESTRING (115.653904 151.426163, 142.685765 106.595930)

LINESTRING (149.930676 148.685432, 104.456478 147.753206)

LINESTRING (149.930676 148.685432, 175.998408 127.625868)

LINESTRING (149.930676 148.685432, 119.074376 153.679766)

LINESTRING (149.930676 148.685432, 151.515220 158.448914)

LINESTRING (149.930676 148.685432, 157.210120 134.192706)

LINESTRING (149.930676 148.685432, 130.024845 173.246629)

LINESTRING (149.930676 148.685432, 158.495667 126.796252)

LINESTRING (149.930676 148.685432, 172.113906 179.780674)

LINESTRING (149.930676 148.685432, 115.831854 153.065853)

LINESTRING (149.930676 148.685432, 154.854637 171.470145)

LINESTRING (149.930676 148.685432, 105.528056 123.265292)

LINESTRING (149.930676 148.685432, 142.685765 106.595930)

LINESTRING (100.235115 116.616016, 125.667783 169.636106)

LINESTRING (100.235115 116.616016, 119.074376 153.679766)

LINESTRING (100.235115 116.616016, 130.326995 139.285647)

LINESTRING (100.235115 116.616016, 174.220268 137.408263)

LINESTRING (100.235115 116.616016, 130.024845 173.246629)

LINESTRING (100.235115 116.616016, 119.403007 159.385723)

LINESTRING (100.235115 116.616016, 158.495667 126.796252)

LINESTRING (100.235115 116.616016, 116.565179 104.800565)

LINESTRING (100.235115 116.616016, 172.113906 179.780674)

LINESTRING (100.235115 116.616016, 118.435826 139.441657)

LINESTRING (100.235115 116.616016, 115.831854 153.065853)

LINESTRING (100.235115 116.616016, 139.658037 174.987358)

LINESTRING (100.235115 116.616016, 165.204202 179.219855)

LINESTRING (100.235115 116.616016, 178.422032 137.646796)

LINESTRING (134.088163 135.475561, 104.456478 147.753206)

LINESTRING (134.088163 135.475561, 175.510115 131.041695)

LINESTRING (134.088163 135.475561, 175.998408 127.625868)

LINESTRING (134.088163 135.475561, 125.667783 169.636106)

LINESTRING (134.088163 135.475561, 119.074376 153.679766)

LINESTRING (134.088163 135.475561, 151.515220 158.448914)

LINESTRING (134.088163 135.475561, 120.940282 133.029410)

LINESTRING (134.088163 135.475561, 118.766663 125.339022)

LINESTRING (134.088163 135.475561, 162.423533 111.968176)

LINESTRING (134.088163 135.475561, 119.403007 159.385723)

LINESTRING (134.088163 135.475561, 158.495667 126.796252)

LINESTRING (134.088163 135.475561, 115.831854 153.065853)

LINESTRING (134.088163 135.475561, 147.780590 150.361811)

LINESTRING (134.088163 135.475561, 167.257002 128.828693)

LINESTRING (134.088163 135.475561, 165.204202 179.219855)

LINESTRING (134.088163 135.475561, 178.422032 137.646796)

LINESTRING (104.456478 147.753206, 175.510115 131.041695)

LINESTRING (104.456478 147.753206, 167.514419 178.202180)

LINESTRING (104.456478 147.753206, 148.632838 165.544266)

LINESTRING (104.456478 147.753206, 125.667783 169.636106)

LINESTRING (104.456478 147.753206, 160.613406 176.551349)

LINESTRING (104.456478 147.753206, 174.220268 137.408263)

LINESTRING (104.456478 147.753206, 118.766663 125.339022)

LINESTRING (104.456478 147.753206, 157.210120 134.192706)

LINESTRING (104.456478 147.753206, 130.024845 173.246629)

LINESTRING (104.456478 147.753206, 119.403007 159.385723)

LINESTRING (104.456478 147.753206, 172.113906 179.780674)

LINESTRING (104.456478 147.753206, 118.682967 154.725634)

LINESTRING (104.456478 147.753206, 139.658037 174.987358)

LINESTRING (104.456478 147.753206, 157.027913 152.146328)

LINESTRING (104.456478 147.753206, 167.257002 128.828693)

LINESTRING (104.456478 147.753206, 178.422032 137.646796)

LINESTRING (104.456478 147.753206, 105.528056 123.265292)

LINESTRING (175.510115 131.041695, 160.613406 176.551349)

LINESTRING (175.510115 131.041695, 161.179039 163.130775)

LINESTRING (175.510115 131.041695, 157.210120 134.192706)

LINESTRING (175.510115 131.041695, 119.403007 159.385723)

LINESTRING (175.510115 131.041695, 158.495667 126.796252)

LINESTRING (175.510115 131.041695, 116.565179 104.800565)

LINESTRING (175.510115 131.041695, 114.825228 179.997368)

LINESTRING (175.510115 131.041695, 118.682967 154.725634)

LINESTRING (175.510115 131.041695, 139.658037 174.987358)

LINESTRING (175.510115 131.041695, 154.854637 171.470145)

LINESTRING (175.510115 131.041695, 178.422032 137.646796)

LINESTRING (175.510115 131.041695, 105.528056 123.265292)

LINESTRING (175.510115 131.041695, 142.685765 106.595930)

LINESTRING (167.514419 178.202180, 148.632838 165.544266)

LINESTRING (167.514419 178.202180, 125.667783 169.636106)

LINESTRING (167.514419 178.202180, 119.074376 153.679766)

LINESTRING (167.514419 178.202180, 160.613406 176.551349)

LINESTRING (167.514419 178.202180, 151.515220 158.448914)

LINESTRING (167.514419 178.202180, 118.766663 125.339022)

LINESTRING (167.514419 178.202180, 157.210120 134.192706)

LINESTRING (167.514419 178.202180, 119.403007 159.385723)

LINESTRING (167.514419 178.202180, 118.435826 139.441657)

LINESTRING (167.514419 178.202180, 114.825228 179.997368)

LINESTRING (167.514419 178.202180, 115.831854 153.065853)

LINESTRING (167.514419 178.202180, 176.419442 133.796554)

LINESTRING (167.514419 178.202180, 139.658037 174.987358)

LINESTRING (167.514419 178.202180, 178.422032 137.646796)

LINESTRING (167.514419 178.202180, 142.685765 106.595930)

LINESTRING (175.998408 127.625868, 142.449127 122.414704)

LINESTRING (175.998408 127.625868, 125.667783 169.636106)

LINESTRING (175.998408 127.625868, 119.074376 153.679766)

LINESTRING (175.998408 127.625868, 161.179039 163.130775)

LINESTRING (175.998408 127.625868, 157.210120 134.192706)

LINESTRING (175.998408 127.625868, 130.024845 173.246629)

LINESTRING (175.998408 127.625868, 162.423533 111.968176)

LINESTRING (175.998408 127.625868, 119.403007 159.385723)

LINESTRING (175.998408 127.625868, 118.435826 139.441657)

LINESTRING (175.998408 127.625868, 118.682967 154.725634)

LINESTRING (175.998408 127.625868, 157.027913 152.146328)

LINESTRING (175.998408 127.625868, 121.525178 146.787920)

LINESTRING (175.998408 127.625868, 154.854637 171.470145)

LINESTRING (175.998408 127.625868, 135.615964 145.670396)

LINESTRING (148.632838 165.544266, 142.449127 122.414704)

LINESTRING (148.632838 165.544266, 125.667783 169.636106)

LINESTRING (148.632838 165.544266, 119.074376 153.679766)

LINESTRING (148.632838 165.544266, 174.220268 137.408263)

LINESTRING (148.632838 165.544266, 161.179039 163.130775)

LINESTRING (148.632838 165.544266, 157.210120 134.192706)

LINESTRING (148.632838 165.544266, 162.423533 111.968176)

LINESTRING (148.632838 165.544266, 172.113906 179.780674)

LINESTRING (148.632838 165.544266, 118.682967 154.725634)

LINESTRING (148.632838 165.544266, 115.831854 153.065853)

LINESTRING (148.632838 165.544266, 167.257002 128.828693)

LINESTRING (148.632838 165.544266, 154.854637 171.470145)

LINESTRING (148.632838 165.544266, 165.204202 179.219855)

LINESTRING (148.632838 165.544266, 105.528056 123.265292)

LINESTRING (148.632838 165.544266, 135.615964 145.670396)

LINESTRING (142.449127 122.414704, 160.613406 176.551349)

LINESTRING (142.449127 122.414704, 151.515220 158.448914)

LINESTRING (142.449127 122.414704, 130.326995 139.285647)

LINESTRING (142.449127 122.414704, 120.940282 133.029410)

LINESTRING (142.449127 122.414704, 118.766663 125.339022)

LINESTRING (142.449127 122.414704, 130.024845 173.246629)

LINESTRING (142.449127 122.414704, 114.825228 179.997368)

LINESTRING (142.449127 122.414704, 118.682967 154.725634)

LINESTRING (142.449127 122.414704, 115.831854 153.065853)

LINESTRING (142.449127 122.414704, 167.257002 128.828693)

LINESTRING (142.449127 122.414704, 154.854637 171.470145)

LINESTRING (142.449127 122.414704, 165.204202 179.219855)

LINESTRING (142.449127 122.414704, 178.422032 137.646796)

LINESTRING (142.449127 122.414704, 105.528056 123.265292)

LINESTRING (142.449127 122.414704, 142.685765 106.595930)

LINESTRING (142.449127 122.414704, 135.615964 145.670396)

LINESTRING (125.667783 169.636106, 160.613406 176.551349)

LINESTRING (125.667783 169.636106, 130.326995 139.285647)

LINESTRING (125.667783 169.636106, 174.220268 137.408263)

LINESTRING (125.667783 169.636106, 120.940282 133.029410)

LINESTRING (125.667783 169.636106, 118.766663 125.339022)

LINESTRING (125.667783 169.636106, 157.210120 134.192706)

LINESTRING (125.667783 169.636106, 158.495667 126.796252)

LINESTRING (125.667783 169.636106, 116.565179 104.800565)

LINESTRING (125.667783 169.636106, 157.027913 152.146328)

LINESTRING (125.667783 169.636106, 165.204202 179.219855)

LINESTRING (125.667783 169.636106, 105.528056 123.265292)

LINESTRING (119.074376 153.679766, 161.179039 163.130775)

LINESTRING (119.074376 153.679766, 120.940282 133.029410)

LINESTRING (119.074376 153.679766, 119.403007 159.385723)

LINESTRING (119.074376 153.679766, 158.495667 126.796252)

LINESTRING (119.074376 153.679766, 116.565179 104.800565)

LINESTRING (119.074376 153.679766, 172.113906 179.780674)

LINESTRING (119.074376 153.679766, 118.435826 139.441657)

LINESTRING (119.074376 153.679766, 118.682967 154.725634)

LINESTRING (119.074376 153.679766, 147.780590 150.361811)

LINESTRING (119.074376 153.679766, 154.854637 171.470145)

LINESTRING (119.074376 153.679766, 178.422032 137.646796)

LINESTRING (119.074376 153.679766, 105.528056 123.265292)

LINESTRING (119.074376 153.679766, 142.685765 106.595930)

LINESTRING (160.613406 176.551349, 151.515220 158.448914)

LINESTRING (160.613406 176.551349, 174.220268 137.408263)

LINESTRING (160.613406 176.551349, 161.179039 163.130775)

LINESTRING (160.613406 176.551349, 157.210120 134.192706)

LINESTRING (160.613406 176.551349, 162.423533 111.968176)

LINESTRING (160.613406 176.551349, 172.113906 179.780674)

LINESTRING (160.613406 176.551349, 118.435826 139.441657)

LINESTRING (160.613406 176.551349, 118.682967 154.725634)

LINESTRING (160.613406 176.551349, 121.525178 146.787920)

LINESTRING (160.613406 176.551349, 178.422032 137.646796)

LINESTRING (160.613406 176.551349, 105.528056 123.265292)

LINESTRING (151.515220 158.448914, 174.220268 137.408263)

LINESTRING (151.515220 158.448914, 162.423533 111.968176)

LINESTRING (151.515220 158.448914, 119.403007 159.385723)

LINESTRING (151.515220 158.448914, 158.495667 126.796252)

LINESTRING (151.515220 158.448914, 116.565179 104.800565)

LINESTRING (151.515220 158.448914, 176.419442 133.796554)

LINESTRING (151.515220 158.448914, 139.658037 174.987358)

LINESTRING (151.515220 158.448914, 121.525178 146.787920)

LINESTRING (151.515220 158.448914, 105.528056 123.265292)

LINESTRING (151.515220 158.448914, 142.685765 106.595930)

LINESTRING (130.326995 139.285647, 174.220268 137.408263)

LINESTRING (130.326995 139.285647, 162.423533 111.968176)

LINESTRING (130.326995 139.285647, 119.403007 159.385723)

LINESTRING (130.326995 139.285647, 118.435826 139.441657)

LINESTRING (130.326995 139.285647, 139.658037 174.987358)

LINESTRING (130.326995 139.285647, 157.027913 152.146328)

LINESTRING (130.326995 139.285647, 105.528056 123.265292)

LINESTRING (174.220268 137.408263, 120.940282 133.029410)

LINESTRING (174.220268 137.408263, 162.423533 111.968176)

LINESTRING (174.220268 137.408263, 158.495667 126.796252)

LINESTRING (174.220268 137.408263, 118.435826 139.441657)

LINESTRING (174.220268 137.408263, 114.825228 179.997368)

LINESTRING (174.220268 137.408263, 118.682967 154.725634)

LINESTRING (174.220268 137.408263, 157.027913 152.146328)

LINESTRING (174.220268 137.408263, 165.204202 179.219855)

LINESTRING (174.220268 137.408263, 105.528056 123.265292)

LINESTRING (161.179039 163.130775, 120.940282 133.029410)

LINESTRING (161.179039 163.130775, 116.565179 104.800565)

LINESTRING (161.179039 163.130775, 118.435826 139.441657)

LINESTRING (161.179039 163.130775, 118.682967 154.725634)

LINESTRING (161.179039 163.130775, 139.658037 174.987358)

LINESTRING (161.179039 163.130775, 147.780590 150.361811)

LINESTRING (161.179039 163.130775, 121.525178 146.787920)

LINESTRING (161.179039 163.130775, 154.854637 171.470145)

LINESTRING (161.179039 163.130775, 165.204202 179.219855)

LINESTRING (161.179039 163.130775, 178.422032 137.646796)

LINESTRING (161.179039 163.130775, 135.615964 145.670396)

LINESTRING (120.940282 133.029410, 130.024845 173.246629)

LINESTRING (120.940282 133.029410, 162.423533 111.968176)

LINESTRING (120.940282 133.029410, 119.403007 159.385723)

LINESTRING (120.940282 133.029410, 158.495667 126.796252)

LINESTRING (120.940282 133.029410, 172.113906 179.780674)

LINESTRING (120.940282 133.029410, 118.435826 139.441657)

LINESTRING (120.940282 133.029410, 114.825228 179.997368)

LINESTRING (120.940282 133.029410, 176.419442 133.796554)

LINESTRING (120.940282 133.029410, 157.027913 152.146328)

LINESTRING (120.940282 133.029410, 121.525178 146.787920)

LINESTRING (120.940282 133.029410, 154.854637 171.470145)

LINESTRING (120.940282 133.029410, 165.204202 179.219855)

LINESTRING (120.940282 133.029410, 178.422032 137.646796)

LINESTRING (120.940282 133.029410, 105.528056 123.265292)

LINESTRING (118.766663 125.339022, 162.423533 111.968176)

LINESTRING (118.766663 125.339022, 158.495667 126.796252)

LINESTRING (118.766663 125.339022, 114.825228 179.997368)

LINESTRING (118.766663 125.339022, 118.682967 154.725634)

LINESTRING (118.766663 125.339022, 115.831854 153.065853)

LINESTRING (118.766663 125.339022, 139.658037 174.987358)

LINESTRING (118.766663 125.339022, 147.780590 150.361811)

LINESTRING (118.766663 125.339022, 167.257002 128.828693)

LINESTRING (118.766663 125.339022, 105.528056 123.265292)

LINESTRING (157.210120 134.192706, 130.024845 173.246629)

LINESTRING (157.210120 134.192706, 119.403007 159.385723)

LINESTRING (157.210120 134.192706, 158.495667 126.796252)

LINESTRING (157.210120 134.192706, 172.113906 179.780674)

LINESTRING (157.210120 134.192706, 118.435826 139.441657)

LINESTRING (157.210120 134.192706, 115.831854 153.065853)

LINESTRING (157.210120 134.192706, 167.257002 128.828693)

LINESTRING (157.210120 134.192706, 154.854637 171.470145)

LINESTRING (157.210120 134.192706, 178.422032 137.646796)

LINESTRING (130.024845 173.246629, 158.495667 126.796252)

LINESTRING (130.024845 173.246629, 118.682967 154.725634)

LINESTRING (130.024845 173.246629, 176.419442 133.796554)

LINESTRING (130.024845 173.246629, 139.658037 174.987358)

LINESTRING (130.024845 173.246629, 157.027913 152.146328)

LINESTRING (130.024845 173.246629, 105.528056 123.265292)

LINESTRING (162.423533 111.968176, 172.113906 179.780674)

LINESTRING (162.423533 111.968176, 118.435826 139.441657)

LINESTRING (162.423533 111.968176, 157.027913 152.146328)

LINESTRING (162.423533 111.968176, 154.854637 171.470145)

LINESTRING (162.423533 111.968176, 105.528056 123.265292)

LINESTRING (119.403007 159.385723, 172.113906 179.780674)

LINESTRING (119.403007 159.385723, 118.435826 139.441657)

LINESTRING (119.403007 159.385723, 114.825228 179.997368)

LINESTRING (119.403007 159.385723, 115.831854 153.065853)

LINESTRING (119.403007 159.385723, 139.658037 174.987358)

LINESTRING (119.403007 159.385723, 147.780590 150.361811)

LINESTRING (119.403007 159.385723, 165.204202 179.219855)

LINESTRING (119.403007 159.385723, 135.615964 145.670396)

LINESTRING (158.495667 126.796252, 172.113906 179.780674)

LINESTRING (158.495667 126.796252, 118.435826 139.441657)

LINESTRING (158.495667 126.796252, 114.825228 179.997368)

LINESTRING (158.495667 126.796252, 118.682967 154.725634)

LINESTRING (158.495667 126.796252, 115.831854 153.065853)

LINESTRING (158.495667 126.796252, 157.027913 152.146328)

LINESTRING (158.495667 126.796252, 178.422032 137.646796)

LINESTRING (158.495667 126.796252, 105.528056 123.265292)

LINESTRING (158.495667 126.796252, 135.615964 145.670396)

LINESTRING (116.565179 104.800565, 147.780590 150.361811)

LINESTRING (116.565179 104.800565, 121.525178 146.787920)

LINESTRING (116.565179 104.800565, 178.422032 137.646796)

LINESTRING (116.565179 104.800565, 135.615964 145.670396)

LINESTRING (172.113906 179.780674, 114.825228 179.997368)

LINESTRING (172.113906 179.780674, 115.831854 153.065853)

LINESTRING (172.113906 179.780674, 176.419442 133.796554)

LINESTRING (172.113906 179.780674, 157.027913 152.146328)

LINESTRING (172.113906 179.780674, 121.525178 146.787920)

LINESTRING (172.113906 179.780674, 178.422032 137.646796)

LINESTRING (172.113906 179.780674, 142.685765 106.595930)

LINESTRING (118.435826 139.441657, 114.825228 179.997368)

LINESTRING (118.435826 139.441657, 139.658037 174.987358)

LINESTRING (118.435826 139.441657, 157.027913 152.146328)

LINESTRING (118.435826 139.441657, 121.525178 146.787920)

LINESTRING (118.435826 139.441657, 178.422032 137.646796)

LINESTRING (114.825228 179.997368, 176.419442 133.796554)

LINESTRING (114.825228 179.997368, 139.658037 174.987358)

LINESTRING (114.825228 179.997368, 157.027913 152.146328)

LINESTRING (114.825228 179.997368, 167.257002 128.828693)

LINESTRING (114.825228 179.997368, 165.204202 179.219855)

LINESTRING (114.825228 179.997368, 178.422032 137.646796)

LINESTRING (114.825228 179.997368, 105.528056 123.265292)

LINESTRING (118.682967 154.725634, 157.027913 152.146328)

LINESTRING (118.682967 154.725634, 147.780590 150.361811)

LINESTRING (118.682967 154.725634, 121.525178 146.787920)

LINESTRING (118.682967 154.725634, 167.257002 128.828693)

LINESTRING (118.682967 154.725634, 154.854637 171.470145)

LINESTRING (118.682967 154.725634, 178.422032 137.646796)

LINESTRING (115.831854 153.065853, 147.780590 150.361811)

LINESTRING (115.831854 153.065853, 121.525178 146.787920)

LINESTRING (115.831854 153.065853, 165.204202 179.219855)

LINESTRING (115.831854 153.065853, 178.422032 137.646796)

LINESTRING (176.419442 133.796554, 139.658037 174.987358)

LINESTRING (176.419442 133.796554, 157.027913 152.146328)

LINESTRING (176.419442 133.796554, 147.780590 150.361811)

LINESTRING (176.419442 133.796554, 121.525178 146.787920)

LINESTRING (176.419442 133.796554, 178.422032 137.646796)

LINESTRING (176.419442 133.796554, 105.528056 123.265292)

LINESTRING (176.419442 133.796554, 142.685765 106.595930)

LINESTRING (176.419442 133.796554, 135.615964 145.670396)

LINESTRING (139.658037 174.987358, 147.780590 150.361811)

LINESTRING (139.658037 174.987358, 167.257002 128.828693)

LINESTRING (139.658037 174.987358, 178.422032 137.646796)

LINESTRING (157.027913 152.146328, 147.780590 150.361811)

LINESTRING (157.027913 152.146328, 121.525178 146.787920)

LINESTRING (147.780590 150.361811, 121.525178 146.787920)

LINESTRING (147.780590 150.361811, 167.257002 128.828693)

LINESTRING (147.780590 150.361811, 178.422032 137.646796)

LINESTRING (121.525178 146.787920, 154.854637 171.470145)

LINESTRING (121.525178 146.787920, 165.204202 179.219855)

LINESTRING (121.525178 146.787920, 178.422032 137.646796)

LINESTRING (167.257002 128.828693, 165.204202 179.219855)

LINESTRING (167.257002 128.828693, 178.422032 137.646796)

LINESTRING (167.257002 128.828693, 142.685765 106.595930)

LINESTRING (154.854637 171.470145, 105.528056 123.265292)

LINESTRING (165.204202 179.219855, 105.528056 123.265292)

LINESTRING (165.204202 179.219855, 135.615964 145.670396)

LINESTRING (178.422032 137.646796, 135.615964 145.670396)

LINESTRING (105.528056 123.265292, 135.615964 145.670396)

LINESTRING (526.600554 151.258680, 526.287476 100.737432)

LINESTRING (526.600554 151.258680, 482.393942 120.026748)

LINESTRING (526.600554 151.258680, 509.722361 154.313584)

LINESTRING (526.600554 151.258680, 517.385560 159.510715)

LINESTRING (526.600554 151.258680, 452.596821 103.973757)

LINESTRING (526.600554 151.258680, 527.645090 167.003025)

LINESTRING (526.600554 151.258680, 463.520298 135.995913)

LINESTRING (526.600554 151.258680, 522.581782 101.920262)

LINESTRING (526.600554 151.258680, 484.273399 152.927554)

LINESTRING (526.600554 151.258680, 529.840486 177.202469)

LINESTRING (526.600554 151.258680, 502.611377 139.826535)

LINESTRING (526.600554 151.258680, 452.590773 112.787663)

LINESTRING (526.600554 151.258680, 484.097362 177.612424)

LINESTRING (526.600554 151.258680, 498.361842 167.648737)

LINESTRING (526.600554 151.258680, 513.826090 100.890314)

LINESTRING (526.600554 151.258680, 520.842826 169.793290)

LINESTRING (526.600554 151.258680, 505.128099 176.888741)

LINESTRING (526.600554 151.258680, 482.375772 140.139747)

LINESTRING (526.600554 151.258680, 460.170891 172.549003)

LINESTRING (526.600554 151.258680, 480.225154 106.636010)

LINESTRING (526.600554 151.258680, 477.339020 159.642169)

LINESTRING (473.796129 128.866589, 515.950267 173.440481)

LINESTRING (473.796129 128.866589, 515.783311 141.445874)

LINESTRING (473.796129 128.866589, 453.379198 126.016087)

LINESTRING (473.796129 128.866589, 471.188955 132.723295)

LINESTRING (473.796129 128.866589, 502.695685 123.518130)

LINESTRING (473.796129 128.866589, 484.273399 152.927554)

LINESTRING (473.796129 128.866589, 502.611377 139.826535)

LINESTRING (473.796129 128.866589, 463.181899 170.049287)

LINESTRING (473.796129 128.866589, 525.294322 100.566146)

LINESTRING (473.796129 128.866589, 484.097362 177.612424)

LINESTRING (473.796129 128.866589, 511.108254 157.551710)

LINESTRING (473.796129 128.866589, 515.489453 153.609010)

LINESTRING (473.796129 128.866589, 520.842826 169.793290)

LINESTRING (473.796129 128.866589, 505.128099 176.888741)

LINESTRING (473.796129 128.866589, 463.133089 101.326226)

LINESTRING (473.796129 128.866589, 460.170891 172.549003)

LINESTRING (473.796129 128.866589, 480.225154 106.636010)

LINESTRING (473.796129 128.866589, 482.805595 169.818233)

LINESTRING (473.796129 128.866589, 522.048978 115.505829)

LINESTRING (526.287476 100.737432, 473.864342 135.946209)

LINESTRING (526.287476 100.737432, 527.708414 150.987577)

LINESTRING (526.287476 100.737432, 515.735905 145.634511)

LINESTRING (526.287476 100.737432, 515.950267 173.440481)

LINESTRING (526.287476 100.737432, 482.393942 120.026748)

LINESTRING (526.287476 100.737432, 509.722361 154.313584)

LINESTRING (526.287476 100.737432, 518.455906 114.926709)

LINESTRING (526.287476 100.737432, 517.385560 159.510715)

LINESTRING (526.287476 100.737432, 453.379198 126.016087)

LINESTRING (526.287476 100.737432, 489.858919 120.067881)

LINESTRING (526.287476 100.737432, 502.650386 154.475329)

LINESTRING (526.287476 100.737432, 488.195018 167.184323)

LINESTRING (526.287476 100.737432, 505.609879 148.366238)

LINESTRING (526.287476 100.737432, 486.907566 151.339237)

LINESTRING (526.287476 100.737432, 463.520298 135.995913)

LINESTRING (526.287476 100.737432, 522.581782 101.920262)

LINESTRING (526.287476 100.737432, 484.273399 152.927554)

LINESTRING (526.287476 100.737432, 529.840486 177.202469)

LINESTRING (526.287476 100.737432, 484.097362 177.612424)

LINESTRING (526.287476 100.737432, 502.860901 174.933870)

LINESTRING (526.287476 100.737432, 455.965741 171.396258)

LINESTRING (526.287476 100.737432, 511.108254 157.551710)

LINESTRING (526.287476 100.737432, 513.826090 100.890314)

LINESTRING (526.287476 100.737432, 505.128099 176.888741)

LINESTRING (526.287476 100.737432, 463.133089 101.326226)

LINESTRING (526.287476 100.737432, 486.369239 138.564250)

LINESTRING (526.287476 100.737432, 480.225154 106.636010)

LINESTRING (526.287476 100.737432, 482.805595 169.818233)

LINESTRING (473.864342 135.946209, 515.735905 145.634511)

LINESTRING (473.864342 135.946209, 515.950267 173.440481)

LINESTRING (473.864342 135.946209, 478.363168 143.445294)

LINESTRING (473.864342 135.946209, 482.393942 120.026748)

LINESTRING (473.864342 135.946209, 515.783311 141.445874)

LINESTRING (473.864342 135.946209, 452.596821 103.973757)

LINESTRING (473.864342 135.946209, 514.207717 115.520407)

LINESTRING (473.864342 135.946209, 450.062006 110.155684)

LINESTRING (473.864342 135.946209, 489.858919 120.067881)

LINESTRING (473.864342 135.946209, 474.411605 161.290193)

LINESTRING (473.864342 135.946209, 494.628791 117.555405)

LINESTRING (473.864342 135.946209, 471.188955 132.723295)

LINESTRING (473.864342 135.946209, 505.609879 148.366238)

LINESTRING (473.864342 135.946209, 522.581782 101.920262)

LINESTRING (473.864342 135.946209, 484.273399 152.927554)

LINESTRING (473.864342 135.946209, 505.662360 152.870076)

LINESTRING (473.864342 135.946209, 502.611377 139.826535)

LINESTRING (473.864342 135.946209, 463.181899 170.049287)

LINESTRING (473.864342 135.946209, 452.590773 112.787663)

LINESTRING (473.864342 135.946209, 455.965741 171.396258)

LINESTRING (473.864342 135.946209, 498.361842 167.648737)

LINESTRING (473.864342 135.946209, 515.489453 153.609010)

LINESTRING (473.864342 135.946209, 463.133089 101.326226)

LINESTRING (473.864342 135.946209, 460.170891 172.549003)

LINESTRING (473.864342 135.946209, 477.339020 159.642169)

LINESTRING (527.708414 150.987577, 515.950267 173.440481)

LINESTRING (527.708414 150.987577, 478.363168 143.445294)

LINESTRING (527.708414 150.987577, 509.722361 154.313584)

LINESTRING (527.708414 150.987577, 452.596821 103.973757)

LINESTRING (527.708414 150.987577, 453.379198 126.016087)

LINESTRING (527.708414 150.987577, 450.062006 110.155684)

LINESTRING (527.708414 150.987577, 483.719801 145.349012)

LINESTRING (527.708414 150.987577, 494.628791 117.555405)

LINESTRING (527.708414 150.987577, 481.507297 130.956841)

LINESTRING (527.708414 150.987577, 502.695685 123.518130)

LINESTRING (527.708414 150.987577, 486.907566 151.339237)

LINESTRING (527.708414 150.987577, 452.590773 112.787663)

LINESTRING (527.708414 150.987577, 500.339023 123.486222)

LINESTRING (527.708414 150.987577, 502.860901 174.933870)

LINESTRING (527.708414 150.987577, 511.108254 157.551710)

LINESTRING (527.708414 150.987577, 505.252195 132.768177)

LINESTRING (527.708414 150.987577, 520.842826 169.793290)

LINESTRING (527.708414 150.987577, 486.369239 138.564250)

LINESTRING (527.708414 150.987577, 460.170891 172.549003)

LINESTRING (527.708414 150.987577, 480.225154 106.636010)

LINESTRING (527.708414 150.987577, 477.339020 159.642169)

LINESTRING (527.708414 150.987577, 522.048978 115.505829)

LINESTRING (515.735905 145.634511, 478.363168 143.445294)

LINESTRING (515.735905 145.634511, 515.783311 141.445874)

LINESTRING (515.735905 145.634511, 453.379198 126.016087)

LINESTRING (515.735905 145.634511, 489.858919 120.067881)

LINESTRING (515.735905 145.634511, 502.650386 154.475329)

LINESTRING (515.735905 145.634511, 474.411605 161.290193)

LINESTRING (515.735905 145.634511, 494.628791 117.555405)

LINESTRING (515.735905 145.634511, 484.273399 152.927554)

LINESTRING (515.735905 145.634511, 505.662360 152.870076)

LINESTRING (515.735905 145.634511, 463.181899 170.049287)

LINESTRING (515.735905 145.634511, 500.339023 123.486222)

LINESTRING (515.735905 145.634511, 484.097362 177.612424)

LINESTRING (515.735905 145.634511, 502.860901 174.933870)

LINESTRING (515.735905 145.634511, 513.826090 100.890314)

LINESTRING (515.735905 145.634511, 505.252195 132.768177)

LINESTRING (515.735905 145.634511, 505.128099 176.888741)

LINESTRING (515.735905 145.634511, 463.133089 101.326226)

LINESTRING (515.735905 145.634511, 486.369239 138.564250)

LINESTRING (515.735905 145.634511, 460.170891 172.549003)

LINESTRING (515.735905 145.634511, 480.225154 106.636010)

LINESTRING (515.735905 145.634511, 477.339020 159.642169)

LINESTRING (515.950267 173.440481, 478.363168 143.445294)

LINESTRING (515.950267 173.440481, 482.393942 120.026748)

LINESTRING (515.950267 173.440481, 515.783311 141.445874)

LINESTRING (515.950267 173.440481, 518.455906 114.926709)

LINESTRING (515.950267 173.440481, 517.385560 159.510715)

LINESTRING (515.950267 173.440481, 453.379198 126.016087)

LINESTRING (515.950267 173.440481, 527.645090 167.003025)

LINESTRING (515.950267 173.440481, 489.858919 120.067881)

LINESTRING (515.950267 173.440481, 502.650386 154.475329)

LINESTRING (515.950267 173.440481, 474.411605 161.290193)

LINESTRING (515.950267 173.440481, 505.609879 148.366238)

LINESTRING (515.950267 173.440481, 463.520298 135.995913)

LINESTRING (515.950267 173.440481, 505.662360 152.870076)

LINESTRING (515.950267 173.440481, 529.840486 177.202469)

LINESTRING (515.950267 173.440481, 502.611377 139.826535)

LINESTRING (515.950267 173.440481, 463.181899 170.049287)

LINESTRING (515.950267 173.440481, 452.590773 112.787663)

LINESTRING (515.950267 173.440481, 502.860901 174.933870)

LINESTRING (515.950267 173.440481, 515.489453 153.609010)

LINESTRING (515.950267 173.440481, 520.842826 169.793290)

LINESTRING (515.950267 173.440481, 467.113576 148.506631)

LINESTRING (478.363168 143.445294, 515.783311 141.445874)

LINESTRING (478.363168 143.445294, 509.722361 154.313584)

LINESTRING (478.363168 143.445294, 518.455906 114.926709)

LINESTRING (478.363168 143.445294, 453.379198 126.016087)

LINESTRING (478.363168 143.445294, 489.858919 120.067881)

LINESTRING (478.363168 143.445294, 494.628791 117.555405)

LINESTRING (478.363168 143.445294, 488.195018 167.184323)

LINESTRING (478.363168 143.445294, 471.188955 132.723295)

LINESTRING (478.363168 143.445294, 483.500713 156.841253)

LINESTRING (478.363168 143.445294, 486.907566 151.339237)

LINESTRING (478.363168 143.445294, 463.520298 135.995913)

LINESTRING (478.363168 143.445294, 522.581782 101.920262)

LINESTRING (478.363168 143.445294, 529.840486 177.202469)

LINESTRING (478.363168 143.445294, 525.294322 100.566146)

LINESTRING (478.363168 143.445294, 455.965741 171.396258)

LINESTRING (478.363168 143.445294, 515.489453 153.609010)

LINESTRING (478.363168 143.445294, 505.252195 132.768177)

LINESTRING (478.363168 143.445294, 505.128099 176.888741)

LINESTRING (478.363168 143.445294, 463.133089 101.326226)

LINESTRING (478.363168 143.445294, 486.796158 131.656477)

LINESTRING (478.363168 143.445294, 467.113576 148.506631)

LINESTRING (478.363168 143.445294, 480.225154 106.636010)

LINESTRING (482.393942 120.026748, 509.722361 154.313584)

LINESTRING (482.393942 120.026748, 517.385560 159.510715)

LINESTRING (482.393942 120.026748, 453.379198 126.016087)

LINESTRING (482.393942 120.026748, 483.719801 145.349012)

LINESTRING (482.393942 120.026748, 489.858919 120.067881)

LINESTRING (482.393942 120.026748, 481.507297 130.956841)

LINESTRING (482.393942 120.026748, 486.907566 151.339237)

LINESTRING (482.393942 120.026748, 484.273399 152.927554)

LINESTRING (482.393942 120.026748, 505.662360 152.870076)

LINESTRING (482.393942 120.026748, 525.294322 100.566146)

LINESTRING (482.393942 120.026748, 452.590773 112.787663)

LINESTRING (482.393942 120.026748, 455.965741 171.396258)

LINESTRING (482.393942 120.026748, 498.361842 167.648737)

LINESTRING (482.393942 120.026748, 511.108254 157.551710)

LINESTRING (482.393942 120.026748, 513.826090 100.890314)

LINESTRING (482.393942 120.026748, 515.489453 153.609010)

LINESTRING (482.393942 120.026748, 520.842826 169.793290)

LINESTRING (482.393942 120.026748, 486.369239 138.564250)

LINESTRING (482.393942 120.026748, 467.113576 148.506631)

LINESTRING (482.393942 120.026748, 482.375772 140.139747)

LINESTRING (482.393942 120.026748, 480.225154 106.636010)

LINESTRING (482.393942 120.026748, 482.805595 169.818233)

LINESTRING (515.783311 141.445874, 518.455906 114.926709)

LINESTRING (515.783311 141.445874, 517.385560 159.510715)

LINESTRING (515.783311 141.445874, 452.596821 103.973757)

LINESTRING (515.783311 141.445874, 453.379198 126.016087)

LINESTRING (515.783311 141.445874, 483.719801 145.349012)

LINESTRING (515.783311 141.445874, 527.645090 167.003025)

LINESTRING (515.783311 141.445874, 489.858919 120.067881)

LINESTRING (515.783311 141.445874, 502.650386 154.475329)

LINESTRING (515.783311 141.445874, 474.411605 161.290193)

LINESTRING (515.783311 141.445874, 494.628791 117.555405)

LINESTRING (515.783311 141.445874, 483.500713 156.841253)

LINESTRING (515.783311 141.445874, 505.609879 148.366238)

LINESTRING (515.783311 141.445874, 502.695685 123.518130)

LINESTRING (515.783311 141.445874, 463.520298 135.995913)

LINESTRING (515.783311 141.445874, 529.840486 177.202469)

LINESTRING (515.783311 141.445874, 502.611377 139.826535)

LINESTRING (515.783311 141.445874, 502.860901 174.933870)

LINESTRING (515.783311 141.445874, 498.361842 167.648737)

LINESTRING (515.783311 141.445874, 513.826090 100.890314)

LINESTRING (515.783311 141.445874, 505.252195 132.768177)

LINESTRING (515.783311 141.445874, 463.133089 101.326226)

LINESTRING (515.783311 141.445874, 486.796158 131.656477)

LINESTRING (515.783311 141.445874, 482.375772 140.139747)

LINESTRING (515.783311 141.445874, 460.170891 172.549003)

LINESTRING (515.783311 141.445874, 482.805595 169.818233)

LINESTRING (509.722361 154.313584, 518.455906 114.926709)

LINESTRING (509.722361 154.313584, 517.385560 159.510715)

LINESTRING (509.722361 154.313584, 453.379198 126.016087)

LINESTRING (509.722361 154.313584, 514.207717 115.520407)

LINESTRING (509.722361 154.313584, 502.650386 154.475329)

LINESTRING (509.722361 154.313584, 474.411605 161.290193)

LINESTRING (509.722361 154.313584, 488.195018 167.184323)

LINESTRING (509.722361 154.313584, 471.188955 132.723295)

LINESTRING (509.722361 154.313584, 505.609879 148.366238)

LINESTRING (509.722361 154.313584, 463.181899 170.049287)

LINESTRING (509.722361 154.313584, 452.590773 112.787663)

LINESTRING (509.722361 154.313584, 484.097362 177.612424)

LINESTRING (509.722361 154.313584, 455.965741 171.396258)

LINESTRING (509.722361 154.313584, 515.489453 153.609010)

LINESTRING (509.722361 154.313584, 505.252195 132.768177)

LINESTRING (509.722361 154.313584, 520.842826 169.793290)

LINESTRING (509.722361 154.313584, 463.133089 101.326226)

LINESTRING (509.722361 154.313584, 486.369239 138.564250)

LINESTRING (509.722361 154.313584, 486.796158 131.656477)

LINESTRING (509.722361 154.313584, 480.225154 106.636010)

LINESTRING (518.455906 114.926709, 514.207717 115.520407)

LINESTRING (518.455906 114.926709, 502.650386 154.475329)

LINESTRING (518.455906 114.926709, 481.507297 130.956841)

LINESTRING (518.455906 114.926709, 463.520298 135.995913)

LINESTRING (518.455906 114.926709, 484.273399 152.927554)

LINESTRING (518.455906 114.926709, 502.611377 139.826535)

LINESTRING (518.455906 114.926709, 463.181899 170.049287)

LINESTRING (518.455906 114.926709, 452.590773 112.787663)

LINESTRING (518.455906 114.926709, 484.097362 177.612424)

LINESTRING (518.455906 114.926709, 455.965741 171.396258)

LINESTRING (518.455906 114.926709, 513.826090 100.890314)

LINESTRING (518.455906 114.926709, 505.252195 132.768177)

LINESTRING (518.455906 114.926709, 505.128099 176.888741)

LINESTRING (518.455906 114.926709, 467.113576 148.506631)

LINESTRING (518.455906 114.926709, 482.375772 140.139747)

LINESTRING (517.385560 159.510715, 453.379198 126.016087)

LINESTRING (517.385560 159.510715, 514.207717 115.520407)

LINESTRING (517.385560 159.510715, 527.645090 167.003025)

LINESTRING (517.385560 159.510715, 502.650386 154.475329)

LINESTRING (517.385560 159.510715, 471.188955 132.723295)

LINESTRING (517.385560 159.510715, 481.507297 130.956841)

LINESTRING (517.385560 159.510715, 486.907566 151.339237)

LINESTRING (517.385560 159.510715, 522.581782 101.920262)

LINESTRING (517.385560 159.510715, 505.662360 152.870076)

LINESTRING (517.385560 159.510715, 484.097362 177.612424)

LINESTRING (517.385560 159.510715, 505.252195 132.768177)

LINESTRING (517.385560 159.510715, 520.842826 169.793290)

LINESTRING (517.385560 159.510715, 505.128099 176.888741)

LINESTRING (517.385560 159.510715, 463.133089 101.326226)

LINESTRING (517.385560 159.510715, 486.369239 138.564250)

LINESTRING (517.385560 159.510715, 486.796158 131.656477)

LINESTRING (517.385560 159.510715, 467.113576 148.506631)

LINESTRING (517.385560 159.510715, 482.375772 140.139747)

LINESTRING (452.596821 103.973757, 514.207717 115.520407)

LINESTRING (452.596821 103.973757, 483.719801 145.349012)

LINESTRING (452.596821 103.973757, 489.858919 120.067881)

LINESTRING (452.596821 103.973757, 505.609879 148.366238)

LINESTRING (452.596821 103.973757, 502.695685 123.518130)

LINESTRING (452.596821 103.973757, 463.520298 135.995913)

LINESTRING (452.596821 103.973757, 522.581782 101.920262)

LINESTRING (452.596821 103.973757, 484.273399 152.927554)

LINESTRING (452.596821 103.973757, 502.611377 139.826535)

LINESTRING (452.596821 103.973757, 463.181899 170.049287)

LINESTRING (452.596821 103.973757, 452.590773 112.787663)

LINESTRING (452.596821 103.973757, 500.339023 123.486222)

LINESTRING (452.596821 103.973757, 513.826090 100.890314)

LINESTRING (452.596821 103.973757, 505.252195 132.768177)

LINESTRING (452.596821 103.973757, 505.128099 176.888741)

LINESTRING (452.596821 103.973757, 486.369239 138.564250)

LINESTRING (452.596821 103.973757, 467.113576 148.506631)

LINESTRING (452.596821 103.973757, 460.170891 172.549003)

LINESTRING (452.596821 103.973757, 477.339020 159.642169)

LINESTRING (453.379198 126.016087, 527.645090 167.003025)

LINESTRING (453.379198 126.016087, 494.628791 117.555405)

LINESTRING (453.379198 126.016087, 488.195018 167.184323)

LINESTRING (453.379198 126.016087, 471.188955 132.723295)

LINESTRING (453.379198 126.016087, 505.609879 148.366238)

LINESTRING (453.379198 126.016087, 502.695685 123.518130)

LINESTRING (453.379198 126.016087, 486.907566 151.339237)

LINESTRING (453.379198 126.016087, 522.581782 101.920262)

LINESTRING (453.379198 126.016087, 529.840486 177.202469)

LINESTRING (453.379198 126.016087, 484.097362 177.612424)

LINESTRING (453.379198 126.016087, 511.108254 157.551710)

LINESTRING (453.379198 126.016087, 520.842826 169.793290)

LINESTRING (453.379198 126.016087, 505.128099 176.888741)

LINESTRING (453.379198 126.016087, 486.369239 138.564250)

LINESTRING (453.379198 126.016087, 482.375772 140.139747)

LINESTRING (453.379198 126.016087, 477.339020 159.642169)

LINESTRING (453.379198 126.016087, 482.805595 169.818233)

LINESTRING (453.379198 126.016087, 522.048978 115.505829)

LINESTRING (514.207717 115.520407, 502.650386 154.475329)

LINESTRING (514.207717 115.520407, 494.628791 117.555405)

LINESTRING (514.207717 115.520407, 502.695685 123.518130)

LINESTRING (514.207717 115.520407, 505.662360 152.870076)

LINESTRING (514.207717 115.520407, 463.181899 170.049287)

LINESTRING (514.207717 115.520407, 500.339023 123.486222)

LINESTRING (514.207717 115.520407, 484.097362 177.612424)

LINESTRING (514.207717 115.520407, 505.128099 176.888741)

LINESTRING (514.207717 115.520407, 460.170891 172.549003)

LINESTRING (514.207717 115.520407, 477.339020 159.642169)

LINESTRING (450.062006 110.155684, 483.719801 145.349012)

LINESTRING (450.062006 110.155684, 527.645090 167.003025)

LINESTRING (450.062006 110.155684, 489.858919 120.067881)

LINESTRING (450.062006 110.155684, 474.411605 161.290193)

LINESTRING (450.062006 110.155684, 481.507297 130.956841)

LINESTRING (450.062006 110.155684, 463.520298 135.995913)

LINESTRING (450.062006 110.155684, 484.273399 152.927554)

LINESTRING (450.062006 110.155684, 463.181899 170.049287)

LINESTRING (450.062006 110.155684, 513.826090 100.890314)

LINESTRING (450.062006 110.155684, 515.489453 153.609010)

LINESTRING (450.062006 110.155684, 505.252195 132.768177)

LINESTRING (450.062006 110.155684, 520.842826 169.793290)

LINESTRING (450.062006 110.155684, 463.133089 101.326226)

LINESTRING (450.062006 110.155684, 486.369239 138.564250)

LINESTRING (450.062006 110.155684, 467.113576 148.506631)

LINESTRING (450.062006 110.155684, 482.375772 140.139747)

LINESTRING (450.062006 110.155684, 460.170891 172.549003)

LINESTRING (483.719801 145.349012, 502.650386 154.475329)

LINESTRING (483.719801 145.349012, 494.628791 117.555405)

LINESTRING (483.719801 145.349012, 488.195018 167.184323)

LINESTRING (483.719801 145.349012, 502.695685 123.518130)

LINESTRING (483.719801 145.349012, 486.907566 151.339237)

LINESTRING (483.719801 145.349012, 463.520298 135.995913)

LINESTRING (483.719801 145.349012, 484.273399 152.927554)

LINESTRING (483.719801 145.349012, 529.840486 177.202469)

LINESTRING (483.719801 145.349012, 502.611377 139.826535)

LINESTRING (483.719801 145.349012, 452.590773 112.787663)

LINESTRING (483.719801 145.349012, 502.860901 174.933870)

LINESTRING (483.719801 145.349012, 455.965741 171.396258)

LINESTRING (483.719801 145.349012, 486.369239 138.564250)

LINESTRING (483.719801 145.349012, 460.170891 172.549003)

LINESTRING (483.719801 145.349012, 482.805595 169.818233)

LINESTRING (527.645090 167.003025, 489.858919 120.067881)

LINESTRING (527.645090 167.003025, 481.507297 130.956841)

LINESTRING (527.645090 167.003025, 486.907566 151.339237)

LINESTRING (527.645090 167.003025, 522.581782 101.920262)

LINESTRING (527.645090 167.003025, 484.273399 152.927554)

LINESTRING (527.645090 167.003025, 505.662360 152.870076)

LINESTRING (527.645090 167.003025, 502.611377 139.826535)

LINESTRING (527.645090 167.003025, 463.181899 170.049287)

LINESTRING (527.645090 167.003025, 452.590773 112.787663)

LINESTRING (527.645090 167.003025, 500.339023 123.486222)

LINESTRING (527.645090 167.003025, 484.097362 177.612424)

LINESTRING (527.645090 167.003025, 502.860901 174.933870)

LINESTRING (527.645090 167.003025, 455.965741 171.396258)

LINESTRING (527.645090 167.003025, 511.108254 157.551710)

LINESTRING (527.645090 167.003025, 515.489453 153.609010)

LINESTRING (527.645090 167.003025, 520.842826 169.793290)

LINESTRING (527.645090 167.003025, 460.170891 172.549003)

LINESTRING (527.645090 167.003025, 482.805595 169.818233)

LINESTRING (527.645090 167.003025, 522.048978 115.505829)

LINESTRING (489.858919 120.067881, 474.411605 161.290193)

LINESTRING (489.858919 120.067881, 494.628791 117.555405)

LINESTRING (489.858919 120.067881, 481.507297 130.956841)

LINESTRING (489.858919 120.067881, 505.609879 148.366238)

LINESTRING (489.858919 120.067881, 486.907566 151.339237)

LINESTRING (489.858919 120.067881, 505.662360 152.870076)

LINESTRING (489.858919 120.067881, 525.294322 100.566146)

LINESTRING (489.858919 120.067881, 511.108254 157.551710)

LINESTRING (489.858919 120.067881, 505.252195 132.768177)

LINESTRING (489.858919 120.067881, 467.113576 148.506631)

LINESTRING (489.858919 120.067881, 482.375772 140.139747)

LINESTRING (489.858919 120.067881, 460.170891 172.549003)

LINESTRING (489.858919 120.067881, 477.339020 159.642169)

LINESTRING (489.858919 120.067881, 482.805595 169.818233)

LINESTRING (489.858919 120.067881, 522.048978 115.505829)

LINESTRING (502.650386 154.475329, 494.628791 117.555405)

LINESTRING (502.650386 154.475329, 471.188955 132.723295)

LINESTRING (502.650386 154.475329, 483.500713 156.841253)

LINESTRING (502.650386 154.475329, 481.507297 130.956841)

LINESTRING (502.650386 154.475329, 486.907566 151.339237)

LINESTRING (502.650386 154.475329, 505.662360 152.870076)

LINESTRING (502.650386 154.475329, 525.294322 100.566146)

LINESTRING (502.650386 154.475329, 452.590773 112.787663)

LINESTRING (502.650386 154.475329, 502.860901 174.933870)

LINESTRING (502.650386 154.475329, 455.965741 171.396258)

LINESTRING (502.650386 154.475329, 498.361842 167.648737)

LINESTRING (502.650386 154.475329, 515.489453 153.609010)

LINESTRING (502.650386 154.475329, 505.252195 132.768177)

LINESTRING (502.650386 154.475329, 520.842826 169.793290)

LINESTRING (502.650386 154.475329, 463.133089 101.326226)

LINESTRING (502.650386 154.475329, 467.113576 148.506631)

LINESTRING (502.650386 154.475329, 477.339020 159.642169)

LINESTRING (474.411605 161.290193, 483.500713 156.841253)

LINESTRING (474.411605 161.290193, 481.507297 130.956841)

LINESTRING (474.411605 161.290193, 486.907566 151.339237)

LINESTRING (474.411605 161.290193, 502.611377 139.826535)

LINESTRING (474.411605 161.290193, 525.294322 100.566146)

LINESTRING (474.411605 161.290193, 452.590773 112.787663)

LINESTRING (474.411605 161.290193, 500.339023 123.486222)

LINESTRING (474.411605 161.290193, 505.252195 132.768177)

LINESTRING (474.411605 161.290193, 520.842826 169.793290)

LINESTRING (474.411605 161.290193, 486.369239 138.564250)

LINESTRING (474.411605 161.290193, 467.113576 148.506631)

LINESTRING (474.411605 161.290193, 482.375772 140.139747)

LINESTRING (474.411605 161.290193, 480.225154 106.636010)

LINESTRING (474.411605 161.290193, 477.339020 159.642169)

LINESTRING (474.411605 161.290193, 482.805595 169.818233)

LINESTRING (494.628791 117.555405, 481.507297 130.956841)

LINESTRING (494.628791 117.555405, 505.609879 148.366238)

LINESTRING (494.628791 117.555405, 505.662360 152.870076)

LINESTRING (494.628791 117.555405, 529.840486 177.202469)

LINESTRING (494.628791 117.555405, 502.611377 139.826535)

LINESTRING (494.628791 117.555405, 525.294322 100.566146)

LINESTRING (494.628791 117.555405, 500.339023 123.486222)

LINESTRING (494.628791 117.555405, 502.860901 174.933870)

LINESTRING (494.628791 117.555405, 455.965741 171.396258)

LINESTRING (494.628791 117.555405, 498.361842 167.648737)

LINESTRING (494.628791 117.555405, 511.108254 157.551710)

LINESTRING (494.628791 117.555405, 515.489453 153.609010)

LINESTRING (494.628791 117.555405, 505.252195 132.768177)

LINESTRING (494.628791 117.555405, 505.128099 176.888741)

LINESTRING (494.628791 117.555405, 463.133089 101.326226)

LINESTRING (494.628791 117.555405, 486.369239 138.564250)

LINESTRING (494.628791 117.555405, 486.796158 131.656477)

LINESTRING (494.628791 117.555405, 460.170891 172.549003)

LINESTRING (494.628791 117.555405, 482.805595 169.818233)

LINESTRING (488.195018 167.184323, 471.188955 132.723295)

LINESTRING (488.195018 167.184323, 463.520298 135.995913)

LINESTRING (488.195018 167.184323, 522.581782 101.920262)

LINESTRING (488.195018 167.184323, 484.273399 152.927554)

LINESTRING (488.195018 167.184323, 463.181899 170.049287)

LINESTRING (488.195018 167.184323, 525.294322 100.566146)

LINESTRING (488.195018 167.184323, 452.590773 112.787663)

LINESTRING (488.195018 167.184323, 502.860901 174.933870)

LINESTRING (488.195018 167.184323, 513.826090 100.890314)

LINESTRING (488.195018 167.184323, 515.489453 153.609010)

LINESTRING (488.195018 167.184323, 486.796158 131.656477)

LINESTRING (488.195018 167.184323, 482.375772 140.139747)

LINESTRING (488.195018 167.184323, 460.170891 172.549003)

LINESTRING (488.195018 167.184323, 480.225154 106.636010)

LINESTRING (488.195018 167.184323, 522.048978 115.505829)

LINESTRING (471.188955 132.723295, 505.609879 148.366238)

LINESTRING (471.188955 132.723295, 502.695685 123.518130)

LINESTRING (471.188955 132.723295, 486.907566 151.339237)

LINESTRING (471.188955 132.723295, 529.840486 177.202469)

LINESTRING (471.188955 132.723295, 463.181899 170.049287)

LINESTRING (471.188955 132.723295, 525.294322 100.566146)

LINESTRING (471.188955 132.723295, 484.097362 177.612424)

LINESTRING (471.188955 132.723295, 502.860901 174.933870)

LINESTRING (471.188955 132.723295, 515.489453 153.609010)

LINESTRING (471.188955 132.723295, 520.842826 169.793290)

LINESTRING (471.188955 132.723295, 486.369239 138.564250)

LINESTRING (471.188955 132.723295, 486.796158 131.656477)

LINESTRING (471.188955 132.723295, 467.113576 148.506631)

LINESTRING (471.188955 132.723295, 482.375772 140.139747)

LINESTRING (471.188955 132.723295, 480.225154 106.636010)

LINESTRING (471.188955 132.723295, 477.339020 159.642169)

LINESTRING (483.500713 156.841253, 505.609879 148.366238)

LINESTRING (483.500713 156.841253, 486.907566 151.339237)

LINESTRING (483.500713 156.841253, 463.520298 135.995913)

LINESTRING (483.500713 156.841253, 522.581782 101.920262)

LINESTRING (483.500713 156.841253, 502.611377 139.826535)

LINESTRING (483.500713 156.841253, 525.294322 100.566146)

LINESTRING (483.500713 156.841253, 502.860901 174.933870)

LINESTRING (483.500713 156.841253, 455.965741 171.396258)

LINESTRING (483.500713 156.841253, 498.361842 167.648737)

LINESTRING (483.500713 156.841253, 511.108254 157.551710)

LINESTRING (483.500713 156.841253, 513.826090 100.890314)

LINESTRING (483.500713 156.841253, 520.842826 169.793290)

LINESTRING (483.500713 156.841253, 505.128099 176.888741)

LINESTRING (483.500713 156.841253, 482.375772 140.139747)

LINESTRING (483.500713 156.841253, 460.170891 172.549003)

LINESTRING (483.500713 156.841253, 482.805595 169.818233)

LINESTRING (483.500713 156.841253, 522.048978 115.505829)

LINESTRING (481.507297 130.956841, 505.609879 148.366238)

LINESTRING (481.507297 130.956841, 463.520298 135.995913)

LINESTRING (481.507297 130.956841, 484.273399 152.927554)

LINESTRING (481.507297 130.956841, 463.181899 170.049287)

LINESTRING (481.507297 130.956841, 498.361842 167.648737)

LINESTRING (481.507297 130.956841, 515.489453 153.609010)

LINESTRING (481.507297 130.956841, 520.842826 169.793290)

LINESTRING (481.507297 130.956841, 505.128099 176.888741)

LINESTRING (481.507297 130.956841, 463.133089 101.326226)

LINESTRING (481.507297 130.956841, 486.796158 131.656477)

LINESTRING (481.507297 130.956841, 467.113576 148.506631)

LINESTRING (481.507297 130.956841, 480.225154 106.636010)

LINESTRING (481.507297 130.956841, 477.339020 159.642169)

LINESTRING (505.609879 148.366238, 486.907566 151.339237)

LINESTRING (505.609879 148.366238, 522.581782 101.920262)

LINESTRING (505.609879 148.366238, 529.840486 177.202469)

LINESTRING (505.609879 148.366238, 525.294322 100.566146)

LINESTRING (505.609879 148.366238, 500.339023 123.486222)

LINESTRING (505.609879 148.366238, 484.097362 177.612424)

LINESTRING (505.609879 148.366238, 455.965741 171.396258)

LINESTRING (505.609879 148.366238, 498.361842 167.648737)

LINESTRING (505.609879 148.366238, 511.108254 157.551710)

LINESTRING (505.609879 148.366238, 515.489453 153.609010)

LINESTRING (505.609879 148.366238, 505.252195 132.768177)

LINESTRING (505.609879 148.366238, 505.128099 176.888741)

LINESTRING (505.609879 148.366238, 463.133089 101.326226)

LINESTRING (505.609879 148.366238, 486.369239 138.564250)

LINESTRING (505.609879 148.366238, 482.375772 140.139747)

LINESTRING (505.609879 148.366238, 480.225154 106.636010)

LINESTRING (505.609879 148.366238, 477.339020 159.642169)

LINESTRING (505.609879 148.366238, 522.048978 115.505829)

LINESTRING (502.695685 123.518130, 486.907566 151.339237)

LINESTRING (502.695685 123.518130, 505.662360 152.870076)

LINESTRING (502.695685 123.518130, 529.840486 177.202469)

LINESTRING (502.695685 123.518130, 463.181899 170.049287)

LINESTRING (502.695685 123.518130, 525.294322 100.566146)

LINESTRING (502.695685 123.518130, 452.590773 112.787663)

LINESTRING (502.695685 123.518130, 502.860901 174.933870)

LINESTRING (502.695685 123.518130, 455.965741 171.396258)

LINESTRING (502.695685 123.518130, 498.361842 167.648737)

LINESTRING (502.695685 123.518130, 511.108254 157.551710)

LINESTRING (502.695685 123.518130, 515.489453 153.609010)

LINESTRING (502.695685 123.518130, 505.252195 132.768177)

LINESTRING (502.695685 123.518130, 486.369239 138.564250)

LINESTRING (502.695685 123.518130, 477.339020 159.642169)

LINESTRING (502.695685 123.518130, 482.805595 169.818233)

LINESTRING (486.907566 151.339237, 463.520298 135.995913)

LINESTRING (486.907566 151.339237, 505.662360 152.870076)

LINESTRING (486.907566 151.339237, 463.181899 170.049287)

LINESTRING (486.907566 151.339237, 525.294322 100.566146)

LINESTRING (486.907566 151.339237, 484.097362 177.612424)

LINESTRING (486.907566 151.339237, 455.965741 171.396258)

LINESTRING (486.907566 151.339237, 520.842826 169.793290)

LINESTRING (486.907566 151.339237, 463.133089 101.326226)

LINESTRING (486.907566 151.339237, 486.796158 131.656477)

LINESTRING (486.907566 151.339237, 480.225154 106.636010)

LINESTRING (486.907566 151.339237, 522.048978 115.505829)

LINESTRING (463.520298 135.995913, 484.273399 152.927554)

LINESTRING (463.520298 135.995913, 505.662360 152.870076)

LINESTRING (463.520298 135.995913, 452.590773 112.787663)

LINESTRING (463.520298 135.995913, 500.339023 123.486222)

LINESTRING (463.520298 135.995913, 502.860901 174.933870)

LINESTRING (463.520298 135.995913, 455.965741 171.396258)

LINESTRING (463.520298 135.995913, 513.826090 100.890314)

LINESTRING (463.520298 135.995913, 515.489453 153.609010)

LINESTRING (463.520298 135.995913, 520.842826 169.793290)

LINESTRING (463.520298 135.995913, 463.133089 101.326226)

LINESTRING (463.520298 135.995913, 486.796158 131.656477)

LINESTRING (463.520298 135.995913, 460.170891 172.549003)

LINESTRING (463.520298 135.995913, 482.805595 169.818233)

LINESTRING (522.581782 101.920262, 484.273399 152.927554)

LINESTRING (522.581782 101.920262, 505.662360 152.870076)

LINESTRING (522.581782 101.920262, 502.611377 139.826535)

LINESTRING (522.581782 101.920262, 500.339023 123.486222)

LINESTRING (522.581782 101.920262, 498.361842 167.648737)

LINESTRING (522.581782 101.920262, 511.108254 157.551710)

LINESTRING (522.581782 101.920262, 513.826090 100.890314)

LINESTRING (522.581782 101.920262, 463.133089 101.326226)

LINESTRING (522.581782 101.920262, 486.369239 138.564250)

LINESTRING (522.581782 101.920262, 482.375772 140.139747)

LINESTRING (522.581782 101.920262, 460.170891 172.549003)

LINESTRING (484.273399 152.927554, 502.611377 139.826535)

LINESTRING (484.273399 152.927554, 463.181899 170.049287)

LINESTRING (484.273399 152.927554, 484.097362 177.612424)

LINESTRING (484.273399 152.927554, 502.860901 174.933870)

LINESTRING (484.273399 152.927554, 511.108254 157.551710)

LINESTRING (484.273399 152.927554, 505.252195 132.768177)

LINESTRING (484.273399 152.927554, 520.842826 169.793290)

LINESTRING (484.273399 152.927554, 463.133089 101.326226)

LINESTRING (484.273399 152.927554, 486.796158 131.656477)

LINESTRING (484.273399 152.927554, 460.170891 172.549003)

LINESTRING (484.273399 152.927554, 480.225154 106.636010)

LINESTRING (484.273399 152.927554, 477.339020 159.642169)

LINESTRING (484.273399 152.927554, 482.805595 169.818233)

LINESTRING (505.662360 152.870076, 529.840486 177.202469)

LINESTRING (505.662360 152.870076, 525.294322 100.566146)

LINESTRING (505.662360 152.870076, 452.590773 112.787663)

LINESTRING (505.662360 152.870076, 502.860901 174.933870)

LINESTRING (505.662360 152.870076, 511.108254 157.551710)

LINESTRING (505.662360 152.870076, 515.489453 153.609010)

LINESTRING (505.662360 152.870076, 520.842826 169.793290)

LINESTRING (505.662360 152.870076, 486.796158 131.656477)

LINESTRING (505.662360 152.870076, 460.170891 172.549003)

LINESTRING (505.662360 152.870076, 482.805595 169.818233)

LINESTRING (529.840486 177.202469, 502.611377 139.826535)

LINESTRING (529.840486 177.202469, 513.826090 100.890314)

LINESTRING (529.840486 177.202469, 515.489453 153.609010)

LINESTRING (529.840486 177.202469, 505.252195 132.768177)

LINESTRING (529.840486 177.202469, 520.842826 169.793290)

LINESTRING (529.840486 177.202469, 505.128099 176.888741)

LINESTRING (529.840486 177.202469, 463.133089 101.326226)

LINESTRING (529.840486 177.202469, 486.369239 138.564250)

LINESTRING (529.840486 177.202469, 486.796158 131.656477)

LINESTRING (529.840486 177.202469, 467.113576 148.506631)

LINESTRING (529.840486 177.202469, 460.170891 172.549003)

LINESTRING (529.840486 177.202469, 480.225154 106.636010)

LINESTRING (529.840486 177.202469, 482.805595 169.818233)

LINESTRING (529.840486 177.202469, 522.048978 115.505829)

LINESTRING (502.611377 139.826535, 463.181899 170.049287)

LINESTRING (502.611377 139.826535, 452.590773 112.787663)

LINESTRING (502.611377 139.826535, 498.361842 167.648737)

LINESTRING (502.611377 139.826535, 511.108254 157.551710)

LINESTRING (502.611377 139.826535, 505.128099 176.888741)

LINESTRING (502.611377 139.826535, 463.133089 101.326226)

LINESTRING (502.611377 139.826535, 486.369239 138.564250)

LINESTRING (502.611377 139.826535, 467.113576 148.506631)

LINESTRING (502.611377 139.826535, 480.225154 106.636010)

LINESTRING (502.611377 139.826535, 482.805595 169.818233)

LINESTRING (502.611377 139.826535, 522.048978 115.505829)

LINESTRING (463.181899 170.049287, 513.826090 100.890314)

LINESTRING (463.181899 170.049287, 505.252195 132.768177)

LINESTRING (463.181899 170.049287, 463.133089 101.326226)

LINESTRING (463.181899 170.049287, 486.369239 138.564250)

LINESTRING (463.181899 170.049287, 467.113576 148.506631)

LINESTRING (463.181899 170.049287, 482.805595 169.818233)

LINESTRING (525.294322 100.566146, 484.097362 177.612424)

LINESTRING (525.294322 100.566146, 502.860901 174.933870)

LINESTRING (525.294322 100.566146, 513.826090 100.890314)

LINESTRING (525.294322 100.566146, 520.842826 169.793290)

LINESTRING (525.294322 100.566146, 460.170891 172.549003)

LINESTRING (525.294322 100.566146, 477.339020 159.642169)

LINESTRING (525.294322 100.566146, 482.805595 169.818233)

LINESTRING (525.294322 100.566146, 522.048978 115.505829)

LINESTRING (452.590773 112.787663, 500.339023 123.486222)

LINESTRING (452.590773 112.787663, 484.097362 177.612424)

LINESTRING (452.590773 112.787663, 455.965741 171.396258)

LINESTRING (452.590773 112.787663, 498.361842 167.648737)

LINESTRING (452.590773 112.787663, 511.108254 157.551710)

LINESTRING (452.590773 112.787663, 520.842826 169.793290)

LINESTRING (452.590773 112.787663, 486.369239 138.564250)

LINESTRING (452.590773 112.787663, 486.796158 131.656477)

LINESTRING (452.590773 112.787663, 480.225154 106.636010)

LINESTRING (452.590773 112.787663, 477.339020 159.642169)

LINESTRING (500.339023 123.486222, 484.097362 177.612424)

LINESTRING (500.339023 123.486222, 502.860901 174.933870)

LINESTRING (500.339023 123.486222, 455.965741 171.396258)

LINESTRING (500.339023 123.486222, 511.108254 157.551710)

LINESTRING (500.339023 123.486222, 486.369239 138.564250)

LINESTRING (500.339023 123.486222, 486.796158 131.656477)

LINESTRING (500.339023 123.486222, 467.113576 148.506631)

LINESTRING (500.339023 123.486222, 482.375772 140.139747)

LINESTRING (500.339023 123.486222, 460.170891 172.549003)

LINESTRING (500.339023 123.486222, 477.339020 159.642169)

LINESTRING (500.339023 123.486222, 522.048978 115.505829)

LINESTRING (484.097362 177.612424, 502.860901 174.933870)

LINESTRING (484.097362 177.612424, 511.108254 157.551710)

LINESTRING (484.097362 177.612424, 513.826090 100.890314)

LINESTRING (484.097362 177.612424, 505.252195 132.768177)

LINESTRING (484.097362 177.612424, 520.842826 169.793290)

LINESTRING (484.097362 177.612424, 467.113576 148.506631)

LINESTRING (484.097362 177.612424, 460.170891 172.549003)

LINESTRING (502.860901 174.933870, 513.826090 100.890314)

LINESTRING (502.860901 174.933870, 515.489453 153.609010)

LINESTRING (502.860901 174.933870, 505.252195 132.768177)

LINESTRING (502.860901 174.933870, 467.113576 148.506631)

LINESTRING (502.860901 174.933870, 477.339020 159.642169)

LINESTRING (455.965741 171.396258, 511.108254 157.551710)

LINESTRING (455.965741 171.396258, 513.826090 100.890314)

LINESTRING (455.965741 171.396258, 486.796158 131.656477)

LINESTRING (455.965741 171.396258, 467.113576 148.506631)

LINESTRING (455.965741 171.396258, 480.225154 106.636010)

LINESTRING (455.965741 171.396258, 477.339020 159.642169)

LINESTRING (455.965741 171.396258, 482.805595 169.818233)

LINESTRING (498.361842 167.648737, 505.128099 176.888741)

LINESTRING (498.361842 167.648737, 486.369239 138.564250)

LINESTRING (498.361842 167.648737, 460.170891 172.549003)

LINESTRING (498.361842 167.648737, 477.339020 159.642169)

LINESTRING (498.361842 167.648737, 522.048978 115.505829)

LINESTRING (511.108254 157.551710, 515.489453 153.609010)

LINESTRING (511.108254 157.551710, 505.252195 132.768177)

LINESTRING (511.108254 157.551710, 520.842826 169.793290)

LINESTRING (511.108254 157.551710, 486.796158 131.656477)

LINESTRING (511.108254 157.551710, 460.170891 172.549003)

LINESTRING (511.108254 157.551710, 482.805595 169.818233)

LINESTRING (513.826090 100.890314, 515.489453 153.609010)

LINESTRING (513.826090 100.890314, 505.252195 132.768177)

LINESTRING (513.826090 100.890314, 505.128099 176.888741)

LINESTRING (513.826090 100.890314, 486.369239 138.564250)

LINESTRING (513.826090 100.890314, 482.375772 140.139747)

LINESTRING (513.826090 100.890314, 460.170891 172.549003)

LINESTRING (513.826090 100.890314, 477.339020 159.642169)

LINESTRING (513.826090 100.890314, 482.805595 169.818233)

LINESTRING (515.489453 153.609010, 505.252195 132.768177)

LINESTRING (515.489453 153.609010, 505.128099 176.888741)

LINESTRING (515.489453 153.609010, 463.133089 101.326226)

LINESTRING (515.489453 153.609010, 486.796158 131.656477)

LINESTRING (515.489453 153.609010, 480.225154 106.636010)

LINESTRING (515.489453 153.609010, 522.048978 115.505829)

LINESTRING (505.252195 132.768177, 520.842826 169.793290)

LINESTRING (505.252195 132.768177, 463.133089 101.326226)

LINESTRING (505.252195 132.768177, 486.369239 138.564250)

LINESTRING (505.252195 132.768177, 467.113576 148.506631)

LINESTRING (505.252195 132.768177, 477.339020 159.642169)

LINESTRING (520.842826 169.793290, 486.796158 131.656477)

LINESTRING (520.842826 169.793290, 482.375772 140.139747)

LINESTRING (520.842826 169.793290, 477.339020 159.642169)

LINESTRING (505.128099 176.888741, 486.369239 138.564250)

LINESTRING (505.128099 176.888741, 486.796158 131.656477)

LINESTRING (505.128099 176.888741, 467.113576 148.506631)

LINESTRING (505.128099 176.888741, 482.805595 169.818233)

LINESTRING (463.133089 101.326226, 486.796158 131.656477)

LINESTRING (463.133089 101.326226, 460.170891 172.549003)

LINESTRING (463.133089 101.326226, 477.339020 159.642169)

LINESTRING (463.133089 101.326226, 522.048978 115.505829)

LINESTRING (486.369239 138.564250, 467.113576 148.506631)

LINESTRING (486.369239 138.564250, 480.225154 106.636010)

LINESTRING (486.369239 138.564250, 477.339020 159.642169)

LINESTRING (486.369239 138.564250, 482.805595 169.818233)

LINESTRING (486.369239 138.564250, 522.048978 115.505829)

LINESTRING (486.796158 131.656477, 460.170891 172.549003)

LINESTRING (486.796158 131.656477, 482.805595 169.818233)

LINESTRING (467.113576 148.506631, 480.225154 106.636010)

LINESTRING (467.113576 148.506631, 477.339020 159.642169)

LINESTRING (467.113576 148.506631, 482.805595 169.818233)

LINESTRING (482.375772 140.139747, 480.225154 106.636010)

LINESTRING (482.375772 140.139747, 477.339020 159.642169)

LINESTRING (482.375772 140.139747, 522.048978 115.505829)

LINESTRING (460.170891 172.549003, 480.225154 106.636010)

LINESTRING (477.339020 159.642169, 482.805595 169.818233)

LINESTRING (482.805595 169.818233, 522.048978 115.505829)

LINESTRING (179.084842 161.860417, 486.907566 151.339237)

LINESTRING (160.373370 133.329295, 526.600554 151.258680)

