LINESTRING (62.982275 73.701841, 107.578242 34.297952)

LINESTRING (107.578242 34.297952, 222.633525 25.117265)

LINESTRING (222.633525 25.117265, 307.452720 67.974913)

LINESTRING (307.452720 67.974913, 381.326396 58.660567)

LINESTRING (381.326396 58.660567, 434.393189 40.645066)

LINESTRING (434.393189 40.645066, 541.083542 77.068531)

LINESTRING (541.083542 77.068531, 616.502484 69.459474)

LINESTRING (616.502484 69.459474, 701.753491 26.328189)

LINESTRING (701.753491 26.328189, 784.059259 28.822774)

LINESTRING (784.059259 28.822774, 851.953372 33.080594)

LINESTRING (851.953372 33.080594, 918.768290 40.592083)

LINESTRING (918.768290 40.592083, 995.621456 28.095287)

LINESTRING (995.621456 28.095287, 1083.243337 67.828677)

LINESTRING (1083.243337 67.828677, 1150.827130 33.662313)

LINESTRING (1150.827130 33.662313, 1245.319114 54.673526)

LINESTRING (37.901286 138.294619, 108.908611 115.035614)

LINESTRING (108.908611 115.035614, 234.568938 131.638601)

LINESTRING (234.568938 131.638601, 265.112561 137.839404)

LINESTRING (265.112561 137.839404, 371.181158 138.336624)

LINESTRING (371.181158 138.336624, 461.421257 153.980897)

LINESTRING (461.421257 153.980897, 535.501892 119.967446)

LINESTRING (535.501892 119.967446, 616.728932 109.115692)

LINESTRING (616.728932 109.115692, 691.184910 141.048983)

LINESTRING (691.184910 141.048983, 772.951283 100.503165)

LINESTRING (772.951283 100.503165, 876.243336 146.428060)

LINESTRING (876.243336 146.428060, 928.173212 158.268729)

LINESTRING (928.173212 158.268729, 1022.938639 121.104785)

LINESTRING (1022.938639 121.104785, 1074.404878 143.856618)

LINESTRING (1074.404878 143.856618, 1186.219749 151.562520)

LINESTRING (1186.219749 151.562520, 1223.958481 117.064329)

LINESTRING (28.867540 220.332870, 152.401420 238.431133)

LINESTRING (152.401420 238.431133, 231.757997 236.340770)

LINESTRING (231.757997 236.340770, 267.732681 214.885859)

LINESTRING (267.732681 214.885859, 363.344154 184.597747)

LINESTRING (363.344154 184.597747, 423.908842 210.130119)

LINESTRING (423.908842 210.130119, 507.043652 182.080138)

LINESTRING (507.043652 182.080138, 599.635159 185.836051)

LINESTRING (599.635159 185.836051, 671.728942 222.788770)

LINESTRING (671.728942 222.788770, 779.952675 206.784788)

LINESTRING (779.952675 206.784788, 868.140543 190.266601)

LINESTRING (868.140543 190.266601, 940.976542 185.075396)

LINESTRING (940.976542 185.075396, 1014.659476 215.319766)

LINESTRING (1014.659476 215.319766, 1061.231175 226.143087)

LINESTRING (1061.231175 226.143087, 1183.858635 234.217222)

LINESTRING (1183.858635 234.217222, 1236.462187 214.123556)

LINESTRING (76.106527 297.081231, 130.973099 260.030087)

LINESTRING (130.973099 260.030087, 202.438380 301.372842)

LINESTRING (202.438380 301.372842, 309.094146 274.074008)

LINESTRING (309.094146 274.074008, 385.625169 270.375244)

LINESTRING (385.625169 270.375244, 462.447117 266.263162)

LINESTRING (462.447117 266.263162, 518.213684 310.822880)

LINESTRING (518.213684 310.822880, 598.942845 318.599987)

LINESTRING (598.942845 318.599987, 710.852367 312.464056)

LINESTRING (710.852367 312.464056, 774.742117 274.102910)

LINESTRING (774.742117 274.102910, 834.718185 279.661976)

LINESTRING (834.718185 279.661976, 936.260774 290.992336)

LINESTRING (936.260774 290.992336, 983.227382 283.126628)

LINESTRING (983.227382 283.126628, 1076.169286 288.829051)

LINESTRING (1076.169286 288.829051, 1174.926518 318.089242)

LINESTRING (1174.926518 318.089242, 1274.105754 307.615498)

LINESTRING (43.221578 360.685760, 112.484327 363.119652)

LINESTRING (112.484327 363.119652, 198.333425 394.732511)

LINESTRING (198.333425 394.732511, 297.075636 371.713205)

LINESTRING (297.075636 371.713205, 376.721465 347.244462)

LINESTRING (376.721465 347.244462, 458.037977 350.230090)

LINESTRING (458.037977 350.230090, 555.373158 350.498536)

LINESTRING (555.373158 350.498536, 632.220686 396.614970)

LINESTRING (632.220686 396.614970, 705.638242 387.815833)

LINESTRING (705.638242 387.815833, 768.291742 345.121684)

LINESTRING (768.291742 345.121684, 865.962896 393.304139)

LINESTRING (865.962896 393.304139, 903.958736 383.150579)

LINESTRING (903.958736 383.150579, 1037.847891 362.144616)

LINESTRING (1037.847891 362.144616, 1118.504721 341.143221)

LINESTRING (1118.504721 341.143221, 1196.698463 379.168938)

LINESTRING (1196.698463 379.168938, 1266.001414 366.448857)

LINESTRING (62.564825 434.862503, 118.680228 424.289046)

LINESTRING (118.680228 424.289046, 204.121891 445.485660)

LINESTRING (204.121891 445.485660, 315.738558 455.514782)

LINESTRING (315.738558 455.514782, 348.813335 470.148401)

LINESTRING (348.813335 470.148401, 435.147709 475.718102)

LINESTRING (435.147709 475.718102, 527.827626 445.989142)

LINESTRING (527.827626 445.989142, 614.360192 425.581294)

LINESTRING (614.360192 425.581294, 693.066824 446.436786)

LINESTRING (693.066824 446.436786, 754.990641 441.734654)

LINESTRING (754.990641 441.734654, 852.688519 443.431676)

LINESTRING (852.688519 443.431676, 904.905361 449.327599)

LINESTRING (904.905361 449.327599, 1016.338134 452.728990)

LINESTRING (1016.338134 452.728990, 1109.044737 444.723220)

LINESTRING (1109.044737 444.723220, 1169.821290 428.547853)

LINESTRING (1169.821290 428.547853, 1242.462353 450.428777)

LINESTRING (35.632416 550.195697, 145.549436 548.220439)

LINESTRING (145.549436 548.220439, 187.463141 516.132882)

LINESTRING (187.463141 516.132882, 271.691674 511.565877)

LINESTRING (271.691674 511.565877, 340.353765 545.747100)

LINESTRING (340.353765 545.747100, 475.066426 510.691541)

LINESTRING (475.066426 510.691541, 522.273970 527.941020)

LINESTRING (522.273970 527.941020, 596.195550 513.599801)

LINESTRING (596.195550 513.599801, 683.240396 516.011175)

LINESTRING (683.240396 516.011175, 792.230994 520.716367)

LINESTRING (792.230994 520.716367, 856.658433 514.492780)

LINESTRING (856.658433 514.492780, 958.688353 521.388141)

LINESTRING (958.688353 521.388141, 1029.221911 558.719310)

LINESTRING (1029.221911 558.719310, 1086.545298 513.886818)

LINESTRING (1086.545298 513.886818, 1151.972439 527.186699)

LINESTRING (1151.972439 527.186699, 1257.296629 527.628304)

LINESTRING (78.738252 618.120240, 103.721326 607.724298)

LINESTRING (103.721326 607.724298, 230.236789 617.916809)

LINESTRING (230.236789 617.916809, 285.077779 605.817304)

LINESTRING (285.077779 605.817304, 368.918377 604.447759)

LINESTRING (368.918377 604.447759, 477.076476 621.106694)

LINESTRING (477.076476 621.106694, 514.829580 628.387967)

LINESTRING (514.829580 628.387967, 584.099136 586.166279)

LINESTRING (584.099136 586.166279, 679.680733 612.623231)

LINESTRING (679.680733 612.623231, 770.719583 637.538307)

LINESTRING (770.719583 637.538307, 860.135805 610.690344)

LINESTRING (860.135805 610.690344, 925.458950 594.236274)

LINESTRING (925.458950 594.236274, 1023.652020 582.997710)

LINESTRING (1023.652020 582.997710, 1074.938121 614.757788)

LINESTRING (1074.938121 614.757788, 1144.551018 609.007904)

LINESTRING (1144.551018 609.007904, 1235.711345 637.199384)

LINESTRING (62.118339 695.400695, 106.638907 714.970563)

LINESTRING (106.638907 714.970563, 196.037287 667.892880)

LINESTRING (196.037287 667.892880, 281.815478 677.045806)

LINESTRING (281.815478 677.045806, 375.440889 682.154723)

LINESTRING (375.440889 682.154723, 423.247240 707.554581)

LINESTRING (423.247240 707.554581, 500.423140 675.858837)

LINESTRING (500.423140 675.858837, 581.312583 672.015624)

LINESTRING (581.312583 672.015624, 696.690844 667.267965)

LINESTRING (696.690844 667.267965, 787.274441 709.343686)

LINESTRING (787.274441 709.343686, 869.407199 678.302892)

LINESTRING (869.407199 678.302892, 943.942422 691.357339)

LINESTRING (943.942422 691.357339, 1039.426395 709.322413)

LINESTRING (1039.426395 709.322413, 1060.959373 665.090867)

LINESTRING (1060.959373 665.090867, 1195.593363 707.064663)

LINESTRING (1195.593363 707.064663, 1228.572446 701.634117)

LINESTRING (24.626519 784.864854, 147.038663 779.312068)

LINESTRING (147.038663 779.312068, 227.947333 744.294074)

LINESTRING (227.947333 744.294074, 310.015880 746.096368)

LINESTRING (310.015880 746.096368, 340.597747 763.785346)

LINESTRING (340.597747 763.785346, 467.143259 748.799872)

LINESTRING (467.143259 748.799872, 504.154986 789.628635)

LINESTRING (504.154986 789.628635, 600.423692 785.470847)

LINESTRING (600.423692 785.470847, 702.110893 771.012116)

LINESTRING (702.110893 771.012116, 747.643807 756.254795)

LINESTRING (747.643807 756.254795, 830.197795 782.545388)

LINESTRING (830.197795 782.545388, 930.173469 756.023837)

LINESTRING (930.173469 756.023837, 1021.185961 744.767157)

LINESTRING (1021.185961 744.767157, 1071.741747 787.179544)

LINESTRING (1071.741747 787.179544, 1180.915218 786.823573)

LINESTRING (1180.915218 786.823573, 1253.903240 767.427617)

LINESTRING (64.512272 838.967264, 140.265545 834.095996)

LINESTRING (140.265545 834.095996, 186.888215 872.995491)

LINESTRING (186.888215 872.995491, 307.878560 836.459296)

LINESTRING (307.878560 836.459296, 358.458158 868.574083)

LINESTRING (358.458158 868.574083, 461.953723 826.069343)

LINESTRING (461.953723 826.069343, 511.401244 861.906982)

LINESTRING (511.401244 861.906982, 613.202582 878.814252)

LINESTRING (613.202582 878.814252, 697.869220 838.998164)

LINESTRING (697.869220 838.998164, 793.413126 847.481443)

LINESTRING (793.413126 847.481443, 842.365756 843.531610)

LINESTRING (842.365756 843.531610, 954.772975 850.284436)

LINESTRING (954.772975 850.284436, 1036.976933 865.161923)

LINESTRING (1036.976933 865.161923, 1113.553037 844.964321)

LINESTRING (1113.553037 844.964321, 1155.637871 840.526932)

LINESTRING (1155.637871 840.526932, 1273.635079 824.447792)

LINESTRING (71.362047 910.433331, 158.740831 903.320166)

LINESTRING (158.740831 903.320166, 221.010243 940.979707)

LINESTRING (221.010243 940.979707, 309.963141 903.768095)

LINESTRING (309.963141 903.768095, 392.195973 923.226437)

LINESTRING (392.195973 923.226437, 463.564916 925.467360)

LINESTRING (463.564916 925.467360, 503.891907 903.718759)

LINESTRING (503.891907 903.718759, 626.583980 939.224535)

LINESTRING (626.583980 939.224535, 686.359144 949.041591)

LINESTRING (686.359144 949.041591, 755.930487 921.155457)

LINESTRING (755.930487 921.155457, 827.767429 926.532842)

LINESTRING (827.767429 926.532842, 911.918296 926.263708)

LINESTRING (911.918296 926.263708, 1014.123544 926.317920)

LINESTRING (1014.123544 926.317920, 1061.934625 911.931896)

LINESTRING (1061.934625 911.931896, 1156.381242 915.031990)

LINESTRING (1156.381242 915.031990, 1238.350166 930.273193)

LINESTRING (37.928763 1031.209064, 151.561201 993.755195)

LINESTRING (151.561201 993.755195, 219.564554 1014.619951)

LINESTRING (219.564554 1014.619951, 316.015100 1023.651669)

LINESTRING (316.015100 1023.651669, 355.861349 993.164667)

LINESTRING (355.861349 993.164667, 471.450855 1008.088138)

LINESTRING (471.450855 1008.088138, 515.729036 1031.492476)

LINESTRING (515.729036 1031.492476, 599.747906 1038.855090)

LINESTRING (599.747906 1038.855090, 666.562701 1021.739570)

LINESTRING (666.562701 1021.739570, 777.945816 1036.332688)

LINESTRING (777.945816 1036.332688, 878.248600 1024.586518)

LINESTRING (878.248600 1024.586518, 935.154439 1007.314321)

LINESTRING (935.154439 1007.314321, 1030.954448 999.962922)

LINESTRING (1030.954448 999.962922, 1073.426867 986.541859)

LINESTRING (1073.426867 986.541859, 1170.029067 1035.606676)

LINESTRING (1170.029067 1035.606676, 1229.865304 1022.317773)

LINESTRING (22.589351 1109.036115, 100.865042 1098.240878)

LINESTRING (100.865042 1098.240878, 222.619852 1071.603235)

LINESTRING (222.619852 1071.603235, 316.046637 1097.784667)

LINESTRING (316.046637 1097.784667, 379.710189 1114.952070)

LINESTRING (379.710189 1114.952070, 422.345641 1102.744602)

LINESTRING (422.345641 1102.744602, 549.691648 1095.443356)

LINESTRING (549.691648 1095.443356, 609.506363 1068.781249)

LINESTRING (609.506363 1068.781249, 672.346924 1061.780167)

LINESTRING (672.346924 1061.780167, 750.715860 1107.773559)

LINESTRING (750.715860 1107.773559, 859.890036 1101.957576)

LINESTRING (859.890036 1101.957576, 918.543932 1099.734261)

LINESTRING (918.543932 1099.734261, 1016.597472 1095.060615)

LINESTRING (1016.597472 1095.060615, 1093.321141 1098.937923)

LINESTRING (1093.321141 1098.937923, 1198.854031 1092.778157)

LINESTRING (1198.854031 1092.778157, 1246.093615 1116.513729)

LINESTRING (58.497386 1162.083108, 141.252307 1168.956884)

LINESTRING (141.252307 1168.956884, 184.440345 1152.208007)

LINESTRING (184.440345 1152.208007, 300.551268 1158.269485)

LINESTRING (300.551268 1158.269485, 370.243821 1161.670621)

LINESTRING (370.243821 1161.670621, 465.727383 1184.447769)

LINESTRING (465.727383 1184.447769, 555.537643 1171.131894)

LINESTRING (555.537643 1171.131894, 585.152023 1177.887287)

LINESTRING (585.152023 1177.887287, 674.577460 1166.822993)

LINESTRING (674.577460 1166.822993, 770.588595 1143.724363)

LINESTRING (770.588595 1143.724363, 847.120372 1178.110707)

LINESTRING (847.120372 1178.110707, 940.970624 1177.667359)

LINESTRING (940.970624 1177.667359, 1009.387246 1192.730844)

LINESTRING (1009.387246 1192.730844, 1099.721326 1155.716133)

LINESTRING (1099.721326 1155.716133, 1171.629826 1178.422867)

LINESTRING (1171.629826 1178.422867, 1260.264370 1144.656719)

LINESTRING (37.453628 1279.548750, 143.379166 1267.755659)

LINESTRING (143.379166 1267.755659, 213.414346 1276.376592)

LINESTRING (213.414346 1276.376592, 296.962359 1238.728277)

LINESTRING (296.962359 1238.728277, 387.029026 1223.563343)

LINESTRING (387.029026 1223.563343, 458.782306 1238.843563)

LINESTRING (458.782306 1238.843563, 537.447306 1242.366299)

LINESTRING (537.447306 1242.366299, 620.589259 1256.089904)

LINESTRING (620.589259 1256.089904, 714.129522 1234.410347)

LINESTRING (714.129522 1234.410347, 752.111322 1262.394904)

LINESTRING (752.111322 1262.394904, 853.656384 1246.234206)

LINESTRING (853.656384 1246.234206, 944.945959 1230.990797)

LINESTRING (944.945959 1230.990797, 982.338508 1246.266414)

LINESTRING (982.338508 1246.266414, 1083.934766 1220.728679)

LINESTRING (1083.934766 1220.728679, 1177.387245 1228.279472)

LINESTRING (1177.387245 1228.279472, 1248.654836 1230.558204)

LINESTRING (62.982275 73.701841, 37.901286 138.294619)

LINESTRING (107.578242 34.297952, 108.908611 115.035614)

LINESTRING (222.633525 25.117265, 234.568938 131.638601)

LINESTRING (307.452720 67.974913, 265.112561 137.839404)

LINESTRING (381.326396 58.660567, 371.181158 138.336624)

LINESTRING (434.393189 40.645066, 461.421257 153.980897)

LINESTRING (541.083542 77.068531, 535.501892 119.967446)

LINESTRING (616.502484 69.459474, 616.728932 109.115692)

LINESTRING (701.753491 26.328189, 691.184910 141.048983)

LINESTRING (784.059259 28.822774, 772.951283 100.503165)

LINESTRING (851.953372 33.080594, 876.243336 146.428060)

LINESTRING (918.768290 40.592083, 928.173212 158.268729)

LINESTRING (995.621456 28.095287, 1022.938639 121.104785)

LINESTRING (1083.243337 67.828677, 1074.404878 143.856618)

LINESTRING (1150.827130 33.662313, 1186.219749 151.562520)

LINESTRING (1245.319114 54.673526, 1223.958481 117.064329)

LINESTRING (37.901286 138.294619, 28.867540 220.332870)

LINESTRING (108.908611 115.035614, 152.401420 238.431133)

LINESTRING (234.568938 131.638601, 231.757997 236.340770)

LINESTRING (265.112561 137.839404, 267.732681 214.885859)

LINESTRING (371.181158 138.336624, 363.344154 184.597747)

LINESTRING (461.421257 153.980897, 423.908842 210.130119)

LINESTRING (535.501892 119.967446, 507.043652 182.080138)

LINESTRING (616.728932 109.115692, 599.635159 185.836051)

LINESTRING (691.184910 141.048983, 671.728942 222.788770)

LINESTRING (772.951283 100.503165, 779.952675 206.784788)

LINESTRING (876.243336 146.428060, 868.140543 190.266601)

LINESTRING (928.173212 158.268729, 940.976542 185.075396)

LINESTRING (1022.938639 121.104785, 1014.659476 215.319766)

LINESTRING (1074.404878 143.856618, 1061.231175 226.143087)

LINESTRING (1186.219749 151.562520, 1183.858635 234.217222)

LINESTRING (1223.958481 117.064329, 1236.462187 214.123556)

LINESTRING (28.867540 220.332870, 76.106527 297.081231)

LINESTRING (152.401420 238.431133, 130.973099 260.030087)

LINESTRING (231.757997 236.340770, 202.438380 301.372842)

LINESTRING (267.732681 214.885859, 309.094146 274.074008)

LINESTRING (363.344154 184.597747, 385.625169 270.375244)

LINESTRING (423.908842 210.130119, 462.447117 266.263162)

LINESTRING (507.043652 182.080138, 518.213684 310.822880)

LINESTRING (599.635159 185.836051, 598.942845 318.599987)

LINESTRING (671.728942 222.788770, 710.852367 312.464056)

LINESTRING (779.952675 206.784788, 774.742117 274.102910)

LINESTRING (868.140543 190.266601, 834.718185 279.661976)

LINESTRING (940.976542 185.075396, 936.260774 290.992336)

LINESTRING (1014.659476 215.319766, 983.227382 283.126628)

LINESTRING (1061.231175 226.143087, 1076.169286 288.829051)

LINESTRING (1183.858635 234.217222, 1174.926518 318.089242)

LINESTRING (1236.462187 214.123556, 1274.105754 307.615498)

LINESTRING (76.106527 297.081231, 43.221578 360.685760)

LINESTRING (130.973099 260.030087, 112.484327 363.119652)

LINESTRING (202.438380 301.372842, 198.333425 394.732511)

LINESTRING (309.094146 274.074008, 297.075636 371.713205)

LINESTRING (385.625169 270.375244, 376.721465 347.244462)

LINESTRING (462.447117 266.263162, 458.037977 350.230090)

LINESTRING (518.213684 310.822880, 555.373158 350.498536)

LINESTRING (598.942845 318.599987, 632.220686 396.614970)

LINESTRING (710.852367 312.464056, 705.638242 387.815833)

LINESTRING (774.742117 274.102910, 768.291742 345.121684)

LINESTRING (834.718185 279.661976, 865.962896 393.304139)

LINESTRING (936.260774 290.992336, 903.958736 383.150579)

LINESTRING (983.227382 283.126628, 1037.847891 362.144616)

LINESTRING (1076.169286 288.829051, 1118.504721 341.143221)

LINESTRING (1174.926518 318.089242, 1196.698463 379.168938)

LINESTRING (1274.105754 307.615498, 1266.001414 366.448857)

LINESTRING (43.221578 360.685760, 62.564825 434.862503)

LINESTRING (112.484327 363.119652, 118.680228 424.289046)

LINESTRING (198.333425 394.732511, 204.121891 445.485660)

LINESTRING (297.075636 371.713205, 315.738558 455.514782)

LINESTRING (376.721465 347.244462, 348.813335 470.148401)

LINESTRING (458.037977 350.230090, 435.147709 475.718102)

LINESTRING (555.373158 350.498536, 527.827626 445.989142)

LINESTRING (632.220686 396.614970, 614.360192 425.581294)

LINESTRING (705.638242 387.815833, 693.066824 446.436786)

LINESTRING (768.291742 345.121684, 754.990641 441.734654)

LINESTRING (865.962896 393.304139, 852.688519 443.431676)

LINESTRING (903.958736 383.150579, 904.905361 449.327599)

LINESTRING (1037.847891 362.144616, 1016.338134 452.728990)

LINESTRING (1118.504721 341.143221, 1109.044737 444.723220)

LINESTRING (1196.698463 379.168938, 1169.821290 428.547853)

LINESTRING (1266.001414 366.448857, 1242.462353 450.428777)

LINESTRING (62.564825 434.862503, 35.632416 550.195697)

LINESTRING (118.680228 424.289046, 145.549436 548.220439)

LINESTRING (204.121891 445.485660, 187.463141 516.132882)

LINESTRING (315.738558 455.514782, 271.691674 511.565877)

LINESTRING (348.813335 470.148401, 340.353765 545.747100)

LINESTRING (435.147709 475.718102, 475.066426 510.691541)

LINESTRING (527.827626 445.989142, 522.273970 527.941020)

LINESTRING (614.360192 425.581294, 596.195550 513.599801)

LINESTRING (693.066824 446.436786, 683.240396 516.011175)

LINESTRING (754.990641 441.734654, 792.230994 520.716367)

LINESTRING (852.688519 443.431676, 856.658433 514.492780)

LINESTRING (904.905361 449.327599, 958.688353 521.388141)

LINESTRING (1016.338134 452.728990, 1029.221911 558.719310)

LINESTRING (1109.044737 444.723220, 1086.545298 513.886818)

LINESTRING (1169.821290 428.547853, 1151.972439 527.186699)

LINESTRING (1242.462353 450.428777, 1257.296629 527.628304)

LINESTRING (35.632416 550.195697, 78.738252 618.120240)

LINESTRING (145.549436 548.220439, 103.721326 607.724298)

LINESTRING (187.463141 516.132882, 230.236789 617.916809)

LINESTRING (271.691674 511.565877, 285.077779 605.817304)

LINESTRING (340.353765 545.747100, 368.918377 604.447759)

LINESTRING (475.066426 510.691541, 477.076476 621.106694)

LINESTRING (522.273970 527.941020, 514.829580 628.387967)

LINESTRING (596.195550 513.599801, 584.099136 586.166279)

LINESTRING (683.240396 516.011175, 679.680733 612.623231)

LINESTRING (792.230994 520.716367, 770.719583 637.538307)

LINESTRING (856.658433 514.492780, 860.135805 610.690344)

LINESTRING (958.688353 521.388141, 925.458950 594.236274)

LINESTRING (1029.221911 558.719310, 1023.652020 582.997710)

LINESTRING (1086.545298 513.886818, 1074.938121 614.757788)

LINESTRING (1151.972439 527.186699, 1144.551018 609.007904)

LINESTRING (1257.296629 527.628304, 1235.711345 637.199384)

LINESTRING (78.738252 618.120240, 62.118339 695.400695)

LINESTRING (103.721326 607.724298, 106.638907 714.970563)

LINESTRING (230.236789 617.916809, 196.037287 667.892880)

LINESTRING (285.077779 605.817304, 281.815478 677.045806)

LINESTRING (368.918377 604.447759, 375.440889 682.154723)

LINESTRING (477.076476 621.106694, 423.247240 707.554581)

LINESTRING (514.829580 628.387967, 500.423140 675.858837)

LINESTRING (584.099136 586.166279, 581.312583 672.015624)

LINESTRING (679.680733 612.623231, 696.690844 667.267965)

LINESTRING (770.719583 637.538307, 787.274441 709.343686)

LINESTRING (860.135805 610.690344, 869.407199 678.302892)

LINESTRING (925.458950 594.236274, 943.942422 691.357339)

LINESTRING (1023.652020 582.997710, 1039.426395 709.322413)

LINESTRING (1074.938121 614.757788, 1060.959373 665.090867)

LINESTRING (1144.551018 609.007904, 1195.593363 707.064663)

LINESTRING (1235.711345 637.199384, 1228.572446 701.634117)

LINESTRING (62.118339 695.400695, 24.626519 784.864854)

LINESTRING (106.638907 714.970563, 147.038663 779.312068)

LINESTRING (196.037287 667.892880, 227.947333 744.294074)

LINESTRING (281.815478 677.045806, 310.015880 746.096368)

LINESTRING (375.440889 682.154723, 340.597747 763.785346)

LINESTRING (423.247240 707.554581, 467.143259 748.799872)

LINESTRING (500.423140 675.858837, 504.154986 789.628635)

LINESTRING (581.312583 672.015624, 600.423692 785.470847)

LINESTRING (696.690844 667.267965, 702.110893 771.012116)

LINESTRING (787.274441 709.343686, 747.643807 756.254795)

LINESTRING (869.407199 678.302892, 830.197795 782.545388)

LINESTRING (943.942422 691.357339, 930.173469 756.023837)

LINESTRING (1039.426395 709.322413, 1021.185961 744.767157)

LINESTRING (1060.959373 665.090867, 1071.741747 787.179544)

LINESTRING (1195.593363 707.064663, 1180.915218 786.823573)

LINESTRING (1228.572446 701.634117, 1253.903240 767.427617)

LINESTRING (24.626519 784.864854, 64.512272 838.967264)

LINESTRING (147.038663 779.312068, 140.265545 834.095996)

LINESTRING (227.947333 744.294074, 186.888215 872.995491)

LINESTRING (310.015880 746.096368, 307.878560 836.459296)

LINESTRING (340.597747 763.785346, 358.458158 868.574083)

LINESTRING (467.143259 748.799872, 461.953723 826.069343)

LINESTRING (504.154986 789.628635, 511.401244 861.906982)

LINESTRING (600.423692 785.470847, 613.202582 878.814252)

LINESTRING (702.110893 771.012116, 697.869220 838.998164)

LINESTRING (747.643807 756.254795, 793.413126 847.481443)

LINESTRING (830.197795 782.545388, 842.365756 843.531610)

LINESTRING (930.173469 756.023837, 954.772975 850.284436)

LINESTRING (1021.185961 744.767157, 1036.976933 865.161923)

LINESTRING (1071.741747 787.179544, 1113.553037 844.964321)

LINESTRING (1180.915218 786.823573, 1155.637871 840.526932)

LINESTRING (1253.903240 767.427617, 1273.635079 824.447792)

LINESTRING (64.512272 838.967264, 71.362047 910.433331)

LINESTRING (140.265545 834.095996, 158.740831 903.320166)

LINESTRING (186.888215 872.995491, 221.010243 940.979707)

LINESTRING (307.878560 836.459296, 309.963141 903.768095)

LINESTRING (358.458158 868.574083, 392.195973 923.226437)

LINESTRING (461.953723 826.069343, 463.564916 925.467360)

LINESTRING (511.401244 861.906982, 503.891907 903.718759)

LINESTRING (613.202582 878.814252, 626.583980 939.224535)

LINESTRING (697.869220 838.998164, 686.359144 949.041591)

LINESTRING (793.413126 847.481443, 755.930487 921.155457)

LINESTRING (842.365756 843.531610, 827.767429 926.532842)

LINESTRING (954.772975 850.284436, 911.918296 926.263708)

LINESTRING (1036.976933 865.161923, 1014.123544 926.317920)

LINESTRING (1113.553037 844.964321, 1061.934625 911.931896)

LINESTRING (1155.637871 840.526932, 1156.381242 915.031990)

LINESTRING (1273.635079 824.447792, 1238.350166 930.273193)

LINESTRING (71.362047 910.433331, 37.928763 1031.209064)

LINESTRING (158.740831 903.320166, 151.561201 993.755195)

LINESTRING (221.010243 940.979707, 219.564554 1014.619951)

LINESTRING (309.963141 903.768095, 316.015100 1023.651669)

LINESTRING (392.195973 923.226437, 355.861349 993.164667)

LINESTRING (463.564916 925.467360, 471.450855 1008.088138)

LINESTRING (503.891907 903.718759, 515.729036 1031.492476)

LINESTRING (626.583980 939.224535, 599.747906 1038.855090)

LINESTRING (686.359144 949.041591, 666.562701 1021.739570)

LINESTRING (755.930487 921.155457, 777.945816 1036.332688)

LINESTRING (827.767429 926.532842, 878.248600 1024.586518)

LINESTRING (911.918296 926.263708, 935.154439 1007.314321)

LINESTRING (1014.123544 926.317920, 1030.954448 999.962922)

LINESTRING (1061.934625 911.931896, 1073.426867 986.541859)

LINESTRING (1156.381242 915.031990, 1170.029067 1035.606676)

LINESTRING (1238.350166 930.273193, 1229.865304 1022.317773)

LINESTRING (37.928763 1031.209064, 22.589351 1109.036115)

LINESTRING (151.561201 993.755195, 100.865042 1098.240878)

LINESTRING (219.564554 1014.619951, 222.619852 1071.603235)

LINESTRING (316.015100 1023.651669, 316.046637 1097.784667)

LINESTRING (355.861349 993.164667, 379.710189 1114.952070)

LINESTRING (471.450855 1008.088138, 422.345641 1102.744602)

LINESTRING (515.729036 1031.492476, 549.691648 1095.443356)

LINESTRING (599.747906 1038.855090, 609.506363 1068.781249)

LINESTRING (666.562701 1021.739570, 672.346924 1061.780167)

LINESTRING (777.945816 1036.332688, 750.715860 1107.773559)

LINESTRING (878.248600 1024.586518, 859.890036 1101.957576)

LINESTRING (935.154439 1007.314321, 918.543932 1099.734261)

LINESTRING (1030.954448 999.962922, 1016.597472 1095.060615)

LINESTRING (1073.426867 986.541859, 1093.321141 1098.937923)

LINESTRING (1170.029067 1035.606676, 1198.854031 1092.778157)

LINESTRING (1229.865304 1022.317773, 1246.093615 1116.513729)

LINESTRING (22.589351 1109.036115, 58.497386 1162.083108)

LINESTRING (100.865042 1098.240878, 141.252307 1168.956884)

LINESTRING (222.619852 1071.603235, 184.440345 1152.208007)

LINESTRING (316.046637 1097.784667, 300.551268 1158.269485)

LINESTRING (379.710189 1114.952070, 370.243821 1161.670621)

LINESTRING (422.345641 1102.744602, 465.727383 1184.447769)

LINESTRING (549.691648 1095.443356, 555.537643 1171.131894)

LINESTRING (609.506363 1068.781249, 585.152023 1177.887287)

LINESTRING (672.346924 1061.780167, 674.577460 1166.822993)

LINESTRING (750.715860 1107.773559, 770.588595 1143.724363)

LINESTRING (859.890036 1101.957576, 847.120372 1178.110707)

LINESTRING (918.543932 1099.734261, 940.970624 1177.667359)

LINESTRING (1016.597472 1095.060615, 1009.387246 1192.730844)

LINESTRING (1093.321141 1098.937923, 1099.721326 1155.716133)

LINESTRING (1198.854031 1092.778157, 1171.629826 1178.422867)

LINESTRING (1246.093615 1116.513729, 1260.264370 1144.656719)

LINESTRING (58.497386 1162.083108, 37.453628 1279.548750)

LINESTRING (141.252307 1168.956884, 143.379166 1267.755659)

LINESTRING (184.440345 1152.208007, 213.414346 1276.376592)

LINESTRING (300.551268 1158.269485, 296.962359 1238.728277)

LINESTRING (370.243821 1161.670621, 387.029026 1223.563343)

LINESTRING (465.727383 1184.447769, 458.782306 1238.843563)

LINESTRING (555.537643 1171.131894, 537.447306 1242.366299)

LINESTRING (585.152023 1177.887287, 620.589259 1256.089904)

LINESTRING (674.577460 1166.822993, 714.129522 1234.410347)

LINESTRING (770.588595 1143.724363, 752.111322 1262.394904)

LINESTRING (847.120372 1178.110707, 853.656384 1246.234206)

LINESTRING (940.970624 1177.667359, 944.945959 1230.990797)

LINESTRING (1009.387246 1192.730844, 982.338508 1246.266414)

LINESTRING (1099.721326 1155.716133, 1083.934766 1220.728679)

LINESTRING (1171.629826 1178.422867, 1177.387245 1228.279472)

LINESTRING (1260.264370 1144.656719, 1248.654836 1230.558204)

