LINESTRING (475.348578 403.310467, 464.821888 437.467395)

LINESTRING (464.821888 437.467395, 444.906188 455.772082)

LINESTRING (444.906188 455.772082, 413.931673 487.452952)

LINESTRING (413.931673 487.452952, 385.792569 475.840634)

LINESTRING (385.792569 475.840634, 353.033088 467.936043)

LINESTRING (353.033088 467.936043, 322.034839 438.706727)

LINESTRING (322.034839 438.706727, 312.294575 409.128409)

LINESTRING (312.294575 409.128409, 319.229072 358.869989)

LINESTRING (319.229072 358.869989, 351.720413 341.176639)

LINESTRING (351.720413 341.176639, 385.622150 319.027573)

LINESTRING (385.622150 319.027573, 426.766523 328.855695)

LINESTRING (426.766523 328.855695, 451.421921 346.610336)

LINESTRING (451.421921 346.610336, 469.307235 364.301773)

LINESTRING (469.307235 364.301773, 475.348578 403.310467)

LINESTRING (563.770834 400.646897, 538.826749 471.571376)

LINESTRING (538.826749 471.571376, 507.883661 533.900233)

LINESTRING (507.883661 533.900233, 433.107258 565.958475)

LINESTRING (433.107258 565.958475, 371.444294 560.078644)

LINESTRING (371.444294 560.078644, 301.045319 526.305555)

LINESTRING (301.045319 526.305555, 258.247865 476.160606)

LINESTRING (258.247865 476.160606, 230.052087 391.016526)

LINESTRING (230.052087 391.016526, 257.391348 324.967336)

LINESTRING (257.391348 324.967336, 300.485445 275.588815)

LINESTRING (300.485445 275.588815, 358.083412 238.968882)

LINESTRING (358.083412 238.968882, 445.570997 245.969053)

LINESTRING (445.570997 245.969053, 500.680969 283.469145)

LINESTRING (500.680969 283.469145, 553.418056 327.607302)

LINESTRING (553.418056 327.607302, 563.770834 400.646897)

LINESTRING (641.997465 400.181374, 610.764349 505.225842)

LINESTRING (610.764349 505.225842, 552.660862 579.796365)

LINESTRING (552.660862 579.796365, 446.954412 625.686842)

LINESTRING (446.954412 625.686842, 344.637860 643.024654)

LINESTRING (344.637860 643.024654, 254.955760 594.877784)

LINESTRING (254.955760 594.877784, 186.037843 507.941820)

LINESTRING (186.037843 507.941820, 160.152090 402.448144)

LINESTRING (160.152090 402.448144, 189.442838 289.681016)

LINESTRING (189.442838 289.681016, 255.729684 214.901710)

LINESTRING (255.729684 214.901710, 349.764014 162.435986)

LINESTRING (349.764014 162.435986, 449.139773 156.548545)

LINESTRING (449.139773 156.548545, 546.212144 217.112457)

LINESTRING (546.212144 217.112457, 613.974465 298.791519)

LINESTRING (613.974465 298.791519, 641.997465 400.181374)

LINESTRING (727.056737 390.337745, 691.650543 547.960151)

LINESTRING (691.650543 547.960151, 598.845662 645.382172)

LINESTRING (598.845662 645.382172, 462.861240 720.989086)

LINESTRING (462.861240 720.989086, 321.746144 716.420438)

LINESTRING (321.746144 716.420438, 191.585579 651.047790)

LINESTRING (191.585579 651.047790, 107.552260 531.380698)

LINESTRING (107.552260 531.380698, 83.961039 409.096423)

LINESTRING (83.961039 409.096423, 117.099353 257.207573)

LINESTRING (117.099353 257.207573, 207.970600 145.737087)

LINESTRING (207.970600 145.737087, 332.450749 78.164471)

LINESTRING (332.450749 78.164471, 470.806346 95.195694)

LINESTRING (470.806346 95.195694, 599.094473 143.090393)

LINESTRING (599.094473 143.090393, 682.997766 269.516068)

LINESTRING (682.997766 269.516068, 727.056737 390.337745)

LINESTRING (791.775919 394.981723, 770.188349 578.818338)

LINESTRING (770.188349 578.818338, 649.096023 707.251723)

LINESTRING (649.096023 707.251723, 479.358898 781.577185)

LINESTRING (479.358898 781.577185, 307.517516 785.573466)

LINESTRING (307.517516 785.573466, 157.005628 720.845541)

LINESTRING (157.005628 720.845541, 38.088332 570.194223)

LINESTRING (38.088332 570.194223, -7.542083 390.033687)

LINESTRING (-7.542083 390.033687, 49.094114 220.310750)

LINESTRING (49.094114 220.310750, 152.196721 79.843510)

LINESTRING (152.196721 79.843510, 301.696629 4.080108)

LINESTRING (301.696629 4.080108, 491.406626 1.395276)

LINESTRING (491.406626 1.395276, 649.050572 84.539417)

LINESTRING (649.050572 84.539417, 767.480911 227.726443)

LINESTRING (767.480911 227.726443, 791.775919 394.981723)

LINESTRING (875.234667 403.898684, 836.867829 612.718033)

LINESTRING (836.867829 612.718033, 689.450417 770.497864)

LINESTRING (689.450417 770.497864, 506.878253 874.131414)

LINESTRING (506.878253 874.131414, 285.419770 874.001933)

LINESTRING (285.419770 874.001933, 110.407527 772.093755)

LINESTRING (110.407527 772.093755, -40.573516 607.765552)

LINESTRING (-40.573516 607.765552, -77.576902 395.949850)

LINESTRING (-77.576902 395.949850, -30.841018 185.819634)

LINESTRING (-30.841018 185.819634, 91.577764 17.704894)

LINESTRING (91.577764 17.704894, 291.578926 -60.222934)

LINESTRING (291.578926 -60.222934, 515.742004 -66.436000)

LINESTRING (515.742004 -66.436000, 693.895976 29.092112)

LINESTRING (693.895976 29.092112, 839.210112 201.461261)

LINESTRING (839.210112 201.461261, 875.234667 403.898684)

LINESTRING (953.929782 395.794560, 910.763202 633.363201)

LINESTRING (910.763202 633.363201, 739.794032 842.885055)

LINESTRING (739.794032 842.885055, 531.240421 943.274380)

LINESTRING (531.240421 943.274380, 277.722257 954.731101)

LINESTRING (277.722257 954.731101, 52.115868 832.150985)

LINESTRING (52.115868 832.150985, -99.744196 638.293622)

LINESTRING (-99.744196 638.293622, -167.459725 392.242401)

LINESTRING (-167.459725 392.242401, -105.276884 149.460129)

LINESTRING (-105.276884 149.460129, 56.186165 -47.011094)

LINESTRING (56.186165 -47.011094, 281.795214 -154.895080)

LINESTRING (281.795214 -154.895080, 519.947167 -146.680665)

LINESTRING (519.947167 -146.680665, 740.654147 -33.218865)

LINESTRING (740.654147 -33.218865, 898.050686 154.465495)

LINESTRING (898.050686 154.465495, 953.929782 395.794560)

LINESTRING (475.348578 403.310467, 563.770834 400.646897)

LINESTRING (563.770834 400.646897, 641.997465 400.181374)

LINESTRING (641.997465 400.181374, 727.056737 390.337745)

LINESTRING (727.056737 390.337745, 791.775919 394.981723)

LINESTRING (791.775919 394.981723, 875.234667 403.898684)

LINESTRING (875.234667 403.898684, 953.929782 395.794560)

LINESTRING (464.821888 437.467395, 538.826749 471.571376)

LINESTRING (538.826749 471.571376, 610.764349 505.225842)

LINESTRING (610.764349 505.225842, 691.650543 547.960151)

LINESTRING (691.650543 547.960151, 770.188349 578.818338)

LINESTRING (770.188349 578.818338, 836.867829 612.718033)

LINESTRING (836.867829 612.718033, 910.763202 633.363201)

LINESTRING (444.906188 455.772082, 507.883661 533.900233)

LINESTRING (507.883661 533.900233, 552.660862 579.796365)

LINESTRING (552.660862 579.796365, 598.845662 645.382172)

LINESTRING (598.845662 645.382172, 649.096023 707.251723)

LINESTRING (649.096023 707.251723, 689.450417 770.497864)

LINESTRING (689.450417 770.497864, 739.794032 842.885055)

LINESTRING (413.931673 487.452952, 433.107258 565.958475)

LINESTRING (433.107258 565.958475, 446.954412 625.686842)

LINESTRING (446.954412 625.686842, 462.861240 720.989086)

LINESTRING (462.861240 720.989086, 479.358898 781.577185)

LINESTRING (479.358898 781.577185, 506.878253 874.131414)

LINESTRING (506.878253 874.131414, 531.240421 943.274380)

LINESTRING (385.792569 475.840634, 371.444294 560.078644)

LINESTRING (371.444294 560.078644, 344.637860 643.024654)

LINESTRING (344.637860 643.024654, 321.746144 716.420438)

LINESTRING (321.746144 716.420438, 307.517516 785.573466)

LINESTRING (307.517516 785.573466, 285.419770 874.001933)

LINESTRING (285.419770 874.001933, 277.722257 954.731101)

LINESTRING (353.033088 467.936043, 301.045319 526.305555)

LINESTRING (301.045319 526.305555, 254.955760 594.877784)

LINESTRING (254.955760 594.877784, 191.585579 651.047790)

LINESTRING (191.585579 651.047790, 157.005628 720.845541)

LINESTRING (157.005628 720.845541, 110.407527 772.093755)

LINESTRING (110.407527 772.093755, 52.115868 832.150985)

LINESTRING (322.034839 438.706727, 258.247865 476.160606)

LINESTRING (258.247865 476.160606, 186.037843 507.941820)

LINESTRING (186.037843 507.941820, 107.552260 531.380698)

LINESTRING (107.552260 531.380698, 38.088332 570.194223)

LINESTRING (38.088332 570.194223, -40.573516 607.765552)

LINESTRING (-40.573516 607.765552, -99.744196 638.293622)

LINESTRING (312.294575 409.128409, 230.052087 391.016526)

LINESTRING (230.052087 391.016526, 160.152090 402.448144)

LINESTRING (160.152090 402.448144, 83.961039 409.096423)

LINESTRING (83.961039 409.096423, -7.542083 390.033687)

LINESTRING (-7.542083 390.033687, -77.576902 395.949850)

LINESTRING (-77.576902 395.949850, -167.459725 392.242401)

LINESTRING (319.229072 358.869989, 257.391348 324.967336)

LINESTRING (257.391348 324.967336, 189.442838 289.681016)

LINESTRING (189.442838 289.681016, 117.099353 257.207573)

LINESTRING (117.099353 257.207573, 49.094114 220.310750)

LINESTRING (49.094114 220.310750, -30.841018 185.819634)

LINESTRING (-30.841018 185.819634, -105.276884 149.460129)

LINESTRING (351.720413 341.176639, 300.485445 275.588815)

LINESTRING (300.485445 275.588815, 255.729684 214.901710)

LINESTRING (255.729684 214.901710, 207.970600 145.737087)

LINESTRING (207.970600 145.737087, 152.196721 79.843510)

LINESTRING (152.196721 79.843510, 91.577764 17.704894)

LINESTRING (91.577764 17.704894, 56.186165 -47.011094)

LINESTRING (385.622150 319.027573, 358.083412 238.968882)

LINESTRING (358.083412 238.968882, 349.764014 162.435986)

LINESTRING (349.764014 162.435986, 332.450749 78.164471)

LINESTRING (332.450749 78.164471, 301.696629 4.080108)

LINESTRING (301.696629 4.080108, 291.578926 -60.222934)

LINESTRING (291.578926 -60.222934, 281.795214 -154.895080)

LINESTRING (426.766523 328.855695, 445.570997 245.969053)

LINESTRING (445.570997 245.969053, 449.139773 156.548545)

LINESTRING (449.139773 156.548545, 470.806346 95.195694)

LINESTRING (470.806346 95.195694, 491.406626 1.395276)

LINESTRING (491.406626 1.395276, 515.742004 -66.436000)

LINESTRING (515.742004 -66.436000, 519.947167 -146.680665)

LINESTRING (451.421921 346.610336, 500.680969 283.469145)

LINESTRING (500.680969 283.469145, 546.212144 217.112457)

LINESTRING (546.212144 217.112457, 599.094473 143.090393)

LINESTRING (599.094473 143.090393, 649.050572 84.539417)

LINESTRING (649.050572 84.539417, 693.895976 29.092112)

LINESTRING (693.895976 29.092112, 740.654147 -33.218865)

LINESTRING (469.307235 364.301773, 553.418056 327.607302)

LINESTRING (553.418056 327.607302, 613.974465 298.791519)

LINESTRING (613.974465 298.791519, 682.997766 269.516068)

LINESTRING (682.997766 269.516068, 767.480911 227.726443)

LINESTRING (767.480911 227.726443, 839.210112 201.461261)

LINESTRING (839.210112 201.461261, 898.050686 154.465495)

LINESTRING (400.000000 400.000000, 475.348578 403.310467)

