LINESTRING (291597.150318 4640981.977648, 291603.437561 4640983.160405, 291610.680518 4640984.937520)

LINESTRING (291610.680518 4640984.937520, 291603.437561 4640983.160405, 291597.150318 4640981.977648)

LINESTRING (291610.680518 4640984.937520, 291617.918101 4640986.814819, 291649.722347 4640995.940846)

LINESTRING (291859.652295 4641062.621153, 291851.245014 4641062.478188, 291849.411694 4641062.253999, 291847.165678 4641061.830733, 291842.326195 4641060.460930, 291840.067181 4641059.593512, 291837.921392 4641058.622762, 291814.109929 4641047.939516)

LINESTRING (291814.109929 4641047.939516, 291841.083126 4641054.018218, 291843.565991 4641054.590138, 291848.327561 4641055.851089, 291851.176916 4641056.745688, 291852.616713 4641057.425926, 291859.652295 4641062.621153)

LINESTRING (291814.109929 4641047.939516, 291747.215855 4641027.759743, 291740.616372 4641025.552462)

LINESTRING (291797.305402 4641307.283824, 291804.769045 4641281.437938)

LINESTRING (291797.305402 4641307.283824, 291804.677788 4641308.957303, 291835.011367 4641315.837745, 291840.667118 4641317.016944)

LINESTRING (291804.769045 4641281.437938, 291834.265758 4641158.427683, 291834.938850 4641155.040637)

LINESTRING (291840.667118 4641317.016944, 292001.388494 4641353.834714, 292013.208013 4641356.534146)

LINESTRING (291548.976519 4641094.311831, 291551.396738 4641084.527809, 291553.872118 4641076.909282, 291577.731147 4641041.591987, 291595.126726 4641040.448866)

LINESTRING (291595.126726 4641040.448866, 291621.589014 4641010.367670, 291622.208487 4641009.404887, 291622.608837 4641008.615223, 291623.110053 4641006.733493, 291623.210435 4641005.341380, 291623.020927 4641004.257821, 291622.397077 4641003.086963, 291621.644223 4641002.331080, 291619.332623 4641000.520633, 291613.798441 4640996.415211, 291612.613033 4640995.349712, 291611.372317 4640994.096905, 291610.869004 4640993.355940, 291610.448656 4640992.612544, 291610.017573 4640991.502721, 291609.755021 4640990.476868, 291609.685890 4640989.534256, 291609.711923 4640988.722216, 291610.680518 4640984.937520)

LINESTRING (291538.933481 4641286.834463, 291542.159936 4641298.331174)

LINESTRING (291538.933481 4641286.834463, 291536.658324 4641277.765933, 291533.340257 4641264.560445, 291529.258528 4641241.730915, 291522.625624 4641182.001900, 291522.961316 4641174.757243, 291523.584949 4641168.837754, 291523.794941 4641166.653375, 291524.535655 4641155.095965, 291527.734192 4641144.388935, 291531.148604 4641133.397746, 291547.073635 4641110.982109, 291548.976519 4641094.311831)

LINESTRING (291542.159936 4641298.331174, 291538.933481 4641286.834463)

LINESTRING (291542.159936 4641298.331174, 291547.276017 4641297.525550, 291559.295584 4641295.706347, 291585.753286 4641291.296993, 291641.643166 4641282.824877, 291649.850786 4641281.828749, 291657.900450 4641281.392926, 291663.161808 4641281.294388, 291667.372162 4641281.315543, 291676.576923 4641282.046155)

LINESTRING (291724.650201 4641070.695655, 291761.530629 4641085.608061)

LINESTRING (291724.650201 4641070.695655, 291737.098640 4641035.012904)

LINESTRING (291724.650201 4641070.695655, 291664.093385 4641057.665941, 291635.998541 4641050.720570, 291622.721766 4641047.053093, 291595.126726 4641040.448866)

LINESTRING (291761.530629 4641085.608061, 291770.945555 4641089.255473, 291791.992902 4641097.418949, 291793.437419 4641097.976790, 291811.983221 4641103.512994, 291840.565440 4641112.089549, 291845.514690 4641113.522817)

LINESTRING (291761.530629 4641085.608061, 291752.476437 4641110.733722, 291742.114705 4641131.185612)

LINESTRING (291737.098640 4641035.012904, 291724.650201 4641070.695655)

LINESTRING (291845.514690 4641113.522817, 291852.886194 4641117.430168, 291860.499476 4641119.952396, 291901.049660 4641128.345707)

LINESTRING (291845.514690 4641113.522817, 291855.838356 4641076.435518, 291857.192487 4641071.350432, 291859.652295 4641062.621153)

LINESTRING (291901.049660 4641128.345707, 291898.136436 4641137.755037, 291894.485255 4641149.186361, 291889.721643 4641162.895132, 291888.024569 4641168.745955)

LINESTRING (291834.938850 4641155.040637, 291838.713568 4641139.038070, 291839.233045 4641137.211390, 291843.383221 4641121.553467, 291845.514690 4641113.522817)

LINESTRING (291697.444855 4641118.223986, 291724.650201 4641070.695655)

LINESTRING (291697.444855 4641118.223986, 291596.414091 4641100.545664, 291548.976519 4641094.311831)

LINESTRING (291742.114705 4641131.185612, 291697.444855 4641118.223986)

LINESTRING (291742.114705 4641131.185612, 291815.867095 4641150.253257)

LINESTRING (291815.867095 4641150.253257, 291806.815820 4641183.424835)

LINESTRING (291815.867095 4641150.253257, 291832.502870 4641154.367330, 291834.938850 4641155.040637)

LINESTRING (291740.616372 4641025.552462, 291705.877956 4641014.044793, 291658.906794 4640998.516874, 291649.722347 4640995.940846)

LINESTRING (291740.616372 4641025.552462, 291747.215855 4641027.759743, 291814.109929 4641047.939516)

LINESTRING (291649.722347 4640995.940846, 291651.150531 4640991.120264, 291652.955628 4640986.977674, 291654.544838 4640984.252805, 291657.017218 4640981.346484, 291659.787131 4640978.675944, 291670.992040 4640969.434866)

LINESTRING (291649.722347 4640995.940846, 291617.918101 4640986.814819, 291610.680518 4640984.937520)

LINESTRING (291649.722347 4640995.940846, 291658.906794 4640998.516874, 291705.877956 4641014.044793, 291740.616372 4641025.552462)

LINESTRING (291715.048110 4641288.365486, 291718.514232 4641289.341988, 291789.135785 4641305.322515, 291797.305402 4641307.283824)

LINESTRING (291763.942954 4640971.158694, 291749.260302 4641003.995082)

LINESTRING (291749.260302 4641003.995082, 291743.673050 4641017.928111, 291740.616372 4641025.552462)

LINESTRING (291749.260302 4641003.995082, 291742.121531 4641001.803585, 291739.313295 4641000.896710, 291736.696202 4640999.995353, 291734.058938 4640998.972340, 291731.595575 4640997.933124, 291726.909766 4640995.858754, 291724.422161 4640994.842476, 291721.931460 4640994.004104, 291719.430018 4640993.366088, 291716.925481 4640992.905977, 291714.661540 4640992.438822, 291712.561576 4640991.900187, 291709.461825 4640990.679571, 291706.526050 4640989.387474, 291697.802019 4640984.953084, 291670.992040 4640969.434866)

LINESTRING (291888.024569 4641168.745955, 291885.285978 4641177.027734, 291877.085840 4641202.406066, 291866.508685 4641235.933377, 291851.646130 4641283.044394, 291849.769536 4641289.000504)

LINESTRING (291849.769536 4641289.000504, 291848.081348 4641294.017579, 291842.932044 4641309.293555, 291840.667118 4641317.016944)

LINESTRING (291849.769536 4641289.000504, 291847.015904 4641288.536531, 291812.063386 4641282.713629, 291804.769045 4641281.437938)

LINESTRING (291670.992040 4640969.434866, 291673.887386 4640966.793999, 291676.600210 4640964.158478, 291679.243256 4640961.124921, 291681.711752 4640958.085363, 291689.395936 4640947.991670, 291691.295550 4640945.657803, 291692.945609 4640943.875799, 291695.246708 4640941.641311, 291697.290281 4640939.970033, 291701.538640 4640936.745005)

LINESTRING (291701.538640 4640936.745005, 291716.668018 4640945.259392, 291720.139648 4640947.269287, 291723.459337 4640949.194725, 291737.540054 4640957.628722, 291740.021804 4640959.011917, 291742.678104 4640960.401116, 291745.106497 4640961.663628, 291747.700819 4640962.921283, 291750.344594 4640964.166378, 291752.880839 4640965.425736, 291755.505248 4640966.860326, 291757.143692 4640967.801453, 291763.942954 4640971.158694)

LINESTRING (291960.714353 4641303.113794, 291853.978232 4641289.533033, 291852.919754 4641289.397306, 291849.769536 4641289.000504)

LINESTRING (292030.006206 4641359.977091, 292016.297989 4641357.143933, 292013.208013 4641356.534146)

LINESTRING (292030.006206 4641359.977091, 292025.709086 4641348.467063, 292013.268104 4641316.279851, 292012.367360 4641314.439147, 292010.882823 4641312.226548, 292008.955494 4641310.204709, 292006.902358 4641309.275658, 292004.414725 4641308.537127, 292002.245086 4641308.167151, 291960.714353 4641303.113794)

LINESTRING (291676.576923 4641282.046155, 291690.512769 4641280.448888, 291697.010746 4641279.480656, 291699.285513 4641278.902825, 291701.060239 4641278.261844, 291703.039449 4641276.948073, 291704.509997 4641275.560292, 291705.767939 4641274.000922, 291706.686067 4641272.462617, 291707.414685 4641270.974315, 291707.888399 4641269.571271, 291708.442818 4641266.954506, 291709.698070 4641261.049887, 291725.511437 4641186.605122, 291742.114705 4641131.185612)

LINESTRING (291676.576923 4641282.046155, 291701.320891 4641285.177845, 291704.184012 4641285.694123, 291706.958477 4641286.301906, 291710.688777 4641287.226215, 291715.048110 4641288.365486)

LINESTRING (292024.289424 4641207.335774, 291992.463987 4641196.864072, 291986.279053 4641194.911176, 291980.196917 4641193.066412, 291974.268980 4641191.383843, 291968.435871 4641189.820753, 291921.378019 4641177.794455, 291913.653522 4641176.008902, 291905.448840 4641173.703964, 291893.837377 4641170.465162, 291888.024569 4641168.745955)

LINESTRING (291806.815820 4641183.424835, 291815.867095 4641150.253257)

