LINESTRING (600.000000 400.000000, 561.803399 517.557050)

LINESTRING (561.803399 517.557050, 461.803399 590.211303)

LINESTRING (461.803399 590.211303, 338.196601 590.211303)

LINESTRING (338.196601 590.211303, 238.196601 517.557050)

LINESTRING (238.196601 517.557050, 200.000000 400.000000)

LINESTRING (200.000000 400.000000, 238.196601 282.442950)

LINESTRING (238.196601 282.442950, 338.196601 209.788697)

LINESTRING (338.196601 209.788697, 461.803399 209.788697)

LINESTRING (461.803399 209.788697, 561.803399 282.442950)

LINESTRING (561.803399 282.442950, 600.000000 400.000000)

LINESTRING (800.000000 400.000000, 723.606798 635.114101)

LINESTRING (723.606798 635.114101, 523.606798 780.422607)

LINESTRING (523.606798 780.422607, 276.393202 780.422607)

LINESTRING (276.393202 780.422607, 76.393202 635.114101)

LINESTRING (76.393202 635.114101, 0.000000 400.000000)

LINESTRING (0.000000 400.000000, 76.393202 164.885899)

LINESTRING (76.393202 164.885899, 276.393202 19.577393)

LINESTRING (276.393202 19.577393, 523.606798 19.577393)

LINESTRING (523.606798 19.577393, 723.606798 164.885899)

LINESTRING (723.606798 164.885899, 800.000000 400.000000)

LINESTRING (1000.000000 400.000000, 885.410197 752.671151)

LINESTRING (885.410197 752.671151, 585.410197 970.633910)

LINESTRING (585.410197 970.633910, 214.589803 970.633910)

LINESTRING (214.589803 970.633910, -85.410197 752.671151)

LINESTRING (-85.410197 752.671151, -200.000000 400.000000)

LINESTRING (-200.000000 400.000000, -85.410197 47.328849)

LINESTRING (-85.410197 47.328849, 214.589803 -170.633910)

LINESTRING (214.589803 -170.633910, 585.410197 -170.633910)

LINESTRING (585.410197 -170.633910, 885.410197 47.328849)

LINESTRING (885.410197 47.328849, 1000.000000 400.000000)

LINESTRING (1200.000000 400.000000, 1047.213595 870.228202)

LINESTRING (1047.213595 870.228202, 647.213595 1160.845213)

LINESTRING (647.213595 1160.845213, 152.786405 1160.845213)

LINESTRING (152.786405 1160.845213, -247.213595 870.228202)

LINESTRING (-247.213595 870.228202, -400.000000 400.000000)

LINESTRING (-400.000000 400.000000, -247.213595 -70.228202)

LINESTRING (-247.213595 -70.228202, 152.786405 -360.845213)

LINESTRING (152.786405 -360.845213, 647.213595 -360.845213)

LINESTRING (647.213595 -360.845213, 1047.213595 -70.228202)

LINESTRING (1047.213595 -70.228202, 1200.000000 400.000000)

LINESTRING (1400.000000 400.000000, 1209.016994 987.785252)

LINESTRING (1209.016994 987.785252, 709.016994 1351.056516)

LINESTRING (709.016994 1351.056516, 90.983006 1351.056516)

LINESTRING (90.983006 1351.056516, -409.016994 987.785252)

LINESTRING (-409.016994 987.785252, -600.000000 400.000000)

LINESTRING (-600.000000 400.000000, -409.016994 -187.785252)

LINESTRING (-409.016994 -187.785252, 90.983006 -551.056516)

LINESTRING (90.983006 -551.056516, 709.016994 -551.056516)

LINESTRING (709.016994 -551.056516, 1209.016994 -187.785252)

LINESTRING (1209.016994 -187.785252, 1400.000000 400.000000)

LINESTRING (600.000000 400.000000, 800.000000 400.000000)

LINESTRING (800.000000 400.000000, 1000.000000 400.000000)

LINESTRING (1000.000000 400.000000, 1200.000000 400.000000)

LINESTRING (1200.000000 400.000000, 1400.000000 400.000000)

LINESTRING (561.803399 517.557050, 723.606798 635.114101)

LINESTRING (723.606798 635.114101, 885.410197 752.671151)

LINESTRING (885.410197 752.671151, 1047.213595 870.228202)

LINESTRING (1047.213595 870.228202, 1209.016994 987.785252)

LINESTRING (461.803399 590.211303, 523.606798 780.422607)

LINESTRING (523.606798 780.422607, 585.410197 970.633910)

LINESTRING (585.410197 970.633910, 647.213595 1160.845213)

LINESTRING (647.213595 1160.845213, 709.016994 1351.056516)

LINESTRING (338.196601 590.211303, 276.393202 780.422607)

LINESTRING (276.393202 780.422607, 214.589803 970.633910)

LINESTRING (214.589803 970.633910, 152.786405 1160.845213)

LINESTRING (152.786405 1160.845213, 90.983006 1351.056516)

LINESTRING (238.196601 517.557050, 76.393202 635.114101)

LINESTRING (76.393202 635.114101, -85.410197 752.671151)

LINESTRING (-85.410197 752.671151, -247.213595 870.228202)

LINESTRING (-247.213595 870.228202, -409.016994 987.785252)

LINESTRING (200.000000 400.000000, 0.000000 400.000000)

LINESTRING (0.000000 400.000000, -200.000000 400.000000)

LINESTRING (-200.000000 400.000000, -400.000000 400.000000)

LINESTRING (-400.000000 400.000000, -600.000000 400.000000)

LINESTRING (238.196601 282.442950, 76.393202 164.885899)

LINESTRING (76.393202 164.885899, -85.410197 47.328849)

LINESTRING (-85.410197 47.328849, -247.213595 -70.228202)

LINESTRING (-247.213595 -70.228202, -409.016994 -187.785252)

LINESTRING (338.196601 209.788697, 276.393202 19.577393)

LINESTRING (276.393202 19.577393, 214.589803 -170.633910)

LINESTRING (214.589803 -170.633910, 152.786405 -360.845213)

LINESTRING (152.786405 -360.845213, 90.983006 -551.056516)

LINESTRING (461.803399 209.788697, 523.606798 19.577393)

LINESTRING (523.606798 19.577393, 585.410197 -170.633910)

LINESTRING (585.410197 -170.633910, 647.213595 -360.845213)

LINESTRING (647.213595 -360.845213, 709.016994 -551.056516)

LINESTRING (561.803399 282.442950, 723.606798 164.885899)

LINESTRING (723.606798 164.885899, 885.410197 47.328849)

LINESTRING (885.410197 47.328849, 1047.213595 -70.228202)

LINESTRING (1047.213595 -70.228202, 1209.016994 -187.785252)

LINESTRING (400.000000 400.000000, 600.000000 400.000000)

