LINESTRING (80.000000 80.000000, 229.765854 71.622113)

LINESTRING (80.000000 80.000000, 162.371220 75.392162)

LINESTRING (162.371220 75.392162, 229.765854 71.622113)

LINESTRING (80.000000 80.000000, 194.890839 176.437001)

LINESTRING (80.000000 80.000000, 143.189961 133.040351)

LINESTRING (143.189961 133.040351, 194.890839 176.437001)

LINESTRING (80.000000 80.000000, 123.902041 223.431554)

LINESTRING (80.000000 80.000000, 104.146123 158.887355)

LINESTRING (104.146123 158.887355, 123.902041 223.431554)

LINESTRING (80.000000 80.000000, 44.355893 225.703458)

LINESTRING (80.000000 80.000000, 60.395741 160.136902)

LINESTRING (60.395741 160.136902, 44.355893 225.703458)

LINESTRING (80.000000 80.000000, -41.570468 167.867066)

LINESTRING (80.000000 80.000000, 13.136243 128.326886)

LINESTRING (13.136243 128.326886, -41.570468 167.867066)

LINESTRING (80.000000 80.000000, -69.711956 89.291412)

LINESTRING (80.000000 80.000000, -2.341576 85.110277)

LINESTRING (-2.341576 85.110277, -69.711956 89.291412)

LINESTRING (80.000000 80.000000, -47.778924 1.434445)

LINESTRING (80.000000 80.000000, 9.721592 36.788945)

LINESTRING (9.721592 36.788945, -47.778924 1.434445)

LINESTRING (80.000000 80.000000, 28.684549 -60.949368)

LINESTRING (80.000000 80.000000, 51.776502 2.477847)

LINESTRING (51.776502 2.477847, 28.684549 -60.949368)

LINESTRING (80.000000 80.000000, 116.937765 -65.380884)

LINESTRING (80.000000 80.000000, 100.315771 0.040514)

LINESTRING (100.315771 0.040514, 116.937765 -65.380884)

LINESTRING (80.000000 80.000000, 206.601603 -0.448953)

LINESTRING (80.000000 80.000000, 149.630882 35.753076)

LINESTRING (149.630882 35.753076, 206.601603 -0.448953)

LINESTRING (229.765854 71.622113, 194.890839 176.437001)

LINESTRING (194.890839 176.437001, 123.902041 223.431554)

LINESTRING (123.902041 223.431554, 44.355893 225.703458)

LINESTRING (44.355893 225.703458, -41.570468 167.867066)

LINESTRING (-41.570468 167.867066, -69.711956 89.291412)

LINESTRING (-69.711956 89.291412, -47.778924 1.434445)

LINESTRING (-47.778924 1.434445, 28.684549 -60.949368)

LINESTRING (28.684549 -60.949368, 116.937765 -65.380884)

LINESTRING (116.937765 -65.380884, 206.601603 -0.448953)

LINESTRING (206.601603 -0.448953, 229.765854 71.622113)

LINESTRING (480.000000 80.000000, 629.568391 91.370861)

LINESTRING (480.000000 80.000000, 562.262615 86.253973)

LINESTRING (562.262615 86.253973, 629.568391 91.370861)

LINESTRING (480.000000 80.000000, 606.580024 160.482903)

LINESTRING (480.000000 80.000000, 549.619013 124.265597)

LINESTRING (549.619013 124.265597, 606.580024 160.482903)

LINESTRING (480.000000 80.000000, 535.515669 219.348522)

LINESTRING (480.000000 80.000000, 510.533618 156.641687)

LINESTRING (510.533618 156.641687, 535.515669 219.348522)

LINESTRING (480.000000 80.000000, 441.173531 224.887906)

LINESTRING (480.000000 80.000000, 458.645442 159.688348)

LINESTRING (458.645442 159.688348, 441.173531 224.887906)

LINESTRING (480.000000 80.000000, 354.865805 162.712957)

LINESTRING (480.000000 80.000000, 411.176193 125.492126)

LINESTRING (411.176193 125.492126, 354.865805 162.712957)

LINESTRING (480.000000 80.000000, 330.005833 78.677227)

LINESTRING (480.000000 80.000000, 397.503208 79.272475)

LINESTRING (397.503208 79.272475, 330.005833 78.677227)

LINESTRING (480.000000 80.000000, 355.863019 -4.202197)

LINESTRING (480.000000 80.000000, 411.724661 33.688792)

LINESTRING (411.724661 33.688792, 355.863019 -4.202197)

LINESTRING (480.000000 80.000000, 439.307599 -64.374958)

LINESTRING (480.000000 80.000000, 457.619180 0.593773)

LINESTRING (457.619180 0.593773, 439.307599 -64.374958)

LINESTRING (480.000000 80.000000, 521.826946 -64.050361)

LINESTRING (480.000000 80.000000, 503.004821 0.772301)

LINESTRING (503.004821 0.772301, 521.826946 -64.050361)

LINESTRING (480.000000 80.000000, 597.761964 -12.909203)

LINESTRING (480.000000 80.000000, 544.769080 28.899939)

LINESTRING (544.769080 28.899939, 597.761964 -12.909203)

LINESTRING (629.568391 91.370861, 606.580024 160.482903)

LINESTRING (606.580024 160.482903, 535.515669 219.348522)

LINESTRING (535.515669 219.348522, 441.173531 224.887906)

LINESTRING (441.173531 224.887906, 354.865805 162.712957)

LINESTRING (354.865805 162.712957, 330.005833 78.677227)

LINESTRING (330.005833 78.677227, 355.863019 -4.202197)

LINESTRING (355.863019 -4.202197, 439.307599 -64.374958)

LINESTRING (439.307599 -64.374958, 521.826946 -64.050361)

LINESTRING (521.826946 -64.050361, 597.761964 -12.909203)

LINESTRING (597.761964 -12.909203, 629.568391 91.370861)

LINESTRING (80.000000 80.000000, 480.000000 80.000000)

