LINESTRING (48.222627 48.075219, 153.068316 53.413584)

LINESTRING (153.068316 53.413584, 251.974197 45.440528)

LINESTRING (251.974197 45.440528, 352.473432 51.869704)

LINESTRING (352.473432 51.869704, 445.061647 46.523005)

LINESTRING (445.061647 46.523005, 552.306002 54.384093)

LINESTRING (552.306002 54.384093, 654.423140 45.318557)

LINESTRING (654.423140 45.318557, 749.027321 54.593820)

LINESTRING (749.027321 54.593820, 850.106235 54.882987)

LINESTRING (850.106235 54.882987, 948.732534 46.994655)

LINESTRING (948.732534 46.994655, 1045.642469 51.293128)

LINESTRING (1045.642469 51.293128, 1152.938353 48.193795)

LINESTRING (1152.938353 48.193795, 1249.060295 48.013237)

LINESTRING (1249.060295 48.013237, 1353.952796 52.085707)

LINESTRING (1353.952796 52.085707, 1445.220020 47.573997)

LINESTRING (1445.220020 47.573997, 1550.675889 45.863887)

LINESTRING (1550.675889 45.863887, 1651.294846 50.416061)

LINESTRING (1651.294846 50.416061, 1746.914005 54.603532)

LINESTRING (1746.914005 54.603532, 1845.798521 50.522628)

LINESTRING (45.705032 150.019890, 145.616443 152.135982)

LINESTRING (145.616443 152.135982, 252.653593 152.574760)

LINESTRING (252.653593 152.574760, 353.872184 146.427761)

LINESTRING (353.872184 146.427761, 448.388889 152.875273)

LINESTRING (448.388889 152.875273, 554.186002 150.370235)

LINESTRING (554.186002 150.370235, 646.392092 148.019766)

LINESTRING (646.392092 148.019766, 753.638231 149.206607)

LINESTRING (753.638231 149.206607, 853.478513 150.186347)

LINESTRING (853.478513 150.186347, 949.886525 147.576975)

LINESTRING (949.886525 147.576975, 1050.841112 150.437083)

LINESTRING (1050.841112 150.437083, 1150.667974 150.129801)

LINESTRING (1150.667974 150.129801, 1247.340029 147.775310)

LINESTRING (1247.340029 147.775310, 1352.326102 151.017036)

LINESTRING (1352.326102 151.017036, 1447.532434 154.324413)

LINESTRING (1447.532434 154.324413, 1547.523073 145.501179)

LINESTRING (1547.523073 145.501179, 1654.648228 149.843430)

LINESTRING (1654.648228 149.843430, 1748.355430 145.824076)

LINESTRING (1748.355430 145.824076, 1853.127695 149.677809)

LINESTRING (46.299133 247.083941, 150.268189 245.400423)

LINESTRING (150.268189 245.400423, 252.037069 247.900696)

LINESTRING (252.037069 247.900696, 349.013355 246.497285)

LINESTRING (349.013355 246.497285, 448.308492 250.030677)

LINESTRING (448.308492 250.030677, 549.541477 251.377048)

LINESTRING (549.541477 251.377048, 653.552986 252.417595)

LINESTRING (653.552986 252.417595, 746.380788 250.196156)

LINESTRING (746.380788 250.196156, 848.201755 249.348328)

LINESTRING (848.201755 249.348328, 954.339692 249.553156)

LINESTRING (954.339692 249.553156, 1047.861732 249.180104)

LINESTRING (1047.861732 249.180104, 1153.223932 246.228652)

LINESTRING (1153.223932 246.228652, 1251.820254 246.559670)

LINESTRING (1251.820254 246.559670, 1348.548178 249.782002)

LINESTRING (1348.548178 249.782002, 1450.775492 245.782674)

LINESTRING (1450.775492 245.782674, 1553.761942 254.013003)

LINESTRING (1553.761942 254.013003, 1650.560632 249.893337)

LINESTRING (1650.560632 249.893337, 1751.491107 252.606213)

LINESTRING (1751.491107 252.606213, 1846.336778 247.619693)

LINESTRING (49.359911 347.456411, 150.500129 352.619121)

LINESTRING (150.500129 352.619121, 252.347677 346.033531)

LINESTRING (252.347677 346.033531, 345.407526 345.279430)

LINESTRING (345.407526 345.279430, 447.236479 353.152082)

LINESTRING (447.236479 353.152082, 547.776447 348.061654)

LINESTRING (547.776447 348.061654, 646.305533 346.888131)

LINESTRING (646.305533 346.888131, 745.830161 351.489818)

LINESTRING (745.830161 351.489818, 852.966396 351.596758)

LINESTRING (852.966396 351.596758, 947.870206 351.315372)

LINESTRING (947.870206 351.315372, 1054.288807 346.977265)

LINESTRING (1054.288807 346.977265, 1151.790432 348.983629)

LINESTRING (1151.790432 348.983629, 1249.328753 345.174665)

LINESTRING (1249.328753 345.174665, 1347.235428 347.558782)

LINESTRING (1347.235428 347.558782, 1446.669727 351.433143)

LINESTRING (1446.669727 351.433143, 1545.158323 348.915826)

LINESTRING (1545.158323 348.915826, 1651.024382 352.131729)

LINESTRING (1651.024382 352.131729, 1750.669742 349.122892)

LINESTRING (1750.669742 349.122892, 1847.633650 346.426157)

LINESTRING (49.954170 453.894690, 151.652708 454.012616)

LINESTRING (151.652708 454.012616, 250.788415 453.358037)

LINESTRING (250.788415 453.358037, 354.854297 452.517421)

LINESTRING (354.854297 452.517421, 447.603839 450.500734)

LINESTRING (447.603839 450.500734, 549.090960 448.889639)

LINESTRING (549.090960 448.889639, 654.993043 452.724497)

LINESTRING (654.993043 452.724497, 752.660796 447.476059)

LINESTRING (752.660796 447.476059, 845.823983 453.269469)

LINESTRING (845.823983 453.269469, 945.997895 451.602185)

LINESTRING (945.997895 451.602185, 1054.530557 446.725769)

LINESTRING (1054.530557 446.725769, 1151.721600 445.134399)

LINESTRING (1151.721600 445.134399, 1247.364485 450.327029)

LINESTRING (1247.364485 450.327029, 1347.639349 448.499017)

LINESTRING (1347.639349 448.499017, 1453.765796 449.502089)

LINESTRING (1453.765796 449.502089, 1550.420994 452.187894)

LINESTRING (1550.420994 452.187894, 1645.344983 445.836880)

LINESTRING (1645.344983 445.836880, 1751.025758 451.583293)

LINESTRING (1751.025758 451.583293, 1851.405127 445.607780)

LINESTRING (46.533723 545.108840, 148.041403 545.580266)

LINESTRING (148.041403 545.580266, 250.405429 552.316873)

LINESTRING (250.405429 552.316873, 352.794421 552.734342)

LINESTRING (352.794421 552.734342, 452.763253 553.301700)

LINESTRING (452.763253 553.301700, 545.922769 547.595918)

LINESTRING (545.922769 547.595918, 654.191186 546.156184)

LINESTRING (654.191186 546.156184, 747.125885 552.824706)

LINESTRING (747.125885 552.824706, 851.857760 546.930015)

LINESTRING (851.857760 546.930015, 945.455154 547.608143)

LINESTRING (945.455154 547.608143, 1050.423472 547.956244)

LINESTRING (1050.423472 547.956244, 1151.432231 549.920840)

LINESTRING (1151.432231 549.920840, 1252.783261 552.491578)

LINESTRING (1252.783261 552.491578, 1351.021510 549.543018)

LINESTRING (1351.021510 549.543018, 1446.680421 552.314406)

LINESTRING (1446.680421 552.314406, 1549.496288 548.892190)

LINESTRING (1549.496288 548.892190, 1645.941454 554.244393)

LINESTRING (1645.941454 554.244393, 1749.035062 549.777121)

LINESTRING (1749.035062 549.777121, 1847.423546 549.026130)

LINESTRING (52.961964 648.419801, 145.171965 646.461059)

LINESTRING (145.171965 646.461059, 252.701655 646.918533)

LINESTRING (252.701655 646.918533, 348.080077 653.852445)

LINESTRING (348.080077 653.852445, 454.174571 646.478910)

LINESTRING (454.174571 646.478910, 545.599499 653.887113)

LINESTRING (545.599499 653.887113, 651.950506 646.290836)

LINESTRING (651.950506 646.290836, 751.794499 653.507700)

LINESTRING (751.794499 653.507700, 848.665597 649.885959)

LINESTRING (848.665597 649.885959, 950.124571 652.076377)

LINESTRING (950.124571 652.076377, 1045.569647 652.903472)

LINESTRING (1045.569647 652.903472, 1150.764438 647.599515)

LINESTRING (1150.764438 647.599515, 1247.882838 646.065214)

LINESTRING (1247.882838 646.065214, 1350.700065 648.312472)

LINESTRING (1350.700065 648.312472, 1452.017173 650.170633)

LINESTRING (1452.017173 650.170633, 1546.007556 647.163339)

LINESTRING (1546.007556 647.163339, 1649.282103 651.448063)

LINESTRING (1649.282103 651.448063, 1750.475852 646.164551)

LINESTRING (1750.475852 646.164551, 1850.799842 645.613363)

LINESTRING (51.133227 753.035749, 153.111424 747.154261)

LINESTRING (153.111424 747.154261, 252.868490 754.183388)

LINESTRING (252.868490 754.183388, 352.190665 750.498856)

LINESTRING (352.190665 750.498856, 452.791462 753.278757)

LINESTRING (452.791462 753.278757, 545.627112 752.332445)

LINESTRING (545.627112 752.332445, 649.253536 752.273595)

LINESTRING (649.253536 752.273595, 753.323651 751.747622)

LINESTRING (753.323651 751.747622, 847.055897 747.134083)

LINESTRING (847.055897 747.134083, 945.018456 745.338587)

LINESTRING (945.018456 745.338587, 1053.113063 750.331827)

LINESTRING (1053.113063 750.331827, 1145.182401 747.314088)

LINESTRING (1145.182401 747.314088, 1249.191441 746.359006)

LINESTRING (1249.191441 746.359006, 1348.846124 746.498759)

LINESTRING (1348.846124 746.498759, 1446.225172 752.846916)

LINESTRING (1446.225172 752.846916, 1554.983365 747.361280)

LINESTRING (1554.983365 747.361280, 1649.012923 753.451770)

LINESTRING (1649.012923 753.451770, 1754.540459 752.290267)

LINESTRING (1754.540459 752.290267, 1845.190287 749.035365)

LINESTRING (51.461454 853.900855, 149.335895 853.438495)

LINESTRING (149.335895 853.438495, 254.580824 852.244155)

LINESTRING (254.580824 852.244155, 353.118454 845.678979)

LINESTRING (353.118454 845.678979, 449.224565 848.166210)

LINESTRING (449.224565 848.166210, 550.834182 850.418363)

LINESTRING (550.834182 850.418363, 650.701400 853.678151)

LINESTRING (650.701400 853.678151, 750.854061 848.337670)

LINESTRING (750.854061 848.337670, 847.446143 854.345012)

LINESTRING (847.446143 854.345012, 947.830699 847.600581)

LINESTRING (947.830699 847.600581, 1047.240876 847.749996)

LINESTRING (1047.240876 847.749996, 1152.996125 847.627149)

LINESTRING (1152.996125 847.627149, 1249.282444 853.954588)

LINESTRING (1249.282444 853.954588, 1349.616626 854.667998)

LINESTRING (1349.616626 854.667998, 1451.601711 849.107480)

LINESTRING (1451.601711 849.107480, 1547.156423 854.104548)

LINESTRING (1547.156423 854.104548, 1647.157068 854.772496)

LINESTRING (1647.157068 854.772496, 1754.868243 850.925456)

LINESTRING (1754.868243 850.925456, 1850.580724 853.763137)

LINESTRING (46.492973 954.026429, 153.140988 949.712348)

LINESTRING (153.140988 949.712348, 250.864336 947.588005)

LINESTRING (250.864336 947.588005, 348.170428 947.989159)

LINESTRING (348.170428 947.989159, 454.018939 954.405679)

LINESTRING (454.018939 954.405679, 545.804474 954.829371)

LINESTRING (545.804474 954.829371, 646.041726 949.431665)

LINESTRING (646.041726 949.431665, 746.948206 945.948162)

LINESTRING (746.948206 945.948162, 851.751878 948.091004)

LINESTRING (851.751878 948.091004, 948.515265 951.773162)

LINESTRING (948.515265 951.773162, 1052.524875 945.006659)

LINESTRING (1052.524875 945.006659, 1145.129729 950.841040)

LINESTRING (1145.129729 950.841040, 1245.805403 950.665707)

LINESTRING (1245.805403 950.665707, 1345.519449 953.657430)

LINESTRING (1345.519449 953.657430, 1446.215798 945.709766)

LINESTRING (1446.215798 945.709766, 1547.256009 951.177133)

LINESTRING (1547.256009 951.177133, 1645.519293 950.316436)

LINESTRING (1645.519293 950.316436, 1745.257253 945.517577)

LINESTRING (1745.257253 945.517577, 1845.504200 947.831758)

LINESTRING (48.081993 1051.919743, 152.974488 1052.086181)

LINESTRING (152.974488 1052.086181, 251.437891 1050.139620)

LINESTRING (251.437891 1050.139620, 352.015732 1050.342611)

LINESTRING (352.015732 1050.342611, 450.524396 1046.337629)

LINESTRING (450.524396 1046.337629, 550.310578 1045.270625)

LINESTRING (550.310578 1045.270625, 650.669258 1052.145915)

LINESTRING (650.669258 1052.145915, 745.807128 1047.929196)

LINESTRING (745.807128 1047.929196, 853.644298 1052.162172)

LINESTRING (853.644298 1052.162172, 950.711814 1048.873494)

LINESTRING (950.711814 1048.873494, 1046.857813 1050.168975)

LINESTRING (1046.857813 1050.168975, 1149.491175 1054.358549)

LINESTRING (1149.491175 1054.358549, 1252.339120 1049.300070)

LINESTRING (1252.339120 1049.300070, 1350.384660 1046.653398)

LINESTRING (1350.384660 1046.653398, 1450.465588 1053.307140)

LINESTRING (1450.465588 1053.307140, 1546.582131 1053.637438)

LINESTRING (1546.582131 1053.637438, 1652.617380 1051.602803)

LINESTRING (1652.617380 1051.602803, 1749.095035 1047.510667)

LINESTRING (1749.095035 1047.510667, 1848.517927 1046.416914)

LINESTRING (46.285087 1147.252669, 147.511425 1150.997355)

LINESTRING (147.511425 1150.997355, 246.669762 1147.505578)

LINESTRING (246.669762 1147.505578, 353.561278 1151.424629)

LINESTRING (353.561278 1151.424629, 451.418174 1152.337019)

LINESTRING (451.418174 1152.337019, 548.318274 1152.542121)

LINESTRING (548.318274 1152.542121, 645.580082 1150.490738)

LINESTRING (645.580082 1150.490738, 747.630247 1152.059594)

LINESTRING (747.630247 1152.059594, 850.347753 1148.288552)

LINESTRING (850.347753 1148.288552, 951.327047 1152.538065)

LINESTRING (951.327047 1152.538065, 1047.563227 1145.639035)

LINESTRING (1047.563227 1145.639035, 1148.254811 1150.420440)

LINESTRING (1148.254811 1150.420440, 1251.287876 1154.536165)

LINESTRING (1251.287876 1154.536165, 1347.780440 1147.659596)

LINESTRING (1347.780440 1147.659596, 1446.925036 1148.170937)

LINESTRING (1446.925036 1148.170937, 1548.382492 1146.296683)

LINESTRING (1548.382492 1146.296683, 1651.574672 1145.882757)

LINESTRING (1651.574672 1145.882757, 1753.234068 1152.693977)

LINESTRING (1753.234068 1152.693977, 1846.145865 1149.350420)

LINESTRING (45.657916 1251.337236, 147.347429 1246.134134)

LINESTRING (147.347429 1246.134134, 254.625000 1254.362746)

LINESTRING (254.625000 1254.362746, 354.399918 1247.697079)

LINESTRING (354.399918 1247.697079, 447.271921 1250.254139)

LINESTRING (447.271921 1250.254139, 548.584163 1254.355024)

LINESTRING (548.584163 1254.355024, 648.866138 1254.434376)

LINESTRING (648.866138 1254.434376, 753.873062 1248.100851)

LINESTRING (753.873062 1248.100851, 847.438828 1247.730555)

LINESTRING (847.438828 1247.730555, 952.609750 1246.271295)

LINESTRING (952.609750 1246.271295, 1050.386654 1249.474275)

LINESTRING (1050.386654 1249.474275, 1154.856729 1251.429850)

LINESTRING (1154.856729 1251.429850, 1248.042218 1248.721277)

LINESTRING (1248.042218 1248.721277, 1350.103325 1249.229715)

LINESTRING (1350.103325 1249.229715, 1445.581258 1254.197608)

LINESTRING (1445.581258 1254.197608, 1554.351651 1254.926457)

LINESTRING (1554.351651 1254.926457, 1648.375283 1253.733328)

LINESTRING (1648.375283 1253.733328, 1752.501513 1250.658630)

LINESTRING (1752.501513 1250.658630, 1849.052438 1247.401346)

LINESTRING (53.600277 1352.609158, 147.137719 1345.640984)

LINESTRING (147.137719 1345.640984, 245.022277 1345.462474)

LINESTRING (245.022277 1345.462474, 351.667075 1354.635146)

LINESTRING (351.667075 1354.635146, 450.145070 1351.238003)

LINESTRING (450.145070 1351.238003, 551.046426 1347.757741)

LINESTRING (551.046426 1347.757741, 646.087782 1353.817402)

LINESTRING (646.087782 1353.817402, 748.281160 1348.930813)

LINESTRING (748.281160 1348.930813, 848.415280 1350.178453)

LINESTRING (848.415280 1350.178453, 951.424544 1353.354067)

LINESTRING (951.424544 1353.354067, 1046.924481 1345.381503)

LINESTRING (1046.924481 1345.381503, 1147.999766 1350.434919)

LINESTRING (1147.999766 1350.434919, 1249.793813 1351.293098)

LINESTRING (1249.793813 1351.293098, 1354.493717 1347.850102)

LINESTRING (1354.493717 1347.850102, 1453.368109 1345.074862)

LINESTRING (1453.368109 1345.074862, 1546.453966 1346.921494)

LINESTRING (1546.453966 1346.921494, 1645.600651 1351.150485)

LINESTRING (1645.600651 1351.150485, 1747.142181 1350.543497)

LINESTRING (1747.142181 1350.543497, 1854.442817 1349.709839)

LINESTRING (47.737436 1448.369825, 149.416558 1449.725659)

LINESTRING (149.416558 1449.725659, 248.913364 1450.030456)

LINESTRING (248.913364 1450.030456, 349.800195 1449.404501)

LINESTRING (349.800195 1449.404501, 454.885907 1451.552647)

LINESTRING (454.885907 1451.552647, 546.759257 1446.223766)

LINESTRING (546.759257 1446.223766, 652.028020 1447.726615)

LINESTRING (652.028020 1447.726615, 750.673782 1447.584188)

LINESTRING (750.673782 1447.584188, 854.922548 1449.556041)

LINESTRING (854.922548 1449.556041, 946.445948 1449.778521)

LINESTRING (946.445948 1449.778521, 1045.344405 1445.154536)

LINESTRING (1045.344405 1445.154536, 1150.526042 1447.725414)

LINESTRING (1150.526042 1447.725414, 1246.191597 1451.904172)

LINESTRING (1246.191597 1451.904172, 1352.013359 1453.973044)

LINESTRING (1352.013359 1453.973044, 1446.740598 1445.707835)

LINESTRING (1446.740598 1445.707835, 1546.212184 1454.153688)

LINESTRING (1546.212184 1454.153688, 1652.372937 1449.737716)

LINESTRING (1652.372937 1449.737716, 1753.755387 1453.187369)

LINESTRING (1753.755387 1453.187369, 1854.666578 1451.239150)

LINESTRING (49.517070 1553.871487, 153.588158 1545.576169)

LINESTRING (153.588158 1545.576169, 247.749035 1546.794491)

LINESTRING (247.749035 1546.794491, 347.134207 1551.788274)

LINESTRING (347.134207 1551.788274, 450.737788 1553.210703)

LINESTRING (450.737788 1553.210703, 549.955614 1553.763756)

LINESTRING (549.955614 1553.763756, 649.079005 1550.648655)

LINESTRING (649.079005 1550.648655, 752.699069 1551.715113)

LINESTRING (752.699069 1551.715113, 848.769240 1554.723425)

LINESTRING (848.769240 1554.723425, 954.215347 1552.545538)

LINESTRING (954.215347 1552.545538, 1047.386506 1553.209763)

LINESTRING (1047.386506 1553.209763, 1145.695496 1549.498519)

LINESTRING (1145.695496 1549.498519, 1252.451445 1545.744956)

LINESTRING (1252.451445 1545.744956, 1350.688418 1553.806436)

LINESTRING (1350.688418 1553.806436, 1453.594655 1553.059605)

LINESTRING (1453.594655 1553.059605, 1550.486470 1546.553355)

LINESTRING (1550.486470 1546.553355, 1654.063832 1554.368133)

LINESTRING (1654.063832 1554.368133, 1745.904338 1551.324927)

LINESTRING (1745.904338 1551.324927, 1852.983647 1547.223493)

LINESTRING (45.856410 1649.554272, 152.167984 1646.033897)

LINESTRING (152.167984 1646.033897, 253.225221 1651.924014)

LINESTRING (253.225221 1651.924014, 353.762506 1650.843620)

LINESTRING (353.762506 1650.843620, 450.400391 1654.766257)

LINESTRING (450.400391 1654.766257, 548.026688 1649.705093)

LINESTRING (548.026688 1649.705093, 648.752897 1647.231061)

LINESTRING (648.752897 1647.231061, 745.736847 1650.287192)

LINESTRING (745.736847 1650.287192, 854.412027 1651.346820)

LINESTRING (854.412027 1651.346820, 952.196109 1645.694892)

LINESTRING (952.196109 1645.694892, 1052.713963 1653.819775)

LINESTRING (1052.713963 1653.819775, 1154.723611 1646.311151)

LINESTRING (1154.723611 1646.311151, 1250.296835 1653.492206)

LINESTRING (1250.296835 1653.492206, 1349.146196 1646.805831)

LINESTRING (1349.146196 1646.805831, 1448.267653 1648.588406)

LINESTRING (1448.267653 1648.588406, 1550.740253 1648.921921)

LINESTRING (1550.740253 1648.921921, 1650.374814 1652.164260)

LINESTRING (1650.374814 1652.164260, 1753.579947 1653.630363)

LINESTRING (1753.579947 1653.630363, 1851.892806 1647.323740)

LINESTRING (46.420765 1750.013674, 153.851317 1750.023851)

LINESTRING (153.851317 1750.023851, 254.956225 1752.936833)

LINESTRING (254.956225 1752.936833, 350.652523 1748.084470)

LINESTRING (350.652523 1748.084470, 450.708099 1749.744472)

LINESTRING (450.708099 1749.744472, 546.672334 1746.768570)

LINESTRING (546.672334 1746.768570, 652.429036 1754.835091)

LINESTRING (652.429036 1754.835091, 747.222935 1749.121545)

LINESTRING (747.222935 1749.121545, 851.505311 1754.141330)

LINESTRING (851.505311 1754.141330, 951.737434 1753.122331)

LINESTRING (951.737434 1753.122331, 1052.945811 1747.429749)

LINESTRING (1052.945811 1747.429749, 1154.572608 1749.398891)

LINESTRING (1154.572608 1749.398891, 1247.071044 1750.348017)

LINESTRING (1247.071044 1750.348017, 1352.743611 1750.905915)

LINESTRING (1352.743611 1750.905915, 1449.533403 1747.040476)

LINESTRING (1449.533403 1747.040476, 1545.817853 1746.445091)

LINESTRING (1545.817853 1746.445091, 1652.999155 1747.186796)

LINESTRING (1652.999155 1747.186796, 1753.537479 1751.760659)

LINESTRING (1753.537479 1751.760659, 1853.326625 1749.680374)

LINESTRING (47.896383 1853.579691, 152.718702 1850.799504)

LINESTRING (152.718702 1850.799504, 246.695378 1851.550200)

LINESTRING (246.695378 1851.550200, 352.590628 1845.276877)

LINESTRING (352.590628 1845.276877, 452.520199 1851.659850)

LINESTRING (452.520199 1851.659850, 547.801072 1854.328109)

LINESTRING (547.801072 1854.328109, 652.942356 1847.661616)

LINESTRING (652.942356 1847.661616, 753.327339 1846.131956)

LINESTRING (753.327339 1846.131956, 854.003306 1853.888269)

LINESTRING (854.003306 1853.888269, 952.666583 1853.347085)

LINESTRING (952.666583 1853.347085, 1054.941245 1854.850386)

LINESTRING (1054.941245 1854.850386, 1151.195490 1854.176057)

LINESTRING (1151.195490 1854.176057, 1252.472635 1849.365350)

LINESTRING (1252.472635 1849.365350, 1350.753598 1851.335719)

LINESTRING (1350.753598 1851.335719, 1452.518089 1849.748810)

LINESTRING (1452.518089 1849.748810, 1554.576601 1850.128402)

LINESTRING (1554.576601 1850.128402, 1654.534865 1850.199596)

LINESTRING (1654.534865 1850.199596, 1750.192165 1852.763102)

LINESTRING (1750.192165 1852.763102, 1845.214237 1848.846548)

LINESTRING (48.222627 48.075219, 45.705032 150.019890)

LINESTRING (153.068316 53.413584, 145.616443 152.135982)

LINESTRING (251.974197 45.440528, 252.653593 152.574760)

LINESTRING (352.473432 51.869704, 353.872184 146.427761)

LINESTRING (445.061647 46.523005, 448.388889 152.875273)

LINESTRING (552.306002 54.384093, 554.186002 150.370235)

LINESTRING (654.423140 45.318557, 646.392092 148.019766)

LINESTRING (749.027321 54.593820, 753.638231 149.206607)

LINESTRING (850.106235 54.882987, 853.478513 150.186347)

LINESTRING (948.732534 46.994655, 949.886525 147.576975)

LINESTRING (1045.642469 51.293128, 1050.841112 150.437083)

LINESTRING (1152.938353 48.193795, 1150.667974 150.129801)

LINESTRING (1249.060295 48.013237, 1247.340029 147.775310)

LINESTRING (1353.952796 52.085707, 1352.326102 151.017036)

LINESTRING (1445.220020 47.573997, 1447.532434 154.324413)

LINESTRING (1550.675889 45.863887, 1547.523073 145.501179)

LINESTRING (1651.294846 50.416061, 1654.648228 149.843430)

LINESTRING (1746.914005 54.603532, 1748.355430 145.824076)

LINESTRING (1845.798521 50.522628, 1853.127695 149.677809)

LINESTRING (45.705032 150.019890, 46.299133 247.083941)

LINESTRING (145.616443 152.135982, 150.268189 245.400423)

LINESTRING (252.653593 152.574760, 252.037069 247.900696)

LINESTRING (353.872184 146.427761, 349.013355 246.497285)

LINESTRING (448.388889 152.875273, 448.308492 250.030677)

LINESTRING (554.186002 150.370235, 549.541477 251.377048)

LINESTRING (646.392092 148.019766, 653.552986 252.417595)

LINESTRING (753.638231 149.206607, 746.380788 250.196156)

LINESTRING (853.478513 150.186347, 848.201755 249.348328)

LINESTRING (949.886525 147.576975, 954.339692 249.553156)

LINESTRING (1050.841112 150.437083, 1047.861732 249.180104)

LINESTRING (1150.667974 150.129801, 1153.223932 246.228652)

LINESTRING (1247.340029 147.775310, 1251.820254 246.559670)

LINESTRING (1352.326102 151.017036, 1348.548178 249.782002)

LINESTRING (1447.532434 154.324413, 1450.775492 245.782674)

LINESTRING (1547.523073 145.501179, 1553.761942 254.013003)

LINESTRING (1654.648228 149.843430, 1650.560632 249.893337)

LINESTRING (1748.355430 145.824076, 1751.491107 252.606213)

LINESTRING (1853.127695 149.677809, 1846.336778 247.619693)

LINESTRING (46.299133 247.083941, 49.359911 347.456411)

LINESTRING (150.268189 245.400423, 150.500129 352.619121)

LINESTRING (252.037069 247.900696, 252.347677 346.033531)

LINESTRING (349.013355 246.497285, 345.407526 345.279430)

LINESTRING (448.308492 250.030677, 447.236479 353.152082)

LINESTRING (549.541477 251.377048, 547.776447 348.061654)

LINESTRING (653.552986 252.417595, 646.305533 346.888131)

LINESTRING (746.380788 250.196156, 745.830161 351.489818)

LINESTRING (848.201755 249.348328, 852.966396 351.596758)

LINESTRING (954.339692 249.553156, 947.870206 351.315372)

LINESTRING (1047.861732 249.180104, 1054.288807 346.977265)

LINESTRING (1153.223932 246.228652, 1151.790432 348.983629)

LINESTRING (1251.820254 246.559670, 1249.328753 345.174665)

LINESTRING (1348.548178 249.782002, 1347.235428 347.558782)

LINESTRING (1450.775492 245.782674, 1446.669727 351.433143)

LINESTRING (1553.761942 254.013003, 1545.158323 348.915826)

LINESTRING (1650.560632 249.893337, 1651.024382 352.131729)

LINESTRING (1751.491107 252.606213, 1750.669742 349.122892)

LINESTRING (1846.336778 247.619693, 1847.633650 346.426157)

LINESTRING (49.359911 347.456411, 49.954170 453.894690)

LINESTRING (150.500129 352.619121, 151.652708 454.012616)

LINESTRING (252.347677 346.033531, 250.788415 453.358037)

LINESTRING (345.407526 345.279430, 354.854297 452.517421)

LINESTRING (447.236479 353.152082, 447.603839 450.500734)

LINESTRING (547.776447 348.061654, 549.090960 448.889639)

LINESTRING (646.305533 346.888131, 654.993043 452.724497)

LINESTRING (745.830161 351.489818, 752.660796 447.476059)

LINESTRING (852.966396 351.596758, 845.823983 453.269469)

LINESTRING (947.870206 351.315372, 945.997895 451.602185)

LINESTRING (1054.288807 346.977265, 1054.530557 446.725769)

LINESTRING (1151.790432 348.983629, 1151.721600 445.134399)

LINESTRING (1249.328753 345.174665, 1247.364485 450.327029)

LINESTRING (1347.235428 347.558782, 1347.639349 448.499017)

LINESTRING (1446.669727 351.433143, 1453.765796 449.502089)

LINESTRING (1545.158323 348.915826, 1550.420994 452.187894)

LINESTRING (1651.024382 352.131729, 1645.344983 445.836880)

LINESTRING (1750.669742 349.122892, 1751.025758 451.583293)

LINESTRING (1847.633650 346.426157, 1851.405127 445.607780)

LINESTRING (49.954170 453.894690, 46.533723 545.108840)

LINESTRING (151.652708 454.012616, 148.041403 545.580266)

LINESTRING (250.788415 453.358037, 250.405429 552.316873)

LINESTRING (354.854297 452.517421, 352.794421 552.734342)

LINESTRING (447.603839 450.500734, 452.763253 553.301700)

LINESTRING (549.090960 448.889639, 545.922769 547.595918)

LINESTRING (654.993043 452.724497, 654.191186 546.156184)

LINESTRING (752.660796 447.476059, 747.125885 552.824706)

LINESTRING (845.823983 453.269469, 851.857760 546.930015)

LINESTRING (945.997895 451.602185, 945.455154 547.608143)

LINESTRING (1054.530557 446.725769, 1050.423472 547.956244)

LINESTRING (1151.721600 445.134399, 1151.432231 549.920840)

LINESTRING (1247.364485 450.327029, 1252.783261 552.491578)

LINESTRING (1347.639349 448.499017, 1351.021510 549.543018)

LINESTRING (1453.765796 449.502089, 1446.680421 552.314406)

LINESTRING (1550.420994 452.187894, 1549.496288 548.892190)

LINESTRING (1645.344983 445.836880, 1645.941454 554.244393)

LINESTRING (1751.025758 451.583293, 1749.035062 549.777121)

LINESTRING (1851.405127 445.607780, 1847.423546 549.026130)

LINESTRING (46.533723 545.108840, 52.961964 648.419801)

LINESTRING (148.041403 545.580266, 145.171965 646.461059)

LINESTRING (250.405429 552.316873, 252.701655 646.918533)

LINESTRING (352.794421 552.734342, 348.080077 653.852445)

LINESTRING (452.763253 553.301700, 454.174571 646.478910)

LINESTRING (545.922769 547.595918, 545.599499 653.887113)

LINESTRING (654.191186 546.156184, 651.950506 646.290836)

LINESTRING (747.125885 552.824706, 751.794499 653.507700)

LINESTRING (851.857760 546.930015, 848.665597 649.885959)

LINESTRING (945.455154 547.608143, 950.124571 652.076377)

LINESTRING (1050.423472 547.956244, 1045.569647 652.903472)

LINESTRING (1151.432231 549.920840, 1150.764438 647.599515)

LINESTRING (1252.783261 552.491578, 1247.882838 646.065214)

LINESTRING (1351.021510 549.543018, 1350.700065 648.312472)

LINESTRING (1446.680421 552.314406, 1452.017173 650.170633)

LINESTRING (1549.496288 548.892190, 1546.007556 647.163339)

LINESTRING (1645.941454 554.244393, 1649.282103 651.448063)

LINESTRING (1749.035062 549.777121, 1750.475852 646.164551)

LINESTRING (1847.423546 549.026130, 1850.799842 645.613363)

LINESTRING (52.961964 648.419801, 51.133227 753.035749)

LINESTRING (145.171965 646.461059, 153.111424 747.154261)

LINESTRING (252.701655 646.918533, 252.868490 754.183388)

LINESTRING (348.080077 653.852445, 352.190665 750.498856)

LINESTRING (454.174571 646.478910, 452.791462 753.278757)

LINESTRING (545.599499 653.887113, 545.627112 752.332445)

LINESTRING (651.950506 646.290836, 649.253536 752.273595)

LINESTRING (751.794499 653.507700, 753.323651 751.747622)

LINESTRING (848.665597 649.885959, 847.055897 747.134083)

LINESTRING (950.124571 652.076377, 945.018456 745.338587)

LINESTRING (1045.569647 652.903472, 1053.113063 750.331827)

LINESTRING (1150.764438 647.599515, 1145.182401 747.314088)

LINESTRING (1247.882838 646.065214, 1249.191441 746.359006)

LINESTRING (1350.700065 648.312472, 1348.846124 746.498759)

LINESTRING (1452.017173 650.170633, 1446.225172 752.846916)

LINESTRING (1546.007556 647.163339, 1554.983365 747.361280)

LINESTRING (1649.282103 651.448063, 1649.012923 753.451770)

LINESTRING (1750.475852 646.164551, 1754.540459 752.290267)

LINESTRING (1850.799842 645.613363, 1845.190287 749.035365)

LINESTRING (51.133227 753.035749, 51.461454 853.900855)

LINESTRING (153.111424 747.154261, 149.335895 853.438495)

LINESTRING (252.868490 754.183388, 254.580824 852.244155)

LINESTRING (352.190665 750.498856, 353.118454 845.678979)

LINESTRING (452.791462 753.278757, 449.224565 848.166210)

LINESTRING (545.627112 752.332445, 550.834182 850.418363)

LINESTRING (649.253536 752.273595, 650.701400 853.678151)

LINESTRING (753.323651 751.747622, 750.854061 848.337670)

LINESTRING (847.055897 747.134083, 847.446143 854.345012)

LINESTRING (945.018456 745.338587, 947.830699 847.600581)

LINESTRING (1053.113063 750.331827, 1047.240876 847.749996)

LINESTRING (1145.182401 747.314088, 1152.996125 847.627149)

LINESTRING (1249.191441 746.359006, 1249.282444 853.954588)

LINESTRING (1348.846124 746.498759, 1349.616626 854.667998)

LINESTRING (1446.225172 752.846916, 1451.601711 849.107480)

LINESTRING (1554.983365 747.361280, 1547.156423 854.104548)

LINESTRING (1649.012923 753.451770, 1647.157068 854.772496)

LINESTRING (1754.540459 752.290267, 1754.868243 850.925456)

LINESTRING (1845.190287 749.035365, 1850.580724 853.763137)

LINESTRING (51.461454 853.900855, 46.492973 954.026429)

LINESTRING (149.335895 853.438495, 153.140988 949.712348)

LINESTRING (254.580824 852.244155, 250.864336 947.588005)

LINESTRING (353.118454 845.678979, 348.170428 947.989159)

LINESTRING (449.224565 848.166210, 454.018939 954.405679)

LINESTRING (550.834182 850.418363, 545.804474 954.829371)

LINESTRING (650.701400 853.678151, 646.041726 949.431665)

LINESTRING (750.854061 848.337670, 746.948206 945.948162)

LINESTRING (847.446143 854.345012, 851.751878 948.091004)

LINESTRING (947.830699 847.600581, 948.515265 951.773162)

LINESTRING (1047.240876 847.749996, 1052.524875 945.006659)

LINESTRING (1152.996125 847.627149, 1145.129729 950.841040)

LINESTRING (1249.282444 853.954588, 1245.805403 950.665707)

LINESTRING (1349.616626 854.667998, 1345.519449 953.657430)

LINESTRING (1451.601711 849.107480, 1446.215798 945.709766)

LINESTRING (1547.156423 854.104548, 1547.256009 951.177133)

LINESTRING (1647.157068 854.772496, 1645.519293 950.316436)

LINESTRING (1754.868243 850.925456, 1745.257253 945.517577)

LINESTRING (1850.580724 853.763137, 1845.504200 947.831758)

LINESTRING (46.492973 954.026429, 48.081993 1051.919743)

LINESTRING (153.140988 949.712348, 152.974488 1052.086181)

LINESTRING (250.864336 947.588005, 251.437891 1050.139620)

LINESTRING (348.170428 947.989159, 352.015732 1050.342611)

LINESTRING (454.018939 954.405679, 450.524396 1046.337629)

LINESTRING (545.804474 954.829371, 550.310578 1045.270625)

LINESTRING (646.041726 949.431665, 650.669258 1052.145915)

LINESTRING (746.948206 945.948162, 745.807128 1047.929196)

LINESTRING (851.751878 948.091004, 853.644298 1052.162172)

LINESTRING (948.515265 951.773162, 950.711814 1048.873494)

LINESTRING (1052.524875 945.006659, 1046.857813 1050.168975)

LINESTRING (1145.129729 950.841040, 1149.491175 1054.358549)

LINESTRING (1245.805403 950.665707, 1252.339120 1049.300070)

LINESTRING (1345.519449 953.657430, 1350.384660 1046.653398)

LINESTRING (1446.215798 945.709766, 1450.465588 1053.307140)

LINESTRING (1547.256009 951.177133, 1546.582131 1053.637438)

LINESTRING (1645.519293 950.316436, 1652.617380 1051.602803)

LINESTRING (1745.257253 945.517577, 1749.095035 1047.510667)

LINESTRING (1845.504200 947.831758, 1848.517927 1046.416914)

LINESTRING (48.081993 1051.919743, 46.285087 1147.252669)

LINESTRING (152.974488 1052.086181, 147.511425 1150.997355)

LINESTRING (251.437891 1050.139620, 246.669762 1147.505578)

LINESTRING (352.015732 1050.342611, 353.561278 1151.424629)

LINESTRING (450.524396 1046.337629, 451.418174 1152.337019)

LINESTRING (550.310578 1045.270625, 548.318274 1152.542121)

LINESTRING (650.669258 1052.145915, 645.580082 1150.490738)

LINESTRING (745.807128 1047.929196, 747.630247 1152.059594)

LINESTRING (853.644298 1052.162172, 850.347753 1148.288552)

LINESTRING (950.711814 1048.873494, 951.327047 1152.538065)

LINESTRING (1046.857813 1050.168975, 1047.563227 1145.639035)

LINESTRING (1149.491175 1054.358549, 1148.254811 1150.420440)

LINESTRING (1252.339120 1049.300070, 1251.287876 1154.536165)

LINESTRING (1350.384660 1046.653398, 1347.780440 1147.659596)

LINESTRING (1450.465588 1053.307140, 1446.925036 1148.170937)

LINESTRING (1546.582131 1053.637438, 1548.382492 1146.296683)

LINESTRING (1652.617380 1051.602803, 1651.574672 1145.882757)

LINESTRING (1749.095035 1047.510667, 1753.234068 1152.693977)

LINESTRING (1848.517927 1046.416914, 1846.145865 1149.350420)

LINESTRING (46.285087 1147.252669, 45.657916 1251.337236)

LINESTRING (147.511425 1150.997355, 147.347429 1246.134134)

LINESTRING (246.669762 1147.505578, 254.625000 1254.362746)

LINESTRING (353.561278 1151.424629, 354.399918 1247.697079)

LINESTRING (451.418174 1152.337019, 447.271921 1250.254139)

LINESTRING (548.318274 1152.542121, 548.584163 1254.355024)

LINESTRING (645.580082 1150.490738, 648.866138 1254.434376)

LINESTRING (747.630247 1152.059594, 753.873062 1248.100851)

LINESTRING (850.347753 1148.288552, 847.438828 1247.730555)

LINESTRING (951.327047 1152.538065, 952.609750 1246.271295)

LINESTRING (1047.563227 1145.639035, 1050.386654 1249.474275)

LINESTRING (1148.254811 1150.420440, 1154.856729 1251.429850)

LINESTRING (1251.287876 1154.536165, 1248.042218 1248.721277)

LINESTRING (1347.780440 1147.659596, 1350.103325 1249.229715)

LINESTRING (1446.925036 1148.170937, 1445.581258 1254.197608)

LINESTRING (1548.382492 1146.296683, 1554.351651 1254.926457)

LINESTRING (1651.574672 1145.882757, 1648.375283 1253.733328)

LINESTRING (1753.234068 1152.693977, 1752.501513 1250.658630)

LINESTRING (1846.145865 1149.350420, 1849.052438 1247.401346)

LINESTRING (45.657916 1251.337236, 53.600277 1352.609158)

LINESTRING (147.347429 1246.134134, 147.137719 1345.640984)

LINESTRING (254.625000 1254.362746, 245.022277 1345.462474)

LINESTRING (354.399918 1247.697079, 351.667075 1354.635146)

LINESTRING (447.271921 1250.254139, 450.145070 1351.238003)

LINESTRING (548.584163 1254.355024, 551.046426 1347.757741)

LINESTRING (648.866138 1254.434376, 646.087782 1353.817402)

LINESTRING (753.873062 1248.100851, 748.281160 1348.930813)

LINESTRING (847.438828 1247.730555, 848.415280 1350.178453)

LINESTRING (952.609750 1246.271295, 951.424544 1353.354067)

LINESTRING (1050.386654 1249.474275, 1046.924481 1345.381503)

LINESTRING (1154.856729 1251.429850, 1147.999766 1350.434919)

LINESTRING (1248.042218 1248.721277, 1249.793813 1351.293098)

LINESTRING (1350.103325 1249.229715, 1354.493717 1347.850102)

LINESTRING (1445.581258 1254.197608, 1453.368109 1345.074862)

LINESTRING (1554.351651 1254.926457, 1546.453966 1346.921494)

LINESTRING (1648.375283 1253.733328, 1645.600651 1351.150485)

LINESTRING (1752.501513 1250.658630, 1747.142181 1350.543497)

LINESTRING (1849.052438 1247.401346, 1854.442817 1349.709839)

LINESTRING (53.600277 1352.609158, 47.737436 1448.369825)

LINESTRING (147.137719 1345.640984, 149.416558 1449.725659)

LINESTRING (245.022277 1345.462474, 248.913364 1450.030456)

LINESTRING (351.667075 1354.635146, 349.800195 1449.404501)

LINESTRING (450.145070 1351.238003, 454.885907 1451.552647)

LINESTRING (551.046426 1347.757741, 546.759257 1446.223766)

LINESTRING (646.087782 1353.817402, 652.028020 1447.726615)

LINESTRING (748.281160 1348.930813, 750.673782 1447.584188)

LINESTRING (848.415280 1350.178453, 854.922548 1449.556041)

LINESTRING (951.424544 1353.354067, 946.445948 1449.778521)

LINESTRING (1046.924481 1345.381503, 1045.344405 1445.154536)

LINESTRING (1147.999766 1350.434919, 1150.526042 1447.725414)

LINESTRING (1249.793813 1351.293098, 1246.191597 1451.904172)

LINESTRING (1354.493717 1347.850102, 1352.013359 1453.973044)

LINESTRING (1453.368109 1345.074862, 1446.740598 1445.707835)

LINESTRING (1546.453966 1346.921494, 1546.212184 1454.153688)

LINESTRING (1645.600651 1351.150485, 1652.372937 1449.737716)

LINESTRING (1747.142181 1350.543497, 1753.755387 1453.187369)

LINESTRING (1854.442817 1349.709839, 1854.666578 1451.239150)

LINESTRING (47.737436 1448.369825, 49.517070 1553.871487)

LINESTRING (149.416558 1449.725659, 153.588158 1545.576169)

LINESTRING (248.913364 1450.030456, 247.749035 1546.794491)

LINESTRING (349.800195 1449.404501, 347.134207 1551.788274)

LINESTRING (454.885907 1451.552647, 450.737788 1553.210703)

LINESTRING (546.759257 1446.223766, 549.955614 1553.763756)

LINESTRING (652.028020 1447.726615, 649.079005 1550.648655)

LINESTRING (750.673782 1447.584188, 752.699069 1551.715113)

LINESTRING (854.922548 1449.556041, 848.769240 1554.723425)

LINESTRING (946.445948 1449.778521, 954.215347 1552.545538)

LINESTRING (1045.344405 1445.154536, 1047.386506 1553.209763)

LINESTRING (1150.526042 1447.725414, 1145.695496 1549.498519)

LINESTRING (1246.191597 1451.904172, 1252.451445 1545.744956)

LINESTRING (1352.013359 1453.973044, 1350.688418 1553.806436)

LINESTRING (1446.740598 1445.707835, 1453.594655 1553.059605)

LINESTRING (1546.212184 1454.153688, 1550.486470 1546.553355)

LINESTRING (1652.372937 1449.737716, 1654.063832 1554.368133)

LINESTRING (1753.755387 1453.187369, 1745.904338 1551.324927)

LINESTRING (1854.666578 1451.239150, 1852.983647 1547.223493)

LINESTRING (49.517070 1553.871487, 45.856410 1649.554272)

LINESTRING (153.588158 1545.576169, 152.167984 1646.033897)

LINESTRING (247.749035 1546.794491, 253.225221 1651.924014)

LINESTRING (347.134207 1551.788274, 353.762506 1650.843620)

LINESTRING (450.737788 1553.210703, 450.400391 1654.766257)

LINESTRING (549.955614 1553.763756, 548.026688 1649.705093)

LINESTRING (649.079005 1550.648655, 648.752897 1647.231061)

LINESTRING (752.699069 1551.715113, 745.736847 1650.287192)

LINESTRING (848.769240 1554.723425, 854.412027 1651.346820)

LINESTRING (954.215347 1552.545538, 952.196109 1645.694892)

LINESTRING (1047.386506 1553.209763, 1052.713963 1653.819775)

LINESTRING (1145.695496 1549.498519, 1154.723611 1646.311151)

LINESTRING (1252.451445 1545.744956, 1250.296835 1653.492206)

LINESTRING (1350.688418 1553.806436, 1349.146196 1646.805831)

LINESTRING (1453.594655 1553.059605, 1448.267653 1648.588406)

LINESTRING (1550.486470 1546.553355, 1550.740253 1648.921921)

LINESTRING (1654.063832 1554.368133, 1650.374814 1652.164260)

LINESTRING (1745.904338 1551.324927, 1753.579947 1653.630363)

LINESTRING (1852.983647 1547.223493, 1851.892806 1647.323740)

LINESTRING (45.856410 1649.554272, 46.420765 1750.013674)

LINESTRING (152.167984 1646.033897, 153.851317 1750.023851)

LINESTRING (253.225221 1651.924014, 254.956225 1752.936833)

LINESTRING (353.762506 1650.843620, 350.652523 1748.084470)

LINESTRING (450.400391 1654.766257, 450.708099 1749.744472)

LINESTRING (548.026688 1649.705093, 546.672334 1746.768570)

LINESTRING (648.752897 1647.231061, 652.429036 1754.835091)

LINESTRING (745.736847 1650.287192, 747.222935 1749.121545)

LINESTRING (854.412027 1651.346820, 851.505311 1754.141330)

LINESTRING (952.196109 1645.694892, 951.737434 1753.122331)

LINESTRING (1052.713963 1653.819775, 1052.945811 1747.429749)

LINESTRING (1154.723611 1646.311151, 1154.572608 1749.398891)

LINESTRING (1250.296835 1653.492206, 1247.071044 1750.348017)

LINESTRING (1349.146196 1646.805831, 1352.743611 1750.905915)

LINESTRING (1448.267653 1648.588406, 1449.533403 1747.040476)

LINESTRING (1550.740253 1648.921921, 1545.817853 1746.445091)

LINESTRING (1650.374814 1652.164260, 1652.999155 1747.186796)

LINESTRING (1753.579947 1653.630363, 1753.537479 1751.760659)

LINESTRING (1851.892806 1647.323740, 1853.326625 1749.680374)

LINESTRING (46.420765 1750.013674, 47.896383 1853.579691)

LINESTRING (153.851317 1750.023851, 152.718702 1850.799504)

LINESTRING (254.956225 1752.936833, 246.695378 1851.550200)

LINESTRING (350.652523 1748.084470, 352.590628 1845.276877)

LINESTRING (450.708099 1749.744472, 452.520199 1851.659850)

LINESTRING (546.672334 1746.768570, 547.801072 1854.328109)

LINESTRING (652.429036 1754.835091, 652.942356 1847.661616)

LINESTRING (747.222935 1749.121545, 753.327339 1846.131956)

LINESTRING (851.505311 1754.141330, 854.003306 1853.888269)

LINESTRING (951.737434 1753.122331, 952.666583 1853.347085)

LINESTRING (1052.945811 1747.429749, 1054.941245 1854.850386)

LINESTRING (1154.572608 1749.398891, 1151.195490 1854.176057)

LINESTRING (1247.071044 1750.348017, 1252.472635 1849.365350)

LINESTRING (1352.743611 1750.905915, 1350.753598 1851.335719)

LINESTRING (1449.533403 1747.040476, 1452.518089 1849.748810)

LINESTRING (1545.817853 1746.445091, 1554.576601 1850.128402)

LINESTRING (1652.999155 1747.186796, 1654.534865 1850.199596)

LINESTRING (1753.537479 1751.760659, 1750.192165 1852.763102)

LINESTRING (1853.326625 1749.680374, 1845.214237 1848.846548)

LINESTRING (445.061647 46.523005, 554.186002 150.370235)

LINESTRING (552.306002 54.384093, 646.392092 148.019766)

LINESTRING (252.653593 152.574760, 349.013355 246.497285)

LINESTRING (554.186002 150.370235, 653.552986 252.417595)

LINESTRING (1050.841112 150.437083, 1153.223932 246.228652)

LINESTRING (1447.532434 154.324413, 1553.761942 254.013003)

LINESTRING (349.013355 246.497285, 447.236479 353.152082)

LINESTRING (1151.790432 348.983629, 1247.364485 450.327029)

LINESTRING (49.954170 453.894690, 148.041403 545.580266)

LINESTRING (250.788415 453.358037, 352.794421 552.734342)

LINESTRING (354.854297 452.517421, 452.763253 553.301700)

LINESTRING (654.993043 452.724497, 747.125885 552.824706)

LINESTRING (1347.639349 448.499017, 1446.680421 552.314406)

LINESTRING (1645.344983 445.836880, 1749.035062 549.777121)

LINESTRING (545.922769 547.595918, 651.950506 646.290836)

LINESTRING (654.191186 546.156184, 751.794499 653.507700)

LINESTRING (945.455154 547.608143, 1045.569647 652.903472)

LINESTRING (1050.423472 547.956244, 1150.764438 647.599515)

LINESTRING (348.080077 653.852445, 452.791462 753.278757)

LINESTRING (454.174571 646.478910, 545.627112 752.332445)

LINESTRING (1045.569647 652.903472, 1145.182401 747.314088)

LINESTRING (1546.007556 647.163339, 1649.012923 753.451770)

LINESTRING (1446.225172 752.846916, 1547.156423 854.104548)

LINESTRING (1754.540459 752.290267, 1850.580724 853.763137)

LINESTRING (449.224565 848.166210, 545.804474 954.829371)

LINESTRING (1249.282444 853.954588, 1345.519449 953.657430)

LINESTRING (1754.868243 850.925456, 1845.504200 947.831758)

LINESTRING (746.948206 945.948162, 853.644298 1052.162172)

LINESTRING (851.751878 948.091004, 950.711814 1048.873494)

LINESTRING (251.437891 1050.139620, 353.561278 1151.424629)

LINESTRING (1450.465588 1053.307140, 1548.382492 1146.296683)

LINESTRING (850.347753 1148.288552, 952.609750 1246.271295)

LINESTRING (548.584163 1254.355024, 646.087782 1353.817402)

LINESTRING (1050.386654 1249.474275, 1147.999766 1350.434919)

LINESTRING (245.022277 1345.462474, 349.800195 1449.404501)

LINESTRING (450.145070 1351.238003, 546.759257 1446.223766)

LINESTRING (646.087782 1353.817402, 750.673782 1447.584188)

LINESTRING (1453.368109 1345.074862, 1546.212184 1454.153688)

LINESTRING (149.416558 1449.725659, 247.749035 1546.794491)

LINESTRING (1150.526042 1447.725414, 1252.451445 1545.744956)

LINESTRING (49.517070 1553.871487, 152.167984 1646.033897)

LINESTRING (450.737788 1553.210703, 548.026688 1649.705093)

LINESTRING (649.079005 1550.648655, 745.736847 1650.287192)

LINESTRING (1145.695496 1549.498519, 1250.296835 1653.492206)

LINESTRING (1550.486470 1546.553355, 1650.374814 1652.164260)

LINESTRING (450.400391 1654.766257, 546.672334 1746.768570)

LINESTRING (952.196109 1645.694892, 1052.945811 1747.429749)

LINESTRING (1550.740253 1648.921921, 1652.999155 1747.186796)

LINESTRING (46.420765 1750.013674, 152.718702 1850.799504)

LINESTRING (153.851317 1750.023851, 246.695378 1851.550200)

LINESTRING (747.222935 1749.121545, 854.003306 1853.888269)

