LINESTRING (80.000000 80.000000, 337.005052 136.234428)

LINESTRING (337.005052 136.234428, 611.990919 74.892940)

LINESTRING (611.990919 74.892940, 831.449449 -119.501403)

LINESTRING (831.449449 -119.501403, 893.768482 -440.517830)

LINESTRING (893.768482 -440.517830, 781.433264 -690.638156)

LINESTRING (781.433264 -690.638156, 580.582147 -887.442188)

LINESTRING (781.433264 -690.638156, 709.906630 -964.802703)

LINESTRING (781.433264 -690.638156, 879.371634 -977.701416)

LINESTRING (893.768482 -440.517830, 946.010008 -723.902399)

LINESTRING (946.010008 -723.902399, 896.904466 -1029.369752)

LINESTRING (946.010008 -723.902399, 1063.045683 -1020.411147)

LINESTRING (946.010008 -723.902399, 1118.737541 -960.133917)

LINESTRING (893.768482 -440.517830, 1122.952326 -627.607632)

LINESTRING (1122.952326 -627.607632, 1204.388961 -914.832312)

LINESTRING (1122.952326 -627.607632, 1314.560977 -814.683014)

LINESTRING (1122.952326 -627.607632, 1376.988443 -666.504993)

LINESTRING (831.449449 -119.501403, 1009.837143 -308.400897)

LINESTRING (1009.837143 -308.400897, 1115.689864 -601.188635)

LINESTRING (1115.689864 -601.188635, 1014.616035 -881.791735)

LINESTRING (1115.689864 -601.188635, 1158.817045 -866.671176)

LINESTRING (1115.689864 -601.188635, 1365.169006 -822.711129)

LINESTRING (1009.837143 -308.400897, 1238.226284 -549.477846)

LINESTRING (1238.226284 -549.477846, 1309.676036 -872.233755)

LINESTRING (1238.226284 -549.477846, 1451.896488 -791.847910)

LINESTRING (1238.226284 -549.477846, 1541.208230 -589.149670)

LINESTRING (1009.837143 -308.400897, 1306.693146 -400.433327)

LINESTRING (1306.693146 -400.433327, 1492.609435 -596.925617)

LINESTRING (1306.693146 -400.433327, 1594.408207 -495.858097)

LINESTRING (1306.693146 -400.433327, 1578.794855 -344.500431)

LINESTRING (831.449449 -119.501403, 1134.592105 -160.983207)

LINESTRING (1134.592105 -160.983207, 1356.109793 -362.316186)

LINESTRING (1356.109793 -362.316186, 1430.528186 -638.945281)

LINESTRING (1356.109793 -362.316186, 1578.140764 -612.912108)

LINESTRING (1356.109793 -362.316186, 1649.750649 -443.511729)

LINESTRING (1134.592105 -160.983207, 1415.557854 -224.555471)

LINESTRING (1415.557854 -224.555471, 1610.850517 -439.114693)

LINESTRING (1415.557854 -224.555471, 1691.527173 -290.346097)

LINESTRING (1415.557854 -224.555471, 1686.694888 -119.806608)

LINESTRING (1134.592105 -160.983207, 1396.346507 -89.285829)

LINESTRING (1396.346507 -89.285829, 1697.053956 -175.783172)

LINESTRING (1396.346507 -89.285829, 1673.046696 20.261353)

LINESTRING (1396.346507 -89.285829, 1601.155620 114.555042)

LINESTRING (611.990919 74.892940, 866.993577 -20.274453)

LINESTRING (866.993577 -20.274453, 1083.938367 -258.376343)

LINESTRING (1083.938367 -258.376343, 1192.898151 -548.395227)

LINESTRING (1192.898151 -548.395227, 1083.427328 -850.364516)

LINESTRING (1192.898151 -548.395227, 1266.510543 -850.277906)

LINESTRING (1192.898151 -548.395227, 1393.627582 -771.441217)

LINESTRING (1083.938367 -258.376343, 1334.645354 -491.157668)

LINESTRING (1334.645354 -491.157668, 1402.936704 -776.494281)

LINESTRING (1334.645354 -491.157668, 1513.479947 -683.331673)

LINESTRING (1334.645354 -491.157668, 1648.817813 -597.185086)

LINESTRING (1083.938367 -258.376343, 1340.827514 -317.587831)

LINESTRING (1340.827514 -317.587831, 1535.653072 -523.267599)

LINESTRING (1340.827514 -317.587831, 1628.537015 -411.524966)

LINESTRING (1340.827514 -317.587831, 1600.550682 -255.720092)

LINESTRING (866.993577 -20.274453, 1119.278263 -78.723210)

LINESTRING (1119.278263 -78.723210, 1294.918629 -320.281254)

LINESTRING (1294.918629 -320.281254, 1366.049094 -586.093898)

LINESTRING (1294.918629 -320.281254, 1499.818709 -563.619003)

LINESTRING (1294.918629 -320.281254, 1608.971309 -373.212875)

LINESTRING (1119.278263 -78.723210, 1403.720673 -151.499137)

LINESTRING (1403.720673 -151.499137, 1588.736475 -325.125629)

LINESTRING (1403.720673 -151.499137, 1692.790487 -191.258069)

LINESTRING (1403.720673 -151.499137, 1675.985462 -57.573533)

LINESTRING (1119.278263 -78.723210, 1371.857674 13.368187)

LINESTRING (1371.857674 13.368187, 1654.308820 -76.660297)

LINESTRING (1371.857674 13.368187, 1691.355675 103.762104)

LINESTRING (1371.857674 13.368187, 1548.872740 211.659032)

LINESTRING (866.993577 -20.274453, 1193.951383 52.450535)

LINESTRING (1193.951383 52.450535, 1455.089044 11.116845)

LINESTRING (1455.089044 11.116845, 1671.215873 -205.024191)

LINESTRING (1455.089044 11.116845, 1707.443563 -72.544465)

LINESTRING (1455.089044 11.116845, 1761.355621 65.355892)

LINESTRING (1193.951383 52.450535, 1506.440753 110.398610)

LINESTRING (1506.440753 110.398610, 1757.234423 15.454978)

LINESTRING (1506.440753 110.398610, 1817.671677 207.441120)

LINESTRING (1506.440753 110.398610, 1727.125993 312.682120)

LINESTRING (1193.951383 52.450535, 1394.916852 258.823345)

LINESTRING (1394.916852 258.823345, 1650.169773 326.602381)

LINESTRING (1394.916852 258.823345, 1601.974676 489.585175)

LINESTRING (1394.916852 258.823345, 1466.968060 530.934032)

LINESTRING (611.990919 74.892940, 930.702189 132.241928)

LINESTRING (930.702189 132.241928, 1235.160913 19.273213)

LINESTRING (1235.160913 19.273213, 1411.760771 -220.982212)

LINESTRING (1411.760771 -220.982212, 1516.819648 -484.604496)

LINESTRING (1411.760771 -220.982212, 1662.369436 -467.747033)

LINESTRING (1411.760771 -220.982212, 1676.187539 -298.580338)

LINESTRING (1235.160913 19.273213, 1487.121788 -89.166786)

LINESTRING (1487.121788 -89.166786, 1717.743302 -283.652968)

LINESTRING (1487.121788 -89.166786, 1745.015318 -184.777211)

LINESTRING (1487.121788 -89.166786, 1781.622684 3.736594)

LINESTRING (1235.160913 19.273213, 1497.753547 96.313136)

LINESTRING (1497.753547 96.313136, 1820.038782 55.629643)

LINESTRING (1497.753547 96.313136, 1782.513622 199.006902)

LINESTRING (1497.753547 96.313136, 1709.999252 284.965278)

LINESTRING (930.702189 132.241928, 1221.856406 218.659900)

LINESTRING (1221.856406 218.659900, 1510.206918 158.339430)

LINESTRING (1510.206918 158.339430, 1694.110069 -64.236091)

LINESTRING (1510.206918 158.339430, 1800.211990 54.936778)

LINESTRING (1510.206918 158.339430, 1838.216223 212.034825)

LINESTRING (1221.856406 218.659900, 1525.682216 289.157632)

LINESTRING (1525.682216 289.157632, 1777.131116 213.254003)

LINESTRING (1525.682216 289.157632, 1779.471941 403.281692)

LINESTRING (1525.682216 289.157632, 1764.530824 515.866969)

LINESTRING (1221.856406 218.659900, 1435.065091 426.946300)

LINESTRING (1435.065091 426.946300, 1743.041607 475.150718)

LINESTRING (1435.065091 426.946300, 1662.713659 622.127444)

LINESTRING (1435.065091 426.946300, 1473.676104 691.553236)

LINESTRING (930.702189 132.241928, 1104.778191 308.905016)

LINESTRING (1104.778191 308.905016, 1382.463674 415.921174)

LINESTRING (1382.463674 415.921174, 1633.931414 354.504819)

LINESTRING (1382.463674 415.921174, 1663.468238 465.600432)

LINESTRING (1382.463674 415.921174, 1578.673018 602.965237)

LINESTRING (1104.778191 308.905016, 1334.047040 483.898831)

LINESTRING (1334.047040 483.898831, 1640.756435 558.035093)

LINESTRING (1334.047040 483.898831, 1557.157701 711.819788)

LINESTRING (1334.047040 483.898831, 1450.506073 747.904707)

LINESTRING (1104.778191 308.905016, 1166.325514 611.016709)

LINESTRING (1166.325514 611.016709, 1379.992635 817.907584)

LINESTRING (1166.325514 611.016709, 1272.635641 876.375712)

LINESTRING (1166.325514 611.016709, 1095.994295 878.212447)

LINESTRING (337.005052 136.234428, 621.232643 187.388688)

LINESTRING (621.232643 187.388688, 903.252788 74.840441)

LINESTRING (903.252788 74.840441, 1133.834005 -175.298773)

LINESTRING (1133.834005 -175.298773, 1226.527079 -431.218663)

LINESTRING (1226.527079 -431.218663, 1187.523475 -722.965481)

LINESTRING (1226.527079 -431.218663, 1315.309198 -708.003236)

LINESTRING (1226.527079 -431.218663, 1465.601855 -668.390890)

LINESTRING (1133.834005 -175.298773, 1322.359726 -402.315392)

LINESTRING (1322.359726 -402.315392, 1363.247135 -664.974150)

LINESTRING (1322.359726 -402.315392, 1495.083719 -605.351880)

LINESTRING (1322.359726 -402.315392, 1648.362205 -456.933398)

LINESTRING (1133.834005 -175.298773, 1434.164437 -287.557032)

LINESTRING (1434.164437 -287.557032, 1657.445448 -475.171075)

LINESTRING (1434.164437 -287.557032, 1694.537439 -357.137756)

LINESTRING (1434.164437 -287.557032, 1736.247071 -248.752142)

LINESTRING (903.252788 74.840441, 1199.245078 0.336187)

LINESTRING (1199.245078 0.336187, 1441.796402 -187.742003)

LINESTRING (1441.796402 -187.742003, 1484.287643 -482.666972)

LINESTRING (1441.796402 -187.742003, 1615.303732 -432.988502)

LINESTRING (1441.796402 -187.742003, 1728.684503 -303.460916)

LINESTRING (1199.245078 0.336187, 1455.528464 -42.906066)

LINESTRING (1455.528464 -42.906066, 1635.864703 -226.081496)

LINESTRING (1455.528464 -42.906066, 1761.012640 -112.297829)

LINESTRING (1455.528464 -42.906066, 1748.644148 32.018859)

LINESTRING (1199.245078 0.336187, 1454.431067 50.639066)

LINESTRING (1454.431067 50.639066, 1770.821888 7.174448)

LINESTRING (1454.431067 50.639066, 1708.866043 109.323451)

LINESTRING (1454.431067 50.639066, 1640.057211 281.836209)

LINESTRING (903.252788 74.840441, 1161.654128 124.567701)

LINESTRING (1161.654128 124.567701, 1470.413810 66.131108)

LINESTRING (1470.413810 66.131108, 1646.676308 -166.059907)

LINESTRING (1470.413810 66.131108, 1751.520742 -37.304645)

LINESTRING (1470.413810 66.131108, 1734.460360 114.211446)

LINESTRING (1161.654128 124.567701, 1435.847243 182.897339)

LINESTRING (1435.847243 182.897339, 1746.693656 77.958917)

LINESTRING (1435.847243 182.897339, 1753.014385 299.543369)

LINESTRING (1435.847243 182.897339, 1613.589031 362.062290)

LINESTRING (1161.654128 124.567701, 1398.162510 296.903458)

LINESTRING (1398.162510 296.903458, 1709.188388 388.961737)

LINESTRING (1398.162510 296.903458, 1633.945525 505.697079)

LINESTRING (1398.162510 296.903458, 1511.215689 580.851166)

LINESTRING (621.232643 187.388688, 895.692086 256.446951)

LINESTRING (895.692086 256.446951, 1164.449463 190.652610)

LINESTRING (1164.449463 190.652610, 1413.399477 -46.680665)

LINESTRING (1413.399477 -46.680665, 1529.430532 -361.995082)

LINESTRING (1413.399477 -46.680665, 1588.116836 -273.708809)

LINESTRING (1413.399477 -46.680665, 1677.557913 -132.807549)

LINESTRING (1164.449463 190.652610, 1489.804080 80.049118)

LINESTRING (1489.804080 80.049118, 1714.998686 -130.886351)

LINESTRING (1489.804080 80.049118, 1789.937541 9.565493)

LINESTRING (1489.804080 80.049118, 1754.619694 161.815103)

LINESTRING (1164.449463 190.652610, 1487.759421 257.575285)

LINESTRING (1487.759421 257.575285, 1803.877942 216.555968)

LINESTRING (1487.759421 257.575285, 1775.929706 351.506543)

LINESTRING (1487.759421 257.575285, 1725.868314 453.986090)

LINESTRING (895.692086 256.446951, 1188.492563 298.634333)

LINESTRING (1188.492563 298.634333, 1449.209145 259.263744)

LINESTRING (1449.209145 259.263744, 1676.115178 74.429044)

LINESTRING (1449.209145 259.263744, 1757.284347 202.335046)

LINESTRING (1449.209145 259.263744, 1710.788417 333.511688)

LINESTRING (1188.492563 298.634333, 1445.471054 378.039690)

LINESTRING (1445.471054 378.039690, 1719.841210 333.561820)

LINESTRING (1445.471054 378.039690, 1748.638786 460.587734)

LINESTRING (1445.471054 378.039690, 1690.714064 599.782047)

LINESTRING (1188.492563 298.634333, 1438.654691 528.799076)

LINESTRING (1438.654691 528.799076, 1741.271546 642.491122)

LINESTRING (1438.654691 528.799076, 1628.998783 761.047741)

LINESTRING (1438.654691 528.799076, 1542.165111 788.706972)

LINESTRING (895.692086 256.446951, 1097.614926 444.602508)

LINESTRING (1097.614926 444.602508, 1388.318953 522.566432)

LINESTRING (1388.318953 522.566432, 1683.353779 410.155777)

LINESTRING (1388.318953 522.566432, 1678.719923 579.054055)

LINESTRING (1388.318953 522.566432, 1564.591779 707.539292)

LINESTRING (1097.614926 444.602508, 1277.867518 677.613570)

LINESTRING (1277.867518 677.613570, 1533.373771 764.647718)

LINESTRING (1277.867518 677.613570, 1529.138272 855.816515)

LINESTRING (1277.867518 677.613570, 1324.264157 989.390623)

LINESTRING (1097.614926 444.602508, 1187.336839 772.036789)

LINESTRING (1187.336839 772.036789, 1436.582234 956.374459)

LINESTRING (1187.336839 772.036789, 1244.617053 1056.823246)

LINESTRING (1187.336839 772.036789, 1071.505244 1096.480184)

LINESTRING (621.232643 187.388688, 796.298006 432.333238)

LINESTRING (796.298006 432.333238, 1056.734733 506.535460)

LINESTRING (1056.734733 506.535460, 1320.857942 461.059604)

LINESTRING (1320.857942 461.059604, 1538.552668 217.631141)

LINESTRING (1320.857942 461.059604, 1578.010966 409.653574)

LINESTRING (1320.857942 461.059604, 1616.677491 514.976988)

LINESTRING (1056.734733 506.535460, 1315.552315 618.220572)

LINESTRING (1315.552315 618.220572, 1623.257558 535.181124)

LINESTRING (1315.552315 618.220572, 1644.427935 687.331123)

LINESTRING (1315.552315 618.220572, 1542.010867 806.171631)

LINESTRING (1056.734733 506.535460, 1240.420414 717.677686)

LINESTRING (1240.420414 717.677686, 1493.879164 795.000069)

LINESTRING (1240.420414 717.677686, 1430.138251 915.530676)

LINESTRING (1240.420414 717.677686, 1341.308740 985.113759)

LINESTRING (796.298006 432.333238, 1010.854829 625.822224)

LINESTRING (1010.854829 625.822224, 1277.631943 739.950524)

LINESTRING (1277.631943 739.950524, 1546.894491 669.254438)

LINESTRING (1277.631943 739.950524, 1586.043252 818.565920)

LINESTRING (1277.631943 739.950524, 1472.316705 930.130405)

LINESTRING (1010.854829 625.822224, 1253.814701 839.775757)

LINESTRING (1253.814701 839.775757, 1523.164680 926.459644)

LINESTRING (1253.814701 839.775757, 1462.566303 1057.205765)

LINESTRING (1253.814701 839.775757, 1328.200429 1115.937423)

LINESTRING (1010.854829 625.822224, 1049.049853 932.615742)

LINESTRING (1049.049853 932.615742, 1226.987697 1152.493978)

LINESTRING (1049.049853 932.615742, 1119.058997 1235.450521)

LINESTRING (1049.049853 932.615742, 965.241593 1227.247021)

LINESTRING (796.298006 432.333238, 911.961048 725.091870)

LINESTRING (911.961048 725.091870, 1127.029019 972.540450)

LINESTRING (1127.029019 972.540450, 1377.601374 1066.684778)

LINESTRING (1127.029019 972.540450, 1366.248187 1208.499605)

LINESTRING (1127.029019 972.540450, 1217.151674 1269.100393)

LINESTRING (911.961048 725.091870, 958.002508 981.021723)

LINESTRING (958.002508 981.021723, 1146.712339 1206.962536)

LINESTRING (958.002508 981.021723, 1010.988609 1285.015691)

LINESTRING (958.002508 981.021723, 892.072431 1263.715351)

LINESTRING (911.961048 725.091870, 853.958126 1027.742934)

LINESTRING (853.958126 1027.742934, 947.325629 1354.400191)

LINESTRING (853.958126 1027.742934, 814.105036 1309.347390)

LINESTRING (853.958126 1027.742934, 671.361461 1239.022062)

LINESTRING (337.005052 136.234428, 584.709785 335.900755)

LINESTRING (584.709785 335.900755, 835.800954 394.191452)

LINESTRING (835.800954 394.191452, 1164.040467 342.477594)

LINESTRING (1164.040467 342.477594, 1368.872723 167.011659)

LINESTRING (1368.872723 167.011659, 1417.202072 -134.020368)

LINESTRING (1368.872723 167.011659, 1590.876447 -63.059788)

LINESTRING (1368.872723 167.011659, 1659.522725 71.866745)

LINESTRING (1164.040467 342.477594, 1474.875428 303.708171)

LINESTRING (1474.875428 303.708171, 1650.982349 128.172618)

LINESTRING (1474.875428 303.708171, 1740.922511 265.022140)

LINESTRING (1474.875428 303.708171, 1781.083991 402.918101)

LINESTRING (1164.040467 342.477594, 1486.828016 432.242492)

LINESTRING (1486.828016 432.242492, 1789.296768 364.242317)

LINESTRING (1486.828016 432.242492, 1811.053674 536.567242)

LINESTRING (1486.828016 432.242492, 1714.805422 676.219141)

LINESTRING (835.800954 394.191452, 1158.424329 485.914142)

LINESTRING (1158.424329 485.914142, 1430.160468 437.957934)

LINESTRING (1430.160468 437.957934, 1630.543294 237.620054)

LINESTRING (1430.160468 437.957934, 1714.480061 323.753176)

LINESTRING (1430.160468 437.957934, 1722.740800 542.669260)

LINESTRING (1158.424329 485.914142, 1418.998466 532.279276)

LINESTRING (1418.998466 532.279276, 1706.796428 476.659430)

LINESTRING (1418.998466 532.279276, 1738.378135 609.766019)

LINESTRING (1418.998466 532.279276, 1669.435975 751.868776)

LINESTRING (1158.424329 485.914142, 1370.949316 664.432036)

LINESTRING (1370.949316 664.432036, 1663.525729 766.665504)

LINESTRING (1370.949316 664.432036, 1611.955978 895.719396)

LINESTRING (1370.949316 664.432036, 1447.956630 919.287147)

LINESTRING (835.800954 394.191452, 1050.124273 607.036163)

LINESTRING (1050.124273 607.036163, 1357.826815 692.049888)

LINESTRING (1357.826815 692.049888, 1633.696526 604.546358)

LINESTRING (1357.826815 692.049888, 1636.087913 741.528225)

LINESTRING (1357.826815 692.049888, 1537.807890 918.898475)

LINESTRING (1050.124273 607.036163, 1281.520277 833.922293)

LINESTRING (1281.520277 833.922293, 1561.724152 897.676470)

LINESTRING (1281.520277 833.922293, 1462.309177 1081.113218)

LINESTRING (1281.520277 833.922293, 1361.943275 1094.430090)

LINESTRING (1050.124273 607.036163, 1166.848579 901.378527)

LINESTRING (1166.848579 901.378527, 1412.047905 1087.611148)

LINESTRING (1166.848579 901.378527, 1215.976073 1190.638009)

LINESTRING (1166.848579 901.378527, 1075.570214 1163.840663)

LINESTRING (584.709785 335.900755, 764.936928 566.407588)

LINESTRING (764.936928 566.407588, 1078.424505 643.394070)

LINESTRING (1078.424505 643.394070, 1373.961695 558.564976)

LINESTRING (1373.961695 558.564976, 1593.758525 374.548111)

LINESTRING (1373.961695 558.564976, 1667.932401 488.523703)

LINESTRING (1373.961695 558.564976, 1653.113420 636.646195)

LINESTRING (1078.424505 643.394070, 1400.666385 682.444765)

LINESTRING (1400.666385 682.444765, 1709.104060 639.991530)

LINESTRING (1400.666385 682.444765, 1670.835957 787.367414)

LINESTRING (1400.666385 682.444765, 1602.043422 872.209619)

LINESTRING (1078.424505 643.394070, 1312.081509 817.793016)

LINESTRING (1312.081509 817.793016, 1604.458659 873.645419)

LINESTRING (1312.081509 817.793016, 1532.786289 1046.881705)

LINESTRING (1312.081509 817.793016, 1398.328051 1097.109220)

LINESTRING (764.936928 566.407588, 938.004201 767.546824)

LINESTRING (938.004201 767.546824, 1228.051701 829.866575)

LINESTRING (1228.051701 829.866575, 1522.652293 776.250502)

LINESTRING (1228.051701 829.866575, 1488.507293 880.519449)

LINESTRING (1228.051701 829.866575, 1455.252305 1035.132882)

LINESTRING (938.004201 767.546824, 1122.478147 976.422988)

LINESTRING (1122.478147 976.422988, 1429.587999 1093.071708)

LINESTRING (1122.478147 976.422988, 1351.191918 1227.085383)

LINESTRING (1122.478147 976.422988, 1197.821924 1299.088718)

LINESTRING (938.004201 767.546824, 992.552944 1068.290411)

LINESTRING (992.552944 1068.290411, 1174.446612 1296.559709)

LINESTRING (992.552944 1068.290411, 1042.094744 1365.150366)

LINESTRING (992.552944 1068.290411, 920.280294 1361.479665)

LINESTRING (764.936928 566.407588, 872.287551 827.462690)

LINESTRING (872.287551 827.462690, 1072.082294 1079.394550)

LINESTRING (1072.082294 1079.394550, 1343.740623 1127.360478)

LINESTRING (1072.082294 1079.394550, 1272.310310 1326.885429)

LINESTRING (1072.082294 1079.394550, 1180.757780 1374.092402)

LINESTRING (872.287551 827.462690, 925.379050 1080.435611)

LINESTRING (925.379050 1080.435611, 1146.957415 1255.351943)

LINESTRING (925.379050 1080.435611, 971.375988 1368.146377)

LINESTRING (925.379050 1080.435611, 842.694598 1342.705070)

LINESTRING (872.287551 827.462690, 767.751864 1118.628581)

LINESTRING (767.751864 1118.628581, 877.841188 1372.506415)

LINESTRING (767.751864 1118.628581, 685.548549 1399.760719)

LINESTRING (767.751864 1118.628581, 516.832645 1346.650593)

LINESTRING (584.709785 335.900755, 651.648433 614.689387)

LINESTRING (651.648433 614.689387, 846.535512 846.015886)

LINESTRING (846.535512 846.015886, 1123.145123 938.479722)

LINESTRING (1123.145123 938.479722, 1431.597489 862.939647)

LINESTRING (1123.145123 938.479722, 1374.065098 1001.226575)

LINESTRING (1123.145123 938.479722, 1347.951018 1188.340850)

LINESTRING (846.535512 846.015886, 1047.119511 1079.845295)

LINESTRING (1047.119511 1079.845295, 1316.828836 1171.259578)

LINESTRING (1047.119511 1079.845295, 1253.887457 1267.940533)

LINESTRING (1047.119511 1079.845295, 1140.086776 1348.472120)

LINESTRING (846.535512 846.015886, 898.768561 1135.013842)

LINESTRING (898.768561 1135.013842, 1138.720008 1364.204710)

LINESTRING (898.768561 1135.013842, 942.242021 1446.457630)

LINESTRING (898.768561 1135.013842, 830.497921 1388.242741)

LINESTRING (651.648433 614.689387, 714.279456 901.586848)

LINESTRING (714.279456 901.586848, 898.764650 1088.074353)

LINESTRING (898.764650 1088.074353, 1182.049921 1204.884907)

LINESTRING (898.764650 1088.074353, 1127.352065 1307.105239)

LINESTRING (898.764650 1088.074353, 960.353072 1353.959522)

LINESTRING (714.279456 901.586848, 755.465100 1206.981100)

LINESTRING (755.465100 1206.981100, 987.183812 1393.226669)

LINESTRING (755.465100 1206.981100, 869.657338 1522.838618)

LINESTRING (755.465100 1206.981100, 716.419950 1474.147400)

LINESTRING (714.279456 901.586848, 609.133048 1228.786855)

LINESTRING (609.133048 1228.786855, 648.125170 1541.098906)

LINESTRING (609.133048 1228.786855, 510.460665 1533.711974)

LINESTRING (609.133048 1228.786855, 425.295332 1451.321130)

LINESTRING (651.648433 614.689387, 579.494110 868.232633)

LINESTRING (579.494110 868.232633, 669.652873 1192.275547)

LINESTRING (669.652873 1192.275547, 847.586115 1379.960746)

LINESTRING (669.652873 1192.275547, 708.954215 1463.688095)

LINESTRING (669.652873 1192.275547, 616.417101 1510.988946)

LINESTRING (579.494110 868.232633, 472.959918 1178.968467)

LINESTRING (472.959918 1178.968467, 544.625311 1465.623728)

LINESTRING (472.959918 1178.968467, 399.159839 1501.545118)

LINESTRING (472.959918 1178.968467, 225.864278 1383.496903)

LINESTRING (579.494110 868.232633, 400.833486 1098.172019)

LINESTRING (400.833486 1098.172019, 320.078563 1364.327516)

LINESTRING (400.833486 1098.172019, 227.163150 1333.178313)

LINESTRING (400.833486 1098.172019, 84.332137 1191.795497)

LINESTRING (80.000000 80.000000, 327.295198 267.408573)

LINESTRING (327.295198 267.408573, 636.613266 375.826460)

LINESTRING (636.613266 375.826460, 942.634919 281.039533)

LINESTRING (942.634919 281.039533, 1118.426173 101.956655)

LINESTRING (1118.426173 101.956655, 1210.069438 -166.443551)

LINESTRING (1210.069438 -166.443551, 1116.492320 -493.775632)

LINESTRING (1210.069438 -166.443551, 1277.499711 -462.249901)

LINESTRING (1210.069438 -166.443551, 1433.192498 -348.746215)

LINESTRING (1118.426173 101.956655, 1331.598522 -113.308883)

LINESTRING (1331.598522 -113.308883, 1405.284010 -387.913321)

LINESTRING (1331.598522 -113.308883, 1578.245180 -313.125727)

LINESTRING (1331.598522 -113.308883, 1590.932177 -219.234614)

LINESTRING (1118.426173 101.956655, 1404.300832 19.560235)

LINESTRING (1404.300832 19.560235, 1609.588830 -170.046363)

LINESTRING (1404.300832 19.560235, 1730.399514 -72.758427)

LINESTRING (1404.300832 19.560235, 1729.998297 70.158406)

LINESTRING (942.634919 281.039533, 1270.347178 241.642839)

LINESTRING (1270.347178 241.642839, 1451.972619 46.773060)

LINESTRING (1451.972619 46.773060, 1549.572121 -209.090609)

LINESTRING (1451.972619 46.773060, 1647.059808 -200.996028)

LINESTRING (1451.972619 46.773060, 1750.108979 -28.354395)

LINESTRING (1270.347178 241.642839, 1542.585736 144.275858)

LINESTRING (1542.585736 144.275858, 1738.395381 -70.788818)

LINESTRING (1542.585736 144.275858, 1817.216792 27.046248)

LINESTRING (1542.585736 144.275858, 1859.552353 260.969346)

LINESTRING (1270.347178 241.642839, 1554.897472 284.796347)

LINESTRING (1554.897472 284.796347, 1863.675596 227.927476)

LINESTRING (1554.897472 284.796347, 1866.155534 329.587036)

LINESTRING (1554.897472 284.796347, 1755.770892 532.992625)

LINESTRING (942.634919 281.039533, 1235.035592 343.104870)

LINESTRING (1235.035592 343.104870, 1551.865901 269.449155)

LINESTRING (1551.865901 269.449155, 1747.544555 23.358608)

LINESTRING (1551.865901 269.449155, 1875.990312 155.265418)

LINESTRING (1551.865901 269.449155, 1838.914689 320.452415)

LINESTRING (1235.035592 343.104870, 1499.700624 388.960933)

LINESTRING (1499.700624 388.960933, 1783.125279 311.985897)

LINESTRING (1499.700624 388.960933, 1766.076118 445.038079)

LINESTRING (1499.700624 388.960933, 1694.809166 599.928710)

LINESTRING (1235.035592 343.104870, 1464.206952 577.469286)

LINESTRING (1464.206952 577.469286, 1758.248445 667.048895)

LINESTRING (1464.206952 577.469286, 1714.722744 811.039558)

LINESTRING (1464.206952 577.469286, 1512.056261 862.592282)

LINESTRING (636.613266 375.826460, 940.365690 437.795634)

LINESTRING (940.365690 437.795634, 1212.229929 332.687220)

LINESTRING (1212.229929 332.687220, 1387.631084 117.105978)

LINESTRING (1387.631084 117.105978, 1466.101292 -211.802256)

LINESTRING (1387.631084 117.105978, 1611.460225 -94.333904)

LINESTRING (1387.631084 117.105978, 1688.194334 52.566481)

LINESTRING (1212.229929 332.687220, 1473.984372 235.199324)

LINESTRING (1473.984372 235.199324, 1663.253722 58.087553)

LINESTRING (1473.984372 235.199324, 1747.751932 135.015357)

LINESTRING (1473.984372 235.199324, 1760.076360 310.899935)

LINESTRING (1212.229929 332.687220, 1462.870302 377.747264)

LINESTRING (1462.870302 377.747264, 1783.787091 297.372122)

LINESTRING (1462.870302 377.747264, 1726.191827 417.484023)

LINESTRING (1462.870302 377.747264, 1670.965269 621.793127)

LINESTRING (940.365690 437.795634, 1234.800763 497.508473)

LINESTRING (1234.800763 497.508473, 1521.056450 450.225622)

LINESTRING (1521.056450 450.225622, 1771.179991 263.905344)

LINESTRING (1521.056450 450.225622, 1829.169633 392.786613)

LINESTRING (1521.056450 450.225622, 1785.672950 539.734491)

LINESTRING (1234.800763 497.508473, 1492.382909 561.340236)

LINESTRING (1492.382909 561.340236, 1776.574574 458.071477)

LINESTRING (1492.382909 561.340236, 1749.796896 640.448590)

LINESTRING (1492.382909 561.340236, 1709.621359 786.795623)

LINESTRING (1234.800763 497.508473, 1477.779905 685.126217)

LINESTRING (1477.779905 685.126217, 1796.403159 756.159056)

LINESTRING (1477.779905 685.126217, 1701.798361 921.201156)

LINESTRING (1477.779905 685.126217, 1518.074210 947.922536)

LINESTRING (940.365690 437.795634, 1141.201388 685.161130)

LINESTRING (1141.201388 685.161130, 1433.263622 801.006235)

LINESTRING (1433.263622 801.006235, 1716.739684 745.537877)

LINESTRING (1433.263622 801.006235, 1748.854088 887.068496)

LINESTRING (1433.263622 801.006235, 1664.559318 1010.580471)

LINESTRING (1141.201388 685.161130, 1391.551090 932.484470)

LINESTRING (1391.551090 932.484470, 1693.132837 1033.188101)

LINESTRING (1391.551090 932.484470, 1576.953076 1130.242914)

LINESTRING (1391.551090 932.484470, 1484.845107 1252.866032)

LINESTRING (1141.201388 685.161130, 1212.292754 1010.983259)

LINESTRING (1212.292754 1010.983259, 1430.092116 1253.520866)

LINESTRING (1212.292754 1010.983259, 1289.451730 1310.970328)

LINESTRING (1212.292754 1010.983259, 1162.865059 1273.259983)

LINESTRING (636.613266 375.826460, 825.463270 623.698084)

LINESTRING (825.463270 623.698084, 1144.295139 675.857899)

LINESTRING (1144.295139 675.857899, 1412.277559 598.019588)

LINESTRING (1412.277559 598.019588, 1644.643413 355.004408)

LINESTRING (1412.277559 598.019588, 1731.672562 559.215813)

LINESTRING (1412.277559 598.019588, 1725.130582 637.625203)

LINESTRING (1144.295139 675.857899, 1399.638824 762.530576)

LINESTRING (1399.638824 762.530576, 1669.474862 648.582457)

LINESTRING (1399.638824 762.530576, 1674.987431 801.037740)

LINESTRING (1399.638824 762.530576, 1601.425024 952.720957)

LINESTRING (1144.295139 675.857899, 1372.175941 851.068217)

LINESTRING (1372.175941 851.068217, 1636.272391 928.412227)

LINESTRING (1372.175941 851.068217, 1585.050221 1047.341261)

LINESTRING (1372.175941 851.068217, 1411.389021 1134.803359)

LINESTRING (825.463270 623.698084, 1017.912775 816.776116)

LINESTRING (1017.912775 816.776116, 1328.546938 922.142549)

LINESTRING (1328.546938 922.142549, 1585.032110 827.633333)

LINESTRING (1328.546938 922.142549, 1594.124260 983.278532)

LINESTRING (1328.546938 922.142549, 1564.912641 1104.788290)

LINESTRING (1017.912775 816.776116, 1199.844971 1055.400021)

LINESTRING (1199.844971 1055.400021, 1481.736607 1162.431596)

LINESTRING (1199.844971 1055.400021, 1451.652312 1237.665770)

LINESTRING (1199.844971 1055.400021, 1272.615307 1347.865250)

LINESTRING (1017.912775 816.776116, 1094.989849 1145.252656)

LINESTRING (1094.989849 1145.252656, 1276.926756 1330.894411)

LINESTRING (1094.989849 1145.252656, 1167.115467 1462.006257)

LINESTRING (1094.989849 1145.252656, 1052.415103 1450.178534)

LINESTRING (825.463270 623.698084, 883.807730 919.177125)

LINESTRING (883.807730 919.177125, 1087.172636 1155.990599)

LINESTRING (1087.172636 1155.990599, 1375.782949 1225.068678)

LINESTRING (1087.172636 1155.990599, 1332.245226 1367.704662)

LINESTRING (1087.172636 1155.990599, 1142.522824 1415.457083)

LINESTRING (883.807730 919.177125, 986.801284 1228.763242)

LINESTRING (986.801284 1228.763242, 1195.099855 1433.121932)

LINESTRING (986.801284 1228.763242, 1036.720230 1480.755174)

LINESTRING (986.801284 1228.763242, 939.927587 1515.891778)

LINESTRING (883.807730 919.177125, 789.704215 1210.535713)

LINESTRING (789.704215 1210.535713, 882.613133 1490.445090)

LINESTRING (789.704215 1210.535713, 721.272303 1464.503836)

LINESTRING (789.704215 1210.535713, 607.970750 1385.041827)

LINESTRING (327.295198 267.408573, 569.548657 457.020529)

LINESTRING (569.548657 457.020529, 853.863457 551.900391)

LINESTRING (853.863457 551.900391, 1151.373205 508.506173)

LINESTRING (1151.373205 508.506173, 1369.733075 281.839323)

LINESTRING (1369.733075 281.839323, 1444.718412 21.679203)

LINESTRING (1369.733075 281.839323, 1569.586777 100.420005)

LINESTRING (1369.733075 281.839323, 1635.963143 207.424515)

LINESTRING (1151.373205 508.506173, 1426.121448 430.603436)

LINESTRING (1426.121448 430.603436, 1621.927941 218.368236)

LINESTRING (1426.121448 430.603436, 1692.009429 386.991733)

LINESTRING (1426.121448 430.603436, 1714.733330 544.575475)

LINESTRING (1151.373205 508.506173, 1468.344200 567.545908)

LINESTRING (1468.344200 567.545908, 1788.685601 450.973290)

LINESTRING (1468.344200 567.545908, 1737.007880 618.886883)

LINESTRING (1468.344200 567.545908, 1646.241229 802.575869)

LINESTRING (853.863457 551.900391, 1137.647531 593.942906)

LINESTRING (1137.647531 593.942906, 1460.636923 546.919386)

LINESTRING (1460.636923 546.919386, 1703.923705 322.847178)

LINESTRING (1460.636923 546.919386, 1778.900719 481.136812)

LINESTRING (1460.636923 546.919386, 1733.456313 610.793988)

LINESTRING (1137.647531 593.942906, 1446.887306 696.921803)

LINESTRING (1446.887306 696.921803, 1744.558325 645.443737)

LINESTRING (1446.887306 696.921803, 1747.518451 785.732444)

LINESTRING (1446.887306 696.921803, 1686.041809 923.981714)

LINESTRING (1137.647531 593.942906, 1353.596519 842.358076)

LINESTRING (1353.596519 842.358076, 1627.024550 923.432890)

LINESTRING (1353.596519 842.358076, 1530.742030 1082.412281)

LINESTRING (1353.596519 842.358076, 1463.025317 1110.232509)

LINESTRING (853.863457 551.900391, 1042.508015 747.510080)

LINESTRING (1042.508015 747.510080, 1296.219647 864.664979)

LINESTRING (1296.219647 864.664979, 1576.225277 820.560442)

LINESTRING (1296.219647 864.664979, 1563.431945 954.425075)

LINESTRING (1296.219647 864.664979, 1473.764463 1053.300267)

LINESTRING (1042.508015 747.510080, 1228.120826 987.110713)

LINESTRING (1228.120826 987.110713, 1514.216890 1080.857442)

LINESTRING (1228.120826 987.110713, 1454.675153 1224.014152)

LINESTRING (1228.120826 987.110713, 1315.934411 1315.577741)

LINESTRING (1042.508015 747.510080, 1097.971674 1004.590679)

LINESTRING (1097.971674 1004.590679, 1278.093213 1237.212632)

LINESTRING (1097.971674 1004.590679, 1173.123682 1319.981176)

LINESTRING (1097.971674 1004.590679, 1045.400582 1310.788497)

LINESTRING (569.548657 457.020529, 781.573646 676.128998)

LINESTRING (781.573646 676.128998, 1053.940326 781.943455)

LINESTRING (1053.940326 781.943455, 1319.526457 734.229067)

LINESTRING (1319.526457 734.229067, 1515.271947 500.002441)

LINESTRING (1319.526457 734.229067, 1645.010957 667.235926)

LINESTRING (1319.526457 734.229067, 1646.813184 784.202385)

LINESTRING (1053.940326 781.943455, 1352.885414 852.969884)

LINESTRING (1352.885414 852.969884, 1625.955921 776.383099)

LINESTRING (1352.885414 852.969884, 1627.347793 908.477112)

LINESTRING (1352.885414 852.969884, 1539.866215 1041.669021)

LINESTRING (1053.940326 781.943455, 1239.350027 990.381760)

LINESTRING (1239.350027 990.381760, 1537.172311 1031.181614)

LINESTRING (1239.350027 990.381760, 1479.161933 1185.328974)

LINESTRING (1239.350027 990.381760, 1348.647313 1284.838245)

LINESTRING (781.573646 676.128998, 1032.018542 902.470058)

LINESTRING (1032.018542 902.470058, 1351.726537 990.413573)

LINESTRING (1351.726537 990.413573, 1665.809216 952.624273)

LINESTRING (1351.726537 990.413573, 1613.299776 1045.287199)

LINESTRING (1351.726537 990.413573, 1581.431045 1173.822447)

LINESTRING (1032.018542 902.470058, 1239.604860 1076.495353)

LINESTRING (1239.604860 1076.495353, 1519.004862 1190.226992)

LINESTRING (1239.604860 1076.495353, 1447.234969 1274.901579)

LINESTRING (1239.604860 1076.495353, 1291.614541 1332.379009)

LINESTRING (1032.018542 902.470058, 1140.142992 1186.196089)

LINESTRING (1140.142992 1186.196089, 1329.625528 1361.324658)

LINESTRING (1140.142992 1186.196089, 1235.782928 1459.462678)

LINESTRING (1140.142992 1186.196089, 1035.540063 1491.886107)

LINESTRING (781.573646 676.128998, 836.854181 951.808829)

LINESTRING (836.854181 951.808829, 1046.453318 1147.706243)

LINESTRING (1046.453318 1147.706243, 1366.648358 1245.125913)

LINESTRING (1046.453318 1147.706243, 1267.565433 1378.562501)

LINESTRING (1046.453318 1147.706243, 1160.225538 1442.116493)

LINESTRING (836.854181 951.808829, 948.960055 1242.548297)

LINESTRING (948.960055 1242.548297, 1188.357240 1487.332026)

LINESTRING (948.960055 1242.548297, 1031.041475 1519.510909)

LINESTRING (948.960055 1242.548297, 894.086898 1530.999020)

LINESTRING (836.854181 951.808829, 757.137447 1262.799982)

LINESTRING (757.137447 1262.799982, 841.047972 1560.866926)

LINESTRING (757.137447 1262.799982, 670.991742 1561.058683)

LINESTRING (757.137447 1262.799982, 513.555365 1436.132671)

LINESTRING (569.548657 457.020529, 659.595255 708.133196)

LINESTRING (659.595255 708.133196, 862.824045 934.205049)

LINESTRING (862.824045 934.205049, 1167.691889 973.397825)

LINESTRING (1167.691889 973.397825, 1448.010763 908.754177)

LINESTRING (1167.691889 973.397825, 1473.155077 1063.153638)

LINESTRING (1167.691889 973.397825, 1398.647901 1215.429331)

LINESTRING (862.824045 934.205049, 1045.573852 1114.878801)

LINESTRING (1045.573852 1114.878801, 1373.121815 1183.935897)

LINESTRING (1045.573852 1114.878801, 1231.724771 1343.065547)

LINESTRING (1045.573852 1114.878801, 1139.182320 1398.515717)

LINESTRING (862.824045 934.205049, 958.228415 1233.197640)

LINESTRING (958.228415 1233.197640, 1190.187039 1446.546557)

LINESTRING (958.228415 1233.197640, 1010.833556 1505.135538)

LINESTRING (958.228415 1233.197640, 909.584627 1527.725571)

LINESTRING (659.595255 708.133196, 747.263508 1015.767560)

LINESTRING (747.263508 1015.767560, 934.231235 1217.280615)

LINESTRING (934.231235 1217.280615, 1185.886219 1280.671584)

LINESTRING (934.231235 1217.280615, 1169.909373 1461.846705)

LINESTRING (934.231235 1217.280615, 1003.175107 1526.331130)

LINESTRING (747.263508 1015.767560, 785.227755 1297.757839)

LINESTRING (785.227755 1297.757839, 977.925887 1477.855435)

LINESTRING (785.227755 1297.757839, 838.490013 1599.382018)

LINESTRING (785.227755 1297.757839, 744.335610 1598.855910)

LINESTRING (747.263508 1015.767560, 651.307344 1308.683680)

LINESTRING (651.307344 1308.683680, 735.209329 1604.210933)

LINESTRING (651.307344 1308.683680, 556.119190 1588.578706)

LINESTRING (651.307344 1308.683680, 423.919632 1529.770405)

LINESTRING (659.595255 708.133196, 546.084168 1013.915230)

LINESTRING (546.084168 1013.915230, 585.600660 1289.086630)

LINESTRING (585.600660 1289.086630, 828.940758 1489.818686)

LINESTRING (585.600660 1289.086630, 680.156471 1562.182906)

LINESTRING (585.600660 1289.086630, 514.212852 1571.987419)

LINESTRING (546.084168 1013.915230, 506.917833 1341.344720)

LINESTRING (506.917833 1341.344720, 566.918566 1610.034276)

LINESTRING (506.917833 1341.344720, 426.086943 1646.199295)

LINESTRING (506.917833 1341.344720, 295.386361 1542.518410)

LINESTRING (546.084168 1013.915230, 308.194659 1241.149513)

LINESTRING (308.194659 1241.149513, 231.038887 1515.097103)

LINESTRING (308.194659 1241.149513, 109.322460 1460.811534)

LINESTRING (308.194659 1241.149513, -20.949573 1341.276899)

LINESTRING (327.295198 267.408573, 412.977312 563.066593)

LINESTRING (412.977312 563.066593, 612.417235 782.854625)

LINESTRING (612.417235 782.854625, 878.116469 883.122433)

LINESTRING (878.116469 883.122433, 1145.383932 831.493368)

LINESTRING (1145.383932 831.493368, 1320.065184 629.189547)

LINESTRING (1145.383932 831.493368, 1411.802396 752.656875)

LINESTRING (1145.383932 831.493368, 1453.210224 928.356033)

LINESTRING (878.116469 883.122433, 1135.934663 962.210192)

LINESTRING (1135.934663 962.210192, 1405.889991 900.707320)

LINESTRING (1135.934663 962.210192, 1444.574981 1025.256516)

LINESTRING (1135.934663 962.210192, 1348.944866 1165.061119)

LINESTRING (878.116469 883.122433, 1086.507190 1059.791328)

LINESTRING (1086.507190 1059.791328, 1407.831710 1125.721989)

LINESTRING (1086.507190 1059.791328, 1336.951710 1278.333502)

LINESTRING (1086.507190 1059.791328, 1193.234298 1367.311323)

LINESTRING (612.417235 782.854625, 791.725823 991.925652)

LINESTRING (791.725823 991.925652, 1059.455939 1108.503396)

LINESTRING (1059.455939 1108.503396, 1318.018835 1067.989952)

LINESTRING (1059.455939 1108.503396, 1338.960439 1187.915712)

LINESTRING (1059.455939 1108.503396, 1263.368458 1300.917012)

LINESTRING (791.725823 991.925652, 1038.042518 1207.130096)

LINESTRING (1038.042518 1207.130096, 1308.902268 1246.580248)

LINESTRING (1038.042518 1207.130096, 1243.106312 1415.539786)

LINESTRING (1038.042518 1207.130096, 1076.997930 1493.024728)

LINESTRING (791.725823 991.925652, 874.874895 1284.503615)

LINESTRING (874.874895 1284.503615, 1099.436515 1488.398069)

LINESTRING (874.874895 1284.503615, 912.990384 1603.302972)

LINESTRING (874.874895 1284.503615, 765.676951 1611.385033)

LINESTRING (612.417235 782.854625, 667.457783 1094.679072)

LINESTRING (667.457783 1094.679072, 907.176446 1339.789803)

LINESTRING (907.176446 1339.789803, 1210.338335 1385.358648)

LINESTRING (907.176446 1339.789803, 1143.992467 1534.601872)

LINESTRING (907.176446 1339.789803, 982.405651 1648.520912)

LINESTRING (667.457783 1094.679072, 750.941137 1357.616940)

LINESTRING (750.941137 1357.616940, 989.732995 1535.746164)

LINESTRING (750.941137 1357.616940, 819.672861 1617.981850)

LINESTRING (750.941137 1357.616940, 661.600551 1661.745859)

LINESTRING (667.457783 1094.679072, 579.772533 1365.029078)

LINESTRING (579.772533 1365.029078, 674.582862 1667.341801)

LINESTRING (579.772533 1365.029078, 462.727429 1646.887674)

LINESTRING (579.772533 1365.029078, 391.171889 1577.815845)

LINESTRING (412.977312 563.066593, 488.809878 862.748579)

LINESTRING (488.809878 862.748579, 720.446721 1064.806446)

LINESTRING (720.446721 1064.806446, 1033.249031 1157.564882)

LINESTRING (1033.249031 1157.564882, 1310.584854 1111.596547)

LINESTRING (1033.249031 1157.564882, 1353.004239 1225.355785)

LINESTRING (1033.249031 1157.564882, 1224.923755 1350.647823)

LINESTRING (720.446721 1064.806446, 966.178035 1278.545916)

LINESTRING (966.178035 1278.545916, 1235.331384 1378.122592)

LINESTRING (966.178035 1278.545916, 1157.488459 1496.360603)

LINESTRING (966.178035 1278.545916, 1034.626065 1558.205796)

LINESTRING (720.446721 1064.806446, 788.365516 1351.948641)

LINESTRING (788.365516 1351.948641, 1017.295358 1602.911526)

LINESTRING (788.365516 1351.948641, 899.595551 1650.162367)

LINESTRING (788.365516 1351.948641, 731.853772 1604.186869)

LINESTRING (488.809878 862.748579, 597.754832 1128.750817)

LINESTRING (597.754832 1128.750817, 825.005503 1356.659861)

LINESTRING (825.005503 1356.659861, 1127.350427 1397.775137)

LINESTRING (825.005503 1356.659861, 1062.956251 1574.550350)

LINESTRING (825.005503 1356.659861, 922.549205 1660.530588)

LINESTRING (597.754832 1128.750817, 647.019756 1423.323987)

LINESTRING (647.019756 1423.323987, 862.003292 1638.898160)

LINESTRING (647.019756 1423.323987, 746.467410 1694.623207)

LINESTRING (647.019756 1423.323987, 587.332413 1689.794138)

LINESTRING (597.754832 1128.750817, 543.975983 1453.209615)

LINESTRING (543.975983 1453.209615, 607.089468 1772.045270)

LINESTRING (543.975983 1453.209615, 492.597540 1754.554357)

LINESTRING (543.975983 1453.209615, 298.524291 1666.103950)

LINESTRING (488.809878 862.748579, 443.479902 1138.533501)

LINESTRING (443.479902 1138.533501, 509.630322 1416.292385)

LINESTRING (509.630322 1416.292385, 751.980732 1635.748841)

LINESTRING (509.630322 1416.292385, 574.024485 1670.938841)

LINESTRING (509.630322 1416.292385, 396.033410 1673.733702)

LINESTRING (443.479902 1138.533501, 389.715407 1444.725060)

LINESTRING (389.715407 1444.725060, 496.964253 1745.215351)

LINESTRING (389.715407 1444.725060, 280.131953 1750.930969)

LINESTRING (389.715407 1444.725060, 187.520101 1687.116779)

LINESTRING (443.479902 1138.533501, 244.323027 1355.716988)

LINESTRING (244.323027 1355.716988, 139.580527 1617.080364)

LINESTRING (244.323027 1355.716988, 71.795913 1607.665883)

LINESTRING (244.323027 1355.716988, -11.657669 1443.891780)

LINESTRING (412.977312 563.066593, 309.320508 892.694763)

LINESTRING (309.320508 892.694763, 419.917876 1163.373167)

LINESTRING (419.917876 1163.373167, 667.131654 1404.893826)

LINESTRING (667.131654 1404.893826, 964.566442 1454.241375)

LINESTRING (667.131654 1404.893826, 881.007119 1591.822209)

LINESTRING (667.131654 1404.893826, 726.181515 1656.718099)

LINESTRING (419.917876 1163.373167, 524.866204 1431.520011)

LINESTRING (524.866204 1431.520011, 770.530572 1669.208170)

LINESTRING (524.866204 1431.520011, 564.850610 1756.091495)

LINESTRING (524.866204 1431.520011, 419.744714 1715.047625)

LINESTRING (419.917876 1163.373167, 323.855622 1444.139204)

LINESTRING (323.855622 1444.139204, 418.645154 1713.055402)

LINESTRING (323.855622 1444.139204, 216.328207 1757.280491)

LINESTRING (323.855622 1444.139204, 101.434382 1641.474274)

LINESTRING (309.320508 892.694763, 236.350833 1209.686453)

LINESTRING (236.350833 1209.686453, 352.437250 1529.071883)

LINESTRING (352.437250 1529.071883, 546.691652 1721.411319)

LINESTRING (352.437250 1529.071883, 433.857517 1794.653328)

LINESTRING (352.437250 1529.071883, 240.185772 1800.175151)

LINESTRING (236.350833 1209.686453, 157.973360 1480.855757)

LINESTRING (157.973360 1480.855757, 228.747739 1794.109354)

LINESTRING (157.973360 1480.855757, 108.391782 1783.320111)

LINESTRING (157.973360 1480.855757, -54.964605 1655.112147)

LINESTRING (236.350833 1209.686453, 17.060929 1449.646905)

LINESTRING (17.060929 1449.646905, -50.429684 1704.489034)

LINESTRING (17.060929 1449.646905, -164.330009 1680.961677)

LINESTRING (17.060929 1449.646905, -262.292251 1556.142656)

LINESTRING (309.320508 892.694763, 113.288267 1121.842224)

LINESTRING (113.288267 1121.842224, 22.308980 1385.151612)

LINESTRING (22.308980 1385.151612, 101.024325 1641.112715)

LINESTRING (22.308980 1385.151612, -79.814426 1676.708415)

LINESTRING (22.308980 1385.151612, -158.505041 1576.340955)

LINESTRING (113.288267 1121.842224, -71.316612 1310.659795)

LINESTRING (-71.316612 1310.659795, -111.100686 1564.241286)

LINESTRING (-71.316612 1310.659795, -283.732492 1552.744895)

LINESTRING (-71.316612 1310.659795, -352.897413 1407.985941)

LINESTRING (113.288267 1121.842224, -168.149598 1203.113782)

LINESTRING (-168.149598 1203.113782, -412.154975 1400.241007)

LINESTRING (-168.149598 1203.113782, -458.735514 1282.681796)

LINESTRING (-168.149598 1203.113782, -473.347859 1121.460650)

LINESTRING (80.000000 80.000000, 138.338527 399.607888)

LINESTRING (138.338527 399.607888, 364.973984 597.395249)

LINESTRING (364.973984 597.395249, 680.738914 712.547143)

LINESTRING (680.738914 712.547143, 959.163575 641.170864)

LINESTRING (959.163575 641.170864, 1167.541756 392.739193)

LINESTRING (1167.541756 392.739193, 1273.341424 128.499378)

LINESTRING (1167.541756 392.739193, 1405.889109 204.501373)

LINESTRING (1167.541756 392.739193, 1441.127905 332.931367)

LINESTRING (959.163575 641.170864, 1246.142711 557.625560)

LINESTRING (1246.142711 557.625560, 1418.627033 347.640578)

LINESTRING (1246.142711 557.625560, 1538.725602 495.289867)

LINESTRING (1246.142711 557.625560, 1568.345355 606.152943)

LINESTRING (959.163575 641.170864, 1263.870365 735.112321)

LINESTRING (1263.870365 735.112321, 1589.579212 628.548973)

LINESTRING (1263.870365 735.112321, 1553.103159 795.447732)

LINESTRING (1263.870365 735.112321, 1481.256655 956.906194)

LINESTRING (680.738914 712.547143, 931.501217 762.519399)

LINESTRING (931.501217 762.519399, 1253.727318 712.902008)

LINESTRING (1253.727318 712.902008, 1481.474701 507.318456)

LINESTRING (1253.727318 712.902008, 1506.423882 609.914872)

LINESTRING (1253.727318 712.902008, 1569.385396 811.622681)

LINESTRING (931.501217 762.519399, 1259.772064 804.878803)

LINESTRING (1259.772064 804.878803, 1574.154413 687.686322)

LINESTRING (1259.772064 804.878803, 1533.055651 850.970393)

LINESTRING (1259.772064 804.878803, 1456.115436 1031.493407)

LINESTRING (931.501217 762.519399, 1152.109730 1011.702293)

LINESTRING (1152.109730 1011.702293, 1476.232696 1057.512054)

LINESTRING (1152.109730 1011.702293, 1378.649804 1216.707500)

LINESTRING (1152.109730 1011.702293, 1249.140382 1263.601420)

LINESTRING (680.738914 712.547143, 886.686365 886.427970)

LINESTRING (886.686365 886.427970, 1188.108547 941.684696)

LINESTRING (1188.108547 941.684696, 1486.794443 850.816708)

LINESTRING (1188.108547 941.684696, 1479.123195 1017.621302)

LINESTRING (1188.108547 941.684696, 1437.021579 1152.084156)

LINESTRING (886.686365 886.427970, 1125.521314 1092.289124)

LINESTRING (1125.521314 1092.289124, 1410.516653 1160.946766)

LINESTRING (1125.521314 1092.289124, 1377.504030 1305.508645)

LINESTRING (1125.521314 1092.289124, 1217.044965 1410.832314)

LINESTRING (886.686365 886.427970, 940.602871 1138.996215)

LINESTRING (940.602871 1138.996215, 1186.803904 1371.996500)

LINESTRING (940.602871 1138.996215, 1008.289299 1447.005658)

LINESTRING (940.602871 1138.996215, 897.697067 1427.983768)

LINESTRING (364.973984 597.395249, 612.317086 835.928487)

LINESTRING (612.317086 835.928487, 887.913439 916.978144)

LINESTRING (887.913439 916.978144, 1166.402882 870.865826)

LINESTRING (1166.402882 870.865826, 1385.477422 664.963618)

LINESTRING (1166.402882 870.865826, 1459.499523 773.483628)

LINESTRING (1166.402882 870.865826, 1436.921544 936.816754)

LINESTRING (887.913439 916.978144, 1145.860731 1028.637484)

LINESTRING (1145.860731 1028.637484, 1428.274254 990.812576)

LINESTRING (1145.860731 1028.637484, 1468.518512 1114.407747)

LINESTRING (1145.860731 1028.637484, 1346.157749 1240.938839)

LINESTRING (887.913439 916.978144, 1086.805599 1158.726416)

LINESTRING (1086.805599 1158.726416, 1400.726871 1263.653271)

LINESTRING (1086.805599 1158.726416, 1291.548011 1359.621854)

LINESTRING (1086.805599 1158.726416, 1168.397140 1435.925866)

LINESTRING (612.317086 835.928487, 833.331928 1021.714513)

LINESTRING (833.331928 1021.714513, 1121.935498 1073.730781)

LINESTRING (1121.935498 1073.730781, 1431.382303 1012.043676)

LINESTRING (1121.935498 1073.730781, 1377.556590 1112.614456)

LINESTRING (1121.935498 1073.730781, 1307.230675 1267.797675)

LINESTRING (833.331928 1021.714513, 1084.774852 1203.942235)

LINESTRING (1084.774852 1203.942235, 1405.149332 1257.420764)

LINESTRING (1084.774852 1203.942235, 1301.355660 1444.000875)

LINESTRING (1084.774852 1203.942235, 1171.947756 1471.747104)

LINESTRING (833.331928 1021.714513, 871.498080 1323.050835)

LINESTRING (871.498080 1323.050835, 1065.288159 1505.994926)

LINESTRING (871.498080 1323.050835, 934.210536 1609.340367)

LINESTRING (871.498080 1323.050835, 829.473854 1633.222903)

LINESTRING (612.317086 835.928487, 651.587828 1136.644794)

LINESTRING (651.587828 1136.644794, 835.744993 1328.071814)

LINESTRING (835.744993 1328.071814, 1146.469413 1422.059176)

LINESTRING (835.744993 1328.071814, 1030.189302 1555.054546)

LINESTRING (835.744993 1328.071814, 912.777757 1604.725265)

LINESTRING (651.587828 1136.644794, 754.506678 1390.679624)

LINESTRING (754.506678 1390.679624, 976.523192 1601.880842)

LINESTRING (754.506678 1390.679624, 798.943068 1690.714124)

LINESTRING (754.506678 1390.679624, 657.807300 1670.712319)

LINESTRING (651.587828 1136.644794, 588.797901 1442.134618)

LINESTRING (588.797901 1442.134618, 640.873826 1720.109419)

LINESTRING (588.797901 1442.134618, 480.562130 1731.172898)

LINESTRING (588.797901 1442.134618, 404.849969 1662.998479)

LINESTRING (364.973984 597.395249, 440.391191 913.526440)

LINESTRING (440.391191 913.526440, 629.511942 1134.531920)

LINESTRING (629.511942 1134.531920, 916.904074 1176.893973)

LINESTRING (916.904074 1176.893973, 1191.193586 1077.352856)

LINESTRING (916.904074 1176.893973, 1170.650909 1260.825768)

LINESTRING (916.904074 1176.893973, 1132.109272 1362.457237)

LINESTRING (629.511942 1134.531920, 802.628529 1337.509951)

LINESTRING (802.628529 1337.509951, 1091.579916 1440.527987)

LINESTRING (802.628529 1337.509951, 1042.910215 1553.454595)

LINESTRING (802.628529 1337.509951, 842.694969 1656.553785)

LINESTRING (629.511942 1134.531920, 716.801146 1439.800474)

LINESTRING (716.801146 1439.800474, 921.847615 1682.080610)

LINESTRING (716.801146 1439.800474, 796.952337 1752.706208)

LINESTRING (716.801146 1439.800474, 601.238210 1740.732934)

LINESTRING (440.391191 913.526440, 513.862677 1183.087404)

LINESTRING (513.862677 1183.087404, 715.670122 1421.436879)

LINESTRING (715.670122 1421.436879, 1020.949571 1476.676330)

LINESTRING (715.670122 1421.436879, 950.962319 1614.988076)

LINESTRING (715.670122 1421.436879, 771.140525 1722.687566)

LINESTRING (513.862677 1183.087404, 559.771853 1448.523342)

LINESTRING (559.771853 1448.523342, 780.293081 1693.149488)

LINESTRING (559.771853 1448.523342, 652.787269 1717.132777)

LINESTRING (559.771853 1448.523342, 490.946695 1766.264432)

LINESTRING (513.862677 1183.087404, 439.955260 1461.224801)

LINESTRING (439.955260 1461.224801, 529.194471 1774.744366)

LINESTRING (439.955260 1461.224801, 376.493796 1713.006016)

LINESTRING (439.955260 1461.224801, 191.596394 1635.693944)

LINESTRING (440.391191 913.526440, 335.619183 1214.063876)

LINESTRING (335.619183 1214.063876, 434.315453 1471.519642)

LINESTRING (434.315453 1471.519642, 683.973981 1649.416871)

LINESTRING (434.315453 1471.519642, 497.123116 1729.031475)

LINESTRING (434.315453 1471.519642, 369.621745 1745.790320)

LINESTRING (335.619183 1214.063876, 266.931670 1520.460680)

LINESTRING (266.931670 1520.460680, 333.129490 1820.970820)

LINESTRING (266.931670 1520.460680, 172.834917 1780.354920)

LINESTRING (266.931670 1520.460680, 32.136730 1714.461141)

LINESTRING (335.619183 1214.063876, 85.297866 1426.074631)

LINESTRING (85.297866 1426.074631, -6.326277 1693.098645)

LINESTRING (85.297866 1426.074631, -162.263018 1600.739324)

LINESTRING (85.297866 1426.074631, -182.153810 1501.151287)

LINESTRING (138.338527 399.607888, 236.901011 651.503353)

LINESTRING (236.901011 651.503353, 442.979499 863.984281)

LINESTRING (442.979499 863.984281, 752.229027 919.338048)

LINESTRING (752.229027 919.338048, 1031.845441 806.808387)

LINESTRING (1031.845441 806.808387, 1255.170757 631.616530)

LINESTRING (1031.845441 806.808387, 1294.186278 767.235636)

LINESTRING (1031.845441 806.808387, 1327.350551 918.938688)

LINESTRING (752.229027 919.338048, 1053.219375 1003.413806)

LINESTRING (1053.219375 1003.413806, 1361.674982 931.587940)

LINESTRING (1053.219375 1003.413806, 1313.972775 1071.886129)

LINESTRING (1053.219375 1003.413806, 1299.219997 1187.639194)

LINESTRING (752.229027 919.338048, 965.835156 1133.229940)

LINESTRING (965.835156 1133.229940, 1289.237796 1224.418123)

LINESTRING (965.835156 1133.229940, 1177.716342 1362.997147)

LINESTRING (965.835156 1133.229940, 1047.480363 1403.655961)

LINESTRING (442.979499 863.984281, 619.741688 1079.372547)

LINESTRING (619.741688 1079.372547, 936.397963 1150.746995)

LINESTRING (936.397963 1150.746995, 1199.307514 1053.922291)

LINESTRING (936.397963 1150.746995, 1214.810804 1266.971593)

LINESTRING (936.397963 1150.746995, 1139.535069 1357.996469)

LINESTRING (619.741688 1079.372547, 804.880007 1279.017030)

LINESTRING (804.880007 1279.017030, 1081.529670 1359.582861)

LINESTRING (804.880007 1279.017030, 1005.533007 1481.112203)

LINESTRING (804.880007 1279.017030, 844.623397 1559.211897)

LINESTRING (619.741688 1079.372547, 699.946170 1362.615300)

LINESTRING (699.946170 1362.615300, 897.522522 1596.504545)

LINESTRING (699.946170 1362.615300, 749.096537 1643.387787)

LINESTRING (699.946170 1362.615300, 625.635277 1619.576634)

LINESTRING (442.979499 863.984281, 494.104350 1184.992422)

LINESTRING (494.104350 1184.992422, 683.777431 1403.858620)

LINESTRING (683.777431 1403.858620, 1004.343266 1519.116587)

LINESTRING (683.777431 1403.858620, 895.826653 1594.000981)

LINESTRING (683.777431 1403.858620, 756.389957 1707.486841)

LINESTRING (494.104350 1184.992422, 549.579737 1442.545308)

LINESTRING (549.579737 1442.545308, 749.535672 1624.506571)

LINESTRING (549.579737 1442.545308, 630.669786 1760.905397)

LINESTRING (549.579737 1442.545308, 453.839871 1724.595867)

LINESTRING (494.104350 1184.992422, 431.242249 1437.212821)

LINESTRING (431.242249 1437.212821, 527.271039 1727.700667)

LINESTRING (431.242249 1437.212821, 393.306517 1758.920423)

LINESTRING (431.242249 1437.212821, 207.256166 1669.868822)

LINESTRING (236.901011 651.503353, 314.840630 938.631232)

LINESTRING (314.840630 938.631232, 557.915313 1141.869635)

LINESTRING (557.915313 1141.869635, 871.656308 1185.204721)

LINESTRING (871.656308 1185.204721, 1145.618043 1131.191833)

LINESTRING (871.656308 1185.204721, 1160.559632 1289.498303)

LINESTRING (871.656308 1185.204721, 1106.254433 1398.472891)

LINESTRING (557.915313 1141.869635, 739.291777 1346.377301)

LINESTRING (739.291777 1346.377301, 1043.306304 1420.628157)

LINESTRING (739.291777 1346.377301, 984.881758 1590.291521)

LINESTRING (739.291777 1346.377301, 790.403690 1646.278977)

LINESTRING (557.915313 1141.869635, 652.254718 1450.612286)

LINESTRING (652.254718 1450.612286, 885.587095 1691.540345)

LINESTRING (652.254718 1450.612286, 742.216883 1705.603907)

LINESTRING (652.254718 1450.612286, 568.716545 1765.794537)

LINESTRING (314.840630 938.631232, 354.366177 1215.839526)

LINESTRING (354.366177 1215.839526, 591.090541 1455.444717)

LINESTRING (591.090541 1455.444717, 867.734959 1527.634438)

LINESTRING (591.090541 1455.444717, 775.481367 1684.975392)

LINESTRING (591.090541 1455.444717, 705.091783 1762.807928)

LINESTRING (354.366177 1215.839526, 435.192453 1485.909796)

LINESTRING (435.192453 1485.909796, 658.686590 1711.654562)

LINESTRING (435.192453 1485.909796, 524.355659 1743.813801)

LINESTRING (435.192453 1485.909796, 333.785783 1786.788773)

LINESTRING (354.366177 1215.839526, 264.006415 1521.723731)

LINESTRING (264.006415 1521.723731, 336.547646 1830.530760)

LINESTRING (264.006415 1521.723731, 166.841436 1833.965207)

LINESTRING (264.006415 1521.723731, 61.909940 1738.831315)

LINESTRING (314.840630 938.631232, 212.686358 1250.879758)

LINESTRING (212.686358 1250.879758, 274.593019 1545.394355)

LINESTRING (274.593019 1545.394355, 506.925546 1768.543446)

LINESTRING (274.593019 1545.394355, 384.888457 1799.590681)

LINESTRING (274.593019 1545.394355, 183.769893 1844.739946)

LINESTRING (212.686358 1250.879758, 152.465630 1569.340725)

LINESTRING (152.465630 1569.340725, 197.959749 1888.750224)

LINESTRING (152.465630 1569.340725, 108.138402 1889.122122)

LINESTRING (152.465630 1569.340725, -68.049410 1819.074680)

LINESTRING (212.686358 1250.879758, -21.328234 1494.490389)

LINESTRING (-21.328234 1494.490389, -121.956863 1748.209957)

LINESTRING (-21.328234 1494.490389, -226.949022 1742.790546)

LINESTRING (-21.328234 1494.490389, -337.689950 1589.471822)

LINESTRING (236.901011 651.503353, 175.615217 938.794100)

LINESTRING (175.615217 938.794100, 268.087686 1238.276996)

LINESTRING (268.087686 1238.276996, 512.690459 1433.924430)

LINESTRING (512.690459 1433.924430, 825.106184 1542.812560)

LINESTRING (512.690459 1433.924430, 741.347555 1625.953577)

LINESTRING (512.690459 1433.924430, 553.733936 1718.986776)

LINESTRING (268.087686 1238.276996, 341.743242 1511.617370)

LINESTRING (341.743242 1511.617370, 574.377506 1708.681058)

LINESTRING (341.743242 1511.617370, 435.139550 1802.559926)

LINESTRING (341.743242 1511.617370, 239.666403 1830.866767)

LINESTRING (268.087686 1238.276996, 151.405920 1557.049695)

LINESTRING (151.405920 1557.049695, 232.406510 1841.578085)

LINESTRING (151.405920 1557.049695, 111.511962 1864.580688)

LINESTRING (151.405920 1557.049695, -97.250302 1730.628605)

LINESTRING (175.615217 938.794100, 107.274840 1193.738628)

LINESTRING (107.274840 1193.738628, 178.989966 1497.195033)

LINESTRING (178.989966 1497.195033, 426.239156 1722.024520)

LINESTRING (178.989966 1497.195033, 236.865429 1784.281167)

LINESTRING (178.989966 1497.195033, 96.869804 1810.945990)

LINESTRING (107.274840 1193.738628, 28.119210 1498.548788)

LINESTRING (28.119210 1498.548788, 124.451347 1780.770315)

LINESTRING (28.119210 1498.548788, -10.759681 1776.943376)

LINESTRING (28.119210 1498.548788, -217.191370 1727.588054)

LINESTRING (107.274840 1193.738628, -105.360974 1398.483412)

LINESTRING (-105.360974 1398.483412, -184.304532 1673.083344)

LINESTRING (-105.360974 1398.483412, -279.112370 1571.004508)

LINESTRING (-105.360974 1398.483412, -389.118420 1465.929937)

LINESTRING (175.615217 938.794100, -41.388228 1157.682475)

LINESTRING (-41.388228 1157.682475, -128.420814 1453.964459)

LINESTRING (-128.420814 1453.964459, -56.404957 1741.952687)

LINESTRING (-128.420814 1453.964459, -173.807856 1779.159574)

LINESTRING (-128.420814 1453.964459, -364.577760 1689.811644)

LINESTRING (-41.388228 1157.682475, -267.856534 1336.432088)

LINESTRING (-267.856534 1336.432088, -317.018558 1605.491012)

LINESTRING (-267.856534 1336.432088, -446.766528 1531.833273)

LINESTRING (-267.856534 1336.432088, -537.171429 1379.975087)

LINESTRING (-41.388228 1157.682475, -313.826130 1195.853503)

LINESTRING (-313.826130 1195.853503, -559.752299 1390.735727)

LINESTRING (-313.826130 1195.853503, -617.063709 1259.910773)

LINESTRING (-313.826130 1195.853503, -575.349789 1102.911309)

LINESTRING (138.338527 399.607888, 75.181270 724.756000)

LINESTRING (75.181270 724.756000, 131.309114 1021.603482)

LINESTRING (131.309114 1021.603482, 370.283751 1234.105375)

LINESTRING (370.283751 1234.105375, 641.559539 1291.398200)

LINESTRING (641.559539 1291.398200, 895.403954 1182.402296)

LINESTRING (641.559539 1291.398200, 939.223545 1382.114085)

LINESTRING (641.559539 1291.398200, 886.388650 1516.831591)

LINESTRING (370.283751 1234.105375, 578.436502 1458.523412)

LINESTRING (578.436502 1458.523412, 904.688985 1512.240545)

LINESTRING (578.436502 1458.523412, 759.609563 1647.601608)

LINESTRING (578.436502 1458.523412, 647.802831 1763.436848)

LINESTRING (370.283751 1234.105375, 470.218314 1493.620845)

LINESTRING (470.218314 1493.620845, 645.057658 1696.240749)

LINESTRING (470.218314 1493.620845, 511.852859 1787.548153)

LINESTRING (470.218314 1493.620845, 403.928203 1792.703278)

LINESTRING (131.309114 1021.603482, 196.651789 1303.233895)

LINESTRING (196.651789 1303.233895, 390.020572 1509.072957)

LINESTRING (390.020572 1509.072957, 695.116248 1569.136991)

LINESTRING (390.020572 1509.072957, 570.280563 1717.285322)

LINESTRING (390.020572 1509.072957, 473.069472 1767.875028)

LINESTRING (196.651789 1303.233895, 266.708082 1619.247176)

LINESTRING (266.708082 1619.247176, 514.490075 1829.197347)

LINESTRING (266.708082 1619.247176, 332.332259 1876.114270)

LINESTRING (266.708082 1619.247176, 151.652894 1903.742179)

LINESTRING (196.651789 1303.233895, 93.055743 1618.525430)

LINESTRING (93.055743 1618.525430, 196.801648 1920.375494)

LINESTRING (93.055743 1618.525430, 28.479346 1941.776905)

LINESTRING (93.055743 1618.525430, -91.973263 1810.699724)

LINESTRING (131.309114 1021.603482, 62.618462 1320.158119)

LINESTRING (62.618462 1320.158119, 101.701753 1631.933038)

LINESTRING (101.701753 1631.933038, 353.059897 1831.116632)

LINESTRING (101.701753 1631.933038, 157.345851 1911.503525)

LINESTRING (101.701753 1631.933038, 3.252566 1931.191772)

LINESTRING (62.618462 1320.158119, -30.991569 1641.770913)

LINESTRING (-30.991569 1641.770913, 76.361382 1896.380034)

LINESTRING (-30.991569 1641.770913, -118.854018 1899.631478)

LINESTRING (-30.991569 1641.770913, -250.568056 1874.526267)

LINESTRING (62.618462 1320.158119, -143.800550 1552.716444)

LINESTRING (-143.800550 1552.716444, -257.725624 1804.408917)

LINESTRING (-143.800550 1552.716444, -370.270697 1775.811897)

LINESTRING (-143.800550 1552.716444, -405.860772 1603.237965)

LINESTRING (75.181270 724.756000, 5.367999 991.412796)

LINESTRING (5.367999 991.412796, 60.644418 1291.594104)

LINESTRING (60.644418 1291.594104, 248.214123 1538.546231)

LINESTRING (248.214123 1538.546231, 546.224568 1599.522661)

LINESTRING (248.214123 1538.546231, 462.293280 1719.661225)

LINESTRING (248.214123 1538.546231, 307.614847 1866.966485)

LINESTRING (60.644418 1291.594104, 148.459187 1560.130730)

LINESTRING (148.459187 1560.130730, 362.428440 1787.300989)

LINESTRING (148.459187 1560.130730, 202.630030 1871.036503)

LINESTRING (148.459187 1560.130730, 72.849824 1823.653325)

LINESTRING (60.644418 1291.594104, -33.813430 1615.975080)

LINESTRING (-33.813430 1615.975080, 78.416451 1884.022691)

LINESTRING (-33.813430 1615.975080, -75.166506 1931.227177)

LINESTRING (-33.813430 1615.975080, -264.535383 1864.290999)

LINESTRING (5.367999 991.412796, -95.066849 1259.148799)

LINESTRING (-95.066849 1259.148799, -49.963504 1556.231027)

LINESTRING (-49.963504 1556.231027, 158.837564 1763.891918)

LINESTRING (-49.963504 1556.231027, -5.846064 1849.212023)

LINESTRING (-49.963504 1556.231027, -114.775659 1829.587534)

LINESTRING (-95.066849 1259.148799, -188.317435 1584.774229)

LINESTRING (-188.317435 1584.774229, -145.556523 1867.027094)

LINESTRING (-188.317435 1584.774229, -249.653053 1849.893295)

LINESTRING (-188.317435 1584.774229, -393.440692 1792.234854)

LINESTRING (-95.066849 1259.148799, -325.782331 1487.215537)

LINESTRING (-325.782331 1487.215537, -427.879923 1775.464947)

LINESTRING (-325.782331 1487.215537, -516.523535 1710.269682)

LINESTRING (-325.782331 1487.215537, -620.506257 1577.246786)

LINESTRING (5.367999 991.412796, -215.207003 1200.935613)

LINESTRING (-215.207003 1200.935613, -288.093707 1519.854595)

LINESTRING (-288.093707 1519.854595, -214.083102 1845.245722)

LINESTRING (-288.093707 1519.854595, -369.929568 1848.007467)

LINESTRING (-288.093707 1519.854595, -505.523923 1738.198950)

LINESTRING (-215.207003 1200.935613, -455.428636 1451.088550)

LINESTRING (-455.428636 1451.088550, -570.826588 1734.717630)

LINESTRING (-455.428636 1451.088550, -632.027652 1636.302897)

LINESTRING (-455.428636 1451.088550, -718.964245 1560.096002)

LINESTRING (-215.207003 1200.935613, -499.584824 1248.334207)

LINESTRING (-499.584824 1248.334207, -702.685524 1426.524901)

LINESTRING (-499.584824 1248.334207, -816.307417 1293.095449)

LINESTRING (-499.584824 1248.334207, -827.546354 1197.531276)

LINESTRING (75.181270 724.756000, -166.427066 960.021344)

LINESTRING (-166.427066 960.021344, -270.732468 1258.855190)

LINESTRING (-270.732468 1258.855190, -201.606862 1512.512528)

LINESTRING (-201.606862 1512.512528, -11.456432 1711.927730)

LINESTRING (-201.606862 1512.512528, -137.176370 1832.122537)

LINESTRING (-201.606862 1512.512528, -306.924222 1781.253446)

LINESTRING (-270.732468 1258.855190, -338.615873 1535.141734)

LINESTRING (-338.615873 1535.141734, -222.250585 1832.514106)

LINESTRING (-338.615873 1535.141734, -427.064689 1819.408555)

LINESTRING (-338.615873 1535.141734, -512.807494 1772.383037)

LINESTRING (-270.732468 1258.855190, -462.738798 1460.629829)

LINESTRING (-462.738798 1460.629829, -518.936777 1720.983663)

LINESTRING (-462.738798 1460.629829, -713.649056 1693.415686)

LINESTRING (-462.738798 1460.629829, -755.986209 1526.658859)

LINESTRING (-166.427066 960.021344, -403.957610 1135.104050)

LINESTRING (-403.957610 1135.104050, -442.557212 1430.990349)

LINESTRING (-442.557212 1430.990349, -327.550526 1707.546553)

LINESTRING (-442.557212 1430.990349, -549.228924 1721.899960)

LINESTRING (-442.557212 1430.990349, -646.499326 1662.719097)

LINESTRING (-403.957610 1135.104050, -651.649615 1372.630872)

LINESTRING (-651.649615 1372.630872, -697.169880 1687.815211)

LINESTRING (-651.649615 1372.630872, -879.230819 1588.941862)

LINESTRING (-651.649615 1372.630872, -918.151791 1486.269715)

LINESTRING (-403.957610 1135.104050, -703.970176 1189.749750)

LINESTRING (-703.970176 1189.749750, -917.024793 1377.407418)

LINESTRING (-703.970176 1189.749750, -1018.390582 1251.482270)

LINESTRING (-703.970176 1189.749750, -998.472953 1077.050712)

LINESTRING (-166.427066 960.021344, -437.652317 1064.244200)

LINESTRING (-437.652317 1064.244200, -681.744416 1313.178237)

LINESTRING (-681.744416 1313.178237, -794.659335 1588.190905)

LINESTRING (-681.744416 1313.178237, -917.058383 1502.307108)

LINESTRING (-681.744416 1313.178237, -981.362322 1409.418100)

LINESTRING (-437.652317 1064.244200, -716.918980 1113.898311)

LINESTRING (-716.918980 1113.898311, -935.746261 1323.360026)

LINESTRING (-716.918980 1113.898311, -1045.801202 1201.065643)

LINESTRING (-716.918980 1113.898311, -975.289819 1042.441564)

LINESTRING (-437.652317 1064.244200, -747.158713 954.755529)

LINESTRING (-747.158713 954.755529, -1030.559749 1008.404742)

LINESTRING (-747.158713 954.755529, -1007.723012 851.254260)

LINESTRING (-747.158713 954.755529, -979.154736 763.263733)

