LINESTRING (2933.933503 1915.784139, 2984.840628 761.253929)

LINESTRING (2933.933503 1915.784139, 2903.802420 818.689827)

LINESTRING (2933.933503 1915.784139, 2972.943108 1518.585573)

LINESTRING (2933.933503 1915.784139, 3360.131260 1694.590302)

LINESTRING (3477.828674 687.023161, 2984.840628 761.253929)

LINESTRING (3477.828674 687.023161, 3143.310869 660.155699)

LINESTRING (3477.828674 687.023161, 2575.587748 938.948577)

LINESTRING (619.841336 3215.368902, 143.025072 2763.679546)

LINESTRING (3150.111619 203.073114, 3143.310869 660.155699)

LINESTRING (3150.111619 203.073114, 2788.798063 207.100723)

LINESTRING (3150.111619 203.073114, 2903.802420 818.689827)

LINESTRING (1105.784258 2970.991998, 1735.662946 3137.998387)

LINESTRING (1105.784258 2970.991998, 2270.394014 2859.909414)

LINESTRING (1105.784258 2970.991998, 143.025072 2763.679546)

LINESTRING (2984.840628 761.253929, 3143.310869 660.155699)

LINESTRING (2984.840628 761.253929, 2305.009049 595.613630)

LINESTRING (2984.840628 761.253929, 2788.798063 207.100723)

LINESTRING (2984.840628 761.253929, 2903.802420 818.689827)

LINESTRING (2984.840628 761.253929, 2721.120155 679.269673)

LINESTRING (3143.310869 660.155699, 2903.802420 818.689827)

LINESTRING (3143.310869 660.155699, 2739.184471 382.633423)

LINESTRING (2305.009049 595.613630, 2788.798063 207.100723)

LINESTRING (2305.009049 595.613630, 1866.002580 629.108770)

LINESTRING (1735.662946 3137.998387, 2332.580951 3451.813010)

LINESTRING (1735.662946 3137.998387, 2435.241015 2314.522966)

LINESTRING (1735.662946 3137.998387, 2616.701061 2389.947360)

LINESTRING (3173.202735 3101.509341, 3482.628563 2873.426923)

LINESTRING (3173.202735 3101.509341, 2332.580951 3451.813010)

LINESTRING (3482.628563 2873.426923, 3429.346180 2390.065996)

LINESTRING (3482.628563 2873.426923, 2435.241015 2314.522966)

LINESTRING (3482.628563 2873.426923, 3360.131260 1694.590302)

LINESTRING (3429.346180 2390.065996, 2972.943108 1518.585573)

LINESTRING (1927.366282 1261.095700, 1862.058403 315.364454)

LINESTRING (1927.366282 1261.095700, 2739.184471 382.633423)

LINESTRING (1927.366282 1261.095700, 1866.002580 629.108770)

LINESTRING (2270.394014 2859.909414, 2435.241015 2314.522966)

LINESTRING (2270.394014 2859.909414, 2616.701061 2389.947360)

LINESTRING (2788.798063 207.100723, 2739.184471 382.633423)

LINESTRING (2788.798063 207.100723, 2575.587748 938.948577)

LINESTRING (2903.802420 818.689827, 1862.058403 315.364454)

LINESTRING (2903.802420 818.689827, 2721.120155 679.269673)

LINESTRING (2903.802420 818.689827, 1866.002580 629.108770)

LINESTRING (2903.802420 818.689827, 2575.587748 938.948577)

LINESTRING (2903.802420 818.689827, 3066.665717 1532.824913)

LINESTRING (1862.058403 315.364454, 2739.184471 382.633423)

LINESTRING (1862.058403 315.364454, 2721.120155 679.269673)

LINESTRING (1862.058403 315.364454, 1866.002580 629.108770)

LINESTRING (2739.184471 382.633423, 2721.120155 679.269673)

LINESTRING (2739.184471 382.633423, 1866.002580 629.108770)

LINESTRING (2739.184471 382.633423, 2575.587748 938.948577)

LINESTRING (2721.120155 679.269673, 1866.002580 629.108770)

LINESTRING (2721.120155 679.269673, 2575.587748 938.948577)

LINESTRING (2721.120155 679.269673, 3066.665717 1532.824913)

LINESTRING (2721.120155 679.269673, 3360.131260 1694.590302)

LINESTRING (2972.943108 1518.585573, 3066.665717 1532.824913)

LINESTRING (2972.943108 1518.585573, 2616.701061 2389.947360)

LINESTRING (3066.665717 1532.824913, 2435.241015 2314.522966)

LINESTRING (3066.665717 1532.824913, 3360.131260 1694.590302)

LINESTRING (2435.241015 2314.522966, 2616.701061 2389.947360)

LINESTRING (2435.241015 2314.522966, 3360.131260 1694.590302)

LINESTRING (2616.701061 2389.947360, 3360.131260 1694.590302)

