LINESTRING (60.000000 60.000000, 160.000000 60.000000)

LINESTRING (60.000000 60.000000, 260.000000 60.000000)

LINESTRING (60.000000 60.000000, 60.000000 160.000000)

LINESTRING (60.000000 60.000000, 160.000000 160.000000)

LINESTRING (60.000000 60.000000, 260.000000 160.000000)

LINESTRING (60.000000 60.000000, 60.000000 260.000000)

LINESTRING (60.000000 60.000000, 160.000000 260.000000)

LINESTRING (160.000000 60.000000, 60.000000 160.000000)

LINESTRING (160.000000 60.000000, 260.000000 160.000000)

LINESTRING (160.000000 60.000000, 60.000000 260.000000)

LINESTRING (160.000000 60.000000, 160.000000 260.000000)

LINESTRING (260.000000 60.000000, 160.000000 160.000000)

LINESTRING (260.000000 60.000000, 260.000000 160.000000)

LINESTRING (260.000000 60.000000, 60.000000 260.000000)

LINESTRING (260.000000 60.000000, 160.000000 260.000000)

LINESTRING (60.000000 160.000000, 160.000000 160.000000)

LINESTRING (60.000000 160.000000, 260.000000 160.000000)

LINESTRING (60.000000 160.000000, 60.000000 260.000000)

LINESTRING (60.000000 160.000000, 160.000000 260.000000)

LINESTRING (160.000000 160.000000, 260.000000 160.000000)

LINESTRING (160.000000 160.000000, 60.000000 260.000000)

LINESTRING (160.000000 160.000000, 160.000000 260.000000)

LINESTRING (260.000000 160.000000, 60.000000 260.000000)

LINESTRING (60.000000 260.000000, 160.000000 260.000000)

LINESTRING (410.000000 160.000000, 336.776695 336.776695)

LINESTRING (410.000000 160.000000, 60.000000 60.000000)

LINESTRING (336.776695 336.776695, 160.000000 410.000000)

LINESTRING (336.776695 336.776695, 160.000000 60.000000)

LINESTRING (160.000000 410.000000, -16.776695 336.776695)

LINESTRING (160.000000 410.000000, 260.000000 60.000000)

LINESTRING (-16.776695 336.776695, -90.000000 160.000000)

LINESTRING (-16.776695 336.776695, 60.000000 160.000000)

LINESTRING (-90.000000 160.000000, -16.776695 -16.776695)

LINESTRING (-90.000000 160.000000, 160.000000 160.000000)

LINESTRING (-16.776695 -16.776695, 160.000000 -90.000000)

LINESTRING (-16.776695 -16.776695, 260.000000 160.000000)

LINESTRING (160.000000 -90.000000, 336.776695 -16.776695)

LINESTRING (160.000000 -90.000000, 60.000000 260.000000)

LINESTRING (336.776695 -16.776695, 410.000000 160.000000)

LINESTRING (336.776695 -16.776695, 160.000000 260.000000)

LINESTRING (440.000000 160.000000, 357.989899 357.989899)

LINESTRING (440.000000 160.000000, 60.000000 60.000000)

LINESTRING (357.989899 357.989899, 160.000000 440.000000)

LINESTRING (357.989899 357.989899, 160.000000 60.000000)

LINESTRING (160.000000 440.000000, -37.989899 357.989899)

LINESTRING (160.000000 440.000000, 260.000000 60.000000)

LINESTRING (-37.989899 357.989899, -120.000000 160.000000)

LINESTRING (-37.989899 357.989899, 60.000000 160.000000)

LINESTRING (-120.000000 160.000000, -37.989899 -37.989899)

LINESTRING (-120.000000 160.000000, 160.000000 160.000000)

LINESTRING (-37.989899 -37.989899, 160.000000 -120.000000)

LINESTRING (-37.989899 -37.989899, 260.000000 160.000000)

LINESTRING (160.000000 -120.000000, 357.989899 -37.989899)

LINESTRING (160.000000 -120.000000, 60.000000 260.000000)

LINESTRING (357.989899 -37.989899, 440.000000 160.000000)

LINESTRING (357.989899 -37.989899, 160.000000 260.000000)

