LINESTRING (129.112433 179.250284, 125.125637 155.237206)

LINESTRING (129.112433 179.250284, 119.113646 123.692382)

LINESTRING (129.112433 179.250284, 144.544738 124.205516)

LINESTRING (129.112433 179.250284, 163.096367 107.401866)

LINESTRING (129.112433 179.250284, 155.230083 145.740426)

LINESTRING (129.112433 179.250284, 170.376451 125.989491)

LINESTRING (129.112433 179.250284, 132.933294 102.212773)

LINESTRING (129.112433 179.250284, 129.321652 118.357780)

LINESTRING (129.112433 179.250284, 107.533979 158.024471)

LINESTRING (129.112433 179.250284, 124.324799 147.864188)

LINESTRING (129.112433 179.250284, 141.111219 167.627038)

LINESTRING (129.112433 179.250284, 147.705721 100.934400)

LINESTRING (129.112433 179.250284, 174.548799 105.035580)

LINESTRING (129.112433 179.250284, 169.373109 136.128118)

LINESTRING (129.112433 179.250284, 101.015182 116.963469)

LINESTRING (127.552706 140.923654, 137.000957 107.992715)

LINESTRING (127.552706 140.923654, 144.544738 124.205516)

LINESTRING (127.552706 140.923654, 107.380268 122.716309)

LINESTRING (127.552706 140.923654, 155.230083 145.740426)

LINESTRING (127.552706 140.923654, 145.660325 127.659278)

LINESTRING (127.552706 140.923654, 143.498918 129.527950)

LINESTRING (127.552706 140.923654, 132.933294 102.212773)

LINESTRING (127.552706 140.923654, 127.745320 119.217989)

LINESTRING (127.552706 140.923654, 129.321652 118.357780)

LINESTRING (127.552706 140.923654, 107.533979 158.024471)

LINESTRING (127.552706 140.923654, 131.523234 173.114063)

LINESTRING (127.552706 140.923654, 128.304298 155.465745)

LINESTRING (127.552706 140.923654, 124.324799 147.864188)

LINESTRING (127.552706 140.923654, 168.579466 149.276132)

LINESTRING (127.552706 140.923654, 174.548799 105.035580)

LINESTRING (127.552706 140.923654, 111.935691 131.899415)

LINESTRING (127.552706 140.923654, 165.859865 171.100401)

LINESTRING (127.552706 140.923654, 101.015182 116.963469)

LINESTRING (127.552706 140.923654, 103.228055 172.185264)

LINESTRING (127.552706 140.923654, 101.908915 149.500532)

LINESTRING (127.552706 140.923654, 114.766166 105.848709)

LINESTRING (168.165309 142.828775, 144.544738 124.205516)

LINESTRING (168.165309 142.828775, 163.096367 107.401866)

LINESTRING (168.165309 142.828775, 178.453871 101.405513)

LINESTRING (168.165309 142.828775, 170.376451 125.989491)

LINESTRING (168.165309 142.828775, 122.504173 138.941135)

LINESTRING (168.165309 142.828775, 145.660325 127.659278)

LINESTRING (168.165309 142.828775, 143.498918 129.527950)

LINESTRING (168.165309 142.828775, 129.321652 118.357780)

LINESTRING (168.165309 142.828775, 124.871409 176.211526)

LINESTRING (168.165309 142.828775, 131.523234 173.114063)

LINESTRING (168.165309 142.828775, 124.324799 147.864188)

LINESTRING (168.165309 142.828775, 141.111219 167.627038)

LINESTRING (168.165309 142.828775, 111.935691 131.899415)

LINESTRING (168.165309 142.828775, 101.015182 116.963469)

LINESTRING (168.165309 142.828775, 113.999059 112.652969)

LINESTRING (168.165309 142.828775, 103.228055 172.185264)

LINESTRING (168.165309 142.828775, 101.908915 149.500532)

LINESTRING (137.000957 107.992715, 155.126333 145.473109)

LINESTRING (137.000957 107.992715, 119.113646 123.692382)

LINESTRING (137.000957 107.992715, 107.380268 122.716309)

LINESTRING (137.000957 107.992715, 114.025002 170.631346)

LINESTRING (137.000957 107.992715, 145.660325 127.659278)

LINESTRING (137.000957 107.992715, 143.498918 129.527950)

LINESTRING (137.000957 107.992715, 129.321652 118.357780)

LINESTRING (137.000957 107.992715, 128.304298 155.465745)

LINESTRING (137.000957 107.992715, 111.935691 131.899415)

LINESTRING (137.000957 107.992715, 165.859865 171.100401)

LINESTRING (137.000957 107.992715, 101.015182 116.963469)

LINESTRING (137.000957 107.992715, 101.908915 149.500532)

LINESTRING (137.000957 107.992715, 114.766166 105.848709)

LINESTRING (125.125637 155.237206, 178.453871 101.405513)

LINESTRING (125.125637 155.237206, 155.230083 145.740426)

LINESTRING (125.125637 155.237206, 170.376451 125.989491)

LINESTRING (125.125637 155.237206, 143.498918 129.527950)

LINESTRING (125.125637 155.237206, 132.933294 102.212773)

LINESTRING (125.125637 155.237206, 129.321652 118.357780)

LINESTRING (125.125637 155.237206, 107.533979 158.024471)

LINESTRING (125.125637 155.237206, 124.871409 176.211526)

LINESTRING (125.125637 155.237206, 131.523234 173.114063)

LINESTRING (125.125637 155.237206, 174.548799 105.035580)

LINESTRING (125.125637 155.237206, 101.015182 116.963469)

LINESTRING (125.125637 155.237206, 113.999059 112.652969)

LINESTRING (125.125637 155.237206, 114.766166 105.848709)

LINESTRING (155.126333 145.473109, 178.453871 101.405513)

LINESTRING (155.126333 145.473109, 155.230083 145.740426)

LINESTRING (155.126333 145.473109, 114.025002 170.631346)

LINESTRING (155.126333 145.473109, 170.376451 125.989491)

LINESTRING (155.126333 145.473109, 122.504173 138.941135)

LINESTRING (155.126333 145.473109, 145.660325 127.659278)

LINESTRING (155.126333 145.473109, 127.745320 119.217989)

LINESTRING (155.126333 145.473109, 129.321652 118.357780)

LINESTRING (155.126333 145.473109, 131.523234 173.114063)

LINESTRING (155.126333 145.473109, 169.373109 136.128118)

LINESTRING (155.126333 145.473109, 101.015182 116.963469)

LINESTRING (155.126333 145.473109, 103.228055 172.185264)

LINESTRING (119.113646 123.692382, 163.096367 107.401866)

LINESTRING (119.113646 123.692382, 178.453871 101.405513)

LINESTRING (119.113646 123.692382, 107.380268 122.716309)

LINESTRING (119.113646 123.692382, 140.440380 140.593045)

LINESTRING (119.113646 123.692382, 145.660325 127.659278)

LINESTRING (119.113646 123.692382, 143.498918 129.527950)

LINESTRING (119.113646 123.692382, 129.321652 118.357780)

LINESTRING (119.113646 123.692382, 124.871409 176.211526)

LINESTRING (119.113646 123.692382, 128.304298 155.465745)

LINESTRING (119.113646 123.692382, 124.324799 147.864188)

LINESTRING (119.113646 123.692382, 168.579466 149.276132)

LINESTRING (119.113646 123.692382, 147.705721 100.934400)

LINESTRING (119.113646 123.692382, 111.935691 131.899415)

LINESTRING (119.113646 123.692382, 113.999059 112.652969)

LINESTRING (119.113646 123.692382, 154.946213 106.090716)

LINESTRING (119.113646 123.692382, 114.766166 105.848709)

LINESTRING (144.544738 124.205516, 107.380268 122.716309)

LINESTRING (144.544738 124.205516, 170.376451 125.989491)

LINESTRING (144.544738 124.205516, 140.440380 140.593045)

LINESTRING (144.544738 124.205516, 129.321652 118.357780)

LINESTRING (144.544738 124.205516, 107.533979 158.024471)

LINESTRING (144.544738 124.205516, 141.111219 167.627038)

LINESTRING (144.544738 124.205516, 169.373109 136.128118)

LINESTRING (144.544738 124.205516, 101.015182 116.963469)

LINESTRING (144.544738 124.205516, 101.908915 149.500532)

LINESTRING (144.544738 124.205516, 154.946213 106.090716)

LINESTRING (163.096367 107.401866, 107.380268 122.716309)

LINESTRING (163.096367 107.401866, 170.376451 125.989491)

LINESTRING (163.096367 107.401866, 122.504173 138.941135)

LINESTRING (163.096367 107.401866, 140.440380 140.593045)

LINESTRING (163.096367 107.401866, 145.660325 127.659278)

LINESTRING (163.096367 107.401866, 143.498918 129.527950)

LINESTRING (163.096367 107.401866, 127.745320 119.217989)

LINESTRING (163.096367 107.401866, 128.304298 155.465745)

LINESTRING (163.096367 107.401866, 124.324799 147.864188)

LINESTRING (163.096367 107.401866, 168.579466 149.276132)

LINESTRING (163.096367 107.401866, 147.705721 100.934400)

LINESTRING (163.096367 107.401866, 119.797482 152.471266)

LINESTRING (178.453871 101.405513, 107.380268 122.716309)

LINESTRING (178.453871 101.405513, 155.230083 145.740426)

LINESTRING (178.453871 101.405513, 114.025002 170.631346)

LINESTRING (178.453871 101.405513, 140.440380 140.593045)

LINESTRING (178.453871 101.405513, 145.660325 127.659278)

LINESTRING (178.453871 101.405513, 107.533979 158.024471)

LINESTRING (178.453871 101.405513, 124.871409 176.211526)

LINESTRING (178.453871 101.405513, 131.523234 173.114063)

LINESTRING (178.453871 101.405513, 124.324799 147.864188)

LINESTRING (178.453871 101.405513, 141.111219 167.627038)

LINESTRING (178.453871 101.405513, 147.705721 100.934400)

LINESTRING (178.453871 101.405513, 111.935691 131.899415)

LINESTRING (178.453871 101.405513, 165.859865 171.100401)

LINESTRING (178.453871 101.405513, 101.015182 116.963469)

LINESTRING (178.453871 101.405513, 113.999059 112.652969)

LINESTRING (178.453871 101.405513, 119.797482 152.471266)

LINESTRING (178.453871 101.405513, 154.946213 106.090716)

LINESTRING (107.380268 122.716309, 155.230083 145.740426)

LINESTRING (107.380268 122.716309, 170.376451 125.989491)

LINESTRING (107.380268 122.716309, 122.504173 138.941135)

LINESTRING (107.380268 122.716309, 145.660325 127.659278)

LINESTRING (107.380268 122.716309, 127.745320 119.217989)

LINESTRING (107.380268 122.716309, 168.579466 149.276132)

LINESTRING (107.380268 122.716309, 174.548799 105.035580)

LINESTRING (107.380268 122.716309, 103.228055 172.185264)

LINESTRING (107.380268 122.716309, 119.797482 152.471266)

LINESTRING (155.230083 145.740426, 170.376451 125.989491)

LINESTRING (155.230083 145.740426, 145.660325 127.659278)

LINESTRING (155.230083 145.740426, 129.321652 118.357780)

LINESTRING (155.230083 145.740426, 107.533979 158.024471)

LINESTRING (155.230083 145.740426, 124.871409 176.211526)

LINESTRING (155.230083 145.740426, 131.523234 173.114063)

LINESTRING (155.230083 145.740426, 128.304298 155.465745)

LINESTRING (155.230083 145.740426, 147.705721 100.934400)

LINESTRING (155.230083 145.740426, 111.935691 131.899415)

LINESTRING (155.230083 145.740426, 169.373109 136.128118)

LINESTRING (155.230083 145.740426, 165.859865 171.100401)

LINESTRING (155.230083 145.740426, 101.015182 116.963469)

LINESTRING (155.230083 145.740426, 113.999059 112.652969)

LINESTRING (155.230083 145.740426, 114.766166 105.848709)

LINESTRING (114.025002 170.631346, 140.440380 140.593045)

LINESTRING (114.025002 170.631346, 145.660325 127.659278)

LINESTRING (114.025002 170.631346, 143.498918 129.527950)

LINESTRING (114.025002 170.631346, 129.321652 118.357780)

LINESTRING (114.025002 170.631346, 107.533979 158.024471)

LINESTRING (114.025002 170.631346, 168.579466 149.276132)

LINESTRING (114.025002 170.631346, 147.705721 100.934400)

LINESTRING (114.025002 170.631346, 111.935691 131.899415)

LINESTRING (114.025002 170.631346, 169.373109 136.128118)

LINESTRING (114.025002 170.631346, 165.859865 171.100401)

LINESTRING (114.025002 170.631346, 101.015182 116.963469)

LINESTRING (114.025002 170.631346, 113.999059 112.652969)

LINESTRING (114.025002 170.631346, 103.228055 172.185264)

LINESTRING (170.376451 125.989491, 140.440380 140.593045)

LINESTRING (170.376451 125.989491, 145.660325 127.659278)

LINESTRING (170.376451 125.989491, 107.533979 158.024471)

LINESTRING (170.376451 125.989491, 124.871409 176.211526)

LINESTRING (170.376451 125.989491, 141.111219 167.627038)

LINESTRING (170.376451 125.989491, 174.548799 105.035580)

LINESTRING (170.376451 125.989491, 113.999059 112.652969)

LINESTRING (170.376451 125.989491, 103.228055 172.185264)

LINESTRING (170.376451 125.989491, 154.946213 106.090716)

LINESTRING (122.504173 138.941135, 143.498918 129.527950)

LINESTRING (122.504173 138.941135, 132.933294 102.212773)

LINESTRING (122.504173 138.941135, 127.745320 119.217989)

LINESTRING (122.504173 138.941135, 131.523234 173.114063)

LINESTRING (122.504173 138.941135, 168.579466 149.276132)

LINESTRING (122.504173 138.941135, 111.935691 131.899415)

LINESTRING (122.504173 138.941135, 169.373109 136.128118)

LINESTRING (122.504173 138.941135, 165.859865 171.100401)

LINESTRING (122.504173 138.941135, 101.015182 116.963469)

LINESTRING (122.504173 138.941135, 103.228055 172.185264)

LINESTRING (122.504173 138.941135, 101.908915 149.500532)

LINESTRING (140.440380 140.593045, 107.533979 158.024471)

LINESTRING (140.440380 140.593045, 131.523234 173.114063)

LINESTRING (140.440380 140.593045, 124.324799 147.864188)

LINESTRING (140.440380 140.593045, 168.579466 149.276132)

LINESTRING (140.440380 140.593045, 174.548799 105.035580)

LINESTRING (140.440380 140.593045, 111.935691 131.899415)

LINESTRING (140.440380 140.593045, 169.373109 136.128118)

LINESTRING (140.440380 140.593045, 165.859865 171.100401)

LINESTRING (140.440380 140.593045, 113.999059 112.652969)

LINESTRING (140.440380 140.593045, 119.797482 152.471266)

LINESTRING (140.440380 140.593045, 154.946213 106.090716)

LINESTRING (140.440380 140.593045, 114.766166 105.848709)

LINESTRING (145.660325 127.659278, 107.533979 158.024471)

LINESTRING (145.660325 127.659278, 131.523234 173.114063)

LINESTRING (145.660325 127.659278, 141.111219 167.627038)

LINESTRING (145.660325 127.659278, 111.935691 131.899415)

LINESTRING (145.660325 127.659278, 165.859865 171.100401)

LINESTRING (145.660325 127.659278, 101.015182 116.963469)

LINESTRING (143.498918 129.527950, 129.321652 118.357780)

LINESTRING (143.498918 129.527950, 124.871409 176.211526)

LINESTRING (143.498918 129.527950, 131.523234 173.114063)

LINESTRING (143.498918 129.527950, 128.304298 155.465745)

LINESTRING (143.498918 129.527950, 124.324799 147.864188)

LINESTRING (143.498918 129.527950, 174.548799 105.035580)

LINESTRING (143.498918 129.527950, 165.859865 171.100401)

LINESTRING (143.498918 129.527950, 113.999059 112.652969)

LINESTRING (143.498918 129.527950, 103.228055 172.185264)

LINESTRING (143.498918 129.527950, 119.797482 152.471266)

LINESTRING (143.498918 129.527950, 114.766166 105.848709)

LINESTRING (132.933294 102.212773, 107.533979 158.024471)

LINESTRING (132.933294 102.212773, 124.871409 176.211526)

LINESTRING (132.933294 102.212773, 128.304298 155.465745)

LINESTRING (132.933294 102.212773, 174.548799 105.035580)

LINESTRING (132.933294 102.212773, 111.935691 131.899415)

LINESTRING (132.933294 102.212773, 169.373109 136.128118)

LINESTRING (132.933294 102.212773, 101.015182 116.963469)

LINESTRING (132.933294 102.212773, 101.908915 149.500532)

LINESTRING (132.933294 102.212773, 154.946213 106.090716)

LINESTRING (132.933294 102.212773, 114.766166 105.848709)

LINESTRING (127.745320 119.217989, 129.321652 118.357780)

LINESTRING (127.745320 119.217989, 128.304298 155.465745)

LINESTRING (127.745320 119.217989, 124.324799 147.864188)

LINESTRING (127.745320 119.217989, 174.548799 105.035580)

LINESTRING (127.745320 119.217989, 101.015182 116.963469)

LINESTRING (127.745320 119.217989, 113.999059 112.652969)

LINESTRING (127.745320 119.217989, 154.946213 106.090716)

LINESTRING (127.745320 119.217989, 114.766166 105.848709)

LINESTRING (129.321652 118.357780, 124.871409 176.211526)

LINESTRING (129.321652 118.357780, 141.111219 167.627038)

LINESTRING (129.321652 118.357780, 111.935691 131.899415)

LINESTRING (129.321652 118.357780, 101.015182 116.963469)

LINESTRING (129.321652 118.357780, 113.999059 112.652969)

LINESTRING (129.321652 118.357780, 119.797482 152.471266)

LINESTRING (107.533979 158.024471, 124.871409 176.211526)

LINESTRING (107.533979 158.024471, 141.111219 167.627038)

LINESTRING (107.533979 158.024471, 168.579466 149.276132)

LINESTRING (107.533979 158.024471, 174.548799 105.035580)

LINESTRING (107.533979 158.024471, 101.015182 116.963469)

LINESTRING (124.871409 176.211526, 131.523234 173.114063)

LINESTRING (124.871409 176.211526, 124.324799 147.864188)

LINESTRING (124.871409 176.211526, 141.111219 167.627038)

LINESTRING (124.871409 176.211526, 101.015182 116.963469)

LINESTRING (124.871409 176.211526, 113.999059 112.652969)

LINESTRING (124.871409 176.211526, 119.797482 152.471266)

LINESTRING (124.871409 176.211526, 101.908915 149.500532)

LINESTRING (124.871409 176.211526, 154.946213 106.090716)

LINESTRING (124.871409 176.211526, 114.766166 105.848709)

LINESTRING (131.523234 173.114063, 128.304298 155.465745)

LINESTRING (131.523234 173.114063, 124.324799 147.864188)

LINESTRING (131.523234 173.114063, 111.935691 131.899415)

LINESTRING (131.523234 173.114063, 169.373109 136.128118)

LINESTRING (131.523234 173.114063, 119.797482 152.471266)

LINESTRING (128.304298 155.465745, 141.111219 167.627038)

LINESTRING (128.304298 155.465745, 168.579466 149.276132)

LINESTRING (128.304298 155.465745, 165.859865 171.100401)

LINESTRING (128.304298 155.465745, 113.999059 112.652969)

LINESTRING (128.304298 155.465745, 119.797482 152.471266)

LINESTRING (128.304298 155.465745, 101.908915 149.500532)

LINESTRING (128.304298 155.465745, 154.946213 106.090716)

LINESTRING (128.304298 155.465745, 114.766166 105.848709)

LINESTRING (124.324799 147.864188, 111.935691 131.899415)

LINESTRING (124.324799 147.864188, 165.859865 171.100401)

LINESTRING (124.324799 147.864188, 101.015182 116.963469)

LINESTRING (124.324799 147.864188, 103.228055 172.185264)

LINESTRING (124.324799 147.864188, 114.766166 105.848709)

LINESTRING (141.111219 167.627038, 111.935691 131.899415)

LINESTRING (141.111219 167.627038, 103.228055 172.185264)

LINESTRING (168.579466 149.276132, 113.999059 112.652969)

LINESTRING (168.579466 149.276132, 103.228055 172.185264)

LINESTRING (168.579466 149.276132, 154.946213 106.090716)

LINESTRING (168.579466 149.276132, 114.766166 105.848709)

LINESTRING (147.705721 100.934400, 111.935691 131.899415)

LINESTRING (147.705721 100.934400, 114.766166 105.848709)

LINESTRING (174.548799 105.035580, 154.946213 106.090716)

LINESTRING (111.935691 131.899415, 113.999059 112.652969)

LINESTRING (169.373109 136.128118, 103.228055 172.185264)

LINESTRING (169.373109 136.128118, 101.908915 149.500532)

LINESTRING (169.373109 136.128118, 154.946213 106.090716)

LINESTRING (165.859865 171.100401, 103.228055 172.185264)

LINESTRING (165.859865 171.100401, 101.908915 149.500532)

LINESTRING (101.015182 116.963469, 103.228055 172.185264)

LINESTRING (101.015182 116.963469, 101.908915 149.500532)

LINESTRING (101.015182 116.963469, 154.946213 106.090716)

LINESTRING (113.999059 112.652969, 119.797482 152.471266)

LINESTRING (103.228055 172.185264, 154.946213 106.090716)

LINESTRING (101.908915 149.500532, 154.946213 106.090716)

LINESTRING (101.908915 149.500532, 114.766166 105.848709)

LINESTRING (154.946213 106.090716, 114.766166 105.848709)

LINESTRING (492.329727 177.251980, 485.123744 149.011232)

LINESTRING (492.329727 177.251980, 486.357975 100.214870)

LINESTRING (492.329727 177.251980, 461.006339 132.610536)

LINESTRING (492.329727 177.251980, 470.920100 111.843901)

LINESTRING (492.329727 177.251980, 506.113666 139.659447)

LINESTRING (492.329727 177.251980, 462.387646 163.882604)

LINESTRING (492.329727 177.251980, 529.760263 129.081198)

LINESTRING (492.329727 177.251980, 514.381808 101.975513)

LINESTRING (492.329727 177.251980, 495.669821 165.083416)

LINESTRING (492.329727 177.251980, 453.213036 154.991223)

LINESTRING (492.329727 177.251980, 517.688324 178.472069)

LINESTRING (492.329727 177.251980, 457.491945 147.975234)

LINESTRING (491.053246 156.017316, 455.773392 169.968475)

LINESTRING (491.053246 156.017316, 494.685653 111.460147)

LINESTRING (491.053246 156.017316, 520.115300 111.116484)

LINESTRING (491.053246 156.017316, 461.006339 132.610536)

LINESTRING (491.053246 156.017316, 470.920100 111.843901)

LINESTRING (491.053246 156.017316, 459.699849 164.411036)

LINESTRING (491.053246 156.017316, 506.113666 139.659447)

LINESTRING (491.053246 156.017316, 505.580759 101.117535)

LINESTRING (491.053246 156.017316, 508.495093 147.744153)

LINESTRING (491.053246 156.017316, 529.760263 129.081198)

LINESTRING (491.053246 156.017316, 483.716628 165.119677)

LINESTRING (491.053246 156.017316, 495.669821 165.083416)

LINESTRING (491.053246 156.017316, 486.554400 170.003775)

LINESTRING (491.053246 156.017316, 457.491945 147.975234)

LINESTRING (491.053246 156.017316, 469.363856 158.490003)

LINESTRING (468.384499 179.268082, 486.357975 100.214870)

LINESTRING (468.384499 179.268082, 455.773392 169.968475)

LINESTRING (468.384499 179.268082, 504.739063 131.686042)

LINESTRING (468.384499 179.268082, 518.128488 107.762457)

LINESTRING (468.384499 179.268082, 503.059222 149.581185)

LINESTRING (468.384499 179.268082, 477.222453 126.716212)

LINESTRING (468.384499 179.268082, 460.079802 148.532329)

LINESTRING (468.384499 179.268082, 461.006339 132.610536)

LINESTRING (468.384499 179.268082, 470.920100 111.843901)

LINESTRING (468.384499 179.268082, 459.699849 164.411036)

LINESTRING (468.384499 179.268082, 484.937716 108.540061)

LINESTRING (468.384499 179.268082, 475.191091 105.634734)

LINESTRING (468.384499 179.268082, 489.202513 151.194790)

LINESTRING (468.384499 179.268082, 482.722756 160.177396)

LINESTRING (468.384499 179.268082, 508.495093 147.744153)

LINESTRING (468.384499 179.268082, 529.760263 129.081198)

LINESTRING (468.384499 179.268082, 514.381808 101.975513)

LINESTRING (468.384499 179.268082, 495.669821 165.083416)

LINESTRING (468.384499 179.268082, 486.554400 170.003775)

LINESTRING (468.384499 179.268082, 469.363856 158.490003)

LINESTRING (485.123744 149.011232, 486.357975 100.214870)

LINESTRING (485.123744 149.011232, 504.739063 131.686042)

LINESTRING (485.123744 149.011232, 518.128488 107.762457)

LINESTRING (485.123744 149.011232, 516.236410 140.687088)

LINESTRING (485.123744 149.011232, 520.115300 111.116484)

LINESTRING (485.123744 149.011232, 477.222453 126.716212)

LINESTRING (485.123744 149.011232, 460.079802 148.532329)

LINESTRING (485.123744 149.011232, 470.920100 111.843901)

LINESTRING (485.123744 149.011232, 506.113666 139.659447)

LINESTRING (485.123744 149.011232, 506.566323 120.302958)

LINESTRING (485.123744 149.011232, 489.202513 151.194790)

LINESTRING (485.123744 149.011232, 462.387646 163.882604)

LINESTRING (485.123744 149.011232, 482.722756 160.177396)

LINESTRING (485.123744 149.011232, 505.580759 101.117535)

LINESTRING (485.123744 149.011232, 529.760263 129.081198)

LINESTRING (485.123744 149.011232, 483.716628 165.119677)

LINESTRING (485.123744 149.011232, 514.381808 101.975513)

LINESTRING (485.123744 149.011232, 495.669821 165.083416)

LINESTRING (485.123744 149.011232, 517.688324 178.472069)

LINESTRING (485.123744 149.011232, 457.491945 147.975234)

LINESTRING (486.357975 100.214870, 455.773392 169.968475)

LINESTRING (486.357975 100.214870, 504.739063 131.686042)

LINESTRING (486.357975 100.214870, 518.128488 107.762457)

LINESTRING (486.357975 100.214870, 516.236410 140.687088)

LINESTRING (486.357975 100.214870, 503.059222 149.581185)

LINESTRING (486.357975 100.214870, 461.006339 132.610536)

LINESTRING (486.357975 100.214870, 470.920100 111.843901)

LINESTRING (486.357975 100.214870, 506.566323 120.302958)

LINESTRING (486.357975 100.214870, 462.387646 163.882604)

LINESTRING (486.357975 100.214870, 482.722756 160.177396)

LINESTRING (486.357975 100.214870, 508.495093 147.744153)

LINESTRING (486.357975 100.214870, 495.669821 165.083416)

LINESTRING (486.357975 100.214870, 453.213036 154.991223)

LINESTRING (486.357975 100.214870, 469.363856 158.490003)

LINESTRING (455.773392 169.968475, 520.115300 111.116484)

LINESTRING (455.773392 169.968475, 477.222453 126.716212)

LINESTRING (455.773392 169.968475, 503.430282 112.131968)

LINESTRING (455.773392 169.968475, 470.920100 111.843901)

LINESTRING (455.773392 169.968475, 489.202513 151.194790)

LINESTRING (455.773392 169.968475, 508.495093 147.744153)

LINESTRING (455.773392 169.968475, 525.692163 167.158192)

LINESTRING (455.773392 169.968475, 495.669821 165.083416)

LINESTRING (455.773392 169.968475, 453.213036 154.991223)

LINESTRING (455.773392 169.968475, 482.557857 119.406521)

LINESTRING (455.773392 169.968475, 517.688324 178.472069)

LINESTRING (455.773392 169.968475, 483.142861 111.207743)

LINESTRING (455.773392 169.968475, 486.554400 170.003775)

LINESTRING (455.773392 169.968475, 470.468658 179.990942)

LINESTRING (504.739063 131.686042, 518.128488 107.762457)

LINESTRING (504.739063 131.686042, 516.236410 140.687088)

LINESTRING (504.739063 131.686042, 503.059222 149.581185)

LINESTRING (504.739063 131.686042, 503.430282 112.131968)

LINESTRING (504.739063 131.686042, 470.920100 111.843901)

LINESTRING (504.739063 131.686042, 484.937716 108.540061)

LINESTRING (504.739063 131.686042, 475.191091 105.634734)

LINESTRING (504.739063 131.686042, 462.387646 163.882604)

LINESTRING (504.739063 131.686042, 482.722756 160.177396)

LINESTRING (504.739063 131.686042, 505.580759 101.117535)

LINESTRING (504.739063 131.686042, 508.495093 147.744153)

LINESTRING (504.739063 131.686042, 529.760263 129.081198)

LINESTRING (504.739063 131.686042, 469.363856 158.490003)

LINESTRING (518.128488 107.762457, 477.222453 126.716212)

LINESTRING (518.128488 107.762457, 506.113666 139.659447)

LINESTRING (518.128488 107.762457, 484.937716 108.540061)

LINESTRING (518.128488 107.762457, 475.191091 105.634734)

LINESTRING (518.128488 107.762457, 489.202513 151.194790)

LINESTRING (518.128488 107.762457, 482.722756 160.177396)

LINESTRING (518.128488 107.762457, 508.495093 147.744153)

LINESTRING (518.128488 107.762457, 529.760263 129.081198)

LINESTRING (518.128488 107.762457, 514.381808 101.975513)

LINESTRING (518.128488 107.762457, 517.688324 178.472069)

LINESTRING (518.128488 107.762457, 486.554400 170.003775)

LINESTRING (518.128488 107.762457, 469.363856 158.490003)

LINESTRING (516.236410 140.687088, 503.059222 149.581185)

LINESTRING (516.236410 140.687088, 477.222453 126.716212)

LINESTRING (516.236410 140.687088, 460.079802 148.532329)

LINESTRING (516.236410 140.687088, 470.920100 111.843901)

LINESTRING (516.236410 140.687088, 459.699849 164.411036)

LINESTRING (516.236410 140.687088, 506.113666 139.659447)

LINESTRING (516.236410 140.687088, 484.937716 108.540061)

LINESTRING (516.236410 140.687088, 489.202513 151.194790)

LINESTRING (516.236410 140.687088, 508.495093 147.744153)

LINESTRING (516.236410 140.687088, 483.716628 165.119677)

LINESTRING (516.236410 140.687088, 482.557857 119.406521)

LINESTRING (516.236410 140.687088, 486.554400 170.003775)

LINESTRING (516.236410 140.687088, 470.468658 179.990942)

LINESTRING (503.059222 149.581185, 460.079802 148.532329)

LINESTRING (503.059222 149.581185, 503.430282 112.131968)

LINESTRING (503.059222 149.581185, 475.191091 105.634734)

LINESTRING (503.059222 149.581185, 489.202513 151.194790)

LINESTRING (503.059222 149.581185, 482.722756 160.177396)

LINESTRING (503.059222 149.581185, 505.580759 101.117535)

LINESTRING (503.059222 149.581185, 529.760263 129.081198)

LINESTRING (503.059222 149.581185, 483.716628 165.119677)

LINESTRING (503.059222 149.581185, 495.669821 165.083416)

LINESTRING (503.059222 149.581185, 470.468658 179.990942)

LINESTRING (494.685653 111.460147, 477.222453 126.716212)

LINESTRING (494.685653 111.460147, 460.079802 148.532329)

LINESTRING (494.685653 111.460147, 461.006339 132.610536)

LINESTRING (494.685653 111.460147, 506.566323 120.302958)

LINESTRING (494.685653 111.460147, 475.191091 105.634734)

LINESTRING (494.685653 111.460147, 462.387646 163.882604)

LINESTRING (494.685653 111.460147, 482.722756 160.177396)

LINESTRING (494.685653 111.460147, 529.760263 129.081198)

LINESTRING (494.685653 111.460147, 514.381808 101.975513)

LINESTRING (494.685653 111.460147, 453.213036 154.991223)

LINESTRING (494.685653 111.460147, 482.557857 119.406521)

LINESTRING (494.685653 111.460147, 483.142861 111.207743)

LINESTRING (494.685653 111.460147, 469.363856 158.490003)

LINESTRING (494.685653 111.460147, 470.468658 179.990942)

LINESTRING (520.115300 111.116484, 459.699849 164.411036)

LINESTRING (520.115300 111.116484, 475.191091 105.634734)

LINESTRING (520.115300 111.116484, 482.722756 160.177396)

LINESTRING (520.115300 111.116484, 508.495093 147.744153)

LINESTRING (520.115300 111.116484, 483.716628 165.119677)

LINESTRING (520.115300 111.116484, 525.692163 167.158192)

LINESTRING (520.115300 111.116484, 453.213036 154.991223)

LINESTRING (520.115300 111.116484, 517.688324 178.472069)

LINESTRING (520.115300 111.116484, 483.142861 111.207743)

LINESTRING (520.115300 111.116484, 486.554400 170.003775)

LINESTRING (520.115300 111.116484, 470.468658 179.990942)

LINESTRING (477.222453 126.716212, 460.079802 148.532329)

LINESTRING (477.222453 126.716212, 470.920100 111.843901)

LINESTRING (477.222453 126.716212, 459.699849 164.411036)

LINESTRING (477.222453 126.716212, 484.937716 108.540061)

LINESTRING (477.222453 126.716212, 475.191091 105.634734)

LINESTRING (477.222453 126.716212, 489.202513 151.194790)

LINESTRING (477.222453 126.716212, 462.387646 163.882604)

LINESTRING (477.222453 126.716212, 482.722756 160.177396)

LINESTRING (477.222453 126.716212, 508.495093 147.744153)

LINESTRING (477.222453 126.716212, 529.760263 129.081198)

LINESTRING (477.222453 126.716212, 514.381808 101.975513)

LINESTRING (477.222453 126.716212, 483.142861 111.207743)

LINESTRING (477.222453 126.716212, 457.491945 147.975234)

LINESTRING (477.222453 126.716212, 469.363856 158.490003)

LINESTRING (460.079802 148.532329, 470.920100 111.843901)

LINESTRING (460.079802 148.532329, 459.699849 164.411036)

LINESTRING (460.079802 148.532329, 506.113666 139.659447)

LINESTRING (460.079802 148.532329, 506.566323 120.302958)

LINESTRING (460.079802 148.532329, 484.937716 108.540061)

LINESTRING (460.079802 148.532329, 482.722756 160.177396)

LINESTRING (460.079802 148.532329, 483.716628 165.119677)

LINESTRING (460.079802 148.532329, 495.669821 165.083416)

LINESTRING (460.079802 148.532329, 486.554400 170.003775)

LINESTRING (460.079802 148.532329, 469.363856 158.490003)

LINESTRING (461.006339 132.610536, 470.920100 111.843901)

LINESTRING (461.006339 132.610536, 475.191091 105.634734)

LINESTRING (461.006339 132.610536, 462.387646 163.882604)

LINESTRING (461.006339 132.610536, 482.722756 160.177396)

LINESTRING (461.006339 132.610536, 508.495093 147.744153)

LINESTRING (461.006339 132.610536, 529.760263 129.081198)

LINESTRING (461.006339 132.610536, 514.381808 101.975513)

LINESTRING (461.006339 132.610536, 525.692163 167.158192)

LINESTRING (461.006339 132.610536, 517.688324 178.472069)

LINESTRING (461.006339 132.610536, 470.468658 179.990942)

LINESTRING (503.430282 112.131968, 470.920100 111.843901)

LINESTRING (503.430282 112.131968, 506.566323 120.302958)

LINESTRING (503.430282 112.131968, 482.722756 160.177396)

LINESTRING (503.430282 112.131968, 529.760263 129.081198)

LINESTRING (503.430282 112.131968, 483.716628 165.119677)

LINESTRING (503.430282 112.131968, 514.381808 101.975513)

LINESTRING (503.430282 112.131968, 525.692163 167.158192)

LINESTRING (503.430282 112.131968, 495.669821 165.083416)

LINESTRING (503.430282 112.131968, 453.213036 154.991223)

LINESTRING (503.430282 112.131968, 517.688324 178.472069)

LINESTRING (503.430282 112.131968, 486.554400 170.003775)

LINESTRING (503.430282 112.131968, 457.491945 147.975234)

LINESTRING (503.430282 112.131968, 469.363856 158.490003)

LINESTRING (470.920100 111.843901, 459.699849 164.411036)

LINESTRING (470.920100 111.843901, 462.387646 163.882604)

LINESTRING (470.920100 111.843901, 482.722756 160.177396)

LINESTRING (470.920100 111.843901, 508.495093 147.744153)

LINESTRING (470.920100 111.843901, 529.760263 129.081198)

LINESTRING (470.920100 111.843901, 483.142861 111.207743)

LINESTRING (470.920100 111.843901, 486.554400 170.003775)

LINESTRING (470.920100 111.843901, 457.491945 147.975234)

LINESTRING (470.920100 111.843901, 469.363856 158.490003)

LINESTRING (470.920100 111.843901, 470.468658 179.990942)

LINESTRING (459.699849 164.411036, 475.191091 105.634734)

LINESTRING (459.699849 164.411036, 462.387646 163.882604)

LINESTRING (459.699849 164.411036, 482.722756 160.177396)

LINESTRING (459.699849 164.411036, 529.760263 129.081198)

LINESTRING (459.699849 164.411036, 525.692163 167.158192)

LINESTRING (459.699849 164.411036, 453.213036 154.991223)

LINESTRING (459.699849 164.411036, 482.557857 119.406521)

LINESTRING (459.699849 164.411036, 457.491945 147.975234)

LINESTRING (459.699849 164.411036, 469.363856 158.490003)

LINESTRING (459.699849 164.411036, 470.468658 179.990942)

LINESTRING (506.113666 139.659447, 506.566323 120.302958)

LINESTRING (506.113666 139.659447, 475.191091 105.634734)

LINESTRING (506.113666 139.659447, 462.387646 163.882604)

LINESTRING (506.113666 139.659447, 508.495093 147.744153)

LINESTRING (506.113666 139.659447, 514.381808 101.975513)

LINESTRING (506.113666 139.659447, 525.692163 167.158192)

LINESTRING (506.113666 139.659447, 457.491945 147.975234)

LINESTRING (506.113666 139.659447, 469.363856 158.490003)

LINESTRING (506.566323 120.302958, 484.937716 108.540061)

LINESTRING (506.566323 120.302958, 475.191091 105.634734)

LINESTRING (506.566323 120.302958, 489.202513 151.194790)

LINESTRING (506.566323 120.302958, 508.495093 147.744153)

LINESTRING (506.566323 120.302958, 514.381808 101.975513)

LINESTRING (506.566323 120.302958, 525.692163 167.158192)

LINESTRING (506.566323 120.302958, 482.557857 119.406521)

LINESTRING (484.937716 108.540061, 475.191091 105.634734)

LINESTRING (484.937716 108.540061, 462.387646 163.882604)

LINESTRING (484.937716 108.540061, 508.495093 147.744153)

LINESTRING (484.937716 108.540061, 529.760263 129.081198)

LINESTRING (484.937716 108.540061, 483.716628 165.119677)

LINESTRING (484.937716 108.540061, 495.669821 165.083416)

LINESTRING (484.937716 108.540061, 486.554400 170.003775)

LINESTRING (475.191091 105.634734, 462.387646 163.882604)

LINESTRING (475.191091 105.634734, 508.495093 147.744153)

LINESTRING (475.191091 105.634734, 525.692163 167.158192)

LINESTRING (475.191091 105.634734, 482.557857 119.406521)

LINESTRING (489.202513 151.194790, 462.387646 163.882604)

LINESTRING (489.202513 151.194790, 482.722756 160.177396)

LINESTRING (489.202513 151.194790, 483.716628 165.119677)

LINESTRING (489.202513 151.194790, 453.213036 154.991223)

LINESTRING (489.202513 151.194790, 517.688324 178.472069)

LINESTRING (489.202513 151.194790, 457.491945 147.975234)

LINESTRING (489.202513 151.194790, 469.363856 158.490003)

LINESTRING (462.387646 163.882604, 482.722756 160.177396)

LINESTRING (462.387646 163.882604, 514.381808 101.975513)

LINESTRING (462.387646 163.882604, 453.213036 154.991223)

LINESTRING (462.387646 163.882604, 486.554400 170.003775)

LINESTRING (482.722756 160.177396, 508.495093 147.744153)

LINESTRING (482.722756 160.177396, 525.692163 167.158192)

LINESTRING (482.722756 160.177396, 495.669821 165.083416)

LINESTRING (482.722756 160.177396, 482.557857 119.406521)

LINESTRING (482.722756 160.177396, 486.554400 170.003775)

LINESTRING (482.722756 160.177396, 457.491945 147.975234)

LINESTRING (482.722756 160.177396, 469.363856 158.490003)

LINESTRING (505.580759 101.117535, 529.760263 129.081198)

LINESTRING (505.580759 101.117535, 483.716628 165.119677)

LINESTRING (505.580759 101.117535, 525.692163 167.158192)

LINESTRING (505.580759 101.117535, 517.688324 178.472069)

LINESTRING (505.580759 101.117535, 483.142861 111.207743)

LINESTRING (505.580759 101.117535, 486.554400 170.003775)

LINESTRING (505.580759 101.117535, 469.363856 158.490003)

LINESTRING (508.495093 147.744153, 514.381808 101.975513)

LINESTRING (508.495093 147.744153, 453.213036 154.991223)

LINESTRING (508.495093 147.744153, 517.688324 178.472069)

LINESTRING (508.495093 147.744153, 486.554400 170.003775)

LINESTRING (508.495093 147.744153, 469.363856 158.490003)

LINESTRING (529.760263 129.081198, 514.381808 101.975513)

LINESTRING (529.760263 129.081198, 495.669821 165.083416)

LINESTRING (529.760263 129.081198, 453.213036 154.991223)

LINESTRING (529.760263 129.081198, 457.491945 147.975234)

LINESTRING (529.760263 129.081198, 469.363856 158.490003)

LINESTRING (483.716628 165.119677, 495.669821 165.083416)

LINESTRING (483.716628 165.119677, 453.213036 154.991223)

LINESTRING (483.716628 165.119677, 482.557857 119.406521)

LINESTRING (483.716628 165.119677, 517.688324 178.472069)

LINESTRING (483.716628 165.119677, 457.491945 147.975234)

LINESTRING (514.381808 101.975513, 453.213036 154.991223)

LINESTRING (514.381808 101.975513, 486.554400 170.003775)

LINESTRING (514.381808 101.975513, 470.468658 179.990942)

LINESTRING (525.692163 167.158192, 457.491945 147.975234)

LINESTRING (525.692163 167.158192, 470.468658 179.990942)

LINESTRING (495.669821 165.083416, 483.142861 111.207743)

LINESTRING (495.669821 165.083416, 486.554400 170.003775)

LINESTRING (495.669821 165.083416, 469.363856 158.490003)

LINESTRING (495.669821 165.083416, 470.468658 179.990942)

LINESTRING (453.213036 154.991223, 482.557857 119.406521)

LINESTRING (453.213036 154.991223, 517.688324 178.472069)

LINESTRING (453.213036 154.991223, 469.363856 158.490003)

LINESTRING (482.557857 119.406521, 457.491945 147.975234)

LINESTRING (517.688324 178.472069, 483.142861 111.207743)

LINESTRING (517.688324 178.472069, 486.554400 170.003775)

LINESTRING (517.688324 178.472069, 457.491945 147.975234)

LINESTRING (517.688324 178.472069, 469.363856 158.490003)

LINESTRING (483.142861 111.207743, 457.491945 147.975234)

LINESTRING (483.142861 111.207743, 469.363856 158.490003)

LINESTRING (483.142861 111.207743, 470.468658 179.990942)

LINESTRING (486.554400 170.003775, 457.491945 147.975234)

LINESTRING (486.554400 170.003775, 470.468658 179.990942)

LINESTRING (457.491945 147.975234, 469.363856 158.490003)

LINESTRING (457.491945 147.975234, 470.468658 179.990942)

LINESTRING (469.363856 158.490003, 470.468658 179.990942)

LINESTRING (811.599476 172.390142, 811.168368 137.974610)

LINESTRING (811.599476 172.390142, 802.406059 138.642558)

LINESTRING (811.599476 172.390142, 878.209871 159.023698)

LINESTRING (811.599476 172.390142, 857.049464 145.300507)

LINESTRING (811.599476 172.390142, 823.505632 135.936409)

LINESTRING (811.599476 172.390142, 878.512770 144.599110)

LINESTRING (811.599476 172.390142, 836.712120 144.384665)

LINESTRING (811.599476 172.390142, 819.793360 119.290568)

LINESTRING (811.599476 172.390142, 812.972386 128.150878)

LINESTRING (811.599476 172.390142, 864.476278 155.561251)

LINESTRING (811.599476 172.390142, 833.721326 148.156121)

LINESTRING (811.599476 172.390142, 846.296263 121.275212)

LINESTRING (811.599476 172.390142, 842.855578 117.178967)

LINESTRING (811.599476 172.390142, 816.475354 139.733866)

LINESTRING (811.599476 172.390142, 846.457981 110.736692)

LINESTRING (818.674848 103.661141, 811.168368 137.974610)

LINESTRING (818.674848 103.661141, 831.406644 113.374500)

LINESTRING (818.674848 103.661141, 802.406059 138.642558)

LINESTRING (818.674848 103.661141, 878.209871 159.023698)

LINESTRING (818.674848 103.661141, 834.345829 149.884739)

LINESTRING (818.674848 103.661141, 857.049464 145.300507)

LINESTRING (818.674848 103.661141, 856.750455 145.776920)

LINESTRING (818.674848 103.661141, 823.505632 135.936409)

LINESTRING (818.674848 103.661141, 878.512770 144.599110)

LINESTRING (818.674848 103.661141, 810.877174 171.130100)

LINESTRING (818.674848 103.661141, 806.318064 155.069153)

LINESTRING (818.674848 103.661141, 812.972386 128.150878)

LINESTRING (818.674848 103.661141, 844.961996 140.507056)

LINESTRING (818.674848 103.661141, 847.989285 129.826713)

LINESTRING (818.674848 103.661141, 833.721326 148.156121)

LINESTRING (818.674848 103.661141, 846.296263 121.275212)

LINESTRING (818.674848 103.661141, 856.985683 162.763001)

LINESTRING (818.674848 103.661141, 816.441015 178.958572)

LINESTRING (818.674848 103.661141, 846.457981 110.736692)

LINESTRING (801.978115 109.019539, 878.209871 159.023698)

LINESTRING (801.978115 109.019539, 834.345829 149.884739)

LINESTRING (801.978115 109.019539, 829.623583 104.254495)

LINESTRING (801.978115 109.019539, 857.049464 145.300507)

LINESTRING (801.978115 109.019539, 804.024712 164.849482)

LINESTRING (801.978115 109.019539, 801.138913 118.227024)

LINESTRING (801.978115 109.019539, 878.512770 144.599110)

LINESTRING (801.978115 109.019539, 812.972386 128.150878)

LINESTRING (801.978115 109.019539, 879.536429 136.862611)

LINESTRING (801.978115 109.019539, 867.129892 146.710440)

LINESTRING (801.978115 109.019539, 847.989285 129.826713)

LINESTRING (801.978115 109.019539, 879.529817 147.705621)

LINESTRING (801.978115 109.019539, 802.603225 139.959604)

LINESTRING (801.978115 109.019539, 809.879008 149.865142)

LINESTRING (822.696578 116.613137, 856.205379 169.130604)

LINESTRING (822.696578 116.613137, 811.168368 137.974610)

LINESTRING (822.696578 116.613137, 802.406059 138.642558)

LINESTRING (822.696578 116.613137, 878.209871 159.023698)

LINESTRING (822.696578 116.613137, 834.345829 149.884739)

LINESTRING (822.696578 116.613137, 823.505632 135.936409)

LINESTRING (822.696578 116.613137, 801.138913 118.227024)

LINESTRING (822.696578 116.613137, 836.712120 144.384665)

LINESTRING (822.696578 116.613137, 810.877174 171.130100)

LINESTRING (822.696578 116.613137, 819.793360 119.290568)

LINESTRING (822.696578 116.613137, 847.989285 129.826713)

LINESTRING (822.696578 116.613137, 864.476278 155.561251)

LINESTRING (822.696578 116.613137, 856.985683 162.763001)

LINESTRING (822.696578 116.613137, 816.441015 178.958572)

LINESTRING (822.696578 116.613137, 802.603225 139.959604)

LINESTRING (856.205379 169.130604, 831.406644 113.374500)

LINESTRING (856.205379 169.130604, 834.345829 149.884739)

LINESTRING (856.205379 169.130604, 829.623583 104.254495)

LINESTRING (856.205379 169.130604, 804.024712 164.849482)

LINESTRING (856.205379 169.130604, 823.505632 135.936409)

LINESTRING (856.205379 169.130604, 878.512770 144.599110)

LINESTRING (856.205379 169.130604, 806.318064 155.069153)

LINESTRING (856.205379 169.130604, 867.129892 146.710440)

LINESTRING (856.205379 169.130604, 846.296263 121.275212)

LINESTRING (856.205379 169.130604, 845.883121 102.277235)

LINESTRING (856.205379 169.130604, 856.985683 162.763001)

LINESTRING (856.205379 169.130604, 816.441015 178.958572)

LINESTRING (856.205379 169.130604, 816.475354 139.733866)

LINESTRING (811.168368 137.974610, 802.406059 138.642558)

LINESTRING (811.168368 137.974610, 878.209871 159.023698)

LINESTRING (811.168368 137.974610, 804.024712 164.849482)

LINESTRING (811.168368 137.974610, 823.505632 135.936409)

LINESTRING (811.168368 137.974610, 878.512770 144.599110)

LINESTRING (811.168368 137.974610, 806.318064 155.069153)

LINESTRING (811.168368 137.974610, 819.793360 119.290568)

LINESTRING (811.168368 137.974610, 812.972386 128.150878)

LINESTRING (811.168368 137.974610, 847.989285 129.826713)

LINESTRING (811.168368 137.974610, 833.721326 148.156121)

LINESTRING (811.168368 137.974610, 841.202359 139.719126)

LINESTRING (811.168368 137.974610, 846.296263 121.275212)

LINESTRING (811.168368 137.974610, 842.855578 117.178967)

LINESTRING (811.168368 137.974610, 809.879008 149.865142)

LINESTRING (811.168368 137.974610, 846.457981 110.736692)

LINESTRING (831.406644 113.374500, 819.793360 119.290568)

LINESTRING (831.406644 113.374500, 867.129892 146.710440)

LINESTRING (831.406644 113.374500, 844.961996 140.507056)

LINESTRING (831.406644 113.374500, 833.721326 148.156121)

LINESTRING (831.406644 113.374500, 846.296263 121.275212)

LINESTRING (831.406644 113.374500, 856.985683 162.763001)

LINESTRING (802.406059 138.642558, 834.345829 149.884739)

LINESTRING (802.406059 138.642558, 857.049464 145.300507)

LINESTRING (802.406059 138.642558, 823.505632 135.936409)

LINESTRING (802.406059 138.642558, 878.512770 144.599110)

LINESTRING (802.406059 138.642558, 836.712120 144.384665)

LINESTRING (802.406059 138.642558, 819.793360 119.290568)

LINESTRING (802.406059 138.642558, 812.972386 128.150878)

LINESTRING (802.406059 138.642558, 879.536429 136.862611)

LINESTRING (802.406059 138.642558, 844.961996 140.507056)

LINESTRING (802.406059 138.642558, 847.989285 129.826713)

LINESTRING (802.406059 138.642558, 864.476278 155.561251)

LINESTRING (802.406059 138.642558, 833.721326 148.156121)

LINESTRING (802.406059 138.642558, 841.202359 139.719126)

LINESTRING (802.406059 138.642558, 879.529817 147.705621)

LINESTRING (802.406059 138.642558, 802.603225 139.959604)

LINESTRING (802.406059 138.642558, 846.457981 110.736692)

LINESTRING (878.209871 159.023698, 834.345829 149.884739)

LINESTRING (878.209871 159.023698, 804.024712 164.849482)

LINESTRING (878.209871 159.023698, 878.512770 144.599110)

LINESTRING (878.209871 159.023698, 810.877174 171.130100)

LINESTRING (878.209871 159.023698, 806.318064 155.069153)

LINESTRING (878.209871 159.023698, 867.129892 146.710440)

LINESTRING (878.209871 159.023698, 845.883121 102.277235)

LINESTRING (878.209871 159.023698, 856.985683 162.763001)

LINESTRING (878.209871 159.023698, 802.603225 139.959604)

LINESTRING (878.209871 159.023698, 816.475354 139.733866)

LINESTRING (878.209871 159.023698, 809.879008 149.865142)

LINESTRING (834.345829 149.884739, 804.024712 164.849482)

LINESTRING (834.345829 149.884739, 823.505632 135.936409)

LINESTRING (834.345829 149.884739, 810.877174 171.130100)

LINESTRING (834.345829 149.884739, 819.793360 119.290568)

LINESTRING (834.345829 149.884739, 812.972386 128.150878)

LINESTRING (834.345829 149.884739, 844.961996 140.507056)

LINESTRING (834.345829 149.884739, 847.989285 129.826713)

LINESTRING (834.345829 149.884739, 841.202359 139.719126)

LINESTRING (834.345829 149.884739, 846.296263 121.275212)

LINESTRING (834.345829 149.884739, 816.441015 178.958572)

LINESTRING (834.345829 149.884739, 816.475354 139.733866)

LINESTRING (834.345829 149.884739, 846.457981 110.736692)

LINESTRING (829.623583 104.254495, 878.512770 144.599110)

LINESTRING (829.623583 104.254495, 810.877174 171.130100)

LINESTRING (829.623583 104.254495, 806.318064 155.069153)

LINESTRING (829.623583 104.254495, 867.129892 146.710440)

LINESTRING (829.623583 104.254495, 844.961996 140.507056)

LINESTRING (829.623583 104.254495, 846.296263 121.275212)

LINESTRING (829.623583 104.254495, 845.883121 102.277235)

LINESTRING (829.623583 104.254495, 863.212679 137.686450)

LINESTRING (829.623583 104.254495, 802.603225 139.959604)

LINESTRING (829.623583 104.254495, 846.457981 110.736692)

LINESTRING (857.049464 145.300507, 856.750455 145.776920)

LINESTRING (857.049464 145.300507, 836.712120 144.384665)

LINESTRING (857.049464 145.300507, 819.793360 119.290568)

LINESTRING (857.049464 145.300507, 844.961996 140.507056)

LINESTRING (857.049464 145.300507, 833.721326 148.156121)

LINESTRING (857.049464 145.300507, 845.883121 102.277235)

LINESTRING (857.049464 145.300507, 863.212679 137.686450)

LINESTRING (857.049464 145.300507, 816.441015 178.958572)

LINESTRING (857.049464 145.300507, 809.879008 149.865142)

LINESTRING (857.049464 145.300507, 846.457981 110.736692)

LINESTRING (856.750455 145.776920, 823.505632 135.936409)

LINESTRING (856.750455 145.776920, 801.138913 118.227024)

LINESTRING (856.750455 145.776920, 878.512770 144.599110)

LINESTRING (856.750455 145.776920, 810.877174 171.130100)

LINESTRING (856.750455 145.776920, 819.793360 119.290568)

LINESTRING (856.750455 145.776920, 812.972386 128.150878)

LINESTRING (856.750455 145.776920, 879.536429 136.862611)

LINESTRING (856.750455 145.776920, 867.129892 146.710440)

LINESTRING (856.750455 145.776920, 833.721326 148.156121)

LINESTRING (856.750455 145.776920, 846.296263 121.275212)

LINESTRING (856.750455 145.776920, 845.883121 102.277235)

LINESTRING (856.750455 145.776920, 816.475354 139.733866)

LINESTRING (856.750455 145.776920, 809.879008 149.865142)

LINESTRING (804.024712 164.849482, 823.505632 135.936409)

LINESTRING (804.024712 164.849482, 801.138913 118.227024)

LINESTRING (804.024712 164.849482, 878.512770 144.599110)

LINESTRING (804.024712 164.849482, 819.793360 119.290568)

LINESTRING (804.024712 164.849482, 812.972386 128.150878)

LINESTRING (804.024712 164.849482, 867.129892 146.710440)

LINESTRING (804.024712 164.849482, 847.989285 129.826713)

LINESTRING (804.024712 164.849482, 864.476278 155.561251)

LINESTRING (804.024712 164.849482, 842.855578 117.178967)

LINESTRING (804.024712 164.849482, 856.985683 162.763001)

LINESTRING (804.024712 164.849482, 816.475354 139.733866)

LINESTRING (823.505632 135.936409, 801.138913 118.227024)

LINESTRING (823.505632 135.936409, 878.512770 144.599110)

LINESTRING (823.505632 135.936409, 836.712120 144.384665)

LINESTRING (823.505632 135.936409, 810.877174 171.130100)

LINESTRING (823.505632 135.936409, 879.536429 136.862611)

LINESTRING (823.505632 135.936409, 847.989285 129.826713)

LINESTRING (823.505632 135.936409, 864.476278 155.561251)

LINESTRING (823.505632 135.936409, 833.721326 148.156121)

LINESTRING (823.505632 135.936409, 845.883121 102.277235)

LINESTRING (823.505632 135.936409, 842.855578 117.178967)

LINESTRING (823.505632 135.936409, 802.603225 139.959604)

LINESTRING (823.505632 135.936409, 816.475354 139.733866)

LINESTRING (823.505632 135.936409, 846.457981 110.736692)

LINESTRING (801.138913 118.227024, 878.512770 144.599110)

LINESTRING (801.138913 118.227024, 836.712120 144.384665)

LINESTRING (801.138913 118.227024, 847.989285 129.826713)

LINESTRING (801.138913 118.227024, 842.855578 117.178967)

LINESTRING (801.138913 118.227024, 856.985683 162.763001)

LINESTRING (801.138913 118.227024, 816.441015 178.958572)

LINESTRING (801.138913 118.227024, 816.475354 139.733866)

LINESTRING (801.138913 118.227024, 846.457981 110.736692)

LINESTRING (878.512770 144.599110, 810.877174 171.130100)

LINESTRING (878.512770 144.599110, 879.536429 136.862611)

LINESTRING (878.512770 144.599110, 867.129892 146.710440)

LINESTRING (878.512770 144.599110, 833.721326 148.156121)

LINESTRING (878.512770 144.599110, 841.202359 139.719126)

LINESTRING (878.512770 144.599110, 846.296263 121.275212)

LINESTRING (878.512770 144.599110, 863.212679 137.686450)

LINESTRING (878.512770 144.599110, 856.985683 162.763001)

LINESTRING (878.512770 144.599110, 879.529817 147.705621)

LINESTRING (878.512770 144.599110, 802.603225 139.959604)

LINESTRING (836.712120 144.384665, 819.793360 119.290568)

LINESTRING (836.712120 144.384665, 812.972386 128.150878)

LINESTRING (836.712120 144.384665, 879.529817 147.705621)

LINESTRING (836.712120 144.384665, 802.603225 139.959604)

LINESTRING (810.877174 171.130100, 806.318064 155.069153)

LINESTRING (810.877174 171.130100, 819.793360 119.290568)

LINESTRING (810.877174 171.130100, 841.202359 139.719126)

LINESTRING (810.877174 171.130100, 846.296263 121.275212)

LINESTRING (810.877174 171.130100, 845.883121 102.277235)

LINESTRING (810.877174 171.130100, 879.529817 147.705621)

LINESTRING (810.877174 171.130100, 809.879008 149.865142)

LINESTRING (806.318064 155.069153, 812.972386 128.150878)

LINESTRING (806.318064 155.069153, 867.129892 146.710440)

LINESTRING (806.318064 155.069153, 844.961996 140.507056)

LINESTRING (806.318064 155.069153, 864.476278 155.561251)

LINESTRING (806.318064 155.069153, 863.212679 137.686450)

LINESTRING (806.318064 155.069153, 809.879008 149.865142)

LINESTRING (819.793360 119.290568, 867.129892 146.710440)

LINESTRING (819.793360 119.290568, 844.961996 140.507056)

LINESTRING (819.793360 119.290568, 833.721326 148.156121)

LINESTRING (819.793360 119.290568, 845.883121 102.277235)

LINESTRING (819.793360 119.290568, 842.855578 117.178967)

LINESTRING (819.793360 119.290568, 879.529817 147.705621)

LINESTRING (819.793360 119.290568, 802.603225 139.959604)

LINESTRING (819.793360 119.290568, 816.475354 139.733866)

LINESTRING (819.793360 119.290568, 846.457981 110.736692)

LINESTRING (812.972386 128.150878, 879.536429 136.862611)

LINESTRING (812.972386 128.150878, 844.961996 140.507056)

LINESTRING (812.972386 128.150878, 847.989285 129.826713)

LINESTRING (812.972386 128.150878, 833.721326 148.156121)

LINESTRING (812.972386 128.150878, 842.855578 117.178967)

LINESTRING (812.972386 128.150878, 863.212679 137.686450)

LINESTRING (812.972386 128.150878, 856.985683 162.763001)

LINESTRING (812.972386 128.150878, 879.529817 147.705621)

LINESTRING (812.972386 128.150878, 802.603225 139.959604)

LINESTRING (879.536429 136.862611, 867.129892 146.710440)

LINESTRING (879.536429 136.862611, 864.476278 155.561251)

LINESTRING (879.536429 136.862611, 841.202359 139.719126)

LINESTRING (879.536429 136.862611, 846.296263 121.275212)

LINESTRING (879.536429 136.862611, 845.883121 102.277235)

LINESTRING (879.536429 136.862611, 842.855578 117.178967)

LINESTRING (879.536429 136.862611, 879.529817 147.705621)

LINESTRING (879.536429 136.862611, 816.475354 139.733866)

LINESTRING (867.129892 146.710440, 844.961996 140.507056)

LINESTRING (867.129892 146.710440, 864.476278 155.561251)

LINESTRING (867.129892 146.710440, 833.721326 148.156121)

LINESTRING (867.129892 146.710440, 845.883121 102.277235)

LINESTRING (867.129892 146.710440, 863.212679 137.686450)

LINESTRING (867.129892 146.710440, 846.457981 110.736692)

LINESTRING (844.961996 140.507056, 845.883121 102.277235)

LINESTRING (844.961996 140.507056, 816.441015 178.958572)

LINESTRING (844.961996 140.507056, 802.603225 139.959604)

LINESTRING (844.961996 140.507056, 816.475354 139.733866)

LINESTRING (844.961996 140.507056, 809.879008 149.865142)

LINESTRING (847.989285 129.826713, 846.296263 121.275212)

LINESTRING (847.989285 129.826713, 845.883121 102.277235)

LINESTRING (847.989285 129.826713, 842.855578 117.178967)

LINESTRING (847.989285 129.826713, 863.212679 137.686450)

LINESTRING (847.989285 129.826713, 879.529817 147.705621)

LINESTRING (847.989285 129.826713, 846.457981 110.736692)

LINESTRING (864.476278 155.561251, 833.721326 148.156121)

LINESTRING (864.476278 155.561251, 845.883121 102.277235)

LINESTRING (864.476278 155.561251, 863.212679 137.686450)

LINESTRING (864.476278 155.561251, 856.985683 162.763001)

LINESTRING (864.476278 155.561251, 816.475354 139.733866)

LINESTRING (833.721326 148.156121, 845.883121 102.277235)

LINESTRING (833.721326 148.156121, 842.855578 117.178967)

LINESTRING (841.202359 139.719126, 842.855578 117.178967)

LINESTRING (841.202359 139.719126, 863.212679 137.686450)

LINESTRING (841.202359 139.719126, 802.603225 139.959604)

LINESTRING (846.296263 121.275212, 863.212679 137.686450)

LINESTRING (846.296263 121.275212, 802.603225 139.959604)

LINESTRING (846.296263 121.275212, 816.475354 139.733866)

LINESTRING (846.296263 121.275212, 846.457981 110.736692)

LINESTRING (845.883121 102.277235, 842.855578 117.178967)

LINESTRING (845.883121 102.277235, 816.441015 178.958572)

LINESTRING (845.883121 102.277235, 809.879008 149.865142)

LINESTRING (845.883121 102.277235, 846.457981 110.736692)

LINESTRING (842.855578 117.178967, 863.212679 137.686450)

LINESTRING (842.855578 117.178967, 816.441015 178.958572)

LINESTRING (842.855578 117.178967, 816.475354 139.733866)

LINESTRING (863.212679 137.686450, 856.985683 162.763001)

LINESTRING (863.212679 137.686450, 816.441015 178.958572)

LINESTRING (863.212679 137.686450, 846.457981 110.736692)

LINESTRING (856.985683 162.763001, 816.441015 178.958572)

LINESTRING (856.985683 162.763001, 879.529817 147.705621)

LINESTRING (856.985683 162.763001, 816.475354 139.733866)

LINESTRING (856.985683 162.763001, 809.879008 149.865142)

LINESTRING (816.441015 178.958572, 802.603225 139.959604)

LINESTRING (816.441015 178.958572, 816.475354 139.733866)

LINESTRING (879.529817 147.705621, 816.475354 139.733866)

LINESTRING (802.603225 139.959604, 809.879008 149.865142)

LINESTRING (816.475354 139.733866, 809.879008 149.865142)

LINESTRING (1157.475861 116.012451, 1161.325328 171.421814)

LINESTRING (1157.475861 116.012451, 1178.051544 158.019081)

LINESTRING (1157.475861 116.012451, 1167.291513 119.493739)

LINESTRING (1157.475861 116.012451, 1170.777668 101.661975)

LINESTRING (1157.475861 116.012451, 1229.426493 159.606548)

LINESTRING (1157.475861 116.012451, 1228.902456 160.073443)

LINESTRING (1157.475861 116.012451, 1216.765552 132.147831)

LINESTRING (1157.475861 116.012451, 1207.195979 167.706855)

LINESTRING (1157.475861 116.012451, 1220.179244 108.396461)

LINESTRING (1157.475861 116.012451, 1157.330614 155.164884)

LINESTRING (1157.475861 116.012451, 1175.237241 160.324091)

LINESTRING (1157.475861 116.012451, 1219.332854 104.559957)

LINESTRING (1157.475861 116.012451, 1202.281613 137.029993)

LINESTRING (1157.475861 116.012451, 1185.556214 170.791271)

LINESTRING (1157.475861 116.012451, 1205.469086 172.092947)

LINESTRING (1161.325328 171.421814, 1221.573577 177.008709)

LINESTRING (1161.325328 171.421814, 1178.785981 166.175611)

LINESTRING (1161.325328 171.421814, 1190.469302 106.964215)

LINESTRING (1161.325328 171.421814, 1191.690918 118.944892)

LINESTRING (1161.325328 171.421814, 1225.719475 109.693402)

LINESTRING (1161.325328 171.421814, 1181.979780 117.072099)

LINESTRING (1161.325328 171.421814, 1170.777668 101.661975)

LINESTRING (1161.325328 171.421814, 1216.021112 130.597946)

LINESTRING (1161.325328 171.421814, 1216.765552 132.147831)

LINESTRING (1161.325328 171.421814, 1181.025530 132.856895)

LINESTRING (1161.325328 171.421814, 1207.195979 167.706855)

LINESTRING (1161.325328 171.421814, 1208.616843 147.420932)

LINESTRING (1161.325328 171.421814, 1202.281613 137.029993)

LINESTRING (1161.325328 171.421814, 1185.556214 170.791271)

LINESTRING (1161.325328 171.421814, 1168.616164 172.610092)

LINESTRING (1161.325328 171.421814, 1158.369501 103.524545)

LINESTRING (1171.262461 170.460283, 1221.573577 177.008709)

LINESTRING (1171.262461 170.460283, 1191.690918 118.944892)

LINESTRING (1171.262461 170.460283, 1178.051544 158.019081)

LINESTRING (1171.262461 170.460283, 1216.021112 130.597946)

LINESTRING (1171.262461 170.460283, 1229.426493 159.606548)

LINESTRING (1171.262461 170.460283, 1181.025530 132.856895)

LINESTRING (1171.262461 170.460283, 1174.265589 161.839022)

LINESTRING (1171.262461 170.460283, 1207.195979 167.706855)

LINESTRING (1171.262461 170.460283, 1154.048759 133.484192)

LINESTRING (1171.262461 170.460283, 1167.405249 152.857020)

LINESTRING (1171.262461 170.460283, 1175.481818 125.534388)

LINESTRING (1171.262461 170.460283, 1167.957497 102.559120)

LINESTRING (1171.262461 170.460283, 1218.532190 115.102448)

LINESTRING (1171.262461 170.460283, 1185.556214 170.791271)

LINESTRING (1171.262461 170.460283, 1168.616164 172.610092)

LINESTRING (1171.262461 170.460283, 1158.369501 103.524545)

LINESTRING (1171.262461 170.460283, 1184.119471 169.965285)

LINESTRING (1171.262461 170.460283, 1205.469086 172.092947)

LINESTRING (1153.597728 178.551953, 1190.469302 106.964215)

LINESTRING (1153.597728 178.551953, 1225.719475 109.693402)

LINESTRING (1153.597728 178.551953, 1181.979780 117.072099)

LINESTRING (1153.597728 178.551953, 1178.051544 158.019081)

LINESTRING (1153.597728 178.551953, 1170.777668 101.661975)

LINESTRING (1153.597728 178.551953, 1229.426493 159.606548)

LINESTRING (1153.597728 178.551953, 1228.902456 160.073443)

LINESTRING (1153.597728 178.551953, 1214.274501 124.414477)

LINESTRING (1153.597728 178.551953, 1216.765552 132.147831)

LINESTRING (1153.597728 178.551953, 1181.025530 132.856895)

LINESTRING (1153.597728 178.551953, 1174.265589 161.839022)

LINESTRING (1153.597728 178.551953, 1154.048759 133.484192)

LINESTRING (1153.597728 178.551953, 1220.179244 108.396461)

LINESTRING (1153.597728 178.551953, 1175.237241 160.324091)

LINESTRING (1153.597728 178.551953, 1219.332854 104.559957)

LINESTRING (1153.597728 178.551953, 1175.481818 125.534388)

LINESTRING (1153.597728 178.551953, 1202.281613 137.029993)

LINESTRING (1153.597728 178.551953, 1218.532190 115.102448)

LINESTRING (1153.597728 178.551953, 1185.556214 170.791271)

LINESTRING (1153.597728 178.551953, 1184.119471 169.965285)

LINESTRING (1221.573577 177.008709, 1190.469302 106.964215)

LINESTRING (1221.573577 177.008709, 1192.663541 172.637312)

LINESTRING (1221.573577 177.008709, 1181.979780 117.072099)

LINESTRING (1221.573577 177.008709, 1178.051544 158.019081)

LINESTRING (1221.573577 177.008709, 1167.291513 119.493739)

LINESTRING (1221.573577 177.008709, 1229.426493 159.606548)

LINESTRING (1221.573577 177.008709, 1228.902456 160.073443)

LINESTRING (1221.573577 177.008709, 1207.195979 167.706855)

LINESTRING (1221.573577 177.008709, 1220.179244 108.396461)

LINESTRING (1221.573577 177.008709, 1175.481818 125.534388)

LINESTRING (1221.573577 177.008709, 1202.281613 137.029993)

LINESTRING (1221.573577 177.008709, 1167.957497 102.559120)

LINESTRING (1221.573577 177.008709, 1185.556214 170.791271)

LINESTRING (1221.573577 177.008709, 1168.616164 172.610092)

LINESTRING (1221.573577 177.008709, 1184.119471 169.965285)

LINESTRING (1221.573577 177.008709, 1205.469086 172.092947)

LINESTRING (1178.785981 166.175611, 1192.663541 172.637312)

LINESTRING (1178.785981 166.175611, 1214.274501 124.414477)

LINESTRING (1178.785981 166.175611, 1216.765552 132.147831)

LINESTRING (1178.785981 166.175611, 1181.025530 132.856895)

LINESTRING (1178.785981 166.175611, 1174.265589 161.839022)

LINESTRING (1178.785981 166.175611, 1207.195979 167.706855)

LINESTRING (1178.785981 166.175611, 1208.616843 147.420932)

LINESTRING (1178.785981 166.175611, 1167.405249 152.857020)

LINESTRING (1178.785981 166.175611, 1202.281613 137.029993)

LINESTRING (1178.785981 166.175611, 1167.957497 102.559120)

LINESTRING (1178.785981 166.175611, 1218.532190 115.102448)

LINESTRING (1178.785981 166.175611, 1168.616164 172.610092)

LINESTRING (1178.785981 166.175611, 1187.537429 168.735298)

LINESTRING (1190.469302 106.964215, 1192.663541 172.637312)

LINESTRING (1190.469302 106.964215, 1191.690918 118.944892)

LINESTRING (1190.469302 106.964215, 1225.719475 109.693402)

LINESTRING (1190.469302 106.964215, 1178.051544 158.019081)

LINESTRING (1190.469302 106.964215, 1214.274501 124.414477)

LINESTRING (1190.469302 106.964215, 1216.765552 132.147831)

LINESTRING (1190.469302 106.964215, 1181.025530 132.856895)

LINESTRING (1190.469302 106.964215, 1220.179244 108.396461)

LINESTRING (1190.469302 106.964215, 1157.330614 155.164884)

LINESTRING (1190.469302 106.964215, 1218.532190 115.102448)

LINESTRING (1190.469302 106.964215, 1168.616164 172.610092)

LINESTRING (1190.469302 106.964215, 1205.469086 172.092947)

LINESTRING (1201.202628 171.719071, 1191.690918 118.944892)

LINESTRING (1201.202628 171.719071, 1170.777668 101.661975)

LINESTRING (1201.202628 171.719071, 1216.021112 130.597946)

LINESTRING (1201.202628 171.719071, 1229.426493 159.606548)

LINESTRING (1201.202628 171.719071, 1214.274501 124.414477)

LINESTRING (1201.202628 171.719071, 1181.025530 132.856895)

LINESTRING (1201.202628 171.719071, 1207.195979 167.706855)

LINESTRING (1201.202628 171.719071, 1175.481818 125.534388)

LINESTRING (1201.202628 171.719071, 1168.616164 172.610092)

LINESTRING (1201.202628 171.719071, 1205.469086 172.092947)

LINESTRING (1201.202628 171.719071, 1187.537429 168.735298)

LINESTRING (1192.663541 172.637312, 1191.690918 118.944892)

LINESTRING (1192.663541 172.637312, 1170.777668 101.661975)

LINESTRING (1192.663541 172.637312, 1228.902456 160.073443)

LINESTRING (1192.663541 172.637312, 1174.265589 161.839022)

LINESTRING (1192.663541 172.637312, 1154.048759 133.484192)

LINESTRING (1192.663541 172.637312, 1175.237241 160.324091)

LINESTRING (1192.663541 172.637312, 1219.332854 104.559957)

LINESTRING (1192.663541 172.637312, 1167.957497 102.559120)

LINESTRING (1192.663541 172.637312, 1218.532190 115.102448)

LINESTRING (1192.663541 172.637312, 1185.556214 170.791271)

LINESTRING (1192.663541 172.637312, 1168.616164 172.610092)

LINESTRING (1192.663541 172.637312, 1158.369501 103.524545)

LINESTRING (1192.663541 172.637312, 1187.537429 168.735298)

LINESTRING (1191.690918 118.944892, 1181.979780 117.072099)

LINESTRING (1191.690918 118.944892, 1167.291513 119.493739)

LINESTRING (1191.690918 118.944892, 1170.777668 101.661975)

LINESTRING (1191.690918 118.944892, 1214.274501 124.414477)

LINESTRING (1191.690918 118.944892, 1181.025530 132.856895)

LINESTRING (1191.690918 118.944892, 1154.048759 133.484192)

LINESTRING (1191.690918 118.944892, 1175.237241 160.324091)

LINESTRING (1191.690918 118.944892, 1167.405249 152.857020)

LINESTRING (1191.690918 118.944892, 1175.481818 125.534388)

LINESTRING (1191.690918 118.944892, 1202.281613 137.029993)

LINESTRING (1191.690918 118.944892, 1167.957497 102.559120)

LINESTRING (1191.690918 118.944892, 1185.556214 170.791271)

LINESTRING (1191.690918 118.944892, 1168.616164 172.610092)

LINESTRING (1191.690918 118.944892, 1187.537429 168.735298)

LINESTRING (1225.719475 109.693402, 1178.051544 158.019081)

LINESTRING (1225.719475 109.693402, 1216.021112 130.597946)

LINESTRING (1225.719475 109.693402, 1216.765552 132.147831)

LINESTRING (1225.719475 109.693402, 1154.048759 133.484192)

LINESTRING (1225.719475 109.693402, 1157.330614 155.164884)

LINESTRING (1225.719475 109.693402, 1175.237241 160.324091)

LINESTRING (1225.719475 109.693402, 1167.405249 152.857020)

LINESTRING (1225.719475 109.693402, 1219.332854 104.559957)

LINESTRING (1225.719475 109.693402, 1202.281613 137.029993)

LINESTRING (1225.719475 109.693402, 1167.957497 102.559120)

LINESTRING (1225.719475 109.693402, 1158.369501 103.524545)

LINESTRING (1225.719475 109.693402, 1205.469086 172.092947)

LINESTRING (1225.719475 109.693402, 1187.537429 168.735298)

LINESTRING (1181.979780 117.072099, 1214.274501 124.414477)

LINESTRING (1181.979780 117.072099, 1181.025530 132.856895)

LINESTRING (1181.979780 117.072099, 1154.048759 133.484192)

LINESTRING (1181.979780 117.072099, 1220.179244 108.396461)

LINESTRING (1181.979780 117.072099, 1157.330614 155.164884)

LINESTRING (1181.979780 117.072099, 1175.237241 160.324091)

LINESTRING (1181.979780 117.072099, 1219.332854 104.559957)

LINESTRING (1181.979780 117.072099, 1175.481818 125.534388)

LINESTRING (1181.979780 117.072099, 1167.957497 102.559120)

LINESTRING (1178.051544 158.019081, 1216.021112 130.597946)

LINESTRING (1178.051544 158.019081, 1167.957497 102.559120)

LINESTRING (1167.291513 119.493739, 1214.274501 124.414477)

LINESTRING (1167.291513 119.493739, 1174.265589 161.839022)

LINESTRING (1167.291513 119.493739, 1154.048759 133.484192)

LINESTRING (1167.291513 119.493739, 1220.179244 108.396461)

LINESTRING (1167.291513 119.493739, 1157.330614 155.164884)

LINESTRING (1167.291513 119.493739, 1175.237241 160.324091)

LINESTRING (1167.291513 119.493739, 1167.405249 152.857020)

LINESTRING (1167.291513 119.493739, 1219.332854 104.559957)

LINESTRING (1167.291513 119.493739, 1175.481818 125.534388)

LINESTRING (1167.291513 119.493739, 1167.957497 102.559120)

LINESTRING (1167.291513 119.493739, 1187.537429 168.735298)

LINESTRING (1170.777668 101.661975, 1216.021112 130.597946)

LINESTRING (1170.777668 101.661975, 1229.426493 159.606548)

LINESTRING (1170.777668 101.661975, 1228.902456 160.073443)

LINESTRING (1170.777668 101.661975, 1216.765552 132.147831)

LINESTRING (1170.777668 101.661975, 1154.048759 133.484192)

LINESTRING (1170.777668 101.661975, 1220.179244 108.396461)

LINESTRING (1170.777668 101.661975, 1208.616843 147.420932)

LINESTRING (1170.777668 101.661975, 1175.237241 160.324091)

LINESTRING (1170.777668 101.661975, 1175.481818 125.534388)

LINESTRING (1170.777668 101.661975, 1202.281613 137.029993)

LINESTRING (1170.777668 101.661975, 1167.957497 102.559120)

LINESTRING (1170.777668 101.661975, 1205.469086 172.092947)

LINESTRING (1216.021112 130.597946, 1214.274501 124.414477)

LINESTRING (1216.021112 130.597946, 1157.330614 155.164884)

LINESTRING (1216.021112 130.597946, 1185.556214 170.791271)

LINESTRING (1216.021112 130.597946, 1168.616164 172.610092)

LINESTRING (1216.021112 130.597946, 1184.119471 169.965285)

LINESTRING (1229.426493 159.606548, 1214.274501 124.414477)

LINESTRING (1229.426493 159.606548, 1181.025530 132.856895)

LINESTRING (1229.426493 159.606548, 1208.616843 147.420932)

LINESTRING (1229.426493 159.606548, 1175.237241 160.324091)

LINESTRING (1229.426493 159.606548, 1167.405249 152.857020)

LINESTRING (1229.426493 159.606548, 1175.481818 125.534388)

LINESTRING (1229.426493 159.606548, 1167.957497 102.559120)

LINESTRING (1229.426493 159.606548, 1218.532190 115.102448)

LINESTRING (1229.426493 159.606548, 1187.537429 168.735298)

LINESTRING (1228.902456 160.073443, 1214.274501 124.414477)

LINESTRING (1228.902456 160.073443, 1216.765552 132.147831)

LINESTRING (1228.902456 160.073443, 1181.025530 132.856895)

LINESTRING (1228.902456 160.073443, 1174.265589 161.839022)

LINESTRING (1228.902456 160.073443, 1207.195979 167.706855)

LINESTRING (1228.902456 160.073443, 1220.179244 108.396461)

LINESTRING (1228.902456 160.073443, 1157.330614 155.164884)

LINESTRING (1228.902456 160.073443, 1175.237241 160.324091)

LINESTRING (1228.902456 160.073443, 1202.281613 137.029993)

LINESTRING (1228.902456 160.073443, 1167.957497 102.559120)

LINESTRING (1228.902456 160.073443, 1218.532190 115.102448)

LINESTRING (1228.902456 160.073443, 1187.537429 168.735298)

LINESTRING (1214.274501 124.414477, 1216.765552 132.147831)

LINESTRING (1214.274501 124.414477, 1181.025530 132.856895)

LINESTRING (1214.274501 124.414477, 1174.265589 161.839022)

LINESTRING (1214.274501 124.414477, 1154.048759 133.484192)

LINESTRING (1214.274501 124.414477, 1208.616843 147.420932)

LINESTRING (1214.274501 124.414477, 1175.237241 160.324091)

LINESTRING (1214.274501 124.414477, 1167.405249 152.857020)

LINESTRING (1214.274501 124.414477, 1202.281613 137.029993)

LINESTRING (1214.274501 124.414477, 1167.957497 102.559120)

LINESTRING (1214.274501 124.414477, 1218.532190 115.102448)

LINESTRING (1214.274501 124.414477, 1205.469086 172.092947)

LINESTRING (1214.274501 124.414477, 1187.537429 168.735298)

LINESTRING (1216.765552 132.147831, 1207.195979 167.706855)

LINESTRING (1216.765552 132.147831, 1154.048759 133.484192)

LINESTRING (1216.765552 132.147831, 1220.179244 108.396461)

LINESTRING (1216.765552 132.147831, 1175.237241 160.324091)

LINESTRING (1216.765552 132.147831, 1167.405249 152.857020)

LINESTRING (1216.765552 132.147831, 1175.481818 125.534388)

LINESTRING (1216.765552 132.147831, 1167.957497 102.559120)

LINESTRING (1216.765552 132.147831, 1185.556214 170.791271)

LINESTRING (1216.765552 132.147831, 1168.616164 172.610092)

LINESTRING (1216.765552 132.147831, 1158.369501 103.524545)

LINESTRING (1216.765552 132.147831, 1184.119471 169.965285)

LINESTRING (1216.765552 132.147831, 1187.537429 168.735298)

LINESTRING (1181.025530 132.856895, 1207.195979 167.706855)

LINESTRING (1181.025530 132.856895, 1220.179244 108.396461)

LINESTRING (1181.025530 132.856895, 1208.616843 147.420932)

LINESTRING (1181.025530 132.856895, 1157.330614 155.164884)

LINESTRING (1181.025530 132.856895, 1175.237241 160.324091)

LINESTRING (1181.025530 132.856895, 1219.332854 104.559957)

LINESTRING (1181.025530 132.856895, 1167.957497 102.559120)

LINESTRING (1181.025530 132.856895, 1218.532190 115.102448)

LINESTRING (1181.025530 132.856895, 1168.616164 172.610092)

LINESTRING (1181.025530 132.856895, 1158.369501 103.524545)

LINESTRING (1181.025530 132.856895, 1205.469086 172.092947)

LINESTRING (1174.265589 161.839022, 1207.195979 167.706855)

LINESTRING (1174.265589 161.839022, 1208.616843 147.420932)

LINESTRING (1174.265589 161.839022, 1157.330614 155.164884)

LINESTRING (1174.265589 161.839022, 1185.556214 170.791271)

LINESTRING (1174.265589 161.839022, 1168.616164 172.610092)

LINESTRING (1174.265589 161.839022, 1184.119471 169.965285)

LINESTRING (1174.265589 161.839022, 1205.469086 172.092947)

LINESTRING (1174.265589 161.839022, 1187.537429 168.735298)

LINESTRING (1207.195979 167.706855, 1220.179244 108.396461)

LINESTRING (1207.195979 167.706855, 1175.481818 125.534388)

LINESTRING (1207.195979 167.706855, 1167.957497 102.559120)

LINESTRING (1207.195979 167.706855, 1168.616164 172.610092)

LINESTRING (1207.195979 167.706855, 1158.369501 103.524545)

LINESTRING (1154.048759 133.484192, 1220.179244 108.396461)

LINESTRING (1154.048759 133.484192, 1157.330614 155.164884)

LINESTRING (1154.048759 133.484192, 1175.237241 160.324091)

LINESTRING (1154.048759 133.484192, 1167.405249 152.857020)

LINESTRING (1154.048759 133.484192, 1202.281613 137.029993)

LINESTRING (1154.048759 133.484192, 1218.532190 115.102448)

LINESTRING (1154.048759 133.484192, 1184.119471 169.965285)

LINESTRING (1154.048759 133.484192, 1187.537429 168.735298)

LINESTRING (1220.179244 108.396461, 1208.616843 147.420932)

LINESTRING (1220.179244 108.396461, 1157.330614 155.164884)

LINESTRING (1220.179244 108.396461, 1218.532190 115.102448)

LINESTRING (1220.179244 108.396461, 1185.556214 170.791271)

LINESTRING (1220.179244 108.396461, 1184.119471 169.965285)

LINESTRING (1208.616843 147.420932, 1175.237241 160.324091)

LINESTRING (1208.616843 147.420932, 1175.481818 125.534388)

LINESTRING (1208.616843 147.420932, 1202.281613 137.029993)

LINESTRING (1208.616843 147.420932, 1184.119471 169.965285)

LINESTRING (1157.330614 155.164884, 1202.281613 137.029993)

LINESTRING (1157.330614 155.164884, 1167.957497 102.559120)

LINESTRING (1157.330614 155.164884, 1184.119471 169.965285)

LINESTRING (1175.237241 160.324091, 1167.957497 102.559120)

LINESTRING (1175.237241 160.324091, 1218.532190 115.102448)

LINESTRING (1175.237241 160.324091, 1185.556214 170.791271)

LINESTRING (1175.237241 160.324091, 1158.369501 103.524545)

LINESTRING (1175.237241 160.324091, 1184.119471 169.965285)

LINESTRING (1175.237241 160.324091, 1205.469086 172.092947)

LINESTRING (1167.405249 152.857020, 1219.332854 104.559957)

LINESTRING (1167.405249 152.857020, 1218.532190 115.102448)

LINESTRING (1167.405249 152.857020, 1187.537429 168.735298)

LINESTRING (1219.332854 104.559957, 1185.556214 170.791271)

LINESTRING (1175.481818 125.534388, 1168.616164 172.610092)

LINESTRING (1175.481818 125.534388, 1184.119471 169.965285)

LINESTRING (1202.281613 137.029993, 1167.957497 102.559120)

LINESTRING (1202.281613 137.029993, 1185.556214 170.791271)

LINESTRING (1202.281613 137.029993, 1184.119471 169.965285)

LINESTRING (1202.281613 137.029993, 1205.469086 172.092947)

LINESTRING (1167.957497 102.559120, 1218.532190 115.102448)

LINESTRING (1167.957497 102.559120, 1185.556214 170.791271)

LINESTRING (1167.957497 102.559120, 1168.616164 172.610092)

LINESTRING (1167.957497 102.559120, 1205.469086 172.092947)

LINESTRING (1218.532190 115.102448, 1185.556214 170.791271)

LINESTRING (1218.532190 115.102448, 1168.616164 172.610092)

LINESTRING (1218.532190 115.102448, 1158.369501 103.524545)

LINESTRING (1218.532190 115.102448, 1187.537429 168.735298)

LINESTRING (1168.616164 172.610092, 1158.369501 103.524545)

LINESTRING (1184.119471 169.965285, 1205.469086 172.092947)

LINESTRING (1184.119471 169.965285, 1187.537429 168.735298)

LINESTRING (1205.469086 172.092947, 1187.537429 168.735298)

LINESTRING (119.113646 123.692382, 483.142861 111.207743)

LINESTRING (107.380268 122.716309, 508.495093 147.744153)

LINESTRING (103.228055 172.185264, 457.491945 147.975234)

LINESTRING (129.112433 179.250284, 492.329727 177.251980)

LINESTRING (495.669821 165.083416, 841.202359 139.719126)

LINESTRING (482.557857 119.406521, 847.989285 129.826713)

LINESTRING (483.142861 111.207743, 816.441015 178.958572)

LINESTRING (492.329727 177.251980, 811.599476 172.390142)

LINESTRING (857.049464 145.300507, 1201.202628 171.719071)

LINESTRING (809.879008 149.865142, 1171.262461 170.460283)

LINESTRING (846.457981 110.736692, 1181.979780 117.072099)

LINESTRING (811.599476 172.390142, 1157.475861 116.012451)

