LINESTRING (80.000000 80.000000, 196.049682 104.486654)

LINESTRING (196.049682 104.486654, 308.211771 87.746470)

LINESTRING (308.211771 87.746470, 383.310137 -4.471702)

LINESTRING (383.310137 -4.471702, 400.383964 -135.586949)

LINESTRING (383.310137 -4.471702, 457.639128 -75.061485)

LINESTRING (383.310137 -4.471702, 500.434021 -25.269264)

LINESTRING (308.211771 87.746470, 430.242986 52.619591)

LINESTRING (430.242986 52.619591, 510.958535 -41.573805)

LINESTRING (430.242986 52.619591, 548.623593 4.375604)

LINESTRING (430.242986 52.619591, 556.139495 89.372922)

LINESTRING (308.211771 87.746470, 417.024002 101.210692)

LINESTRING (417.024002 101.210692, 522.852856 70.612638)

LINESTRING (417.024002 101.210692, 527.105747 126.659979)

LINESTRING (417.024002 101.210692, 496.880717 179.842671)

LINESTRING (196.049682 104.486654, 319.241808 124.807629)

LINESTRING (319.241808 124.807629, 450.536657 106.973123)

LINESTRING (450.536657 106.973123, 538.228434 27.326455)

LINESTRING (450.536657 106.973123, 562.457232 79.194062)

LINESTRING (450.536657 106.973123, 554.707948 132.160440)

LINESTRING (319.241808 124.807629, 421.443124 160.925263)

LINESTRING (421.443124 160.925263, 529.613099 139.266587)

LINESTRING (421.443124 160.925263, 529.456601 195.111046)

LINESTRING (421.443124 160.925263, 519.344427 249.149149)

LINESTRING (319.241808 124.807629, 405.235478 191.668092)

LINESTRING (405.235478 191.668092, 520.245379 227.641775)

LINESTRING (405.235478 191.668092, 483.762933 291.855563)

LINESTRING (405.235478 191.668092, 422.026616 302.137503)

LINESTRING (196.049682 104.486654, 292.362360 181.525074)

LINESTRING (292.362360 181.525074, 405.383799 209.583718)

LINESTRING (405.383799 209.583718, 521.159953 182.923386)

LINESTRING (405.383799 209.583718, 534.647813 247.316722)

LINESTRING (405.383799 209.583718, 475.951043 276.922556)

LINESTRING (292.362360 181.525074, 394.363298 264.216239)

LINESTRING (394.363298 264.216239, 523.937908 305.985576)

LINESTRING (394.363298 264.216239, 470.227760 343.682584)

LINESTRING (394.363298 264.216239, 426.071518 385.540493)

LINESTRING (292.362360 181.525074, 325.617950 297.234584)

LINESTRING (325.617950 297.234584, 414.747095 402.036455)

LINESTRING (325.617950 297.234584, 350.690806 411.678725)

LINESTRING (325.617950 297.234584, 288.971301 406.037050)

LINESTRING (80.000000 80.000000, 182.788348 168.054599)

LINESTRING (182.788348 168.054599, 294.054740 188.512281)

LINESTRING (294.054740 188.512281, 417.571501 146.821475)

LINESTRING (417.571501 146.821475, 490.490074 69.149556)

LINESTRING (417.571501 146.821475, 513.713209 99.443183)

LINESTRING (417.571501 146.821475, 533.233733 166.295017)

LINESTRING (294.054740 188.512281, 410.722437 211.999780)

LINESTRING (410.722437 211.999780, 534.290765 176.009381)

LINESTRING (410.722437 211.999780, 508.933863 243.890776)

LINESTRING (410.722437 211.999780, 511.169131 277.789965)

LINESTRING (294.054740 188.512281, 364.910659 293.085287)

LINESTRING (364.910659 293.085287, 492.588858 304.855364)

LINESTRING (364.910659 293.085287, 439.105801 369.467133)

LINESTRING (364.910659 293.085287, 395.123285 407.995630)

LINESTRING (182.788348 168.054599, 252.133483 239.172121)

LINESTRING (252.133483 239.172121, 377.949564 253.194604)

LINESTRING (377.949564 253.194604, 497.451390 217.173524)

LINESTRING (377.949564 253.194604, 508.382162 270.876260)

LINESTRING (377.949564 253.194604, 464.534562 350.690261)

LINESTRING (252.133483 239.172121, 337.618715 306.836030)

LINESTRING (337.618715 306.836030, 466.768782 323.375387)

LINESTRING (337.618715 306.836030, 411.875412 408.446137)

LINESTRING (337.618715 306.836030, 354.248902 433.405214)

LINESTRING (252.133483 239.172121, 288.950270 348.874932)

LINESTRING (288.950270 348.874932, 367.401207 419.590569)

LINESTRING (288.950270 348.874932, 336.176057 449.431380)

LINESTRING (288.950270 348.874932, 241.722968 466.964118)

LINESTRING (182.788348 168.054599, 227.288841 297.574235)

LINESTRING (227.288841 297.574235, 329.505285 368.430707)

LINESTRING (329.505285 368.430707, 429.429000 405.650783)

LINESTRING (329.505285 368.430707, 403.414710 440.032931)

LINESTRING (329.505285 368.430707, 378.965571 464.719780)

LINESTRING (227.288841 297.574235, 269.654868 421.906333)

LINESTRING (269.654868 421.906333, 353.374253 507.001935)

LINESTRING (269.654868 421.906333, 315.358860 532.690430)

LINESTRING (269.654868 421.906333, 228.164418 547.813497)

LINESTRING (227.288841 297.574235, 205.103327 395.673562)

LINESTRING (205.103327 395.673562, 254.867567 522.908102)

LINESTRING (205.103327 395.673562, 181.596098 527.455951)

LINESTRING (205.103327 395.673562, 110.598613 474.841669)

LINESTRING (80.000000 80.000000, 124.657217 182.617761)

LINESTRING (124.657217 182.617761, 198.073718 286.054628)

LINESTRING (198.073718 286.054628, 331.363524 318.466059)

LINESTRING (331.363524 318.466059, 461.501547 270.352667)

LINESTRING (331.363524 318.466059, 457.799936 347.170064)

LINESTRING (331.363524 318.466059, 409.529620 412.252466)

LINESTRING (198.073718 286.054628, 296.692406 355.433576)

LINESTRING (296.692406 355.433576, 394.602560 373.116559)

LINESTRING (296.692406 355.433576, 397.247732 435.173297)

LINESTRING (296.692406 355.433576, 317.090665 485.458973)

LINESTRING (198.073718 286.054628, 240.032308 385.579519)

LINESTRING (240.032308 385.579519, 329.860637 455.742654)

LINESTRING (240.032308 385.579519, 282.783721 509.335263)

LINESTRING (240.032308 385.579519, 192.403704 519.811091)

LINESTRING (124.657217 182.617761, 164.565723 306.750096)

LINESTRING (164.565723 306.750096, 238.489331 398.049122)

LINESTRING (238.489331 398.049122, 361.994702 432.584757)

LINESTRING (238.489331 398.049122, 343.291999 490.916801)

LINESTRING (238.489331 398.049122, 253.470559 512.603777)

LINESTRING (164.565723 306.750096, 209.282355 417.573008)

LINESTRING (209.282355 417.573008, 282.156893 498.632554)

LINESTRING (209.282355 417.573008, 244.775120 549.788743)

LINESTRING (209.282355 417.573008, 173.290508 536.412710)

LINESTRING (164.565723 306.750096, 137.189785 437.715115)

LINESTRING (137.189785 437.715115, 149.316882 536.531033)

LINESTRING (137.189785 437.715115, 99.787965 544.761852)

LINESTRING (137.189785 437.715115, 36.965977 534.771347)

LINESTRING (124.657217 182.617761, 90.416197 298.504830)

LINESTRING (90.416197 298.504830, 134.530033 401.768306)

LINESTRING (134.530033 401.768306, 235.018814 505.877848)

LINESTRING (134.530033 401.768306, 146.938881 516.837130)

LINESTRING (134.530033 401.768306, 113.817071 501.902803)

LINESTRING (90.416197 298.504830, 72.605095 424.089258)

LINESTRING (72.605095 424.089258, 100.977834 525.106463)

LINESTRING (72.605095 424.089258, 38.532139 554.989009)

LINESTRING (72.605095 424.089258, -11.663839 508.159998)

LINESTRING (90.416197 298.504830, -13.532024 381.302049)

LINESTRING (-13.532024 381.302049, -55.950086 498.208238)

LINESTRING (-13.532024 381.302049, -109.138852 461.894583)

LINESTRING (-13.532024 381.302049, -115.814172 411.821928)

