LINESTRING (1962.403267 2044.497641, 2033.932614 2057.677878)

LINESTRING (1962.403267 2044.497641, 1775.580158 1978.639916)

LINESTRING (1962.403267 2044.497641, 1965.664412 1941.198299)

LINESTRING (2033.932614 2057.677878, 1965.664412 1941.198299)

LINESTRING (1775.580158 1978.639916, 1965.664412 1941.198299)

LINESTRING (1213.361158 766.315163, 1572.336129 813.824664)

LINESTRING (1213.361158 766.315163, 1417.711222 298.630579)

LINESTRING (181.004005 820.481934, 176.016208 1206.529861)

LINESTRING (181.004005 820.481934, 415.161811 1289.140012)

LINESTRING (181.004005 820.481934, 731.727715 877.111150)

LINESTRING (454.948705 375.070020, 352.951991 253.569307)

LINESTRING (454.948705 375.070020, 487.489754 240.690774)

LINESTRING (1434.747155 390.099337, 1461.420467 441.720967)

LINESTRING (1434.747155 390.099337, 1864.879453 686.053093)

LINESTRING (1434.747155 390.099337, 1433.655956 439.287789)

LINESTRING (1434.747155 390.099337, 1417.711222 298.630579)

LINESTRING (1434.747155 390.099337, 1435.185331 863.693361)

LINESTRING (1965.664412 1941.198299, 1857.150884 1766.623904)

LINESTRING (1321.464733 1480.217867, 1386.124807 1367.610913)

LINESTRING (1461.420467 441.720967, 1433.655956 439.287789)

LINESTRING (1461.420467 441.720967, 1417.711222 298.630579)

LINESTRING (167.055514 1350.941358, 245.112322 1441.816196)

LINESTRING (167.055514 1350.941358, 176.016208 1206.529861)

LINESTRING (167.055514 1350.941358, 214.855382 1301.137224)

LINESTRING (352.951991 253.569307, 487.489754 240.690774)

LINESTRING (1864.879453 686.053093, 1572.336129 813.824664)

LINESTRING (1433.655956 439.287789, 1417.711222 298.630579)

LINESTRING (1386.124807 1367.610913, 1889.633221 1286.037624)

LINESTRING (245.112322 1441.816196, 214.855382 1301.137224)

LINESTRING (245.112322 1441.816196, 821.238092 1363.279448)

LINESTRING (245.112322 1441.816196, 423.419821 1469.973570)

LINESTRING (1295.490376 1798.288394, 1166.372226 1808.121913)

LINESTRING (1572.336129 813.824664, 1435.185331 863.693361)

LINESTRING (176.016208 1206.529861, 214.855382 1301.137224)

LINESTRING (176.016208 1206.529861, 267.043101 1045.457705)

LINESTRING (176.016208 1206.529861, 460.747310 1559.613581)

LINESTRING (176.016208 1206.529861, 515.331534 1383.032812)

LINESTRING (1933.682221 1514.927568, 1857.150884 1766.623904)

LINESTRING (267.043101 1045.457705, 409.985696 960.470040)

LINESTRING (821.238092 1363.279448, 423.419821 1469.973570)

LINESTRING (449.825078 1303.789469, 415.161811 1289.140012)

LINESTRING (449.825078 1303.789469, 423.419821 1469.973570)

LINESTRING (449.825078 1303.789469, 515.331534 1383.032812)

LINESTRING (415.161811 1289.140012, 423.419821 1469.973570)

LINESTRING (415.161811 1289.140012, 460.747310 1559.613581)

LINESTRING (415.161811 1289.140012, 515.331534 1383.032812)

LINESTRING (423.419821 1469.973570, 460.747310 1559.613581)

LINESTRING (423.419821 1469.973570, 515.331534 1383.032812)

LINESTRING (460.747310 1559.613581, 515.331534 1383.032812)

