LINESTRING (60.000000 60.000000, 77.423849 94.461649)

LINESTRING (60.000000 60.000000, 48.775026 54.881124)

LINESTRING (60.000000 60.000000, 57.326441 93.305841)

LINESTRING (60.000000 60.000000, 25.098640 67.864599)

LINESTRING (60.000000 60.000000, 86.456094 53.171786)

LINESTRING (60.000000 60.000000, 40.617474 32.523136)

LINESTRING (60.000000 60.000000, 34.184986 52.878061)

LINESTRING (60.000000 60.000000, 90.955930 73.015124)

LINESTRING (60.000000 60.000000, 54.571214 41.876462)

LINESTRING (60.000000 60.000000, 48.568208 54.984724)

LINESTRING (60.000000 60.000000, 50.133161 48.966969)

LINESTRING (60.000000 60.000000, 65.336653 72.879653)

LINESTRING (60.000000 60.000000, 52.487149 61.109192)

LINESTRING (60.000000 60.000000, 61.710401 24.747785)

LINESTRING (60.000000 60.000000, 55.775698 63.134525)

LINESTRING (60.000000 60.000000, 88.458459 83.667284)

LINESTRING (60.000000 60.000000, 32.768916 27.230363)

LINESTRING (60.000000 60.000000, 60.139372 75.770701)

LINESTRING (60.000000 60.000000, 75.942148 50.116478)

LINESTRING (60.000000 60.000000, 78.200759 56.510398)

LINESTRING (60.000000 60.000000, 55.692660 87.812633)

LINESTRING (60.000000 60.000000, 27.141100 38.540979)

LINESTRING (60.000000 60.000000, 81.525139 75.538712)

LINESTRING (60.000000 60.000000, 68.985126 77.652940)

LINESTRING (60.000000 60.000000, 89.061424 39.046794)

LINESTRING (77.423849 94.461649, 40.617474 32.523136)

LINESTRING (77.423849 94.461649, 54.571214 41.876462)

LINESTRING (77.423849 94.461649, 48.568208 54.984724)

LINESTRING (77.423849 94.461649, 65.336653 72.879653)

LINESTRING (77.423849 94.461649, 61.710401 24.747785)

LINESTRING (77.423849 94.461649, 88.458459 83.667284)

LINESTRING (77.423849 94.461649, 32.768916 27.230363)

LINESTRING (77.423849 94.461649, 60.139372 75.770701)

LINESTRING (77.423849 94.461649, 81.525139 75.538712)

LINESTRING (77.423849 94.461649, 68.985126 77.652940)

LINESTRING (77.423849 94.461649, 89.061424 39.046794)

LINESTRING (48.775026 54.881124, 57.326441 93.305841)

LINESTRING (48.775026 54.881124, 25.098640 67.864599)

LINESTRING (48.775026 54.881124, 86.456094 53.171786)

LINESTRING (48.775026 54.881124, 40.617474 32.523136)

LINESTRING (48.775026 54.881124, 90.955930 73.015124)

LINESTRING (48.775026 54.881124, 55.775698 63.134525)

LINESTRING (48.775026 54.881124, 88.458459 83.667284)

LINESTRING (48.775026 54.881124, 32.768916 27.230363)

LINESTRING (48.775026 54.881124, 60.139372 75.770701)

LINESTRING (48.775026 54.881124, 75.942148 50.116478)

LINESTRING (48.775026 54.881124, 78.200759 56.510398)

LINESTRING (48.775026 54.881124, 27.141100 38.540979)

LINESTRING (48.775026 54.881124, 68.985126 77.652940)

LINESTRING (57.326441 93.305841, 25.098640 67.864599)

LINESTRING (57.326441 93.305841, 86.456094 53.171786)

LINESTRING (57.326441 93.305841, 34.184986 52.878061)

LINESTRING (57.326441 93.305841, 54.571214 41.876462)

LINESTRING (57.326441 93.305841, 48.568208 54.984724)

LINESTRING (57.326441 93.305841, 61.710401 24.747785)

LINESTRING (57.326441 93.305841, 88.458459 83.667284)

LINESTRING (57.326441 93.305841, 60.139372 75.770701)

LINESTRING (57.326441 93.305841, 75.942148 50.116478)

LINESTRING (57.326441 93.305841, 78.200759 56.510398)

LINESTRING (57.326441 93.305841, 55.692660 87.812633)

LINESTRING (57.326441 93.305841, 27.141100 38.540979)

LINESTRING (57.326441 93.305841, 81.525139 75.538712)

LINESTRING (25.098640 67.864599, 86.456094 53.171786)

LINESTRING (25.098640 67.864599, 34.184986 52.878061)

LINESTRING (25.098640 67.864599, 54.571214 41.876462)

LINESTRING (25.098640 67.864599, 61.710401 24.747785)

LINESTRING (25.098640 67.864599, 55.775698 63.134525)

LINESTRING (25.098640 67.864599, 88.458459 83.667284)

LINESTRING (25.098640 67.864599, 32.768916 27.230363)

LINESTRING (25.098640 67.864599, 60.139372 75.770701)

LINESTRING (25.098640 67.864599, 75.942148 50.116478)

LINESTRING (25.098640 67.864599, 78.200759 56.510398)

LINESTRING (25.098640 67.864599, 55.692660 87.812633)

LINESTRING (25.098640 67.864599, 81.525139 75.538712)

LINESTRING (25.098640 67.864599, 68.985126 77.652940)

LINESTRING (25.098640 67.864599, 89.061424 39.046794)

LINESTRING (86.456094 53.171786, 34.184986 52.878061)

LINESTRING (86.456094 53.171786, 54.571214 41.876462)

LINESTRING (86.456094 53.171786, 50.133161 48.966969)

LINESTRING (86.456094 53.171786, 52.487149 61.109192)

LINESTRING (86.456094 53.171786, 61.710401 24.747785)

LINESTRING (86.456094 53.171786, 88.458459 83.667284)

LINESTRING (86.456094 53.171786, 60.139372 75.770701)

LINESTRING (86.456094 53.171786, 78.200759 56.510398)

LINESTRING (86.456094 53.171786, 68.985126 77.652940)

LINESTRING (40.617474 32.523136, 90.955930 73.015124)

LINESTRING (40.617474 32.523136, 54.571214 41.876462)

LINESTRING (40.617474 32.523136, 48.568208 54.984724)

LINESTRING (40.617474 32.523136, 55.775698 63.134525)

LINESTRING (40.617474 32.523136, 88.458459 83.667284)

LINESTRING (40.617474 32.523136, 32.768916 27.230363)

LINESTRING (40.617474 32.523136, 60.139372 75.770701)

LINESTRING (40.617474 32.523136, 75.942148 50.116478)

LINESTRING (40.617474 32.523136, 27.141100 38.540979)

LINESTRING (40.617474 32.523136, 68.985126 77.652940)

LINESTRING (34.184986 52.878061, 90.955930 73.015124)

LINESTRING (34.184986 52.878061, 48.568208 54.984724)

LINESTRING (34.184986 52.878061, 65.336653 72.879653)

LINESTRING (34.184986 52.878061, 88.458459 83.667284)

LINESTRING (34.184986 52.878061, 55.692660 87.812633)

LINESTRING (34.184986 52.878061, 27.141100 38.540979)

LINESTRING (90.955930 73.015124, 48.568208 54.984724)

LINESTRING (90.955930 73.015124, 50.133161 48.966969)

LINESTRING (90.955930 73.015124, 88.458459 83.667284)

LINESTRING (90.955930 73.015124, 78.200759 56.510398)

LINESTRING (90.955930 73.015124, 89.061424 39.046794)

LINESTRING (54.571214 41.876462, 61.710401 24.747785)

LINESTRING (54.571214 41.876462, 55.775698 63.134525)

LINESTRING (54.571214 41.876462, 32.768916 27.230363)

LINESTRING (54.571214 41.876462, 27.141100 38.540979)

LINESTRING (54.571214 41.876462, 68.985126 77.652940)

LINESTRING (48.568208 54.984724, 65.336653 72.879653)

LINESTRING (48.568208 54.984724, 55.775698 63.134525)

LINESTRING (48.568208 54.984724, 75.942148 50.116478)

LINESTRING (48.568208 54.984724, 68.985126 77.652940)

LINESTRING (50.133161 48.966969, 88.458459 83.667284)

LINESTRING (50.133161 48.966969, 60.139372 75.770701)

LINESTRING (50.133161 48.966969, 75.942148 50.116478)

LINESTRING (50.133161 48.966969, 78.200759 56.510398)

LINESTRING (50.133161 48.966969, 89.061424 39.046794)

LINESTRING (65.336653 72.879653, 52.487149 61.109192)

LINESTRING (65.336653 72.879653, 61.710401 24.747785)

LINESTRING (65.336653 72.879653, 55.775698 63.134525)

LINESTRING (65.336653 72.879653, 32.768916 27.230363)

LINESTRING (65.336653 72.879653, 27.141100 38.540979)

LINESTRING (65.336653 72.879653, 81.525139 75.538712)

LINESTRING (65.336653 72.879653, 89.061424 39.046794)

LINESTRING (52.487149 61.109192, 61.710401 24.747785)

LINESTRING (52.487149 61.109192, 55.775698 63.134525)

LINESTRING (52.487149 61.109192, 88.458459 83.667284)

LINESTRING (52.487149 61.109192, 32.768916 27.230363)

LINESTRING (52.487149 61.109192, 75.942148 50.116478)

LINESTRING (52.487149 61.109192, 55.692660 87.812633)

LINESTRING (52.487149 61.109192, 81.525139 75.538712)

LINESTRING (52.487149 61.109192, 68.985126 77.652940)

LINESTRING (52.487149 61.109192, 89.061424 39.046794)

LINESTRING (61.710401 24.747785, 32.768916 27.230363)

LINESTRING (61.710401 24.747785, 81.525139 75.538712)

LINESTRING (55.775698 63.134525, 88.458459 83.667284)

LINESTRING (55.775698 63.134525, 32.768916 27.230363)

LINESTRING (55.775698 63.134525, 60.139372 75.770701)

LINESTRING (55.775698 63.134525, 75.942148 50.116478)

LINESTRING (55.775698 63.134525, 78.200759 56.510398)

LINESTRING (88.458459 83.667284, 75.942148 50.116478)

LINESTRING (88.458459 83.667284, 78.200759 56.510398)

LINESTRING (88.458459 83.667284, 55.692660 87.812633)

LINESTRING (88.458459 83.667284, 81.525139 75.538712)

LINESTRING (32.768916 27.230363, 60.139372 75.770701)

LINESTRING (32.768916 27.230363, 55.692660 87.812633)

LINESTRING (32.768916 27.230363, 27.141100 38.540979)

LINESTRING (60.139372 75.770701, 27.141100 38.540979)

LINESTRING (60.139372 75.770701, 68.985126 77.652940)

LINESTRING (75.942148 50.116478, 78.200759 56.510398)

LINESTRING (75.942148 50.116478, 55.692660 87.812633)

LINESTRING (78.200759 56.510398, 55.692660 87.812633)

LINESTRING (78.200759 56.510398, 81.525139 75.538712)

LINESTRING (55.692660 87.812633, 27.141100 38.540979)

LINESTRING (55.692660 87.812633, 68.985126 77.652940)

LINESTRING (27.141100 38.540979, 81.525139 75.538712)

LINESTRING (27.141100 38.540979, 89.061424 39.046794)

LINESTRING (81.525139 75.538712, 89.061424 39.046794)

LINESTRING (360.000000 60.000000, 378.516991 69.308599)

LINESTRING (360.000000 60.000000, 389.284774 62.708007)

LINESTRING (360.000000 60.000000, 337.745383 25.895931)

LINESTRING (360.000000 60.000000, 359.588113 93.007645)

LINESTRING (360.000000 60.000000, 352.575085 28.194949)

LINESTRING (360.000000 60.000000, 393.210516 67.907656)

LINESTRING (360.000000 60.000000, 355.960006 80.931328)

LINESTRING (360.000000 60.000000, 336.879416 77.792609)

LINESTRING (360.000000 60.000000, 328.670195 43.567758)

LINESTRING (360.000000 60.000000, 356.340520 24.038358)

LINESTRING (360.000000 60.000000, 344.728547 31.946201)

LINESTRING (360.000000 60.000000, 394.626807 67.127064)

LINESTRING (360.000000 60.000000, 356.937973 53.890861)

LINESTRING (360.000000 60.000000, 345.087332 47.738158)

LINESTRING (360.000000 60.000000, 348.509656 49.421548)

LINESTRING (360.000000 60.000000, 350.040303 32.292480)

LINESTRING (360.000000 60.000000, 348.792127 73.351135)

LINESTRING (360.000000 60.000000, 333.966782 87.042912)

LINESTRING (360.000000 60.000000, 360.404282 79.927965)

LINESTRING (360.000000 60.000000, 331.953085 74.591792)

LINESTRING (360.000000 60.000000, 362.495868 85.860033)

LINESTRING (360.000000 60.000000, 359.192342 70.206424)

LINESTRING (360.000000 60.000000, 394.819679 53.009328)

LINESTRING (360.000000 60.000000, 367.891316 93.494208)

LINESTRING (360.000000 60.000000, 360.841763 61.993825)

LINESTRING (378.516991 69.308599, 337.745383 25.895931)

LINESTRING (378.516991 69.308599, 355.960006 80.931328)

LINESTRING (378.516991 69.308599, 344.728547 31.946201)

LINESTRING (378.516991 69.308599, 394.626807 67.127064)

LINESTRING (378.516991 69.308599, 350.040303 32.292480)

LINESTRING (378.516991 69.308599, 333.966782 87.042912)

LINESTRING (378.516991 69.308599, 331.953085 74.591792)

LINESTRING (378.516991 69.308599, 359.192342 70.206424)

LINESTRING (378.516991 69.308599, 394.819679 53.009328)

LINESTRING (389.284774 62.708007, 359.588113 93.007645)

LINESTRING (389.284774 62.708007, 356.340520 24.038358)

LINESTRING (389.284774 62.708007, 344.728547 31.946201)

LINESTRING (389.284774 62.708007, 348.509656 49.421548)

LINESTRING (389.284774 62.708007, 348.792127 73.351135)

LINESTRING (389.284774 62.708007, 360.404282 79.927965)

LINESTRING (389.284774 62.708007, 362.495868 85.860033)

LINESTRING (389.284774 62.708007, 394.819679 53.009328)

LINESTRING (389.284774 62.708007, 367.891316 93.494208)

LINESTRING (337.745383 25.895931, 336.879416 77.792609)

LINESTRING (337.745383 25.895931, 394.626807 67.127064)

LINESTRING (337.745383 25.895931, 348.509656 49.421548)

LINESTRING (337.745383 25.895931, 350.040303 32.292480)

LINESTRING (337.745383 25.895931, 360.404282 79.927965)

LINESTRING (337.745383 25.895931, 359.192342 70.206424)

LINESTRING (359.588113 93.007645, 352.575085 28.194949)

LINESTRING (359.588113 93.007645, 393.210516 67.907656)

LINESTRING (359.588113 93.007645, 355.960006 80.931328)

LINESTRING (359.588113 93.007645, 336.879416 77.792609)

LINESTRING (359.588113 93.007645, 356.340520 24.038358)

LINESTRING (359.588113 93.007645, 344.728547 31.946201)

LINESTRING (359.588113 93.007645, 394.626807 67.127064)

LINESTRING (359.588113 93.007645, 345.087332 47.738158)

LINESTRING (359.588113 93.007645, 348.509656 49.421548)

LINESTRING (359.588113 93.007645, 350.040303 32.292480)

LINESTRING (359.588113 93.007645, 348.792127 73.351135)

LINESTRING (359.588113 93.007645, 360.404282 79.927965)

LINESTRING (359.588113 93.007645, 331.953085 74.591792)

LINESTRING (359.588113 93.007645, 362.495868 85.860033)

LINESTRING (359.588113 93.007645, 367.891316 93.494208)

LINESTRING (359.588113 93.007645, 360.841763 61.993825)

LINESTRING (352.575085 28.194949, 355.960006 80.931328)

LINESTRING (352.575085 28.194949, 328.670195 43.567758)

LINESTRING (352.575085 28.194949, 356.340520 24.038358)

LINESTRING (352.575085 28.194949, 344.728547 31.946201)

LINESTRING (352.575085 28.194949, 345.087332 47.738158)

LINESTRING (352.575085 28.194949, 348.509656 49.421548)

LINESTRING (352.575085 28.194949, 333.966782 87.042912)

LINESTRING (352.575085 28.194949, 331.953085 74.591792)

LINESTRING (352.575085 28.194949, 359.192342 70.206424)

LINESTRING (352.575085 28.194949, 394.819679 53.009328)

LINESTRING (393.210516 67.907656, 355.960006 80.931328)

LINESTRING (393.210516 67.907656, 336.879416 77.792609)

LINESTRING (393.210516 67.907656, 356.340520 24.038358)

LINESTRING (393.210516 67.907656, 344.728547 31.946201)

LINESTRING (393.210516 67.907656, 350.040303 32.292480)

LINESTRING (393.210516 67.907656, 348.792127 73.351135)

LINESTRING (393.210516 67.907656, 360.404282 79.927965)

LINESTRING (393.210516 67.907656, 359.192342 70.206424)

LINESTRING (393.210516 67.907656, 394.819679 53.009328)

LINESTRING (393.210516 67.907656, 367.891316 93.494208)

LINESTRING (393.210516 67.907656, 360.841763 61.993825)

LINESTRING (355.960006 80.931328, 344.728547 31.946201)

LINESTRING (355.960006 80.931328, 356.937973 53.890861)

LINESTRING (355.960006 80.931328, 333.966782 87.042912)

LINESTRING (355.960006 80.931328, 331.953085 74.591792)

LINESTRING (355.960006 80.931328, 362.495868 85.860033)

LINESTRING (355.960006 80.931328, 359.192342 70.206424)

LINESTRING (355.960006 80.931328, 394.819679 53.009328)

LINESTRING (355.960006 80.931328, 367.891316 93.494208)

LINESTRING (355.960006 80.931328, 360.841763 61.993825)

LINESTRING (336.879416 77.792609, 328.670195 43.567758)

LINESTRING (336.879416 77.792609, 344.728547 31.946201)

LINESTRING (336.879416 77.792609, 394.626807 67.127064)

LINESTRING (336.879416 77.792609, 356.937973 53.890861)

LINESTRING (336.879416 77.792609, 345.087332 47.738158)

LINESTRING (336.879416 77.792609, 350.040303 32.292480)

LINESTRING (336.879416 77.792609, 348.792127 73.351135)

LINESTRING (336.879416 77.792609, 333.966782 87.042912)

LINESTRING (336.879416 77.792609, 360.404282 79.927965)

LINESTRING (336.879416 77.792609, 394.819679 53.009328)

LINESTRING (336.879416 77.792609, 367.891316 93.494208)

LINESTRING (328.670195 43.567758, 356.340520 24.038358)

LINESTRING (328.670195 43.567758, 344.728547 31.946201)

LINESTRING (328.670195 43.567758, 394.626807 67.127064)

LINESTRING (328.670195 43.567758, 345.087332 47.738158)

LINESTRING (328.670195 43.567758, 348.509656 49.421548)

LINESTRING (328.670195 43.567758, 348.792127 73.351135)

LINESTRING (328.670195 43.567758, 333.966782 87.042912)

LINESTRING (328.670195 43.567758, 360.404282 79.927965)

LINESTRING (328.670195 43.567758, 394.819679 53.009328)

LINESTRING (328.670195 43.567758, 360.841763 61.993825)

LINESTRING (356.340520 24.038358, 344.728547 31.946201)

LINESTRING (356.340520 24.038358, 356.937973 53.890861)

LINESTRING (356.340520 24.038358, 348.509656 49.421548)

LINESTRING (356.340520 24.038358, 350.040303 32.292480)

LINESTRING (356.340520 24.038358, 360.404282 79.927965)

LINESTRING (356.340520 24.038358, 331.953085 74.591792)

LINESTRING (356.340520 24.038358, 362.495868 85.860033)

LINESTRING (356.340520 24.038358, 394.819679 53.009328)

LINESTRING (344.728547 31.946201, 348.509656 49.421548)

LINESTRING (344.728547 31.946201, 333.966782 87.042912)

LINESTRING (344.728547 31.946201, 331.953085 74.591792)

LINESTRING (394.626807 67.127064, 348.509656 49.421548)

LINESTRING (394.626807 67.127064, 348.792127 73.351135)

LINESTRING (394.626807 67.127064, 333.966782 87.042912)

LINESTRING (394.626807 67.127064, 360.404282 79.927965)

LINESTRING (394.626807 67.127064, 331.953085 74.591792)

LINESTRING (394.626807 67.127064, 362.495868 85.860033)

LINESTRING (394.626807 67.127064, 394.819679 53.009328)

LINESTRING (394.626807 67.127064, 367.891316 93.494208)

LINESTRING (356.937973 53.890861, 348.509656 49.421548)

LINESTRING (356.937973 53.890861, 348.792127 73.351135)

LINESTRING (356.937973 53.890861, 333.966782 87.042912)

LINESTRING (356.937973 53.890861, 360.404282 79.927965)

LINESTRING (356.937973 53.890861, 362.495868 85.860033)

LINESTRING (356.937973 53.890861, 367.891316 93.494208)

LINESTRING (345.087332 47.738158, 348.509656 49.421548)

LINESTRING (345.087332 47.738158, 350.040303 32.292480)

LINESTRING (345.087332 47.738158, 333.966782 87.042912)

LINESTRING (345.087332 47.738158, 331.953085 74.591792)

LINESTRING (345.087332 47.738158, 359.192342 70.206424)

LINESTRING (345.087332 47.738158, 394.819679 53.009328)

LINESTRING (345.087332 47.738158, 367.891316 93.494208)

LINESTRING (345.087332 47.738158, 360.841763 61.993825)

LINESTRING (348.509656 49.421548, 350.040303 32.292480)

LINESTRING (348.509656 49.421548, 394.819679 53.009328)

LINESTRING (348.509656 49.421548, 367.891316 93.494208)

LINESTRING (350.040303 32.292480, 331.953085 74.591792)

LINESTRING (350.040303 32.292480, 362.495868 85.860033)

LINESTRING (350.040303 32.292480, 359.192342 70.206424)

LINESTRING (350.040303 32.292480, 394.819679 53.009328)

LINESTRING (350.040303 32.292480, 360.841763 61.993825)

LINESTRING (348.792127 73.351135, 360.404282 79.927965)

LINESTRING (348.792127 73.351135, 331.953085 74.591792)

LINESTRING (348.792127 73.351135, 359.192342 70.206424)

LINESTRING (348.792127 73.351135, 394.819679 53.009328)

LINESTRING (348.792127 73.351135, 367.891316 93.494208)

LINESTRING (333.966782 87.042912, 360.404282 79.927965)

LINESTRING (333.966782 87.042912, 331.953085 74.591792)

LINESTRING (333.966782 87.042912, 359.192342 70.206424)

LINESTRING (333.966782 87.042912, 360.841763 61.993825)

LINESTRING (360.404282 79.927965, 331.953085 74.591792)

LINESTRING (360.404282 79.927965, 362.495868 85.860033)

LINESTRING (360.404282 79.927965, 359.192342 70.206424)

LINESTRING (360.404282 79.927965, 394.819679 53.009328)

LINESTRING (360.404282 79.927965, 367.891316 93.494208)

LINESTRING (360.404282 79.927965, 360.841763 61.993825)

LINESTRING (331.953085 74.591792, 394.819679 53.009328)

LINESTRING (331.953085 74.591792, 367.891316 93.494208)

LINESTRING (362.495868 85.860033, 359.192342 70.206424)

LINESTRING (362.495868 85.860033, 394.819679 53.009328)

LINESTRING (359.192342 70.206424, 367.891316 93.494208)

LINESTRING (394.819679 53.009328, 367.891316 93.494208)

LINESTRING (394.819679 53.009328, 360.841763 61.993825)

LINESTRING (367.891316 93.494208, 360.841763 61.993825)

LINESTRING (60.000000 360.000000, 60.514300 349.255276)

LINESTRING (60.000000 360.000000, 63.565167 340.891558)

LINESTRING (60.000000 360.000000, 89.947840 363.789443)

LINESTRING (60.000000 360.000000, 64.322833 394.722630)

LINESTRING (60.000000 360.000000, 89.402442 366.069189)

LINESTRING (60.000000 360.000000, 52.528497 393.635892)

LINESTRING (60.000000 360.000000, 89.771883 329.474821)

LINESTRING (60.000000 360.000000, 59.884621 337.155698)

LINESTRING (60.000000 360.000000, 51.312749 354.898880)

LINESTRING (60.000000 360.000000, 82.909854 362.449942)

LINESTRING (60.000000 360.000000, 27.657193 353.898639)

LINESTRING (60.000000 360.000000, 62.571437 345.610767)

LINESTRING (60.000000 360.000000, 90.718653 365.548882)

LINESTRING (60.000000 360.000000, 70.549642 368.329402)

LINESTRING (60.000000 360.000000, 45.452147 331.318315)

LINESTRING (60.000000 360.000000, 83.198769 370.128061)

LINESTRING (60.000000 360.000000, 62.722842 395.050607)

LINESTRING (60.000000 360.000000, 28.848793 370.960773)

LINESTRING (60.000000 360.000000, 24.020799 355.475448)

LINESTRING (60.000000 360.000000, 62.282777 369.074980)

LINESTRING (60.000000 360.000000, 27.796282 370.306298)

LINESTRING (60.000000 360.000000, 56.932396 349.165503)

LINESTRING (60.000000 360.000000, 67.335809 365.625984)

LINESTRING (60.000000 360.000000, 76.766855 338.871990)

LINESTRING (60.000000 360.000000, 66.489995 372.425621)

LINESTRING (60.514300 349.255276, 89.947840 363.789443)

LINESTRING (60.514300 349.255276, 89.402442 366.069189)

LINESTRING (60.514300 349.255276, 52.528497 393.635892)

LINESTRING (60.514300 349.255276, 59.884621 337.155698)

LINESTRING (60.514300 349.255276, 82.909854 362.449942)

LINESTRING (60.514300 349.255276, 27.657193 353.898639)

LINESTRING (60.514300 349.255276, 90.718653 365.548882)

LINESTRING (60.514300 349.255276, 45.452147 331.318315)

LINESTRING (60.514300 349.255276, 83.198769 370.128061)

LINESTRING (60.514300 349.255276, 62.722842 395.050607)

LINESTRING (60.514300 349.255276, 28.848793 370.960773)

LINESTRING (60.514300 349.255276, 24.020799 355.475448)

LINESTRING (60.514300 349.255276, 62.282777 369.074980)

LINESTRING (60.514300 349.255276, 56.932396 349.165503)

LINESTRING (60.514300 349.255276, 76.766855 338.871990)

LINESTRING (60.514300 349.255276, 66.489995 372.425621)

LINESTRING (63.565167 340.891558, 89.947840 363.789443)

LINESTRING (63.565167 340.891558, 64.322833 394.722630)

LINESTRING (63.565167 340.891558, 89.402442 366.069189)

LINESTRING (63.565167 340.891558, 27.657193 353.898639)

LINESTRING (63.565167 340.891558, 62.571437 345.610767)

LINESTRING (63.565167 340.891558, 90.718653 365.548882)

LINESTRING (63.565167 340.891558, 45.452147 331.318315)

LINESTRING (63.565167 340.891558, 28.848793 370.960773)

LINESTRING (63.565167 340.891558, 62.282777 369.074980)

LINESTRING (63.565167 340.891558, 76.766855 338.871990)

LINESTRING (63.565167 340.891558, 66.489995 372.425621)

LINESTRING (89.947840 363.789443, 89.402442 366.069189)

LINESTRING (89.947840 363.789443, 89.771883 329.474821)

LINESTRING (89.947840 363.789443, 82.909854 362.449942)

LINESTRING (89.947840 363.789443, 90.718653 365.548882)

LINESTRING (89.947840 363.789443, 83.198769 370.128061)

LINESTRING (89.947840 363.789443, 62.722842 395.050607)

LINESTRING (89.947840 363.789443, 24.020799 355.475448)

LINESTRING (89.947840 363.789443, 76.766855 338.871990)

LINESTRING (64.322833 394.722630, 52.528497 393.635892)

LINESTRING (64.322833 394.722630, 59.884621 337.155698)

LINESTRING (64.322833 394.722630, 51.312749 354.898880)

LINESTRING (64.322833 394.722630, 82.909854 362.449942)

LINESTRING (64.322833 394.722630, 27.657193 353.898639)

LINESTRING (64.322833 394.722630, 62.571437 345.610767)

LINESTRING (64.322833 394.722630, 70.549642 368.329402)

LINESTRING (64.322833 394.722630, 45.452147 331.318315)

LINESTRING (64.322833 394.722630, 83.198769 370.128061)

LINESTRING (64.322833 394.722630, 62.722842 395.050607)

LINESTRING (64.322833 394.722630, 24.020799 355.475448)

LINESTRING (64.322833 394.722630, 27.796282 370.306298)

LINESTRING (64.322833 394.722630, 67.335809 365.625984)

LINESTRING (64.322833 394.722630, 76.766855 338.871990)

LINESTRING (89.402442 366.069189, 52.528497 393.635892)

LINESTRING (89.402442 366.069189, 89.771883 329.474821)

LINESTRING (89.402442 366.069189, 27.657193 353.898639)

LINESTRING (89.402442 366.069189, 70.549642 368.329402)

LINESTRING (89.402442 366.069189, 45.452147 331.318315)

LINESTRING (89.402442 366.069189, 28.848793 370.960773)

LINESTRING (89.402442 366.069189, 62.282777 369.074980)

LINESTRING (89.402442 366.069189, 56.932396 349.165503)

LINESTRING (89.402442 366.069189, 67.335809 365.625984)

LINESTRING (89.402442 366.069189, 76.766855 338.871990)

LINESTRING (52.528497 393.635892, 89.771883 329.474821)

LINESTRING (52.528497 393.635892, 59.884621 337.155698)

LINESTRING (52.528497 393.635892, 82.909854 362.449942)

LINESTRING (52.528497 393.635892, 62.571437 345.610767)

LINESTRING (52.528497 393.635892, 70.549642 368.329402)

LINESTRING (52.528497 393.635892, 83.198769 370.128061)

LINESTRING (52.528497 393.635892, 28.848793 370.960773)

LINESTRING (52.528497 393.635892, 62.282777 369.074980)

LINESTRING (52.528497 393.635892, 27.796282 370.306298)

LINESTRING (52.528497 393.635892, 76.766855 338.871990)

LINESTRING (89.771883 329.474821, 62.571437 345.610767)

LINESTRING (89.771883 329.474821, 90.718653 365.548882)

LINESTRING (89.771883 329.474821, 45.452147 331.318315)

LINESTRING (89.771883 329.474821, 24.020799 355.475448)

LINESTRING (89.771883 329.474821, 62.282777 369.074980)

LINESTRING (89.771883 329.474821, 56.932396 349.165503)

LINESTRING (89.771883 329.474821, 76.766855 338.871990)

LINESTRING (89.771883 329.474821, 66.489995 372.425621)

LINESTRING (59.884621 337.155698, 51.312749 354.898880)

LINESTRING (59.884621 337.155698, 27.657193 353.898639)

LINESTRING (59.884621 337.155698, 62.722842 395.050607)

LINESTRING (59.884621 337.155698, 24.020799 355.475448)

LINESTRING (59.884621 337.155698, 76.766855 338.871990)

LINESTRING (51.312749 354.898880, 27.657193 353.898639)

LINESTRING (51.312749 354.898880, 45.452147 331.318315)

LINESTRING (51.312749 354.898880, 83.198769 370.128061)

LINESTRING (51.312749 354.898880, 62.722842 395.050607)

LINESTRING (51.312749 354.898880, 62.282777 369.074980)

LINESTRING (51.312749 354.898880, 76.766855 338.871990)

LINESTRING (82.909854 362.449942, 70.549642 368.329402)

LINESTRING (82.909854 362.449942, 62.282777 369.074980)

LINESTRING (82.909854 362.449942, 27.796282 370.306298)

LINESTRING (82.909854 362.449942, 67.335809 365.625984)

LINESTRING (82.909854 362.449942, 76.766855 338.871990)

LINESTRING (82.909854 362.449942, 66.489995 372.425621)

LINESTRING (27.657193 353.898639, 83.198769 370.128061)

LINESTRING (27.657193 353.898639, 24.020799 355.475448)

LINESTRING (27.657193 353.898639, 62.282777 369.074980)

LINESTRING (62.571437 345.610767, 45.452147 331.318315)

LINESTRING (62.571437 345.610767, 28.848793 370.960773)

LINESTRING (62.571437 345.610767, 27.796282 370.306298)

LINESTRING (62.571437 345.610767, 67.335809 365.625984)

LINESTRING (90.718653 365.548882, 70.549642 368.329402)

LINESTRING (90.718653 365.548882, 83.198769 370.128061)

LINESTRING (90.718653 365.548882, 28.848793 370.960773)

LINESTRING (90.718653 365.548882, 27.796282 370.306298)

LINESTRING (90.718653 365.548882, 67.335809 365.625984)

LINESTRING (90.718653 365.548882, 66.489995 372.425621)

LINESTRING (70.549642 368.329402, 83.198769 370.128061)

LINESTRING (70.549642 368.329402, 28.848793 370.960773)

LINESTRING (70.549642 368.329402, 24.020799 355.475448)

LINESTRING (70.549642 368.329402, 27.796282 370.306298)

LINESTRING (70.549642 368.329402, 56.932396 349.165503)

LINESTRING (70.549642 368.329402, 67.335809 365.625984)

LINESTRING (70.549642 368.329402, 76.766855 338.871990)

LINESTRING (45.452147 331.318315, 62.722842 395.050607)

LINESTRING (45.452147 331.318315, 24.020799 355.475448)

LINESTRING (45.452147 331.318315, 56.932396 349.165503)

LINESTRING (45.452147 331.318315, 66.489995 372.425621)

LINESTRING (83.198769 370.128061, 27.796282 370.306298)

LINESTRING (83.198769 370.128061, 56.932396 349.165503)

LINESTRING (62.722842 395.050607, 62.282777 369.074980)

LINESTRING (62.722842 395.050607, 56.932396 349.165503)

LINESTRING (62.722842 395.050607, 76.766855 338.871990)

LINESTRING (28.848793 370.960773, 24.020799 355.475448)

LINESTRING (28.848793 370.960773, 62.282777 369.074980)

LINESTRING (28.848793 370.960773, 27.796282 370.306298)

LINESTRING (28.848793 370.960773, 56.932396 349.165503)

LINESTRING (28.848793 370.960773, 66.489995 372.425621)

LINESTRING (24.020799 355.475448, 27.796282 370.306298)

LINESTRING (62.282777 369.074980, 27.796282 370.306298)

LINESTRING (62.282777 369.074980, 56.932396 349.165503)

LINESTRING (62.282777 369.074980, 76.766855 338.871990)

LINESTRING (62.282777 369.074980, 66.489995 372.425621)

LINESTRING (27.796282 370.306298, 67.335809 365.625984)

LINESTRING (56.932396 349.165503, 76.766855 338.871990)

LINESTRING (56.932396 349.165503, 66.489995 372.425621)

LINESTRING (67.335809 365.625984, 76.766855 338.871990)

LINESTRING (67.335809 365.625984, 66.489995 372.425621)

LINESTRING (76.766855 338.871990, 66.489995 372.425621)

LINESTRING (40.617474 32.523136, 360.841763 61.993825)

LINESTRING (75.942148 50.116478, 394.819679 53.009328)

LINESTRING (60.000000 60.000000, 360.000000 60.000000)

LINESTRING (352.575085 28.194949, 62.722842 395.050607)

LINESTRING (328.670195 43.567758, 64.322833 394.722630)

LINESTRING (360.000000 60.000000, 60.000000 360.000000)

