LINESTRING (80.000000 80.000000, 166.159314 117.459189)

LINESTRING (166.159314 117.459189, 238.250774 85.452412)

LINESTRING (238.250774 85.452412, 313.399884 48.042208)

LINESTRING (313.399884 48.042208, 326.798796 -20.236302)

LINESTRING (313.399884 48.042208, 382.662535 -22.262533)

LINESTRING (313.399884 48.042208, 400.932008 20.445717)

LINESTRING (238.250774 85.452412, 332.243082 80.327865)

LINESTRING (332.243082 80.327865, 376.199243 25.915518)

LINESTRING (332.243082 80.327865, 405.718195 45.670374)

LINESTRING (332.243082 80.327865, 418.194953 88.878224)

LINESTRING (238.250774 85.452412, 334.102230 97.313669)

LINESTRING (334.102230 97.313669, 429.963180 58.183277)

LINESTRING (334.102230 97.313669, 396.269275 117.053222)

LINESTRING (334.102230 97.313669, 394.052874 165.529689)

LINESTRING (166.159314 117.459189, 240.786417 137.609373)

LINESTRING (240.786417 137.609373, 312.868684 115.453776)

LINESTRING (312.868684 115.453776, 361.591696 40.234987)

LINESTRING (312.868684 115.453776, 397.264463 109.319479)

LINESTRING (312.868684 115.453776, 404.238365 144.633820)

LINESTRING (240.786417 137.609373, 311.990029 166.272716)

LINESTRING (311.990029 166.272716, 404.224300 134.913370)

LINESTRING (311.990029 166.272716, 403.836801 180.782423)

LINESTRING (311.990029 166.272716, 362.256960 225.757278)

LINESTRING (240.786417 137.609373, 296.140936 208.370299)

LINESTRING (296.140936 208.370299, 357.987566 221.363692)

LINESTRING (296.140936 208.370299, 342.116078 273.471864)

LINESTRING (296.140936 208.370299, 321.349464 265.678761)

LINESTRING (166.159314 117.459189, 222.167998 179.955107)

LINESTRING (222.167998 179.955107, 287.992468 185.487196)

LINESTRING (287.992468 185.487196, 373.948783 171.477830)

LINESTRING (287.992468 185.487196, 347.575795 205.512486)

LINESTRING (287.992468 185.487196, 332.017267 228.740753)

LINESTRING (222.167998 179.955107, 282.165178 248.869971)

LINESTRING (282.165178 248.869971, 347.237774 253.929129)

LINESTRING (282.165178 248.869971, 345.240822 306.983653)

LINESTRING (282.165178 248.869971, 309.004968 342.079216)

LINESTRING (222.167998 179.955107, 223.819216 248.180955)

LINESTRING (223.819216 248.180955, 267.379539 310.920643)

LINESTRING (223.819216 248.180955, 254.082413 331.415385)

LINESTRING (223.819216 248.180955, 184.979980 306.687258)

LINESTRING (80.000000 80.000000, 153.979251 150.209839)

LINESTRING (153.979251 150.209839, 215.787604 185.136643)

LINESTRING (215.787604 185.136643, 274.781888 163.095591)

LINESTRING (274.781888 163.095591, 346.399457 108.148330)

LINESTRING (274.781888 163.095591, 352.106530 161.590059)

LINESTRING (274.781888 163.095591, 349.502779 176.088505)

LINESTRING (215.787604 185.136643, 279.407078 195.984681)

LINESTRING (279.407078 195.984681, 337.739515 158.404295)

LINESTRING (279.407078 195.984681, 367.899101 215.888948)

LINESTRING (279.407078 195.984681, 345.236923 248.448688)

LINESTRING (215.787604 185.136643, 264.976322 251.745316)

LINESTRING (264.976322 251.745316, 355.138284 272.451311)

LINESTRING (264.976322 251.745316, 315.257179 304.590801)

LINESTRING (264.976322 251.745316, 304.719808 333.314950)

LINESTRING (153.979251 150.209839, 210.130782 225.670826)

LINESTRING (210.130782 225.670826, 271.609108 230.896435)

LINESTRING (271.609108 230.896435, 350.802611 196.170333)

LINESTRING (271.609108 230.896435, 335.594763 271.275100)

LINESTRING (271.609108 230.896435, 326.743152 281.982075)

LINESTRING (210.130782 225.670826, 249.261031 290.221901)

LINESTRING (249.261031 290.221901, 309.233228 328.722650)

LINESTRING (249.261031 290.221901, 315.911144 350.995369)

LINESTRING (249.261031 290.221901, 271.965410 348.966571)

LINESTRING (210.130782 225.670826, 232.551385 285.413899)

LINESTRING (232.551385 285.413899, 281.894684 355.195938)

LINESTRING (232.551385 285.413899, 240.001161 354.987147)

LINESTRING (232.551385 285.413899, 210.013177 357.561968)

LINESTRING (153.979251 150.209839, 170.524424 209.773507)

LINESTRING (170.524424 209.773507, 212.661550 256.975889)

LINESTRING (212.661550 256.975889, 286.100014 278.324637)

LINESTRING (212.661550 256.975889, 265.994581 294.265680)

LINESTRING (212.661550 256.975889, 251.212056 334.913011)

LINESTRING (170.524424 209.773507, 199.434633 306.170600)

LINESTRING (199.434633 306.170600, 274.532988 343.559304)

LINESTRING (199.434633 306.170600, 209.869292 382.056006)

LINESTRING (199.434633 306.170600, 185.089809 381.242730)

LINESTRING (170.524424 209.773507, 144.461030 284.882338)

LINESTRING (144.461030 284.882338, 165.788046 368.098712)

LINESTRING (144.461030 284.882338, 139.606461 361.462099)

LINESTRING (144.461030 284.882338, 77.353540 357.072428)

LINESTRING (80.000000 80.000000, 99.524048 153.715632)

LINESTRING (99.524048 153.715632, 163.077219 229.616061)

LINESTRING (163.077219 229.616061, 233.909563 251.144855)

LINESTRING (233.909563 251.144855, 309.177974 224.871989)

LINESTRING (233.909563 251.144855, 325.196292 261.114942)

LINESTRING (233.909563 251.144855, 276.614024 288.796275)

LINESTRING (163.077219 229.616061, 207.997304 301.711339)

LINESTRING (207.997304 301.711339, 296.043069 308.484167)

LINESTRING (207.997304 301.711339, 275.801412 370.104394)

LINESTRING (207.997304 301.711339, 218.653707 392.564478)

LINESTRING (163.077219 229.616061, 175.641165 318.123007)

LINESTRING (175.641165 318.123007, 235.679233 378.601824)

LINESTRING (175.641165 318.123007, 192.405930 390.828589)

LINESTRING (175.641165 318.123007, 154.297306 393.407935)

LINESTRING (99.524048 153.715632, 134.743853 216.039965)

LINESTRING (134.743853 216.039965, 203.422802 258.053430)

LINESTRING (203.422802 258.053430, 279.633691 273.584169)

LINESTRING (203.422802 258.053430, 267.930119 318.105020)

LINESTRING (203.422802 258.053430, 224.427453 333.981296)

LINESTRING (134.743853 216.039965, 167.695712 296.989877)

LINESTRING (167.695712 296.989877, 238.516051 373.098316)

LINESTRING (167.695712 296.989877, 175.214514 378.821154)

LINESTRING (167.695712 296.989877, 144.890418 384.709846)

LINESTRING (134.743853 216.039965, 97.372709 282.246460)

LINESTRING (97.372709 282.246460, 123.820299 344.636264)

LINESTRING (97.372709 282.246460, 57.648026 352.356896)

LINESTRING (97.372709 282.246460, 51.430135 324.545736)

LINESTRING (99.524048 153.715632, 76.754035 221.454132)

LINESTRING (76.754035 221.454132, 102.842586 299.592558)

LINESTRING (102.842586 299.592558, 152.981404 363.799076)

LINESTRING (102.842586 299.592558, 133.604300 394.309189)

LINESTRING (102.842586 299.592558, 68.807108 369.345145)

LINESTRING (76.754035 221.454132, 63.487727 307.330648)

LINESTRING (63.487727 307.330648, 99.702985 393.732658)

LINESTRING (63.487727 307.330648, 28.754286 400.888948)

LINESTRING (63.487727 307.330648, 16.200509 356.601745)

LINESTRING (76.754035 221.454132, 27.382912 264.398394)

LINESTRING (27.382912 264.398394, 18.021812 327.355016)

LINESTRING (27.382912 264.398394, -27.877379 323.778315)

LINESTRING (27.382912 264.398394, -41.473248 268.831689)

