LINESTRING (444261.628110 7376435.958114, 444258.935083 7376425.943968)

LINESTRING (444261.628110 7376435.958114, 444263.719234 7376443.698650, 444269.896196 7376466.554259, 444276.227259 7376489.997723, 444309.802091 7376610.031081)

LINESTRING (444258.935083 7376425.943968, 444261.628110 7376435.958114)

LINESTRING (444258.935083 7376425.943968, 444322.738493 7376395.687015, 444419.748815 7376343.895111, 444427.897142 7376341.647184, 444433.025148 7376342.146735)

LINESTRING (444309.802091 7376610.031081, 444312.664114 7376626.274552, 444319.072222 7376645.379334, 444340.980857 7376704.769580, 444356.669628 7376744.917543, 444364.177009 7376761.391383)

LINESTRING (444309.802091 7376610.031081, 444276.227259 7376489.997723, 444269.896196 7376466.554259, 444263.719234 7376443.698650, 444261.628110 7376435.958114)

LINESTRING (444309.802091 7376610.031081, 444318.229956 7376607.119379, 444322.702725 7376604.922474, 444325.343524 7376603.241713, 444326.981030 7376601.681402, 444330.809677 7376596.208261, 444355.479431 7376567.695055, 444363.270800 7376562.989992, 444370.913253 7376559.514397)

LINESTRING (444679.809810 7375766.217550, 444678.800662 7375747.941094, 444674.531049 7375718.379204, 444664.803335 7375662.177999, 444660.204058 7375627.248569, 444658.838789 7375612.781231, 444658.875805 7375599.657384, 444659.970610 7375577.949568, 444665.782819 7375537.606032)

LINESTRING (444679.809810 7375766.217550, 444682.401541 7375779.244489, 444683.957383 7375788.980603, 444682.681609 7375825.978154, 444680.934885 7375859.885483, 444678.767056 7375883.142151, 444674.805791 7375916.926318, 444673.958933 7375923.354210)

LINESTRING (444665.782819 7375537.606032, 444651.234329 7375538.263564, 444643.334242 7375539.914901, 444627.586543 7375544.509955, 444610.761592 7375548.435283)

LINESTRING (444665.782819 7375537.606032, 444677.603268 7375536.991709, 444688.238135 7375538.095766, 444696.967666 7375540.319276)

LINESTRING (444665.782819 7375537.606032, 444659.970610 7375577.949568, 444658.875805 7375599.657384, 444658.838789 7375612.781231, 444660.204058 7375627.248569, 444664.803335 7375662.177999, 444674.531049 7375718.379204, 444678.800662 7375747.941094, 444679.809810 7375766.217550)

LINESTRING (444673.958933 7375923.354210, 444672.140877 7375932.198604)

LINESTRING (444673.958933 7375923.354210, 444695.294435 7375932.819367, 444731.315217 7375947.277585, 444764.786238 7375958.653882)

LINESTRING (444612.001867 7376116.016167, 444610.178691 7376121.906059, 444605.805987 7376136.320488, 444595.932843 7376159.251390, 444585.495744 7376182.238173, 444578.230616 7376195.773751, 444568.771998 7376212.017859, 444553.078380 7376233.403719, 444533.466488 7376259.149332, 444516.628732 7376276.700467, 444498.752844 7376293.514264, 444474.528248 7376313.766457, 444456.075333 7376327.514764, 444433.025148 7376342.146735)

LINESTRING (444612.001867 7376116.016167, 444612.337338 7376108.728768, 444615.786526 7376093.529980, 444632.249644 7376048.815290, 444646.773960 7376003.046657, 444660.474462 7375950.526688, 444664.284656 7375929.065843)

LINESTRING (444433.025148 7376342.146735, 444430.600404 7376348.416725, 444404.488992 7376363.511537, 444359.744391 7376385.959269, 444277.632499 7376427.798956, 444261.628110 7376435.958114)

LINESTRING (444433.025148 7376342.146735, 444456.075333 7376327.514764, 444474.528248 7376313.766457, 444498.752844 7376293.514264, 444516.628732 7376276.700467, 444533.466488 7376259.149332, 444553.078380 7376233.403719, 444568.771998 7376212.017859, 444578.230616 7376195.773751, 444585.495744 7376182.238173, 444595.932843 7376159.251390, 444605.805987 7376136.320488, 444610.178691 7376121.906059, 444612.001867 7376116.016167)

LINESTRING (444664.284656 7375929.065843, 444665.858210 7375920.014468)

LINESTRING (444664.284656 7375929.065843, 444650.044915 7375922.325078, 444627.738054 7375908.575853, 444589.127375 7375884.604188, 444574.929083 7375876.168227, 444553.219503 7375860.935921, 444543.683527 7375855.506724, 444537.562673 7375852.361994, 444532.372193 7375848.329040, 444527.992841 7375843.677828)

LINESTRING (444665.858210 7375920.014468, 444673.958933 7375923.354210)

LINESTRING (444665.858210 7375920.014468, 444668.829905 7375900.476911)

LINESTRING (444527.992841 7375843.677828, 444536.048818 7375844.531700, 444541.589277 7375846.026710, 444547.971994 7375848.909784, 444549.545090 7375849.670029, 444570.232559 7375862.971502, 444579.053182 7375869.585763, 444595.099327 7375878.274806, 444646.180174 7375909.301217)

LINESTRING (444527.992841 7375843.677828, 444498.935331 7375836.330426, 444477.892801 7375832.692157, 444382.062945 7375816.300079, 444365.749976 7375813.460002)

LINESTRING (444976.459959 7375881.994554, 444947.646113 7375906.414048)

LINESTRING (444976.459959 7375881.994554, 444975.834968 7375870.433640)

LINESTRING (444947.646113 7375906.414048, 444932.950571 7375918.200369, 444912.834573 7375932.948485, 444903.218927 7375936.249799)

LINESTRING (444975.834968 7375870.433640, 444983.156489 7375875.573636)

LINESTRING (444975.834968 7375870.433640, 444969.057390 7375862.417446, 444961.174103 7375854.311664, 444954.276103 7375848.984943, 444947.088094 7375844.299509, 444941.681920 7375840.582265, 444932.126542 7375837.281711, 444921.610860 7375836.062893, 444897.516492 7375836.518089, 444885.069835 7375834.445716, 444875.353858 7375830.234271, 444867.305315 7375824.138954, 444861.676000 7375817.482791, 444855.269266 7375805.969680, 444852.630004 7375799.031230, 444848.658149 7375786.176477, 444847.147748 7375780.720834)

LINESTRING (444975.834968 7375870.433640, 445041.669041 7375814.665523, 445061.132982 7375803.108898)

LINESTRING (444989.529086 7375908.338839, 444995.045056 7375929.536571, 444998.760861 7375942.541526, 445002.910721 7375951.390247, 445007.839660 7375960.022868, 445013.313463 7375966.949980, 445021.623737 7375975.738730, 445030.906718 7375984.876204, 445039.155265 7375990.098354, 445051.979663 7375997.136650, 445061.925218 7376000.396440, 445072.188229 7376003.505047, 445079.933723 7376005.124787, 445087.719607 7376006.085925, 445100.166584 7376006.419841, 445172.165593 7376003.292865)

LINESTRING (444989.529086 7375908.338839, 444982.825720 7375902.941302, 444977.632906 7375900.100588, 444972.684464 7375899.261974, 444965.877250 7375900.088010, 444957.082976 7375902.168715, 444947.646113 7375906.414048)

LINESTRING (444989.529086 7375908.338839, 444986.789805 7375898.124268, 444984.111083 7375892.769726, 444980.187257 7375887.027295, 444976.459959 7375881.994554)

LINESTRING (445172.165593 7376003.292865, 445200.891505 7376001.689494, 445232.658290 7375999.903859)

LINESTRING (445172.165593 7376003.292865, 445173.174355 7375998.021514, 445185.974783 7375973.619069, 445189.120711 7375967.703504, 445189.374848 7375962.759228)

LINESTRING (445172.165593 7376003.292865, 445100.166584 7376006.419841, 445087.719607 7376006.085925, 445079.933723 7376005.124787, 445072.188229 7376003.505047, 445061.925218 7376000.396440, 445051.979663 7375997.136650, 445039.155265 7375990.098354, 445030.906718 7375984.876204, 445021.623737 7375975.738730, 445013.313463 7375966.949980, 445007.839660 7375960.022868, 445002.910721 7375951.390247, 444998.760861 7375942.541526, 444995.045056 7375929.536571, 444989.529086 7375908.338839)

LINESTRING (444604.990702 7375530.933844, 444594.768339 7375534.448981, 444427.323596 7375647.949453, 444409.704402 7375659.975393)

LINESTRING (444604.990702 7375530.933844, 444606.274809 7375534.832929, 444610.761592 7375548.435283)

LINESTRING (444409.704402 7375659.975393, 444427.323596 7375647.949453, 444594.768339 7375534.448981, 444604.990702 7375530.933844)

LINESTRING (444610.761592 7375548.435283, 444613.607202 7375562.114937, 444624.634421 7375609.069359, 444621.800669 7375616.317316, 444615.860744 7375623.393011, 444603.677710 7375632.154062, 444575.829004 7375650.704626, 444501.870845 7375699.978570, 444411.956031 7375761.670942, 444411.170027 7375762.210693, 444398.355785 7375772.289806, 444381.936037 7375784.815990, 444375.120017 7375790.549494, 444371.197312 7375795.611885, 444368.244322 7375803.531487, 444366.545777 7375809.184907, 444365.749976 7375813.460002)

LINESTRING (444610.761592 7375548.435283, 444627.586543 7375544.509955, 444643.334242 7375539.914901, 444651.234329 7375538.263564, 444665.782819 7375537.606032)

LINESTRING (444610.761592 7375548.435283, 444606.274809 7375534.832929, 444604.990702 7375530.933844)

LINESTRING (444365.749976 7375813.460002, 444366.545777 7375809.184907, 444368.244322 7375803.531487, 444371.197312 7375795.611885, 444375.120017 7375790.549494, 444381.936037 7375784.815990, 444398.355785 7375772.289806, 444411.170027 7375762.210693, 444411.956031 7375761.670942, 444501.870845 7375699.978570, 444575.829004 7375650.704626, 444603.677710 7375632.154062, 444615.860744 7375623.393011, 444621.800669 7375616.317316, 444624.634421 7375609.069359, 444613.607202 7375562.114937, 444610.761592 7375548.435283)

LINESTRING (444365.749976 7375813.460002, 444364.489244 7375818.524879, 444363.779892 7375825.117374, 444364.350212 7375831.595060, 444365.770861 7375838.747008, 444367.857540 7375844.926756, 444371.869754 7375851.904198, 444390.248427 7375881.473305, 444410.298475 7375908.500428, 444448.644025 7375965.020771, 444473.730493 7376001.134991, 444500.592217 7376038.808378)

LINESTRING (444365.749976 7375813.460002, 444382.062945 7375816.300079, 444477.892801 7375832.692157, 444498.935331 7375836.330426, 444527.992841 7375843.677828)

LINESTRING (444500.592217 7376038.808378, 444500.939060 7376043.696148, 444500.731354 7376054.024869, 444499.960371 7376061.332133, 444499.675418 7376063.110617, 444498.773177 7376068.302070, 444495.801515 7376081.975129, 444492.715990 7376095.739664, 444491.968381 7376101.095276, 444488.796916 7376123.480213, 444486.551193 7376134.496320, 444480.740783 7376162.687197, 444476.883674 7376183.714441, 444475.473545 7376193.777298, 444474.414731 7376207.166884, 444474.387457 7376211.816835, 444474.290372 7376230.126505, 444475.372955 7376251.344968, 444476.142088 7376259.546897, 444475.901273 7376264.201114, 444475.516733 7376267.230352, 444474.807432 7376270.266078, 444468.159871 7376272.127086, 444462.975505 7376273.267594, 444458.362576 7376273.828059, 444430.042132 7376275.754410, 444419.329261 7376276.180467, 444405.115418 7376276.464749, 444397.975354 7376276.618730, 444379.645304 7376277.375731, 444370.366956 7376277.873616, 444362.203717 7376278.717149, 444346.729943 7376281.647123, 444337.127884 7376284.203141, 444323.588548 7376287.941879)

LINESTRING (444500.592217 7376038.808378, 444473.730493 7376001.134991, 444448.644025 7375965.020771, 444410.298475 7375908.500428, 444390.248427 7375881.473305, 444371.869754 7375851.904198, 444367.857540 7375844.926756, 444365.770861 7375838.747008, 444364.350212 7375831.595060, 444363.779892 7375825.117374, 444364.489244 7375818.524879, 444365.749976 7375813.460002)

LINESTRING (444500.592217 7376038.808378, 444511.765587 7376030.412615, 444528.128785 7376018.891770, 444562.283122 7375995.788450, 444583.796388 7375980.017569, 444586.166772 7375978.130623)

LINESTRING (444323.588548 7376287.941879, 444337.127884 7376284.203141, 444346.729943 7376281.647123, 444362.203717 7376278.717149, 444370.366956 7376277.873616, 444379.645304 7376277.375731, 444397.975354 7376276.618730, 444405.115418 7376276.464749, 444419.329261 7376276.180467, 444430.042132 7376275.754410, 444458.362576 7376273.828059, 444462.975505 7376273.267594, 444468.159871 7376272.127086, 444474.807432 7376270.266078, 444475.516733 7376267.230352, 444475.901273 7376264.201114, 444476.142088 7376259.546897, 444475.372955 7376251.344968, 444474.290372 7376230.126505, 444474.387457 7376211.816835, 444474.414731 7376207.166884, 444475.473545 7376193.777298, 444476.883674 7376183.714441, 444480.740783 7376162.687197, 444486.551193 7376134.496320, 444488.796916 7376123.480213, 444491.968381 7376101.095276, 444492.715990 7376095.739664, 444495.801515 7376081.975129, 444498.773177 7376068.302070, 444499.675418 7376063.110617, 444499.960371 7376061.332133, 444500.731354 7376054.024869, 444500.939060 7376043.696148, 444500.592217 7376038.808378)

LINESTRING (444323.588548 7376287.941879, 444320.689436 7376278.076751, 444282.171760 7376134.750302)

LINESTRING (444586.166772 7375978.130623, 444583.796388 7375980.017569, 444562.283122 7375995.788450, 444528.128785 7376018.891770, 444511.765587 7376030.412615, 444500.592217 7376038.808378)

LINESTRING (444282.171760 7376134.750302, 444320.689436 7376278.076751, 444323.588548 7376287.941879)

LINESTRING (444696.967666 7375540.319276, 444706.208229 7375542.945186, 444715.498773 7375549.204909, 444720.635922 7375555.692186, 444731.933030 7375575.782192, 444736.741417 7375580.291401, 444740.078823 7375582.912121, 444745.296368 7375584.715004)

LINESTRING (444696.967666 7375540.319276, 444688.238135 7375538.095766, 444677.603268 7375536.991709, 444665.782819 7375537.606032)

LINESTRING (444696.967666 7375540.319276, 444702.020944 7375523.338236, 444707.418572 7375496.583290, 444710.192494 7375490.786071, 444714.919375 7375487.157645, 444719.795193 7375485.421700, 444745.005945 7375478.264229, 444884.087965 7375438.899465, 444921.949852 7375428.950749, 444938.278979 7375424.212079, 444945.425571 7375424.728385, 444950.299686 7375426.716850, 444952.901393 7375431.080578, 444977.102866 7375517.066633, 444978.859672 7375523.732772)

LINESTRING (444745.296368 7375584.715004, 444756.438852 7375584.716566, 444810.283343 7375569.565203, 444821.482273 7375566.800802)

LINESTRING (444745.296368 7375584.715004, 444740.078823 7375582.912121, 444736.741417 7375580.291401, 444731.933030 7375575.782192, 444720.635922 7375555.692186, 444715.498773 7375549.204909, 444706.208229 7375542.945186, 444696.967666 7375540.319276)

LINESTRING (444745.296368 7375584.715004, 444743.335858 7375591.120401, 444742.573382 7375598.672698, 444742.961089 7375607.428593, 444756.066063 7375653.773556, 444795.274534 7375794.070792)

LINESTRING (444821.482273 7375566.800802, 444823.047496 7375572.768228, 444875.989026 7375772.923835)

LINESTRING (444821.482273 7375566.800802, 444829.781374 7375564.618022, 444879.000654 7375551.455227)

LINESTRING (444821.482273 7375566.800802, 444810.283343 7375569.565203, 444756.438852 7375584.716566, 444745.296368 7375584.715004)

LINESTRING (444795.274534 7375794.070792, 444847.147748 7375780.720834)

LINESTRING (444795.274534 7375794.070792, 444727.968667 7375812.768161, 444723.034459 7375811.762459, 444720.132945 7375808.664812, 444714.701992 7375788.948783, 444671.834973 7375627.195467)

LINESTRING (444795.274534 7375794.070792, 444756.066063 7375653.773556, 444742.961089 7375607.428593, 444742.573382 7375598.672698, 444743.335858 7375591.120401, 444745.296368 7375584.715004)

LINESTRING (444978.859672 7375523.732772, 444980.134199 7375528.524175, 445033.714677 7375730.018981, 444936.163455 7375756.813104)

LINESTRING (444978.859672 7375523.732772, 444989.405934 7375520.814729, 445040.755769 7375506.586916)

LINESTRING (444978.859672 7375523.732772, 444929.424589 7375537.957264, 444887.373472 7375549.393805, 444879.000654 7375551.455227)

LINESTRING (444978.859672 7375523.732772, 444977.102866 7375517.066633, 444952.901393 7375431.080578, 444950.299686 7375426.716850, 444945.425571 7375424.728385, 444938.278979 7375424.212079, 444921.949852 7375428.950749, 444884.087965 7375438.899465, 444745.005945 7375478.264229, 444719.795193 7375485.421700, 444714.919375 7375487.157645, 444710.192494 7375490.786071, 444707.418572 7375496.583290, 444702.020944 7375523.338236, 444696.967666 7375540.319276)

LINESTRING (444936.163455 7375756.813104, 444933.139129 7375744.809140, 444894.273335 7375600.812805, 444879.000654 7375551.455227)

LINESTRING (444936.163455 7375756.813104, 444882.058715 7375771.030697, 444875.989026 7375772.923835)

LINESTRING (444936.163455 7375756.813104, 445033.714677 7375730.018981, 444980.134199 7375528.524175, 444978.859672 7375523.732772)

LINESTRING (445040.755769 7375506.586916, 444989.405934 7375520.814729, 444978.859672 7375523.732772)

LINESTRING (445040.755769 7375506.586916, 445063.525203 7375501.342587, 445081.242058 7375498.807249, 445125.796464 7375492.330429, 445167.922506 7375488.444321, 445172.588502 7375487.794824, 445193.122019 7375484.959369)

LINESTRING (444879.000654 7375551.455227, 444894.273335 7375600.812805, 444933.139129 7375744.809140, 444936.163455 7375756.813104)

LINESTRING (444879.000654 7375551.455227, 444887.373472 7375549.393805, 444929.424589 7375537.957264, 444978.859672 7375523.732772)

LINESTRING (444879.000654 7375551.455227, 444829.781374 7375564.618022, 444821.482273 7375566.800802)

LINESTRING (445193.122019 7375484.959369, 445258.140158 7375476.598468, 445266.910143 7375475.466944)

LINESTRING (445193.122019 7375484.959369, 445172.588502 7375487.794824, 445167.922506 7375488.444321, 445125.796464 7375492.330429, 445081.242058 7375498.807249, 445063.525203 7375501.342587, 445040.755769 7375506.586916)

LINESTRING (445513.922819 7375472.376827, 445525.560631 7375461.289127, 445529.926776 7375457.145151, 445533.076480 7375452.489834, 445534.174225 7375445.577912)

LINESTRING (445513.922819 7375472.376827, 445439.619293 7375538.891601, 445400.302957 7375566.812613, 445375.154122 7375584.856029, 445337.378599 7375607.986825, 445256.696134 7375652.857001, 445229.489895 7375669.191806, 445205.555125 7375684.815727)

LINESTRING (445534.174225 7375445.577912, 445534.041607 7375436.081100)

LINESTRING (445205.555125 7375684.815727, 445189.051173 7375696.658582, 445157.798343 7375720.611012, 445124.162142 7375748.725049, 445102.990954 7375767.406068, 445061.132982 7375803.108898)

LINESTRING (445205.555125 7375684.815727, 445229.489895 7375669.191806, 445256.696134 7375652.857001, 445337.378599 7375607.986825, 445375.154122 7375584.856029, 445400.302957 7375566.812613, 445439.619293 7375538.891601, 445513.922819 7375472.376827)

LINESTRING (445205.555125 7375684.815727, 445210.760752 7375691.235631, 445216.409356 7375696.643353, 445224.798174 7375702.409628, 445235.463599 7375708.276024, 445247.721839 7375712.070716, 445257.307933 7375713.766212, 445266.928064 7375713.799785, 445276.484515 7375712.407499, 445291.082932 7375708.451964, 445357.524918 7375688.993733, 445376.147652 7375685.717724)

LINESTRING (445061.132982 7375803.108898, 445102.990954 7375767.406068, 445124.162142 7375748.725049, 445157.798343 7375720.611012, 445189.051173 7375696.658582, 445205.555125 7375684.815727)

LINESTRING (445061.132982 7375803.108898, 445045.977383 7375819.820659, 444983.156489 7375875.573636)

LINESTRING (445376.147652 7375685.717724, 445357.524918 7375688.993733, 445291.082932 7375708.451964, 445276.484515 7375712.407499, 445266.928064 7375713.799785, 445257.307933 7375713.766212, 445247.721839 7375712.070716, 445235.463599 7375708.276024, 445224.798174 7375702.409628, 445216.409356 7375696.643353, 445210.760752 7375691.235631, 445205.555125 7375684.815727)

LINESTRING (445376.147652 7375685.717724, 445376.197107 7375685.516060, 445392.502754 7375683.478693, 445406.188050 7375682.652433, 445421.534265 7375682.306512, 445433.431867 7375682.931476, 445443.321463 7375684.443263, 445477.963772 7375689.728653)

LINESTRING (445376.147652 7375685.717724, 445371.485488 7375693.569428, 445356.764925 7375718.722255, 445348.693811 7375715.513743, 445339.682031 7375714.497915, 445332.669961 7375715.572358, 445327.306180 7375716.937740, 445321.806571 7375720.223530, 445316.339202 7375725.147682, 445285.554815 7375769.091773, 445283.555393 7375773.122673, 445283.449583 7375776.792964, 445283.760715 7375780.388151, 445284.825673 7375784.514831, 445286.536000 7375787.959834, 445290.308249 7375792.133578, 445303.543788 7375801.506357, 445337.285689 7375823.309042, 445360.905592 7375836.759343, 445367.970108 7375839.954216, 445376.058054 7375842.906004, 445396.865268 7375848.919368, 445417.662615 7375856.248728, 445432.135748 7375864.081462, 445433.826236 7375864.940243, 445454.391810 7375875.440896, 445469.198814 7375882.832434, 445479.181036 7375888.423252, 445484.074621 7375892.374565, 445488.359860 7375896.627704, 445490.633207 7375899.292466)

LINESTRING (444983.156489 7375875.573636, 444976.459959 7375881.994554)

LINESTRING (444983.156489 7375875.573636, 444988.668728 7375886.681043, 444990.675416 7375895.639059, 444989.529086 7375908.338839)

LINESTRING (445534.041607 7375436.081100, 445530.578471 7375434.509962, 445523.214517 7375431.978348, 445517.053449 7375429.947210, 445511.811419 7375430.061086, 445492.716676 7375434.560696, 445478.067810 7375438.527270, 445460.510272 7375443.543288, 445432.755048 7375451.123246, 445421.388193 7375452.639707)

LINESTRING (445534.041607 7375436.081100, 445536.767002 7375430.898923, 445541.215633 7375427.098986)

LINESTRING (445421.388193 7375452.639707, 445406.178003 7375456.350094, 445383.983858 7375460.331543, 445362.730469 7375463.023633, 445357.115583 7375463.869851, 445289.627932 7375472.544608, 445266.910143 7375475.466944)

LINESTRING (445421.388193 7375452.639707, 445431.341211 7375445.999902, 445473.093736 7375433.462575, 445495.980300 7375425.499033, 445504.086113 7375423.177132, 445515.110631 7375421.221741, 445521.759600 7375422.251005, 445527.144258 7375423.962879, 445535.556912 7375425.258660, 445541.215633 7375427.098986)

LINESTRING (444903.218927 7375936.249799, 444889.026742 7375946.242446, 444872.794818 7375955.049162, 444852.493480 7375961.996675, 444832.294044 7375965.775824, 444816.525459 7375967.415626, 444804.733324 7375967.794697)

LINESTRING (444903.218927 7375936.249799, 444907.282384 7375929.044661, 444930.185792 7375910.528464, 444975.834968 7375870.433640)

LINESTRING (444804.733324 7375967.794697, 444816.525459 7375967.415626, 444832.294044 7375965.775824, 444852.493480 7375961.996675, 444872.794818 7375955.049162, 444889.026742 7375946.242446, 444903.218927 7375936.249799)

LINESTRING (444804.733324 7375967.794697, 444794.361988 7375971.133698, 444780.552509 7375969.891645, 444762.882358 7375966.552198)

LINESTRING (444847.147748 7375780.720834, 444795.274534 7375794.070792)

LINESTRING (444847.147748 7375780.720834, 444852.771532 7375779.014871, 444875.989026 7375772.923835)

LINESTRING (444847.147748 7375780.720834, 444848.658149 7375786.176477, 444852.630004 7375799.031230, 444855.269266 7375805.969680, 444861.676000 7375817.482791, 444867.305315 7375824.138954, 444875.353858 7375830.234271, 444885.069835 7375834.445716, 444897.516492 7375836.518089, 444921.610860 7375836.062893, 444932.126542 7375837.281711, 444941.681920 7375840.582265, 444947.088094 7375844.299509, 444954.276103 7375848.984943, 444961.174103 7375854.311664, 444969.057390 7375862.417446, 444975.834968 7375870.433640)

LINESTRING (444739.681358 7376017.710679, 444744.286552 7376008.677131, 444759.545868 7375974.033000, 444762.882358 7375966.552198)

LINESTRING (444762.882358 7375966.552198, 444764.786238 7375958.653882)

LINESTRING (444762.882358 7375966.552198, 444750.156858 7375963.192625, 444728.920807 7375956.244894, 444703.394509 7375944.632923)

LINESTRING (444762.882358 7375966.552198, 444759.545868 7375974.033000, 444744.286552 7376008.677131, 444739.681358 7376017.710679)

LINESTRING (444646.180174 7375909.301217, 444650.129312 7375911.586302, 444654.602114 7375914.240054, 444665.858210 7375920.014468)

LINESTRING (444646.180174 7375909.301217, 444652.929004 7375908.453258, 444656.329661 7375908.229456, 444658.905645 7375907.721036, 444664.986521 7375904.846023, 444668.829905 7375900.476911)

LINESTRING (444672.140877 7375932.198604, 444664.284656 7375929.065843)

LINESTRING (444672.140877 7375932.198604, 444667.170426 7375958.655267)

LINESTRING (444764.786238 7375958.653882, 444762.882358 7375966.552198)

LINESTRING (444764.786238 7375958.653882, 444776.149437 7375961.327010, 444785.631120 7375962.944895, 444796.076780 7375964.019635, 444804.733324 7375967.794697)

LINESTRING (444668.829905 7375900.476911, 444673.773684 7375860.819625, 444676.089313 7375813.677508, 444677.210073 7375781.867614, 444679.809810 7375766.217550)

LINESTRING (444364.177009 7376761.391383, 444369.644925 7376771.350064, 444378.674982 7376788.763478, 444389.010864 7376806.507574, 444399.691646 7376821.925674, 444411.344289 7376835.217082, 444423.974652 7376847.786551, 444433.487409 7376855.323021)

LINESTRING (444364.177009 7376761.391383, 444356.669628 7376744.917543, 444340.980857 7376704.769580, 444319.072222 7376645.379334, 444312.664114 7376626.274552, 444309.802091 7376610.031081)

LINESTRING (444364.177009 7376761.391383, 444371.882977 7376758.226695, 444375.091467 7376756.902553, 444424.454929 7376734.083796)

LINESTRING (444370.913253 7376559.514397, 444358.588192 7376424.459917)

LINESTRING (444370.913253 7376559.514397, 444363.270800 7376562.989992, 444355.479431 7376567.695055, 444330.809677 7376596.208261, 444326.981030 7376601.681402, 444325.343524 7376603.241713, 444322.702725 7376604.922474, 444318.229956 7376607.119379, 444309.802091 7376610.031081)

LINESTRING (444370.913253 7376559.514397, 444375.347785 7376581.635770, 444380.781195 7376605.197763, 444386.086836 7376628.383234, 444392.588635 7376649.749681, 444424.454929 7376734.083796)

LINESTRING (444358.588192 7376424.459917, 444370.913253 7376559.514397)

LINESTRING (444424.454929 7376734.083796, 444438.247305 7376764.023575, 444454.097709 7376788.302846, 444482.641675 7376826.555529)

LINESTRING (444424.454929 7376734.083796, 444392.588635 7376649.749681, 444386.086836 7376628.383234, 444380.781195 7376605.197763, 444375.347785 7376581.635770, 444370.913253 7376559.514397)

LINESTRING (444424.454929 7376734.083796, 444375.091467 7376756.902553, 444371.882977 7376758.226695, 444364.177009 7376761.391383)

LINESTRING (444482.641675 7376826.555529, 444454.097709 7376788.302846, 444438.247305 7376764.023575, 444424.454929 7376734.083796)

LINESTRING (444433.487409 7376855.323021, 444423.974652 7376847.786551, 444411.344289 7376835.217082, 444399.691646 7376821.925674, 444389.010864 7376806.507574, 444378.674982 7376788.763478, 444369.644925 7376771.350064, 444364.177009 7376761.391383)

LINESTRING (444433.487409 7376855.323021, 444425.893751 7376863.647594, 444422.684567 7376866.934035, 444413.879664 7376876.319788, 444396.370831 7376892.123549, 444370.462721 7376913.324770, 444362.062888 7376922.702585)

LINESTRING (444362.062888 7376922.702585, 444355.062450 7376927.079647, 444343.211950 7376936.560078, 444338.523976 7376941.314551)

LINESTRING (444362.062888 7376922.702585, 444370.462721 7376913.324770, 444396.370831 7376892.123549, 444413.879664 7376876.319788, 444422.684567 7376866.934035, 444425.893751 7376863.647594, 444433.487409 7376855.323021)

LINESTRING (444338.523976 7376941.314551, 444343.211950 7376936.560078, 444355.062450 7376927.079647, 444362.062888 7376922.702585)

LINESTRING (444875.989026 7375772.923835, 444823.047496 7375572.768228, 444821.482273 7375566.800802)

LINESTRING (444875.989026 7375772.923835, 444852.771532 7375779.014871, 444847.147748 7375780.720834)

LINESTRING (444875.989026 7375772.923835, 444882.058715 7375771.030697, 444936.163455 7375756.813104)

LINESTRING (445266.910143 7375475.466944, 445289.627932 7375472.544608, 445357.115583 7375463.869851, 445362.730469 7375463.023633, 445383.983858 7375460.331543, 445406.178003 7375456.350094, 445421.388193 7375452.639707)

LINESTRING (445266.910143 7375475.466944, 445258.140158 7375476.598468, 445193.122019 7375484.959369)

LINESTRING (445266.910143 7375475.466944, 445267.689333 7375482.709973, 445270.102094 7375492.429498, 445283.038614 7375539.917315, 445286.502570 7375546.505435, 445290.581519 7375550.639702, 445298.233774 7375555.383789)

LINESTRING (444671.834973 7375627.195467, 444714.701992 7375788.948783, 444720.132945 7375808.664812, 444723.034459 7375811.762459, 444727.968667 7375812.768161, 444795.274534 7375794.070792)

LINESTRING (445477.963772 7375689.728653, 445443.321463 7375684.443263, 445433.431867 7375682.931476, 445421.534265 7375682.306512, 445406.188050 7375682.652433, 445392.502754 7375683.478693, 445376.197107 7375685.516060, 445376.147652 7375685.717724)

LINESTRING (445477.963772 7375689.728653, 445501.051223 7375693.256346, 445513.595335 7375696.210383, 445523.459121 7375700.499196, 445533.483851 7375706.869854, 445540.335368 7375714.183523, 445551.568306 7375728.836987, 445560.224796 7375743.540948, 445561.892693 7375757.110730, 445561.543531 7375767.921476, 445557.439844 7375781.124854, 445534.710243 7375819.902232)

LINESTRING (445477.963772 7375689.728653, 445476.996517 7375695.790680, 445476.232107 7375699.485023, 445474.035479 7375703.463898, 445471.273874 7375708.368119, 445442.435057 7375747.243801, 445431.306135 7375759.459154, 445431.986975 7375763.303536, 445435.849706 7375767.107762, 445457.280858 7375778.583772, 445471.865791 7375786.882807, 445494.562633 7375798.679907, 445509.613535 7375806.691260, 445528.108053 7375816.441440, 445534.710243 7375819.902232)

LINESTRING (445490.633207 7375899.292466, 445499.497190 7375882.360888, 445513.141149 7375858.356027, 445534.710243 7375819.902232)

LINESTRING (445490.633207 7375899.292466, 445487.749152 7375908.157169, 445483.760885 7375919.953564, 445479.233635 7375942.620203, 445478.185462 7375948.182090, 445476.713252 7375960.263636, 445475.125736 7375972.592735)

LINESTRING (445490.633207 7375899.292466, 445488.359860 7375896.627704, 445484.074621 7375892.374565, 445479.181036 7375888.423252, 445469.198814 7375882.832434, 445454.391810 7375875.440896, 445433.826236 7375864.940243, 445432.135748 7375864.081462, 445417.662615 7375856.248728, 445396.865268 7375848.919368, 445376.058054 7375842.906004, 445367.970108 7375839.954216, 445360.905592 7375836.759343, 445337.285689 7375823.309042, 445303.543788 7375801.506357, 445290.308249 7375792.133578, 445286.536000 7375787.959834, 445284.825673 7375784.514831, 445283.760715 7375780.388151, 445283.449583 7375776.792964, 445283.555393 7375773.122673, 445285.554815 7375769.091773, 445316.339202 7375725.147682, 445321.806571 7375720.223530, 445327.306180 7375716.937740, 445332.669961 7375715.572358, 445339.682031 7375714.497915, 445348.693811 7375715.513743, 445356.764925 7375718.722255, 445371.485488 7375693.569428, 445376.147652 7375685.717724)

LINESTRING (445534.710243 7375819.902232, 445557.439844 7375781.124854, 445561.543531 7375767.921476, 445561.892693 7375757.110730, 445560.224796 7375743.540948, 445551.568306 7375728.836987, 445540.335368 7375714.183523, 445533.483851 7375706.869854, 445523.459121 7375700.499196, 445513.595335 7375696.210383, 445501.051223 7375693.256346, 445477.963772 7375689.728653)

LINESTRING (445534.710243 7375819.902232, 445528.108053 7375816.441440, 445509.613535 7375806.691260, 445494.562633 7375798.679907, 445471.865791 7375786.882807, 445457.280858 7375778.583772, 445435.849706 7375767.107762, 445431.986975 7375763.303536, 445431.306135 7375759.459154, 445442.435057 7375747.243801, 445471.273874 7375708.368119, 445474.035479 7375703.463898, 445476.232107 7375699.485023, 445476.996517 7375695.790680, 445477.963772 7375689.728653)

LINESTRING (445534.710243 7375819.902232, 445513.141149 7375858.356027, 445499.497190 7375882.360888, 445490.633207 7375899.292466)

LINESTRING (445475.125736 7375972.592735, 445476.713252 7375960.263636, 445478.185462 7375948.182090, 445479.233635 7375942.620203, 445483.760885 7375919.953564, 445487.749152 7375908.157169, 445490.633207 7375899.292466)

LINESTRING (445475.125736 7375972.592735, 445454.835491 7375975.856246, 445420.702667 7375981.153303, 445388.235282 7375985.804835, 445294.914560 7375995.656396, 445273.352235 7375997.140045, 445250.034348 7375999.204769, 445232.658290 7375999.903859)

LINESTRING (445189.374848 7375962.759228, 445199.102333 7375958.798879, 445212.565701 7375956.493113, 445219.315221 7375954.776850, 445222.541174 7375954.724427, 445228.119091 7375955.216591, 445230.394099 7375955.695795, 445231.970129 7375956.166473, 445235.068843 7375957.789008, 445236.946093 7375959.089973, 445241.020483 7375962.566422, 445245.483194 7375967.228232)

LINESTRING (445189.374848 7375962.759228, 445189.120711 7375967.703504, 445185.974783 7375973.619069, 445173.174355 7375998.021514, 445172.165593 7376003.292865)

LINESTRING (445189.374848 7375962.759228, 445188.775723 7375960.139740, 445155.031121 7375943.144389, 445137.064720 7375934.021781)

LINESTRING (445245.483194 7375967.228232, 445240.932175 7375972.770024, 445236.509371 7375978.944825, 445234.404673 7375982.364613, 445233.089088 7375985.623911, 445232.722245 7375988.240140, 445232.504402 7375992.771161, 445232.658290 7375999.903859)

LINESTRING (445137.064720 7375934.021781, 445155.031121 7375943.144389, 445188.775723 7375960.139740, 445189.374848 7375962.759228)

LINESTRING (445137.064720 7375934.021781, 445120.160194 7375922.102075, 445120.201433 7375919.681800, 445122.814492 7375914.735544, 445125.491585 7375913.032556, 445129.841927 7375914.017041, 445134.148764 7375917.533347, 445137.064720 7375934.021781)

LINESTRING (445232.658290 7375999.903859, 445200.891505 7376001.689494, 445172.165593 7376003.292865)

LINESTRING (445232.658290 7375999.903859, 445232.504402 7375992.771161, 445232.722245 7375988.240140, 445233.089088 7375985.623911, 445234.404673 7375982.364613, 445236.509371 7375978.944825, 445240.932175 7375972.770024, 445245.483194 7375967.228232)

LINESTRING (445232.658290 7375999.903859, 445250.034348 7375999.204769, 445273.352235 7375997.140045, 445294.914560 7375995.656396, 445388.235282 7375985.804835, 445420.702667 7375981.153303, 445454.835491 7375975.856246, 445475.125736 7375972.592735)

LINESTRING (444667.170426 7375958.655267, 444659.251297 7375986.118365, 444650.061735 7376016.383047, 444636.976696 7376057.763489, 444628.298548 7376084.182595, 444621.585418 7376106.459515, 444612.001867 7376116.016167)

LINESTRING (444703.394509 7375944.632923, 444679.877600 7375935.590206, 444677.328870 7375934.559415, 444672.140877 7375932.198604)

LINESTRING (444703.394509 7375944.632923, 444692.100896 7375943.898740, 444683.575123 7375944.246783, 444678.746241 7375945.167954, 444675.838067 7375947.098971, 444672.780084 7375950.671968, 444670.982850 7375953.628944, 444667.170426 7375958.655267)

LINESTRING (445298.233774 7375555.383789, 445290.581519 7375550.639702, 445286.502570 7375546.505435, 445283.038614 7375539.917315, 445270.102094 7375492.429498, 445267.689333 7375482.709973, 445266.910143 7375475.466944)

LINESTRING (445563.646045 7375435.389820, 445564.495272 7375441.929122, 445562.557730 7375448.244248, 445558.175867 7375453.180097, 445552.142798 7375455.862632, 445547.140481 7375457.075553)

LINESTRING (445547.140481 7375457.075553, 445534.133075 7375462.793612, 445513.922819 7375472.376827)

LINESTRING (445547.140481 7375457.075553, 445541.535612 7375454.799329, 445538.510560 7375452.182693, 445534.174225 7375445.577912)

