LINESTRING (80.000000 80.000000, 168.049258 105.835018)

LINESTRING (168.049258 105.835018, 246.205047 89.291055)

LINESTRING (246.205047 89.291055, 315.080556 28.544095)

LINESTRING (315.080556 28.544095, 316.359611 -37.513332)

LINESTRING (315.080556 28.544095, 373.859120 22.149914)

LINESTRING (246.205047 89.291055, 341.659582 95.027593)

LINESTRING (341.659582 95.027593, 407.717623 80.697360)

LINESTRING (341.659582 95.027593, 393.057758 167.743177)

LINESTRING (168.049258 105.835018, 243.156525 145.847327)

LINESTRING (243.156525 145.847327, 329.431565 152.761349)

LINESTRING (329.431565 152.761349, 410.563979 147.366611)

LINESTRING (329.431565 152.761349, 402.265889 211.299586)

LINESTRING (243.156525 145.847327, 276.847884 238.062975)

LINESTRING (276.847884 238.062975, 342.582157 311.510184)

LINESTRING (276.847884 238.062975, 248.845765 311.929763)

LINESTRING (80.000000 80.000000, 100.972419 170.717413)

LINESTRING (100.972419 170.717413, 171.777547 216.918870)

LINESTRING (171.777547 216.918870, 256.501013 256.219441)

LINESTRING (256.501013 256.219441, 328.444930 242.649549)

LINESTRING (256.501013 256.219441, 325.855085 293.129171)

LINESTRING (171.777547 216.918870, 188.996706 307.491636)

LINESTRING (188.996706 307.491636, 228.206985 368.092827)

LINESTRING (188.996706 307.491636, 173.420378 373.704764)

LINESTRING (100.972419 170.717413, 84.278572 254.594350)

LINESTRING (84.278572 254.594350, 123.085221 315.496426)

LINESTRING (123.085221 315.496426, 189.361220 367.444709)

LINESTRING (123.085221 315.496426, 92.224701 404.821617)

LINESTRING (84.278572 254.594350, 23.151376 307.279663)

LINESTRING (23.151376 307.279663, 14.705169 367.915877)

LINESTRING (23.151376 307.279663, -36.448410 321.514591)

