LINESTRING (60.000000 60.000000, 57.289866 65.909287)

LINESTRING (60.000000 60.000000, 37.572292 57.555878)

LINESTRING (60.000000 60.000000, 63.594468 58.663653)

LINESTRING (60.000000 60.000000, 75.765245 42.674941)

LINESTRING (60.000000 60.000000, 81.834753 47.551171)

LINESTRING (60.000000 60.000000, 41.943844 59.331352)

LINESTRING (60.000000 60.000000, 72.957202 55.080502)

LINESTRING (60.000000 60.000000, 44.546565 46.436811)

LINESTRING (57.289866 65.909287, 63.594468 58.663653)

LINESTRING (57.289866 65.909287, 41.943844 59.331352)

LINESTRING (37.572292 57.555878, 75.765245 42.674941)

LINESTRING (37.572292 57.555878, 41.943844 59.331352)

LINESTRING (37.572292 57.555878, 72.957202 55.080502)

LINESTRING (63.594468 58.663653, 44.546565 46.436811)

LINESTRING (75.765245 42.674941, 72.957202 55.080502)

LINESTRING (75.765245 42.674941, 44.546565 46.436811)

LINESTRING (81.834753 47.551171, 44.546565 46.436811)

LINESTRING (41.943844 59.331352, 72.957202 55.080502)

LINESTRING (41.943844 59.331352, 44.546565 46.436811)

LINESTRING (72.957202 55.080502, 44.546565 46.436811)

LINESTRING (260.000000 60.000000, 271.504007 38.484879)

LINESTRING (260.000000 60.000000, 255.710147 50.302632)

LINESTRING (260.000000 60.000000, 257.655244 45.614869)

LINESTRING (260.000000 60.000000, 266.421644 65.885024)

LINESTRING (260.000000 60.000000, 252.664932 61.413682)

LINESTRING (260.000000 60.000000, 269.160653 74.411176)

LINESTRING (260.000000 60.000000, 266.942934 82.091192)

LINESTRING (260.000000 60.000000, 237.472765 45.168415)

LINESTRING (271.504007 38.484879, 257.655244 45.614869)

LINESTRING (271.504007 38.484879, 266.421644 65.885024)

LINESTRING (271.504007 38.484879, 269.160653 74.411176)

LINESTRING (271.504007 38.484879, 237.472765 45.168415)

LINESTRING (255.710147 50.302632, 257.655244 45.614869)

LINESTRING (255.710147 50.302632, 266.421644 65.885024)

LINESTRING (255.710147 50.302632, 269.160653 74.411176)

LINESTRING (255.710147 50.302632, 266.942934 82.091192)

LINESTRING (255.710147 50.302632, 237.472765 45.168415)

LINESTRING (257.655244 45.614869, 252.664932 61.413682)

LINESTRING (257.655244 45.614869, 269.160653 74.411176)

LINESTRING (257.655244 45.614869, 237.472765 45.168415)

LINESTRING (252.664932 61.413682, 269.160653 74.411176)

LINESTRING (252.664932 61.413682, 237.472765 45.168415)

LINESTRING (269.160653 74.411176, 266.942934 82.091192)

LINESTRING (266.942934 82.091192, 237.472765 45.168415)

LINESTRING (460.000000 60.000000, 475.986922 73.872812)

LINESTRING (460.000000 60.000000, 482.399696 82.264962)

LINESTRING (460.000000 60.000000, 451.900673 41.168624)

LINESTRING (460.000000 60.000000, 448.193226 65.966554)

LINESTRING (460.000000 60.000000, 464.274455 48.628492)

LINESTRING (460.000000 60.000000, 460.384987 69.716431)

LINESTRING (460.000000 60.000000, 470.918466 55.141540)

LINESTRING (460.000000 60.000000, 449.217480 54.119451)

LINESTRING (475.986922 73.872812, 470.918466 55.141540)

LINESTRING (482.399696 82.264962, 451.900673 41.168624)

LINESTRING (482.399696 82.264962, 464.274455 48.628492)

LINESTRING (482.399696 82.264962, 470.918466 55.141540)

LINESTRING (482.399696 82.264962, 449.217480 54.119451)

LINESTRING (451.900673 41.168624, 470.918466 55.141540)

LINESTRING (448.193226 65.966554, 464.274455 48.628492)

LINESTRING (460.384987 69.716431, 470.918466 55.141540)

LINESTRING (470.918466 55.141540, 449.217480 54.119451)

LINESTRING (60.000000 260.000000, 49.192835 273.637584)

LINESTRING (60.000000 260.000000, 67.511097 243.081181)

LINESTRING (60.000000 260.000000, 73.902268 277.937879)

LINESTRING (60.000000 260.000000, 69.450718 254.599946)

LINESTRING (60.000000 260.000000, 70.287698 240.493984)

LINESTRING (60.000000 260.000000, 51.275979 278.073245)

LINESTRING (60.000000 260.000000, 71.909606 268.192207)

LINESTRING (60.000000 260.000000, 41.345007 249.848561)

LINESTRING (49.192835 273.637584, 41.345007 249.848561)

LINESTRING (67.511097 243.081181, 51.275979 278.073245)

LINESTRING (73.902268 277.937879, 69.450718 254.599946)

LINESTRING (73.902268 277.937879, 71.909606 268.192207)

LINESTRING (73.902268 277.937879, 41.345007 249.848561)

LINESTRING (70.287698 240.493984, 51.275979 278.073245)

LINESTRING (70.287698 240.493984, 71.909606 268.192207)

LINESTRING (51.275979 278.073245, 41.345007 249.848561)

LINESTRING (260.000000 260.000000, 250.554138 276.796057)

LINESTRING (260.000000 260.000000, 267.488811 254.679558)

LINESTRING (260.000000 260.000000, 250.163755 255.261616)

LINESTRING (260.000000 260.000000, 273.723653 257.022379)

LINESTRING (260.000000 260.000000, 264.907139 245.555685)

LINESTRING (260.000000 260.000000, 267.106238 281.856576)

LINESTRING (260.000000 260.000000, 279.646333 275.077736)

LINESTRING (260.000000 260.000000, 271.949334 246.596324)

LINESTRING (250.554138 276.796057, 267.488811 254.679558)

LINESTRING (250.554138 276.796057, 250.163755 255.261616)

LINESTRING (250.554138 276.796057, 264.907139 245.555685)

LINESTRING (250.554138 276.796057, 267.106238 281.856576)

LINESTRING (250.554138 276.796057, 279.646333 275.077736)

LINESTRING (267.488811 254.679558, 273.723653 257.022379)

LINESTRING (267.488811 254.679558, 264.907139 245.555685)

LINESTRING (267.488811 254.679558, 267.106238 281.856576)

LINESTRING (267.488811 254.679558, 279.646333 275.077736)

LINESTRING (267.488811 254.679558, 271.949334 246.596324)

LINESTRING (250.163755 255.261616, 273.723653 257.022379)

LINESTRING (250.163755 255.261616, 264.907139 245.555685)

LINESTRING (250.163755 255.261616, 267.106238 281.856576)

LINESTRING (250.163755 255.261616, 279.646333 275.077736)

LINESTRING (250.163755 255.261616, 271.949334 246.596324)

LINESTRING (273.723653 257.022379, 264.907139 245.555685)

LINESTRING (264.907139 245.555685, 279.646333 275.077736)

LINESTRING (267.106238 281.856576, 279.646333 275.077736)

LINESTRING (279.646333 275.077736, 271.949334 246.596324)

LINESTRING (460.000000 260.000000, 470.807888 270.380834)

LINESTRING (460.000000 260.000000, 449.419649 257.215571)

LINESTRING (460.000000 260.000000, 440.826363 241.589425)

LINESTRING (460.000000 260.000000, 441.974395 253.873083)

LINESTRING (460.000000 260.000000, 469.724248 253.848356)

LINESTRING (460.000000 260.000000, 470.268806 267.236819)

LINESTRING (460.000000 260.000000, 457.087288 262.737639)

LINESTRING (460.000000 260.000000, 443.507189 238.467728)

LINESTRING (470.807888 270.380834, 449.419649 257.215571)

LINESTRING (470.807888 270.380834, 440.826363 241.589425)

LINESTRING (470.807888 270.380834, 469.724248 253.848356)

LINESTRING (470.807888 270.380834, 457.087288 262.737639)

LINESTRING (449.419649 257.215571, 440.826363 241.589425)

LINESTRING (449.419649 257.215571, 441.974395 253.873083)

LINESTRING (449.419649 257.215571, 469.724248 253.848356)

LINESTRING (449.419649 257.215571, 470.268806 267.236819)

LINESTRING (449.419649 257.215571, 443.507189 238.467728)

LINESTRING (440.826363 241.589425, 469.724248 253.848356)

LINESTRING (441.974395 253.873083, 470.268806 267.236819)

LINESTRING (441.974395 253.873083, 443.507189 238.467728)

LINESTRING (469.724248 253.848356, 470.268806 267.236819)

LINESTRING (469.724248 253.848356, 457.087288 262.737639)

LINESTRING (469.724248 253.848356, 443.507189 238.467728)

LINESTRING (470.268806 267.236819, 457.087288 262.737639)

LINESTRING (470.268806 267.236819, 443.507189 238.467728)

LINESTRING (457.087288 262.737639, 443.507189 238.467728)

LINESTRING (60.000000 460.000000, 52.831088 480.617474)

LINESTRING (60.000000 460.000000, 64.642196 453.839321)

LINESTRING (60.000000 460.000000, 63.988435 451.398942)

LINESTRING (60.000000 460.000000, 81.415280 474.800777)

LINESTRING (60.000000 460.000000, 76.094814 472.739333)

LINESTRING (60.000000 460.000000, 82.403551 459.942713)

LINESTRING (60.000000 460.000000, 82.994112 460.421779)

LINESTRING (60.000000 460.000000, 58.715538 472.227085)

LINESTRING (52.831088 480.617474, 63.988435 451.398942)

LINESTRING (52.831088 480.617474, 81.415280 474.800777)

LINESTRING (52.831088 480.617474, 76.094814 472.739333)

LINESTRING (52.831088 480.617474, 82.403551 459.942713)

LINESTRING (52.831088 480.617474, 82.994112 460.421779)

LINESTRING (64.642196 453.839321, 76.094814 472.739333)

LINESTRING (64.642196 453.839321, 82.403551 459.942713)

LINESTRING (64.642196 453.839321, 58.715538 472.227085)

LINESTRING (63.988435 451.398942, 81.415280 474.800777)

LINESTRING (63.988435 451.398942, 82.994112 460.421779)

LINESTRING (63.988435 451.398942, 58.715538 472.227085)

LINESTRING (76.094814 472.739333, 82.403551 459.942713)

LINESTRING (76.094814 472.739333, 82.994112 460.421779)

LINESTRING (82.403551 459.942713, 58.715538 472.227085)

LINESTRING (82.994112 460.421779, 58.715538 472.227085)

LINESTRING (260.000000 460.000000, 247.874764 462.860493)

LINESTRING (260.000000 460.000000, 250.651308 447.609837)

LINESTRING (260.000000 460.000000, 276.006439 438.093912)

LINESTRING (260.000000 460.000000, 237.552923 443.834756)

LINESTRING (260.000000 460.000000, 242.674589 444.055557)

LINESTRING (260.000000 460.000000, 238.328259 436.368913)

LINESTRING (260.000000 460.000000, 237.673584 437.079070)

LINESTRING (260.000000 460.000000, 264.581508 466.998466)

LINESTRING (247.874764 462.860493, 250.651308 447.609837)

LINESTRING (247.874764 462.860493, 276.006439 438.093912)

LINESTRING (247.874764 462.860493, 242.674589 444.055557)

LINESTRING (247.874764 462.860493, 238.328259 436.368913)

LINESTRING (247.874764 462.860493, 237.673584 437.079070)

LINESTRING (250.651308 447.609837, 276.006439 438.093912)

LINESTRING (250.651308 447.609837, 237.552923 443.834756)

LINESTRING (250.651308 447.609837, 242.674589 444.055557)

LINESTRING (250.651308 447.609837, 238.328259 436.368913)

LINESTRING (276.006439 438.093912, 242.674589 444.055557)

LINESTRING (276.006439 438.093912, 237.673584 437.079070)

LINESTRING (276.006439 438.093912, 264.581508 466.998466)

LINESTRING (237.552923 443.834756, 238.328259 436.368913)

LINESTRING (242.674589 444.055557, 238.328259 436.368913)

LINESTRING (238.328259 436.368913, 237.673584 437.079070)

LINESTRING (237.673584 437.079070, 264.581508 466.998466)

LINESTRING (81.834753 47.551171, 269.160653 74.411176)

LINESTRING (37.572292 57.555878, 255.710147 50.302632)

LINESTRING (60.000000 60.000000, 260.000000 60.000000)

LINESTRING (266.421644 65.885024, 470.918466 55.141540)

LINESTRING (271.504007 38.484879, 482.399696 82.264962)

LINESTRING (260.000000 60.000000, 460.000000 60.000000)

LINESTRING (475.986922 73.872812, 73.902268 277.937879)

LINESTRING (464.274455 48.628492, 51.275979 278.073245)

LINESTRING (460.000000 60.000000, 60.000000 260.000000)

LINESTRING (69.450718 254.599946, 279.646333 275.077736)

LINESTRING (51.275979 278.073245, 267.488811 254.679558)

LINESTRING (60.000000 260.000000, 260.000000 260.000000)

LINESTRING (267.488811 254.679558, 457.087288 262.737639)

LINESTRING (271.949334 246.596324, 443.507189 238.467728)

LINESTRING (260.000000 260.000000, 460.000000 260.000000)

LINESTRING (470.807888 270.380834, 52.831088 480.617474)

LINESTRING (449.419649 257.215571, 82.994112 460.421779)

LINESTRING (460.000000 260.000000, 60.000000 460.000000)

LINESTRING (82.403551 459.942713, 242.674589 444.055557)

LINESTRING (82.994112 460.421779, 276.006439 438.093912)

LINESTRING (60.000000 460.000000, 260.000000 460.000000)

