LINESTRING (80.000000 80.000000, 229.803002 87.685086)

LINESTRING (80.000000 80.000000, 162.391651 84.226797)

LINESTRING (162.391651 84.226797, 229.803002 87.685086)

LINESTRING (80.000000 80.000000, 196.961372 173.915054)

LINESTRING (80.000000 80.000000, 144.328755 131.653280)

LINESTRING (144.328755 131.653280, 196.961372 173.915054)

LINESTRING (80.000000 80.000000, 136.049764 219.134553)

LINESTRING (80.000000 80.000000, 110.827370 156.524004)

LINESTRING (110.827370 156.524004, 136.049764 219.134553)

LINESTRING (80.000000 80.000000, 34.543223 222.946428)

LINESTRING (80.000000 80.000000, 54.998772 158.620536)

LINESTRING (54.998772 158.620536, 34.543223 222.946428)

LINESTRING (80.000000 80.000000, -40.517878 169.305324)

LINESTRING (80.000000 80.000000, 13.715167 129.117928)

LINESTRING (13.715167 129.117928, -40.517878 169.305324)

LINESTRING (80.000000 80.000000, -69.765292 71.612081)

LINESTRING (80.000000 80.000000, -2.370911 75.386645)

LINESTRING (-2.370911 75.386645, -69.765292 71.612081)

LINESTRING (80.000000 80.000000, -47.498982 0.980954)

LINESTRING (80.000000 80.000000, 9.875560 36.539525)

LINESTRING (9.875560 36.539525, -47.498982 0.980954)

LINESTRING (80.000000 80.000000, 40.515733 -64.710030)

LINESTRING (80.000000 80.000000, 58.283653 0.409484)

LINESTRING (58.283653 0.409484, 40.515733 -64.710030)

LINESTRING (80.000000 80.000000, 133.729049 -60.047097)

LINESTRING (80.000000 80.000000, 109.550977 2.974097)

LINESTRING (109.550977 2.974097, 133.729049 -60.047097)

LINESTRING (80.000000 80.000000, 205.076161 -2.800688)

LINESTRING (80.000000 80.000000, 148.791889 34.459622)

LINESTRING (148.791889 34.459622, 205.076161 -2.800688)

LINESTRING (229.803002 87.685086, 196.961372 173.915054)

LINESTRING (196.961372 173.915054, 136.049764 219.134553)

LINESTRING (136.049764 219.134553, 34.543223 222.946428)

LINESTRING (34.543223 222.946428, -40.517878 169.305324)

LINESTRING (-40.517878 169.305324, -69.765292 71.612081)

LINESTRING (-69.765292 71.612081, -47.498982 0.980954)

LINESTRING (-47.498982 0.980954, 40.515733 -64.710030)

LINESTRING (40.515733 -64.710030, 133.729049 -60.047097)

LINESTRING (133.729049 -60.047097, 205.076161 -2.800688)

LINESTRING (205.076161 -2.800688, 229.803002 87.685086)

LINESTRING (680.000000 80.000000, 829.889937 85.745157)

LINESTRING (680.000000 80.000000, 762.439465 83.159836)

LINESTRING (762.439465 83.159836, 829.889937 85.745157)

LINESTRING (680.000000 80.000000, 806.062329 161.291384)

LINESTRING (680.000000 80.000000, 749.334281 124.710261)

LINESTRING (749.334281 124.710261, 806.062329 161.291384)

LINESTRING (680.000000 80.000000, 719.780904 224.628765)

LINESTRING (680.000000 80.000000, 701.879497 159.545821)

LINESTRING (701.879497 159.545821, 719.780904 224.628765)

LINESTRING (680.000000 80.000000, 635.248512 223.168797)

LINESTRING (680.000000 80.000000, 655.386682 158.742838)

LINESTRING (655.386682 158.742838, 635.248512 223.168797)

LINESTRING (680.000000 80.000000, 564.116211 175.241521)

LINESTRING (680.000000 80.000000, 616.263916 132.382837)

LINESTRING (616.263916 132.382837, 564.116211 175.241521)

LINESTRING (680.000000 80.000000, 530.192958 87.605937)

LINESTRING (680.000000 80.000000, 597.606127 84.183265)

LINESTRING (597.606127 84.183265, 530.192958 87.605937)

LINESTRING (680.000000 80.000000, 557.973147 -7.232145)

LINESTRING (680.000000 80.000000, 612.885231 32.022320)

LINESTRING (612.885231 32.022320, 557.973147 -7.232145)

LINESTRING (680.000000 80.000000, 627.219189 -60.407215)

LINESTRING (680.000000 80.000000, 650.970554 2.776032)

LINESTRING (650.970554 2.776032, 627.219189 -60.407215)

LINESTRING (680.000000 80.000000, 725.109998 -63.056241)

LINESTRING (680.000000 80.000000, 704.810499 1.319067)

LINESTRING (704.810499 1.319067, 725.109998 -63.056241)

LINESTRING (680.000000 80.000000, 800.483137 -9.352189)

LINESTRING (680.000000 80.000000, 746.265725 30.856296)

LINESTRING (746.265725 30.856296, 800.483137 -9.352189)

LINESTRING (829.889937 85.745157, 806.062329 161.291384)

LINESTRING (806.062329 161.291384, 719.780904 224.628765)

LINESTRING (719.780904 224.628765, 635.248512 223.168797)

LINESTRING (635.248512 223.168797, 564.116211 175.241521)

LINESTRING (564.116211 175.241521, 530.192958 87.605937)

LINESTRING (530.192958 87.605937, 557.973147 -7.232145)

LINESTRING (557.973147 -7.232145, 627.219189 -60.407215)

LINESTRING (627.219189 -60.407215, 725.109998 -63.056241)

LINESTRING (725.109998 -63.056241, 800.483137 -9.352189)

LINESTRING (800.483137 -9.352189, 829.889937 85.745157)

LINESTRING (80.000000 80.000000, 680.000000 80.000000)

