LINESTRING (60.000000 60.000000, 67.995383 46.034548)

LINESTRING (60.000000 60.000000, 46.854885 51.537445)

LINESTRING (60.000000 60.000000, 50.886873 58.826293)

LINESTRING (60.000000 60.000000, 36.447855 78.292466)

LINESTRING (60.000000 60.000000, 60.013316 64.539110)

LINESTRING (60.000000 60.000000, 50.941764 68.372809)

LINESTRING (60.000000 60.000000, 69.659675 45.559581)

LINESTRING (60.000000 60.000000, 76.099658 75.361018)

LINESTRING (60.000000 60.000000, 78.407429 70.468836)

LINESTRING (60.000000 60.000000, 40.597338 43.567322)

LINESTRING (60.000000 60.000000, 50.892178 58.181002)

LINESTRING (60.000000 60.000000, 57.467082 50.192013)

LINESTRING (60.000000 60.000000, 68.179231 76.840865)

LINESTRING (60.000000 60.000000, 49.964448 81.388017)

LINESTRING (60.000000 60.000000, 79.974296 64.248491)

LINESTRING (60.000000 60.000000, 64.783568 53.012877)

LINESTRING (60.000000 60.000000, 81.613968 79.197779)

LINESTRING (60.000000 60.000000, 60.958951 62.343849)

LINESTRING (60.000000 60.000000, 80.352563 53.725466)

LINESTRING (60.000000 60.000000, 46.260388 37.225202)

LINESTRING (67.995383 46.034548, 46.854885 51.537445)

LINESTRING (67.995383 46.034548, 50.886873 58.826293)

LINESTRING (67.995383 46.034548, 60.013316 64.539110)

LINESTRING (67.995383 46.034548, 50.941764 68.372809)

LINESTRING (67.995383 46.034548, 69.659675 45.559581)

LINESTRING (67.995383 46.034548, 76.099658 75.361018)

LINESTRING (67.995383 46.034548, 78.407429 70.468836)

LINESTRING (67.995383 46.034548, 40.597338 43.567322)

LINESTRING (67.995383 46.034548, 50.892178 58.181002)

LINESTRING (67.995383 46.034548, 57.467082 50.192013)

LINESTRING (67.995383 46.034548, 49.964448 81.388017)

LINESTRING (67.995383 46.034548, 79.974296 64.248491)

LINESTRING (67.995383 46.034548, 64.783568 53.012877)

LINESTRING (67.995383 46.034548, 81.613968 79.197779)

LINESTRING (67.995383 46.034548, 60.958951 62.343849)

LINESTRING (67.995383 46.034548, 80.352563 53.725466)

LINESTRING (67.995383 46.034548, 46.260388 37.225202)

LINESTRING (46.854885 51.537445, 50.886873 58.826293)

LINESTRING (46.854885 51.537445, 36.447855 78.292466)

LINESTRING (46.854885 51.537445, 60.013316 64.539110)

LINESTRING (46.854885 51.537445, 50.941764 68.372809)

LINESTRING (46.854885 51.537445, 69.659675 45.559581)

LINESTRING (46.854885 51.537445, 76.099658 75.361018)

LINESTRING (46.854885 51.537445, 78.407429 70.468836)

LINESTRING (46.854885 51.537445, 50.892178 58.181002)

LINESTRING (46.854885 51.537445, 57.467082 50.192013)

LINESTRING (46.854885 51.537445, 68.179231 76.840865)

LINESTRING (46.854885 51.537445, 49.964448 81.388017)

LINESTRING (46.854885 51.537445, 79.974296 64.248491)

LINESTRING (46.854885 51.537445, 64.783568 53.012877)

LINESTRING (46.854885 51.537445, 81.613968 79.197779)

LINESTRING (46.854885 51.537445, 80.352563 53.725466)

LINESTRING (46.854885 51.537445, 46.260388 37.225202)

LINESTRING (50.886873 58.826293, 36.447855 78.292466)

LINESTRING (50.886873 58.826293, 60.013316 64.539110)

LINESTRING (50.886873 58.826293, 50.941764 68.372809)

LINESTRING (50.886873 58.826293, 69.659675 45.559581)

LINESTRING (50.886873 58.826293, 76.099658 75.361018)

LINESTRING (50.886873 58.826293, 78.407429 70.468836)

LINESTRING (50.886873 58.826293, 40.597338 43.567322)

LINESTRING (50.886873 58.826293, 50.892178 58.181002)

LINESTRING (50.886873 58.826293, 57.467082 50.192013)

LINESTRING (50.886873 58.826293, 68.179231 76.840865)

LINESTRING (50.886873 58.826293, 49.964448 81.388017)

LINESTRING (50.886873 58.826293, 79.974296 64.248491)

LINESTRING (50.886873 58.826293, 64.783568 53.012877)

LINESTRING (50.886873 58.826293, 81.613968 79.197779)

LINESTRING (50.886873 58.826293, 60.958951 62.343849)

LINESTRING (50.886873 58.826293, 80.352563 53.725466)

LINESTRING (50.886873 58.826293, 46.260388 37.225202)

LINESTRING (36.447855 78.292466, 50.941764 68.372809)

LINESTRING (36.447855 78.292466, 69.659675 45.559581)

LINESTRING (36.447855 78.292466, 76.099658 75.361018)

LINESTRING (36.447855 78.292466, 78.407429 70.468836)

LINESTRING (36.447855 78.292466, 40.597338 43.567322)

LINESTRING (36.447855 78.292466, 50.892178 58.181002)

LINESTRING (36.447855 78.292466, 68.179231 76.840865)

LINESTRING (36.447855 78.292466, 49.964448 81.388017)

LINESTRING (36.447855 78.292466, 79.974296 64.248491)

LINESTRING (36.447855 78.292466, 64.783568 53.012877)

LINESTRING (36.447855 78.292466, 81.613968 79.197779)

LINESTRING (36.447855 78.292466, 60.958951 62.343849)

LINESTRING (36.447855 78.292466, 80.352563 53.725466)

LINESTRING (36.447855 78.292466, 46.260388 37.225202)

LINESTRING (60.013316 64.539110, 50.941764 68.372809)

LINESTRING (60.013316 64.539110, 69.659675 45.559581)

LINESTRING (60.013316 64.539110, 76.099658 75.361018)

LINESTRING (60.013316 64.539110, 78.407429 70.468836)

LINESTRING (60.013316 64.539110, 40.597338 43.567322)

LINESTRING (60.013316 64.539110, 50.892178 58.181002)

LINESTRING (60.013316 64.539110, 57.467082 50.192013)

LINESTRING (60.013316 64.539110, 68.179231 76.840865)

LINESTRING (60.013316 64.539110, 79.974296 64.248491)

LINESTRING (60.013316 64.539110, 64.783568 53.012877)

LINESTRING (60.013316 64.539110, 81.613968 79.197779)

LINESTRING (60.013316 64.539110, 60.958951 62.343849)

LINESTRING (60.013316 64.539110, 80.352563 53.725466)

LINESTRING (60.013316 64.539110, 46.260388 37.225202)

LINESTRING (50.941764 68.372809, 69.659675 45.559581)

LINESTRING (50.941764 68.372809, 76.099658 75.361018)

LINESTRING (50.941764 68.372809, 78.407429 70.468836)

LINESTRING (50.941764 68.372809, 40.597338 43.567322)

LINESTRING (50.941764 68.372809, 50.892178 58.181002)

LINESTRING (50.941764 68.372809, 57.467082 50.192013)

LINESTRING (50.941764 68.372809, 68.179231 76.840865)

LINESTRING (50.941764 68.372809, 49.964448 81.388017)

LINESTRING (50.941764 68.372809, 79.974296 64.248491)

LINESTRING (50.941764 68.372809, 64.783568 53.012877)

LINESTRING (50.941764 68.372809, 81.613968 79.197779)

LINESTRING (50.941764 68.372809, 60.958951 62.343849)

LINESTRING (50.941764 68.372809, 80.352563 53.725466)

LINESTRING (50.941764 68.372809, 46.260388 37.225202)

LINESTRING (69.659675 45.559581, 76.099658 75.361018)

LINESTRING (69.659675 45.559581, 78.407429 70.468836)

LINESTRING (69.659675 45.559581, 40.597338 43.567322)

LINESTRING (69.659675 45.559581, 50.892178 58.181002)

LINESTRING (69.659675 45.559581, 57.467082 50.192013)

LINESTRING (69.659675 45.559581, 68.179231 76.840865)

LINESTRING (69.659675 45.559581, 49.964448 81.388017)

LINESTRING (69.659675 45.559581, 79.974296 64.248491)

LINESTRING (69.659675 45.559581, 64.783568 53.012877)

LINESTRING (69.659675 45.559581, 81.613968 79.197779)

LINESTRING (69.659675 45.559581, 60.958951 62.343849)

LINESTRING (69.659675 45.559581, 80.352563 53.725466)

LINESTRING (69.659675 45.559581, 46.260388 37.225202)

LINESTRING (76.099658 75.361018, 78.407429 70.468836)

LINESTRING (76.099658 75.361018, 40.597338 43.567322)

LINESTRING (76.099658 75.361018, 50.892178 58.181002)

LINESTRING (76.099658 75.361018, 57.467082 50.192013)

LINESTRING (76.099658 75.361018, 68.179231 76.840865)

LINESTRING (76.099658 75.361018, 49.964448 81.388017)

LINESTRING (76.099658 75.361018, 79.974296 64.248491)

LINESTRING (76.099658 75.361018, 64.783568 53.012877)

LINESTRING (76.099658 75.361018, 81.613968 79.197779)

LINESTRING (76.099658 75.361018, 60.958951 62.343849)

LINESTRING (76.099658 75.361018, 80.352563 53.725466)

LINESTRING (76.099658 75.361018, 46.260388 37.225202)

LINESTRING (78.407429 70.468836, 40.597338 43.567322)

LINESTRING (78.407429 70.468836, 50.892178 58.181002)

LINESTRING (78.407429 70.468836, 57.467082 50.192013)

LINESTRING (78.407429 70.468836, 68.179231 76.840865)

LINESTRING (78.407429 70.468836, 49.964448 81.388017)

LINESTRING (78.407429 70.468836, 64.783568 53.012877)

LINESTRING (78.407429 70.468836, 81.613968 79.197779)

LINESTRING (78.407429 70.468836, 60.958951 62.343849)

LINESTRING (78.407429 70.468836, 80.352563 53.725466)

LINESTRING (78.407429 70.468836, 46.260388 37.225202)

LINESTRING (40.597338 43.567322, 50.892178 58.181002)

LINESTRING (40.597338 43.567322, 57.467082 50.192013)

LINESTRING (40.597338 43.567322, 68.179231 76.840865)

LINESTRING (40.597338 43.567322, 49.964448 81.388017)

LINESTRING (40.597338 43.567322, 79.974296 64.248491)

LINESTRING (40.597338 43.567322, 64.783568 53.012877)

LINESTRING (40.597338 43.567322, 81.613968 79.197779)

LINESTRING (40.597338 43.567322, 60.958951 62.343849)

LINESTRING (40.597338 43.567322, 80.352563 53.725466)

LINESTRING (40.597338 43.567322, 46.260388 37.225202)

LINESTRING (50.892178 58.181002, 57.467082 50.192013)

LINESTRING (50.892178 58.181002, 68.179231 76.840865)

LINESTRING (50.892178 58.181002, 49.964448 81.388017)

LINESTRING (50.892178 58.181002, 79.974296 64.248491)

LINESTRING (50.892178 58.181002, 64.783568 53.012877)

LINESTRING (50.892178 58.181002, 81.613968 79.197779)

LINESTRING (50.892178 58.181002, 60.958951 62.343849)

LINESTRING (50.892178 58.181002, 80.352563 53.725466)

LINESTRING (50.892178 58.181002, 46.260388 37.225202)

LINESTRING (57.467082 50.192013, 68.179231 76.840865)

LINESTRING (57.467082 50.192013, 49.964448 81.388017)

LINESTRING (57.467082 50.192013, 79.974296 64.248491)

LINESTRING (57.467082 50.192013, 64.783568 53.012877)

LINESTRING (57.467082 50.192013, 60.958951 62.343849)

LINESTRING (57.467082 50.192013, 80.352563 53.725466)

LINESTRING (57.467082 50.192013, 46.260388 37.225202)

LINESTRING (68.179231 76.840865, 49.964448 81.388017)

LINESTRING (68.179231 76.840865, 79.974296 64.248491)

LINESTRING (68.179231 76.840865, 64.783568 53.012877)

LINESTRING (68.179231 76.840865, 81.613968 79.197779)

LINESTRING (68.179231 76.840865, 60.958951 62.343849)

LINESTRING (68.179231 76.840865, 46.260388 37.225202)

LINESTRING (49.964448 81.388017, 79.974296 64.248491)

LINESTRING (49.964448 81.388017, 64.783568 53.012877)

LINESTRING (49.964448 81.388017, 81.613968 79.197779)

LINESTRING (49.964448 81.388017, 60.958951 62.343849)

LINESTRING (49.964448 81.388017, 80.352563 53.725466)

LINESTRING (49.964448 81.388017, 46.260388 37.225202)

LINESTRING (79.974296 64.248491, 64.783568 53.012877)

LINESTRING (79.974296 64.248491, 81.613968 79.197779)

LINESTRING (79.974296 64.248491, 60.958951 62.343849)

LINESTRING (79.974296 64.248491, 80.352563 53.725466)

LINESTRING (79.974296 64.248491, 46.260388 37.225202)

LINESTRING (64.783568 53.012877, 81.613968 79.197779)

LINESTRING (64.783568 53.012877, 60.958951 62.343849)

LINESTRING (64.783568 53.012877, 80.352563 53.725466)

LINESTRING (64.783568 53.012877, 46.260388 37.225202)

LINESTRING (81.613968 79.197779, 60.958951 62.343849)

LINESTRING (81.613968 79.197779, 46.260388 37.225202)

LINESTRING (60.958951 62.343849, 80.352563 53.725466)

LINESTRING (260.000000 60.000000, 244.955662 79.404821)

LINESTRING (260.000000 60.000000, 273.095059 64.506236)

LINESTRING (260.000000 60.000000, 252.210933 63.079118)

LINESTRING (260.000000 60.000000, 252.475312 61.601196)

LINESTRING (260.000000 60.000000, 242.341325 36.212378)

LINESTRING (260.000000 60.000000, 276.693582 81.946072)

LINESTRING (260.000000 60.000000, 269.831328 69.177631)

LINESTRING (260.000000 60.000000, 249.556945 56.338048)

LINESTRING (260.000000 60.000000, 281.003305 67.829930)

LINESTRING (260.000000 60.000000, 279.048983 65.244934)

LINESTRING (260.000000 60.000000, 240.742248 81.419955)

LINESTRING (260.000000 60.000000, 278.709810 43.536968)

LINESTRING (260.000000 60.000000, 263.225617 52.019569)

LINESTRING (260.000000 60.000000, 253.993903 68.027791)

LINESTRING (260.000000 60.000000, 279.349217 65.927629)

LINESTRING (260.000000 60.000000, 271.917062 72.997854)

LINESTRING (260.000000 60.000000, 255.774254 78.969406)

LINESTRING (260.000000 60.000000, 279.854307 43.025539)

LINESTRING (260.000000 60.000000, 240.116086 71.589260)

LINESTRING (260.000000 60.000000, 236.979058 69.469493)

LINESTRING (244.955662 79.404821, 273.095059 64.506236)

LINESTRING (244.955662 79.404821, 252.210933 63.079118)

LINESTRING (244.955662 79.404821, 252.475312 61.601196)

LINESTRING (244.955662 79.404821, 242.341325 36.212378)

LINESTRING (244.955662 79.404821, 276.693582 81.946072)

LINESTRING (244.955662 79.404821, 269.831328 69.177631)

LINESTRING (244.955662 79.404821, 249.556945 56.338048)

LINESTRING (244.955662 79.404821, 281.003305 67.829930)

LINESTRING (244.955662 79.404821, 279.048983 65.244934)

LINESTRING (244.955662 79.404821, 240.742248 81.419955)

LINESTRING (244.955662 79.404821, 278.709810 43.536968)

LINESTRING (244.955662 79.404821, 263.225617 52.019569)

LINESTRING (244.955662 79.404821, 253.993903 68.027791)

LINESTRING (244.955662 79.404821, 279.349217 65.927629)

LINESTRING (244.955662 79.404821, 271.917062 72.997854)

LINESTRING (244.955662 79.404821, 255.774254 78.969406)

LINESTRING (244.955662 79.404821, 240.116086 71.589260)

LINESTRING (244.955662 79.404821, 236.979058 69.469493)

LINESTRING (273.095059 64.506236, 252.210933 63.079118)

LINESTRING (273.095059 64.506236, 252.475312 61.601196)

LINESTRING (273.095059 64.506236, 242.341325 36.212378)

LINESTRING (273.095059 64.506236, 276.693582 81.946072)

LINESTRING (273.095059 64.506236, 269.831328 69.177631)

LINESTRING (273.095059 64.506236, 249.556945 56.338048)

LINESTRING (273.095059 64.506236, 281.003305 67.829930)

LINESTRING (273.095059 64.506236, 279.048983 65.244934)

LINESTRING (273.095059 64.506236, 240.742248 81.419955)

LINESTRING (273.095059 64.506236, 263.225617 52.019569)

LINESTRING (273.095059 64.506236, 253.993903 68.027791)

LINESTRING (273.095059 64.506236, 279.349217 65.927629)

LINESTRING (273.095059 64.506236, 271.917062 72.997854)

LINESTRING (273.095059 64.506236, 255.774254 78.969406)

LINESTRING (273.095059 64.506236, 279.854307 43.025539)

LINESTRING (273.095059 64.506236, 240.116086 71.589260)

LINESTRING (273.095059 64.506236, 236.979058 69.469493)

LINESTRING (252.210933 63.079118, 252.475312 61.601196)

LINESTRING (252.210933 63.079118, 242.341325 36.212378)

LINESTRING (252.210933 63.079118, 276.693582 81.946072)

LINESTRING (252.210933 63.079118, 269.831328 69.177631)

LINESTRING (252.210933 63.079118, 249.556945 56.338048)

LINESTRING (252.210933 63.079118, 281.003305 67.829930)

LINESTRING (252.210933 63.079118, 279.048983 65.244934)

LINESTRING (252.210933 63.079118, 240.742248 81.419955)

LINESTRING (252.210933 63.079118, 278.709810 43.536968)

LINESTRING (252.210933 63.079118, 263.225617 52.019569)

LINESTRING (252.210933 63.079118, 253.993903 68.027791)

LINESTRING (252.210933 63.079118, 279.349217 65.927629)

LINESTRING (252.210933 63.079118, 271.917062 72.997854)

LINESTRING (252.210933 63.079118, 255.774254 78.969406)

LINESTRING (252.210933 63.079118, 279.854307 43.025539)

LINESTRING (252.210933 63.079118, 240.116086 71.589260)

LINESTRING (252.210933 63.079118, 236.979058 69.469493)

LINESTRING (252.475312 61.601196, 242.341325 36.212378)

LINESTRING (252.475312 61.601196, 276.693582 81.946072)

LINESTRING (252.475312 61.601196, 269.831328 69.177631)

LINESTRING (252.475312 61.601196, 249.556945 56.338048)

LINESTRING (252.475312 61.601196, 281.003305 67.829930)

LINESTRING (252.475312 61.601196, 279.048983 65.244934)

LINESTRING (252.475312 61.601196, 240.742248 81.419955)

LINESTRING (252.475312 61.601196, 263.225617 52.019569)

LINESTRING (252.475312 61.601196, 253.993903 68.027791)

LINESTRING (252.475312 61.601196, 279.349217 65.927629)

LINESTRING (252.475312 61.601196, 271.917062 72.997854)

LINESTRING (252.475312 61.601196, 255.774254 78.969406)

LINESTRING (252.475312 61.601196, 240.116086 71.589260)

LINESTRING (252.475312 61.601196, 236.979058 69.469493)

LINESTRING (242.341325 36.212378, 276.693582 81.946072)

LINESTRING (242.341325 36.212378, 249.556945 56.338048)

LINESTRING (242.341325 36.212378, 281.003305 67.829930)

LINESTRING (242.341325 36.212378, 279.048983 65.244934)

LINESTRING (242.341325 36.212378, 240.742248 81.419955)

LINESTRING (242.341325 36.212378, 278.709810 43.536968)

LINESTRING (242.341325 36.212378, 253.993903 68.027791)

LINESTRING (242.341325 36.212378, 279.349217 65.927629)

LINESTRING (242.341325 36.212378, 271.917062 72.997854)

LINESTRING (242.341325 36.212378, 255.774254 78.969406)

LINESTRING (242.341325 36.212378, 279.854307 43.025539)

LINESTRING (242.341325 36.212378, 240.116086 71.589260)

LINESTRING (242.341325 36.212378, 236.979058 69.469493)

LINESTRING (276.693582 81.946072, 269.831328 69.177631)

LINESTRING (276.693582 81.946072, 249.556945 56.338048)

LINESTRING (276.693582 81.946072, 281.003305 67.829930)

LINESTRING (276.693582 81.946072, 279.048983 65.244934)

LINESTRING (276.693582 81.946072, 240.742248 81.419955)

LINESTRING (276.693582 81.946072, 278.709810 43.536968)

LINESTRING (276.693582 81.946072, 263.225617 52.019569)

LINESTRING (276.693582 81.946072, 279.349217 65.927629)

LINESTRING (276.693582 81.946072, 271.917062 72.997854)

LINESTRING (276.693582 81.946072, 255.774254 78.969406)

LINESTRING (276.693582 81.946072, 279.854307 43.025539)

LINESTRING (276.693582 81.946072, 240.116086 71.589260)

LINESTRING (276.693582 81.946072, 236.979058 69.469493)

LINESTRING (269.831328 69.177631, 249.556945 56.338048)

LINESTRING (269.831328 69.177631, 281.003305 67.829930)

LINESTRING (269.831328 69.177631, 279.048983 65.244934)

LINESTRING (269.831328 69.177631, 240.742248 81.419955)

LINESTRING (269.831328 69.177631, 278.709810 43.536968)

LINESTRING (269.831328 69.177631, 253.993903 68.027791)

LINESTRING (269.831328 69.177631, 279.349217 65.927629)

LINESTRING (269.831328 69.177631, 271.917062 72.997854)

LINESTRING (269.831328 69.177631, 255.774254 78.969406)

LINESTRING (269.831328 69.177631, 279.854307 43.025539)

LINESTRING (269.831328 69.177631, 240.116086 71.589260)

LINESTRING (269.831328 69.177631, 236.979058 69.469493)

LINESTRING (249.556945 56.338048, 279.048983 65.244934)

LINESTRING (249.556945 56.338048, 240.742248 81.419955)

LINESTRING (249.556945 56.338048, 278.709810 43.536968)

LINESTRING (249.556945 56.338048, 263.225617 52.019569)

LINESTRING (249.556945 56.338048, 279.349217 65.927629)

LINESTRING (249.556945 56.338048, 271.917062 72.997854)

LINESTRING (249.556945 56.338048, 255.774254 78.969406)

LINESTRING (249.556945 56.338048, 279.854307 43.025539)

LINESTRING (249.556945 56.338048, 240.116086 71.589260)

LINESTRING (249.556945 56.338048, 236.979058 69.469493)

LINESTRING (281.003305 67.829930, 279.048983 65.244934)

LINESTRING (281.003305 67.829930, 263.225617 52.019569)

LINESTRING (281.003305 67.829930, 279.349217 65.927629)

LINESTRING (281.003305 67.829930, 271.917062 72.997854)

LINESTRING (281.003305 67.829930, 255.774254 78.969406)

LINESTRING (281.003305 67.829930, 279.854307 43.025539)

LINESTRING (281.003305 67.829930, 240.116086 71.589260)

LINESTRING (281.003305 67.829930, 236.979058 69.469493)

LINESTRING (279.048983 65.244934, 240.742248 81.419955)

LINESTRING (279.048983 65.244934, 278.709810 43.536968)

LINESTRING (279.048983 65.244934, 263.225617 52.019569)

LINESTRING (279.048983 65.244934, 253.993903 68.027791)

LINESTRING (279.048983 65.244934, 279.349217 65.927629)

LINESTRING (279.048983 65.244934, 255.774254 78.969406)

LINESTRING (279.048983 65.244934, 279.854307 43.025539)

LINESTRING (279.048983 65.244934, 240.116086 71.589260)

LINESTRING (279.048983 65.244934, 236.979058 69.469493)

LINESTRING (240.742248 81.419955, 278.709810 43.536968)

LINESTRING (240.742248 81.419955, 263.225617 52.019569)

LINESTRING (240.742248 81.419955, 253.993903 68.027791)

LINESTRING (240.742248 81.419955, 279.349217 65.927629)

LINESTRING (240.742248 81.419955, 271.917062 72.997854)

LINESTRING (240.742248 81.419955, 255.774254 78.969406)

LINESTRING (240.742248 81.419955, 279.854307 43.025539)

LINESTRING (240.742248 81.419955, 240.116086 71.589260)

LINESTRING (240.742248 81.419955, 236.979058 69.469493)

LINESTRING (278.709810 43.536968, 263.225617 52.019569)

LINESTRING (278.709810 43.536968, 279.349217 65.927629)

LINESTRING (278.709810 43.536968, 271.917062 72.997854)

LINESTRING (278.709810 43.536968, 255.774254 78.969406)

LINESTRING (278.709810 43.536968, 279.854307 43.025539)

LINESTRING (278.709810 43.536968, 240.116086 71.589260)

LINESTRING (278.709810 43.536968, 236.979058 69.469493)

LINESTRING (263.225617 52.019569, 253.993903 68.027791)

LINESTRING (263.225617 52.019569, 279.349217 65.927629)

LINESTRING (263.225617 52.019569, 255.774254 78.969406)

LINESTRING (263.225617 52.019569, 279.854307 43.025539)

LINESTRING (263.225617 52.019569, 240.116086 71.589260)

LINESTRING (263.225617 52.019569, 236.979058 69.469493)

LINESTRING (253.993903 68.027791, 279.349217 65.927629)

LINESTRING (253.993903 68.027791, 271.917062 72.997854)

LINESTRING (253.993903 68.027791, 255.774254 78.969406)

LINESTRING (253.993903 68.027791, 279.854307 43.025539)

LINESTRING (253.993903 68.027791, 240.116086 71.589260)

LINESTRING (253.993903 68.027791, 236.979058 69.469493)

LINESTRING (279.349217 65.927629, 271.917062 72.997854)

LINESTRING (279.349217 65.927629, 255.774254 78.969406)

LINESTRING (279.349217 65.927629, 279.854307 43.025539)

LINESTRING (279.349217 65.927629, 240.116086 71.589260)

LINESTRING (279.349217 65.927629, 236.979058 69.469493)

LINESTRING (271.917062 72.997854, 255.774254 78.969406)

LINESTRING (271.917062 72.997854, 279.854307 43.025539)

LINESTRING (271.917062 72.997854, 240.116086 71.589260)

LINESTRING (271.917062 72.997854, 236.979058 69.469493)

LINESTRING (255.774254 78.969406, 279.854307 43.025539)

LINESTRING (255.774254 78.969406, 240.116086 71.589260)

LINESTRING (255.774254 78.969406, 236.979058 69.469493)

LINESTRING (279.854307 43.025539, 240.116086 71.589260)

LINESTRING (279.854307 43.025539, 236.979058 69.469493)

LINESTRING (240.116086 71.589260, 236.979058 69.469493)

LINESTRING (460.000000 60.000000, 453.145674 52.068320)

LINESTRING (460.000000 60.000000, 456.083069 53.760509)

LINESTRING (460.000000 60.000000, 468.558707 57.842817)

LINESTRING (460.000000 60.000000, 476.823984 70.924502)

LINESTRING (460.000000 60.000000, 478.385138 39.891765)

LINESTRING (460.000000 60.000000, 441.218496 80.974818)

LINESTRING (460.000000 60.000000, 436.028787 76.011104)

LINESTRING (460.000000 60.000000, 466.078316 52.264805)

LINESTRING (460.000000 60.000000, 440.167560 72.337822)

LINESTRING (460.000000 60.000000, 451.483905 59.206017)

LINESTRING (460.000000 60.000000, 460.701970 83.009150)

LINESTRING (460.000000 60.000000, 483.696479 42.826017)

LINESTRING (460.000000 60.000000, 442.201768 49.634704)

LINESTRING (460.000000 60.000000, 473.954717 83.304938)

LINESTRING (460.000000 60.000000, 444.494480 73.846094)

LINESTRING (460.000000 60.000000, 483.700624 53.399201)

LINESTRING (460.000000 60.000000, 439.881351 55.771526)

LINESTRING (460.000000 60.000000, 436.317888 56.291142)

LINESTRING (460.000000 60.000000, 466.605685 45.983380)

LINESTRING (460.000000 60.000000, 472.109471 61.256996)

LINESTRING (453.145674 52.068320, 456.083069 53.760509)

LINESTRING (453.145674 52.068320, 468.558707 57.842817)

LINESTRING (453.145674 52.068320, 476.823984 70.924502)

LINESTRING (453.145674 52.068320, 478.385138 39.891765)

LINESTRING (453.145674 52.068320, 441.218496 80.974818)

LINESTRING (453.145674 52.068320, 436.028787 76.011104)

LINESTRING (453.145674 52.068320, 466.078316 52.264805)

LINESTRING (453.145674 52.068320, 451.483905 59.206017)

LINESTRING (453.145674 52.068320, 460.701970 83.009150)

LINESTRING (453.145674 52.068320, 483.696479 42.826017)

LINESTRING (453.145674 52.068320, 442.201768 49.634704)

LINESTRING (453.145674 52.068320, 473.954717 83.304938)

LINESTRING (453.145674 52.068320, 444.494480 73.846094)

LINESTRING (453.145674 52.068320, 483.700624 53.399201)

LINESTRING (453.145674 52.068320, 439.881351 55.771526)

LINESTRING (453.145674 52.068320, 466.605685 45.983380)

LINESTRING (453.145674 52.068320, 472.109471 61.256996)

LINESTRING (456.083069 53.760509, 468.558707 57.842817)

LINESTRING (456.083069 53.760509, 476.823984 70.924502)

LINESTRING (456.083069 53.760509, 478.385138 39.891765)

LINESTRING (456.083069 53.760509, 441.218496 80.974818)

LINESTRING (456.083069 53.760509, 436.028787 76.011104)

LINESTRING (456.083069 53.760509, 466.078316 52.264805)

LINESTRING (456.083069 53.760509, 440.167560 72.337822)

LINESTRING (456.083069 53.760509, 451.483905 59.206017)

LINESTRING (456.083069 53.760509, 460.701970 83.009150)

LINESTRING (456.083069 53.760509, 483.696479 42.826017)

LINESTRING (456.083069 53.760509, 442.201768 49.634704)

LINESTRING (456.083069 53.760509, 473.954717 83.304938)

LINESTRING (456.083069 53.760509, 444.494480 73.846094)

LINESTRING (456.083069 53.760509, 483.700624 53.399201)

LINESTRING (456.083069 53.760509, 436.317888 56.291142)

LINESTRING (456.083069 53.760509, 466.605685 45.983380)

LINESTRING (456.083069 53.760509, 472.109471 61.256996)

LINESTRING (468.558707 57.842817, 476.823984 70.924502)

LINESTRING (468.558707 57.842817, 478.385138 39.891765)

LINESTRING (468.558707 57.842817, 441.218496 80.974818)

LINESTRING (468.558707 57.842817, 436.028787 76.011104)

LINESTRING (468.558707 57.842817, 466.078316 52.264805)

LINESTRING (468.558707 57.842817, 440.167560 72.337822)

LINESTRING (468.558707 57.842817, 460.701970 83.009150)

LINESTRING (468.558707 57.842817, 483.696479 42.826017)

LINESTRING (468.558707 57.842817, 442.201768 49.634704)

LINESTRING (468.558707 57.842817, 473.954717 83.304938)

LINESTRING (468.558707 57.842817, 444.494480 73.846094)

LINESTRING (468.558707 57.842817, 483.700624 53.399201)

LINESTRING (468.558707 57.842817, 439.881351 55.771526)

LINESTRING (468.558707 57.842817, 436.317888 56.291142)

LINESTRING (468.558707 57.842817, 466.605685 45.983380)

LINESTRING (468.558707 57.842817, 472.109471 61.256996)

LINESTRING (476.823984 70.924502, 478.385138 39.891765)

LINESTRING (476.823984 70.924502, 441.218496 80.974818)

LINESTRING (476.823984 70.924502, 436.028787 76.011104)

LINESTRING (476.823984 70.924502, 466.078316 52.264805)

LINESTRING (476.823984 70.924502, 440.167560 72.337822)

LINESTRING (476.823984 70.924502, 451.483905 59.206017)

LINESTRING (476.823984 70.924502, 460.701970 83.009150)

LINESTRING (476.823984 70.924502, 483.696479 42.826017)

LINESTRING (476.823984 70.924502, 442.201768 49.634704)

LINESTRING (476.823984 70.924502, 473.954717 83.304938)

LINESTRING (476.823984 70.924502, 444.494480 73.846094)

LINESTRING (476.823984 70.924502, 483.700624 53.399201)

LINESTRING (476.823984 70.924502, 436.317888 56.291142)

LINESTRING (476.823984 70.924502, 466.605685 45.983380)

LINESTRING (478.385138 39.891765, 441.218496 80.974818)

LINESTRING (478.385138 39.891765, 436.028787 76.011104)

LINESTRING (478.385138 39.891765, 466.078316 52.264805)

LINESTRING (478.385138 39.891765, 440.167560 72.337822)

LINESTRING (478.385138 39.891765, 451.483905 59.206017)

LINESTRING (478.385138 39.891765, 460.701970 83.009150)

LINESTRING (478.385138 39.891765, 483.696479 42.826017)

LINESTRING (478.385138 39.891765, 442.201768 49.634704)

LINESTRING (478.385138 39.891765, 473.954717 83.304938)

LINESTRING (478.385138 39.891765, 444.494480 73.846094)

LINESTRING (478.385138 39.891765, 483.700624 53.399201)

LINESTRING (478.385138 39.891765, 439.881351 55.771526)

LINESTRING (478.385138 39.891765, 436.317888 56.291142)

LINESTRING (478.385138 39.891765, 466.605685 45.983380)

LINESTRING (478.385138 39.891765, 472.109471 61.256996)

LINESTRING (441.218496 80.974818, 466.078316 52.264805)

LINESTRING (441.218496 80.974818, 440.167560 72.337822)

LINESTRING (441.218496 80.974818, 451.483905 59.206017)

LINESTRING (441.218496 80.974818, 460.701970 83.009150)

LINESTRING (441.218496 80.974818, 483.696479 42.826017)

LINESTRING (441.218496 80.974818, 442.201768 49.634704)

LINESTRING (441.218496 80.974818, 473.954717 83.304938)

LINESTRING (441.218496 80.974818, 444.494480 73.846094)

LINESTRING (441.218496 80.974818, 483.700624 53.399201)

LINESTRING (441.218496 80.974818, 439.881351 55.771526)

LINESTRING (441.218496 80.974818, 436.317888 56.291142)

LINESTRING (441.218496 80.974818, 466.605685 45.983380)

LINESTRING (441.218496 80.974818, 472.109471 61.256996)

LINESTRING (436.028787 76.011104, 466.078316 52.264805)

LINESTRING (436.028787 76.011104, 440.167560 72.337822)

LINESTRING (436.028787 76.011104, 451.483905 59.206017)

LINESTRING (436.028787 76.011104, 460.701970 83.009150)

LINESTRING (436.028787 76.011104, 483.696479 42.826017)

LINESTRING (436.028787 76.011104, 442.201768 49.634704)

LINESTRING (436.028787 76.011104, 473.954717 83.304938)

LINESTRING (436.028787 76.011104, 444.494480 73.846094)

LINESTRING (436.028787 76.011104, 483.700624 53.399201)

LINESTRING (436.028787 76.011104, 439.881351 55.771526)

LINESTRING (436.028787 76.011104, 436.317888 56.291142)

LINESTRING (436.028787 76.011104, 472.109471 61.256996)

LINESTRING (466.078316 52.264805, 440.167560 72.337822)

LINESTRING (466.078316 52.264805, 451.483905 59.206017)

LINESTRING (466.078316 52.264805, 460.701970 83.009150)

LINESTRING (466.078316 52.264805, 483.696479 42.826017)

LINESTRING (466.078316 52.264805, 442.201768 49.634704)

LINESTRING (466.078316 52.264805, 473.954717 83.304938)

LINESTRING (466.078316 52.264805, 444.494480 73.846094)

LINESTRING (466.078316 52.264805, 439.881351 55.771526)

LINESTRING (466.078316 52.264805, 436.317888 56.291142)

LINESTRING (466.078316 52.264805, 466.605685 45.983380)

LINESTRING (466.078316 52.264805, 472.109471 61.256996)

LINESTRING (440.167560 72.337822, 451.483905 59.206017)

LINESTRING (440.167560 72.337822, 460.701970 83.009150)

LINESTRING (440.167560 72.337822, 483.696479 42.826017)

LINESTRING (440.167560 72.337822, 442.201768 49.634704)

LINESTRING (440.167560 72.337822, 473.954717 83.304938)

LINESTRING (440.167560 72.337822, 444.494480 73.846094)

LINESTRING (440.167560 72.337822, 483.700624 53.399201)

LINESTRING (440.167560 72.337822, 436.317888 56.291142)

LINESTRING (440.167560 72.337822, 466.605685 45.983380)

LINESTRING (440.167560 72.337822, 472.109471 61.256996)

LINESTRING (451.483905 59.206017, 460.701970 83.009150)

LINESTRING (451.483905 59.206017, 483.696479 42.826017)

LINESTRING (451.483905 59.206017, 442.201768 49.634704)

LINESTRING (451.483905 59.206017, 473.954717 83.304938)

LINESTRING (451.483905 59.206017, 444.494480 73.846094)

LINESTRING (451.483905 59.206017, 483.700624 53.399201)

LINESTRING (451.483905 59.206017, 439.881351 55.771526)

LINESTRING (451.483905 59.206017, 436.317888 56.291142)

LINESTRING (451.483905 59.206017, 466.605685 45.983380)

LINESTRING (451.483905 59.206017, 472.109471 61.256996)

LINESTRING (460.701970 83.009150, 483.696479 42.826017)

LINESTRING (460.701970 83.009150, 442.201768 49.634704)

LINESTRING (460.701970 83.009150, 473.954717 83.304938)

LINESTRING (460.701970 83.009150, 444.494480 73.846094)

LINESTRING (460.701970 83.009150, 483.700624 53.399201)

LINESTRING (460.701970 83.009150, 439.881351 55.771526)

LINESTRING (460.701970 83.009150, 466.605685 45.983380)

LINESTRING (483.696479 42.826017, 442.201768 49.634704)

LINESTRING (483.696479 42.826017, 473.954717 83.304938)

LINESTRING (483.696479 42.826017, 444.494480 73.846094)

LINESTRING (483.696479 42.826017, 483.700624 53.399201)

LINESTRING (483.696479 42.826017, 439.881351 55.771526)

LINESTRING (483.696479 42.826017, 436.317888 56.291142)

LINESTRING (483.696479 42.826017, 466.605685 45.983380)

LINESTRING (483.696479 42.826017, 472.109471 61.256996)

LINESTRING (442.201768 49.634704, 473.954717 83.304938)

LINESTRING (442.201768 49.634704, 444.494480 73.846094)

LINESTRING (442.201768 49.634704, 483.700624 53.399201)

LINESTRING (442.201768 49.634704, 439.881351 55.771526)

LINESTRING (442.201768 49.634704, 466.605685 45.983380)

LINESTRING (442.201768 49.634704, 472.109471 61.256996)

LINESTRING (473.954717 83.304938, 444.494480 73.846094)

LINESTRING (473.954717 83.304938, 483.700624 53.399201)

LINESTRING (473.954717 83.304938, 439.881351 55.771526)

LINESTRING (473.954717 83.304938, 436.317888 56.291142)

LINESTRING (473.954717 83.304938, 466.605685 45.983380)

LINESTRING (473.954717 83.304938, 472.109471 61.256996)

LINESTRING (444.494480 73.846094, 483.700624 53.399201)

LINESTRING (444.494480 73.846094, 439.881351 55.771526)

LINESTRING (444.494480 73.846094, 436.317888 56.291142)

LINESTRING (444.494480 73.846094, 466.605685 45.983380)

LINESTRING (444.494480 73.846094, 472.109471 61.256996)

LINESTRING (483.700624 53.399201, 439.881351 55.771526)

LINESTRING (483.700624 53.399201, 436.317888 56.291142)

LINESTRING (483.700624 53.399201, 466.605685 45.983380)

LINESTRING (483.700624 53.399201, 472.109471 61.256996)

LINESTRING (439.881351 55.771526, 436.317888 56.291142)

LINESTRING (439.881351 55.771526, 466.605685 45.983380)

LINESTRING (439.881351 55.771526, 472.109471 61.256996)

LINESTRING (436.317888 56.291142, 472.109471 61.256996)

LINESTRING (466.605685 45.983380, 472.109471 61.256996)

LINESTRING (60.000000 260.000000, 58.029881 268.013643)

LINESTRING (60.000000 260.000000, 49.481620 264.948615)

LINESTRING (60.000000 260.000000, 59.579851 260.829594)

LINESTRING (60.000000 260.000000, 43.780553 258.504720)

LINESTRING (60.000000 260.000000, 68.059963 240.117022)

LINESTRING (60.000000 260.000000, 37.538695 263.449858)

LINESTRING (60.000000 260.000000, 76.311395 272.158541)

LINESTRING (60.000000 260.000000, 52.528983 282.530920)

LINESTRING (60.000000 260.000000, 71.395135 252.156416)

LINESTRING (60.000000 260.000000, 58.566642 240.466900)

LINESTRING (60.000000 260.000000, 74.249205 253.893718)

LINESTRING (60.000000 260.000000, 60.933201 258.669821)

LINESTRING (60.000000 260.000000, 72.290817 266.208159)

LINESTRING (60.000000 260.000000, 79.356592 271.754752)

LINESTRING (60.000000 260.000000, 47.979411 254.490822)

LINESTRING (60.000000 260.000000, 70.219418 243.907933)

LINESTRING (60.000000 260.000000, 65.968720 268.507256)

LINESTRING (60.000000 260.000000, 61.937671 261.777798)

LINESTRING (60.000000 260.000000, 55.338804 259.292315)

LINESTRING (60.000000 260.000000, 73.894142 251.393221)

LINESTRING (58.029881 268.013643, 49.481620 264.948615)

LINESTRING (58.029881 268.013643, 59.579851 260.829594)

LINESTRING (58.029881 268.013643, 43.780553 258.504720)

LINESTRING (58.029881 268.013643, 68.059963 240.117022)

LINESTRING (58.029881 268.013643, 37.538695 263.449858)

LINESTRING (58.029881 268.013643, 76.311395 272.158541)

LINESTRING (58.029881 268.013643, 52.528983 282.530920)

LINESTRING (58.029881 268.013643, 71.395135 252.156416)

LINESTRING (58.029881 268.013643, 58.566642 240.466900)

LINESTRING (58.029881 268.013643, 74.249205 253.893718)

LINESTRING (58.029881 268.013643, 60.933201 258.669821)

LINESTRING (58.029881 268.013643, 72.290817 266.208159)

LINESTRING (58.029881 268.013643, 79.356592 271.754752)

LINESTRING (58.029881 268.013643, 47.979411 254.490822)

LINESTRING (58.029881 268.013643, 70.219418 243.907933)

LINESTRING (58.029881 268.013643, 65.968720 268.507256)

LINESTRING (58.029881 268.013643, 61.937671 261.777798)

LINESTRING (58.029881 268.013643, 55.338804 259.292315)

LINESTRING (58.029881 268.013643, 73.894142 251.393221)

LINESTRING (49.481620 264.948615, 59.579851 260.829594)

LINESTRING (49.481620 264.948615, 43.780553 258.504720)

LINESTRING (49.481620 264.948615, 68.059963 240.117022)

LINESTRING (49.481620 264.948615, 37.538695 263.449858)

LINESTRING (49.481620 264.948615, 76.311395 272.158541)

LINESTRING (49.481620 264.948615, 52.528983 282.530920)

LINESTRING (49.481620 264.948615, 71.395135 252.156416)

LINESTRING (49.481620 264.948615, 58.566642 240.466900)

LINESTRING (49.481620 264.948615, 74.249205 253.893718)

LINESTRING (49.481620 264.948615, 60.933201 258.669821)

LINESTRING (49.481620 264.948615, 72.290817 266.208159)

LINESTRING (49.481620 264.948615, 79.356592 271.754752)

LINESTRING (49.481620 264.948615, 47.979411 254.490822)

LINESTRING (49.481620 264.948615, 70.219418 243.907933)

LINESTRING (49.481620 264.948615, 65.968720 268.507256)

LINESTRING (49.481620 264.948615, 61.937671 261.777798)

LINESTRING (49.481620 264.948615, 55.338804 259.292315)

LINESTRING (49.481620 264.948615, 73.894142 251.393221)

LINESTRING (59.579851 260.829594, 43.780553 258.504720)

LINESTRING (59.579851 260.829594, 68.059963 240.117022)

LINESTRING (59.579851 260.829594, 37.538695 263.449858)

LINESTRING (59.579851 260.829594, 76.311395 272.158541)

LINESTRING (59.579851 260.829594, 52.528983 282.530920)

LINESTRING (59.579851 260.829594, 71.395135 252.156416)

LINESTRING (59.579851 260.829594, 58.566642 240.466900)

LINESTRING (59.579851 260.829594, 74.249205 253.893718)

LINESTRING (59.579851 260.829594, 60.933201 258.669821)

LINESTRING (59.579851 260.829594, 72.290817 266.208159)

LINESTRING (59.579851 260.829594, 79.356592 271.754752)

LINESTRING (59.579851 260.829594, 47.979411 254.490822)

LINESTRING (59.579851 260.829594, 70.219418 243.907933)

LINESTRING (59.579851 260.829594, 65.968720 268.507256)

LINESTRING (59.579851 260.829594, 61.937671 261.777798)

LINESTRING (59.579851 260.829594, 55.338804 259.292315)

LINESTRING (59.579851 260.829594, 73.894142 251.393221)

LINESTRING (43.780553 258.504720, 68.059963 240.117022)

LINESTRING (43.780553 258.504720, 37.538695 263.449858)

LINESTRING (43.780553 258.504720, 76.311395 272.158541)

LINESTRING (43.780553 258.504720, 52.528983 282.530920)

LINESTRING (43.780553 258.504720, 71.395135 252.156416)

LINESTRING (43.780553 258.504720, 58.566642 240.466900)

LINESTRING (43.780553 258.504720, 60.933201 258.669821)

LINESTRING (43.780553 258.504720, 72.290817 266.208159)

LINESTRING (43.780553 258.504720, 79.356592 271.754752)

LINESTRING (43.780553 258.504720, 47.979411 254.490822)

LINESTRING (43.780553 258.504720, 70.219418 243.907933)

LINESTRING (43.780553 258.504720, 65.968720 268.507256)

LINESTRING (43.780553 258.504720, 61.937671 261.777798)

LINESTRING (43.780553 258.504720, 55.338804 259.292315)

LINESTRING (43.780553 258.504720, 73.894142 251.393221)

LINESTRING (68.059963 240.117022, 37.538695 263.449858)

LINESTRING (68.059963 240.117022, 76.311395 272.158541)

LINESTRING (68.059963 240.117022, 52.528983 282.530920)

LINESTRING (68.059963 240.117022, 71.395135 252.156416)

LINESTRING (68.059963 240.117022, 74.249205 253.893718)

LINESTRING (68.059963 240.117022, 60.933201 258.669821)

LINESTRING (68.059963 240.117022, 72.290817 266.208159)

LINESTRING (68.059963 240.117022, 79.356592 271.754752)

LINESTRING (68.059963 240.117022, 47.979411 254.490822)

LINESTRING (68.059963 240.117022, 70.219418 243.907933)

LINESTRING (68.059963 240.117022, 65.968720 268.507256)

LINESTRING (68.059963 240.117022, 61.937671 261.777798)

LINESTRING (68.059963 240.117022, 73.894142 251.393221)

LINESTRING (37.538695 263.449858, 76.311395 272.158541)

LINESTRING (37.538695 263.449858, 52.528983 282.530920)

LINESTRING (37.538695 263.449858, 71.395135 252.156416)

LINESTRING (37.538695 263.449858, 58.566642 240.466900)

LINESTRING (37.538695 263.449858, 74.249205 253.893718)

LINESTRING (37.538695 263.449858, 72.290817 266.208159)

LINESTRING (37.538695 263.449858, 79.356592 271.754752)

LINESTRING (37.538695 263.449858, 47.979411 254.490822)

LINESTRING (37.538695 263.449858, 70.219418 243.907933)

LINESTRING (37.538695 263.449858, 65.968720 268.507256)

LINESTRING (37.538695 263.449858, 61.937671 261.777798)

LINESTRING (37.538695 263.449858, 73.894142 251.393221)

LINESTRING (76.311395 272.158541, 52.528983 282.530920)

LINESTRING (76.311395 272.158541, 71.395135 252.156416)

LINESTRING (76.311395 272.158541, 58.566642 240.466900)

LINESTRING (76.311395 272.158541, 74.249205 253.893718)

LINESTRING (76.311395 272.158541, 72.290817 266.208159)

LINESTRING (76.311395 272.158541, 79.356592 271.754752)

LINESTRING (76.311395 272.158541, 47.979411 254.490822)

LINESTRING (76.311395 272.158541, 70.219418 243.907933)

LINESTRING (76.311395 272.158541, 65.968720 268.507256)

LINESTRING (76.311395 272.158541, 61.937671 261.777798)

LINESTRING (76.311395 272.158541, 73.894142 251.393221)

LINESTRING (52.528983 282.530920, 71.395135 252.156416)

LINESTRING (52.528983 282.530920, 58.566642 240.466900)

LINESTRING (52.528983 282.530920, 74.249205 253.893718)

LINESTRING (52.528983 282.530920, 60.933201 258.669821)

LINESTRING (52.528983 282.530920, 72.290817 266.208159)

LINESTRING (52.528983 282.530920, 79.356592 271.754752)

LINESTRING (52.528983 282.530920, 47.979411 254.490822)

LINESTRING (52.528983 282.530920, 70.219418 243.907933)

LINESTRING (52.528983 282.530920, 65.968720 268.507256)

LINESTRING (52.528983 282.530920, 61.937671 261.777798)

LINESTRING (52.528983 282.530920, 55.338804 259.292315)

LINESTRING (52.528983 282.530920, 73.894142 251.393221)

LINESTRING (71.395135 252.156416, 58.566642 240.466900)

LINESTRING (71.395135 252.156416, 60.933201 258.669821)

LINESTRING (71.395135 252.156416, 79.356592 271.754752)

LINESTRING (71.395135 252.156416, 47.979411 254.490822)

LINESTRING (71.395135 252.156416, 70.219418 243.907933)

LINESTRING (71.395135 252.156416, 65.968720 268.507256)

LINESTRING (71.395135 252.156416, 61.937671 261.777798)

LINESTRING (71.395135 252.156416, 55.338804 259.292315)

LINESTRING (71.395135 252.156416, 73.894142 251.393221)

LINESTRING (58.566642 240.466900, 74.249205 253.893718)

LINESTRING (58.566642 240.466900, 60.933201 258.669821)

LINESTRING (58.566642 240.466900, 72.290817 266.208159)

LINESTRING (58.566642 240.466900, 79.356592 271.754752)

LINESTRING (58.566642 240.466900, 47.979411 254.490822)

LINESTRING (58.566642 240.466900, 70.219418 243.907933)

LINESTRING (58.566642 240.466900, 65.968720 268.507256)

LINESTRING (58.566642 240.466900, 61.937671 261.777798)

LINESTRING (58.566642 240.466900, 55.338804 259.292315)

LINESTRING (74.249205 253.893718, 60.933201 258.669821)

LINESTRING (74.249205 253.893718, 72.290817 266.208159)

LINESTRING (74.249205 253.893718, 79.356592 271.754752)

LINESTRING (74.249205 253.893718, 47.979411 254.490822)

LINESTRING (74.249205 253.893718, 70.219418 243.907933)

LINESTRING (74.249205 253.893718, 65.968720 268.507256)

LINESTRING (74.249205 253.893718, 61.937671 261.777798)

LINESTRING (74.249205 253.893718, 55.338804 259.292315)

LINESTRING (60.933201 258.669821, 72.290817 266.208159)

LINESTRING (60.933201 258.669821, 79.356592 271.754752)

LINESTRING (60.933201 258.669821, 47.979411 254.490822)

LINESTRING (60.933201 258.669821, 70.219418 243.907933)

LINESTRING (60.933201 258.669821, 65.968720 268.507256)

LINESTRING (60.933201 258.669821, 61.937671 261.777798)

LINESTRING (60.933201 258.669821, 55.338804 259.292315)

LINESTRING (60.933201 258.669821, 73.894142 251.393221)

LINESTRING (72.290817 266.208159, 79.356592 271.754752)

LINESTRING (72.290817 266.208159, 47.979411 254.490822)

LINESTRING (72.290817 266.208159, 70.219418 243.907933)

LINESTRING (72.290817 266.208159, 65.968720 268.507256)

LINESTRING (72.290817 266.208159, 55.338804 259.292315)

LINESTRING (72.290817 266.208159, 73.894142 251.393221)

LINESTRING (79.356592 271.754752, 47.979411 254.490822)

LINESTRING (79.356592 271.754752, 70.219418 243.907933)

LINESTRING (79.356592 271.754752, 65.968720 268.507256)

LINESTRING (79.356592 271.754752, 61.937671 261.777798)

LINESTRING (79.356592 271.754752, 55.338804 259.292315)

LINESTRING (79.356592 271.754752, 73.894142 251.393221)

LINESTRING (47.979411 254.490822, 70.219418 243.907933)

LINESTRING (47.979411 254.490822, 65.968720 268.507256)

LINESTRING (47.979411 254.490822, 61.937671 261.777798)

LINESTRING (47.979411 254.490822, 55.338804 259.292315)

LINESTRING (47.979411 254.490822, 73.894142 251.393221)

LINESTRING (70.219418 243.907933, 65.968720 268.507256)

LINESTRING (70.219418 243.907933, 61.937671 261.777798)

LINESTRING (70.219418 243.907933, 55.338804 259.292315)

LINESTRING (70.219418 243.907933, 73.894142 251.393221)

LINESTRING (65.968720 268.507256, 61.937671 261.777798)

LINESTRING (65.968720 268.507256, 55.338804 259.292315)

LINESTRING (65.968720 268.507256, 73.894142 251.393221)

LINESTRING (61.937671 261.777798, 55.338804 259.292315)

LINESTRING (61.937671 261.777798, 73.894142 251.393221)

LINESTRING (55.338804 259.292315, 73.894142 251.393221)

LINESTRING (260.000000 260.000000, 237.314535 282.755522)

LINESTRING (260.000000 260.000000, 269.802508 275.709611)

LINESTRING (260.000000 260.000000, 241.233722 239.485472)

LINESTRING (260.000000 260.000000, 245.834788 264.490911)

LINESTRING (260.000000 260.000000, 277.310295 261.291032)

LINESTRING (260.000000 260.000000, 259.013711 252.613405)

LINESTRING (260.000000 260.000000, 276.286818 278.182109)

LINESTRING (260.000000 260.000000, 271.526548 248.242791)

LINESTRING (260.000000 260.000000, 281.012337 272.767175)

LINESTRING (260.000000 260.000000, 240.350406 273.181686)

LINESTRING (260.000000 260.000000, 268.181714 245.202246)

LINESTRING (260.000000 260.000000, 237.042635 274.977996)

LINESTRING (260.000000 260.000000, 242.662484 264.081724)

LINESTRING (260.000000 260.000000, 282.332809 264.701748)

LINESTRING (260.000000 260.000000, 273.285488 253.996222)

LINESTRING (260.000000 260.000000, 259.754645 260.835206)

LINESTRING (260.000000 260.000000, 262.213028 273.318309)

LINESTRING (260.000000 260.000000, 278.793040 238.597534)

LINESTRING (260.000000 260.000000, 243.095877 260.030791)

LINESTRING (260.000000 260.000000, 270.064732 258.474731)

LINESTRING (237.314535 282.755522, 269.802508 275.709611)

LINESTRING (237.314535 282.755522, 241.233722 239.485472)

LINESTRING (237.314535 282.755522, 245.834788 264.490911)

LINESTRING (237.314535 282.755522, 277.310295 261.291032)

LINESTRING (237.314535 282.755522, 259.013711 252.613405)

LINESTRING (237.314535 282.755522, 276.286818 278.182109)

LINESTRING (237.314535 282.755522, 271.526548 248.242791)

LINESTRING (237.314535 282.755522, 281.012337 272.767175)

LINESTRING (237.314535 282.755522, 240.350406 273.181686)

LINESTRING (237.314535 282.755522, 268.181714 245.202246)

LINESTRING (237.314535 282.755522, 237.042635 274.977996)

LINESTRING (237.314535 282.755522, 282.332809 264.701748)

LINESTRING (237.314535 282.755522, 273.285488 253.996222)

LINESTRING (237.314535 282.755522, 259.754645 260.835206)

LINESTRING (237.314535 282.755522, 262.213028 273.318309)

LINESTRING (237.314535 282.755522, 278.793040 238.597534)

LINESTRING (237.314535 282.755522, 243.095877 260.030791)

LINESTRING (237.314535 282.755522, 270.064732 258.474731)

LINESTRING (269.802508 275.709611, 245.834788 264.490911)

LINESTRING (269.802508 275.709611, 259.013711 252.613405)

LINESTRING (269.802508 275.709611, 276.286818 278.182109)

LINESTRING (269.802508 275.709611, 271.526548 248.242791)

LINESTRING (269.802508 275.709611, 281.012337 272.767175)

LINESTRING (269.802508 275.709611, 240.350406 273.181686)

LINESTRING (269.802508 275.709611, 237.042635 274.977996)

LINESTRING (269.802508 275.709611, 242.662484 264.081724)

LINESTRING (269.802508 275.709611, 282.332809 264.701748)

LINESTRING (269.802508 275.709611, 273.285488 253.996222)

LINESTRING (269.802508 275.709611, 259.754645 260.835206)

LINESTRING (269.802508 275.709611, 262.213028 273.318309)

LINESTRING (269.802508 275.709611, 278.793040 238.597534)

LINESTRING (269.802508 275.709611, 243.095877 260.030791)

LINESTRING (269.802508 275.709611, 270.064732 258.474731)

LINESTRING (241.233722 239.485472, 245.834788 264.490911)

LINESTRING (241.233722 239.485472, 277.310295 261.291032)

LINESTRING (241.233722 239.485472, 259.013711 252.613405)

LINESTRING (241.233722 239.485472, 276.286818 278.182109)

LINESTRING (241.233722 239.485472, 271.526548 248.242791)

LINESTRING (241.233722 239.485472, 281.012337 272.767175)

LINESTRING (241.233722 239.485472, 240.350406 273.181686)

LINESTRING (241.233722 239.485472, 268.181714 245.202246)

LINESTRING (241.233722 239.485472, 237.042635 274.977996)

LINESTRING (241.233722 239.485472, 242.662484 264.081724)

LINESTRING (241.233722 239.485472, 282.332809 264.701748)

LINESTRING (241.233722 239.485472, 273.285488 253.996222)

LINESTRING (241.233722 239.485472, 259.754645 260.835206)

LINESTRING (241.233722 239.485472, 262.213028 273.318309)

LINESTRING (241.233722 239.485472, 278.793040 238.597534)

LINESTRING (241.233722 239.485472, 243.095877 260.030791)

LINESTRING (241.233722 239.485472, 270.064732 258.474731)

LINESTRING (245.834788 264.490911, 277.310295 261.291032)

LINESTRING (245.834788 264.490911, 259.013711 252.613405)

LINESTRING (245.834788 264.490911, 276.286818 278.182109)

LINESTRING (245.834788 264.490911, 271.526548 248.242791)

LINESTRING (245.834788 264.490911, 281.012337 272.767175)

LINESTRING (245.834788 264.490911, 240.350406 273.181686)

LINESTRING (245.834788 264.490911, 268.181714 245.202246)

LINESTRING (245.834788 264.490911, 237.042635 274.977996)

LINESTRING (245.834788 264.490911, 242.662484 264.081724)

LINESTRING (245.834788 264.490911, 282.332809 264.701748)

LINESTRING (245.834788 264.490911, 273.285488 253.996222)

LINESTRING (245.834788 264.490911, 259.754645 260.835206)

LINESTRING (245.834788 264.490911, 262.213028 273.318309)

LINESTRING (245.834788 264.490911, 278.793040 238.597534)

LINESTRING (245.834788 264.490911, 243.095877 260.030791)

LINESTRING (245.834788 264.490911, 270.064732 258.474731)

LINESTRING (277.310295 261.291032, 259.013711 252.613405)

LINESTRING (277.310295 261.291032, 276.286818 278.182109)

LINESTRING (277.310295 261.291032, 271.526548 248.242791)

LINESTRING (277.310295 261.291032, 281.012337 272.767175)

LINESTRING (277.310295 261.291032, 268.181714 245.202246)

LINESTRING (277.310295 261.291032, 237.042635 274.977996)

LINESTRING (277.310295 261.291032, 242.662484 264.081724)

LINESTRING (277.310295 261.291032, 282.332809 264.701748)

LINESTRING (277.310295 261.291032, 273.285488 253.996222)

LINESTRING (277.310295 261.291032, 259.754645 260.835206)

LINESTRING (277.310295 261.291032, 278.793040 238.597534)

LINESTRING (277.310295 261.291032, 243.095877 260.030791)

LINESTRING (277.310295 261.291032, 270.064732 258.474731)

LINESTRING (259.013711 252.613405, 276.286818 278.182109)

LINESTRING (259.013711 252.613405, 271.526548 248.242791)

LINESTRING (259.013711 252.613405, 240.350406 273.181686)

LINESTRING (259.013711 252.613405, 268.181714 245.202246)

LINESTRING (259.013711 252.613405, 237.042635 274.977996)

LINESTRING (259.013711 252.613405, 242.662484 264.081724)

LINESTRING (259.013711 252.613405, 282.332809 264.701748)

LINESTRING (259.013711 252.613405, 273.285488 253.996222)

LINESTRING (259.013711 252.613405, 259.754645 260.835206)

LINESTRING (259.013711 252.613405, 262.213028 273.318309)

LINESTRING (259.013711 252.613405, 278.793040 238.597534)

LINESTRING (259.013711 252.613405, 243.095877 260.030791)

LINESTRING (259.013711 252.613405, 270.064732 258.474731)

LINESTRING (276.286818 278.182109, 271.526548 248.242791)

LINESTRING (276.286818 278.182109, 281.012337 272.767175)

LINESTRING (276.286818 278.182109, 240.350406 273.181686)

LINESTRING (276.286818 278.182109, 268.181714 245.202246)

LINESTRING (276.286818 278.182109, 237.042635 274.977996)

LINESTRING (276.286818 278.182109, 242.662484 264.081724)

LINESTRING (276.286818 278.182109, 282.332809 264.701748)

LINESTRING (276.286818 278.182109, 273.285488 253.996222)

LINESTRING (276.286818 278.182109, 259.754645 260.835206)

LINESTRING (276.286818 278.182109, 262.213028 273.318309)

LINESTRING (276.286818 278.182109, 278.793040 238.597534)

LINESTRING (276.286818 278.182109, 243.095877 260.030791)

LINESTRING (271.526548 248.242791, 281.012337 272.767175)

LINESTRING (271.526548 248.242791, 240.350406 273.181686)

LINESTRING (271.526548 248.242791, 242.662484 264.081724)

LINESTRING (271.526548 248.242791, 282.332809 264.701748)

LINESTRING (271.526548 248.242791, 273.285488 253.996222)

LINESTRING (271.526548 248.242791, 259.754645 260.835206)

LINESTRING (271.526548 248.242791, 262.213028 273.318309)

LINESTRING (271.526548 248.242791, 278.793040 238.597534)

LINESTRING (271.526548 248.242791, 270.064732 258.474731)

LINESTRING (281.012337 272.767175, 240.350406 273.181686)

LINESTRING (281.012337 272.767175, 268.181714 245.202246)

LINESTRING (281.012337 272.767175, 237.042635 274.977996)

LINESTRING (281.012337 272.767175, 282.332809 264.701748)

LINESTRING (281.012337 272.767175, 273.285488 253.996222)

LINESTRING (281.012337 272.767175, 259.754645 260.835206)

LINESTRING (281.012337 272.767175, 262.213028 273.318309)

LINESTRING (281.012337 272.767175, 278.793040 238.597534)

LINESTRING (281.012337 272.767175, 270.064732 258.474731)

LINESTRING (240.350406 273.181686, 268.181714 245.202246)

LINESTRING (240.350406 273.181686, 237.042635 274.977996)

LINESTRING (240.350406 273.181686, 259.754645 260.835206)

LINESTRING (240.350406 273.181686, 262.213028 273.318309)

LINESTRING (240.350406 273.181686, 278.793040 238.597534)

LINESTRING (240.350406 273.181686, 243.095877 260.030791)

LINESTRING (240.350406 273.181686, 270.064732 258.474731)

LINESTRING (268.181714 245.202246, 237.042635 274.977996)

LINESTRING (268.181714 245.202246, 242.662484 264.081724)

LINESTRING (268.181714 245.202246, 282.332809 264.701748)

LINESTRING (268.181714 245.202246, 259.754645 260.835206)

LINESTRING (268.181714 245.202246, 262.213028 273.318309)

LINESTRING (268.181714 245.202246, 278.793040 238.597534)

LINESTRING (268.181714 245.202246, 243.095877 260.030791)

LINESTRING (268.181714 245.202246, 270.064732 258.474731)

LINESTRING (237.042635 274.977996, 242.662484 264.081724)

LINESTRING (237.042635 274.977996, 282.332809 264.701748)

LINESTRING (237.042635 274.977996, 273.285488 253.996222)

LINESTRING (237.042635 274.977996, 259.754645 260.835206)

LINESTRING (237.042635 274.977996, 262.213028 273.318309)

LINESTRING (237.042635 274.977996, 278.793040 238.597534)

LINESTRING (237.042635 274.977996, 243.095877 260.030791)

LINESTRING (237.042635 274.977996, 270.064732 258.474731)

LINESTRING (242.662484 264.081724, 273.285488 253.996222)

LINESTRING (242.662484 264.081724, 259.754645 260.835206)

LINESTRING (242.662484 264.081724, 262.213028 273.318309)

LINESTRING (242.662484 264.081724, 278.793040 238.597534)

LINESTRING (242.662484 264.081724, 243.095877 260.030791)

LINESTRING (242.662484 264.081724, 270.064732 258.474731)

LINESTRING (282.332809 264.701748, 273.285488 253.996222)

LINESTRING (282.332809 264.701748, 259.754645 260.835206)

LINESTRING (282.332809 264.701748, 262.213028 273.318309)

LINESTRING (282.332809 264.701748, 243.095877 260.030791)

LINESTRING (282.332809 264.701748, 270.064732 258.474731)

LINESTRING (273.285488 253.996222, 259.754645 260.835206)

LINESTRING (273.285488 253.996222, 262.213028 273.318309)

LINESTRING (273.285488 253.996222, 278.793040 238.597534)

LINESTRING (273.285488 253.996222, 243.095877 260.030791)

LINESTRING (259.754645 260.835206, 262.213028 273.318309)

LINESTRING (259.754645 260.835206, 278.793040 238.597534)

LINESTRING (259.754645 260.835206, 243.095877 260.030791)

LINESTRING (259.754645 260.835206, 270.064732 258.474731)

LINESTRING (262.213028 273.318309, 278.793040 238.597534)

LINESTRING (262.213028 273.318309, 243.095877 260.030791)

LINESTRING (262.213028 273.318309, 270.064732 258.474731)

LINESTRING (278.793040 238.597534, 243.095877 260.030791)

LINESTRING (278.793040 238.597534, 270.064732 258.474731)

LINESTRING (243.095877 260.030791, 270.064732 258.474731)

LINESTRING (460.000000 260.000000, 446.111014 261.556607)

LINESTRING (460.000000 260.000000, 469.376934 264.676634)

LINESTRING (460.000000 260.000000, 437.668964 246.381271)

LINESTRING (460.000000 260.000000, 476.945465 264.860619)

LINESTRING (460.000000 260.000000, 472.068285 255.677044)

LINESTRING (460.000000 260.000000, 480.316726 256.259369)

LINESTRING (460.000000 260.000000, 467.807437 261.397497)

LINESTRING (460.000000 260.000000, 466.688379 274.757467)

LINESTRING (460.000000 260.000000, 456.511417 241.574413)

LINESTRING (460.000000 260.000000, 436.218462 264.140372)

LINESTRING (460.000000 260.000000, 475.379344 253.831042)

LINESTRING (460.000000 260.000000, 440.992330 266.027348)

LINESTRING (460.000000 260.000000, 476.145326 254.053840)

LINESTRING (460.000000 260.000000, 458.622452 249.288023)

LINESTRING (460.000000 260.000000, 470.081868 245.250221)

LINESTRING (460.000000 260.000000, 455.238746 257.815102)

LINESTRING (460.000000 260.000000, 438.892796 252.882908)

LINESTRING (460.000000 260.000000, 436.646996 240.523480)

LINESTRING (460.000000 260.000000, 483.520082 236.833968)

LINESTRING (460.000000 260.000000, 462.156669 237.200893)

LINESTRING (446.111014 261.556607, 469.376934 264.676634)

LINESTRING (446.111014 261.556607, 437.668964 246.381271)

LINESTRING (446.111014 261.556607, 476.945465 264.860619)

LINESTRING (446.111014 261.556607, 472.068285 255.677044)

LINESTRING (446.111014 261.556607, 480.316726 256.259369)

LINESTRING (446.111014 261.556607, 467.807437 261.397497)

LINESTRING (446.111014 261.556607, 466.688379 274.757467)

LINESTRING (446.111014 261.556607, 456.511417 241.574413)

LINESTRING (446.111014 261.556607, 436.218462 264.140372)

LINESTRING (446.111014 261.556607, 475.379344 253.831042)

LINESTRING (446.111014 261.556607, 476.145326 254.053840)

LINESTRING (446.111014 261.556607, 458.622452 249.288023)

LINESTRING (446.111014 261.556607, 470.081868 245.250221)

LINESTRING (446.111014 261.556607, 455.238746 257.815102)

LINESTRING (446.111014 261.556607, 438.892796 252.882908)

LINESTRING (446.111014 261.556607, 436.646996 240.523480)

LINESTRING (446.111014 261.556607, 483.520082 236.833968)

LINESTRING (446.111014 261.556607, 462.156669 237.200893)

LINESTRING (469.376934 264.676634, 437.668964 246.381271)

LINESTRING (469.376934 264.676634, 476.945465 264.860619)

LINESTRING (469.376934 264.676634, 480.316726 256.259369)

LINESTRING (469.376934 264.676634, 467.807437 261.397497)

LINESTRING (469.376934 264.676634, 466.688379 274.757467)

LINESTRING (469.376934 264.676634, 456.511417 241.574413)

LINESTRING (469.376934 264.676634, 436.218462 264.140372)

LINESTRING (469.376934 264.676634, 475.379344 253.831042)

LINESTRING (469.376934 264.676634, 440.992330 266.027348)

LINESTRING (469.376934 264.676634, 458.622452 249.288023)

LINESTRING (469.376934 264.676634, 470.081868 245.250221)

LINESTRING (469.376934 264.676634, 438.892796 252.882908)

LINESTRING (469.376934 264.676634, 436.646996 240.523480)

LINESTRING (469.376934 264.676634, 483.520082 236.833968)

LINESTRING (469.376934 264.676634, 462.156669 237.200893)

LINESTRING (437.668964 246.381271, 472.068285 255.677044)

LINESTRING (437.668964 246.381271, 480.316726 256.259369)

LINESTRING (437.668964 246.381271, 467.807437 261.397497)

LINESTRING (437.668964 246.381271, 466.688379 274.757467)

LINESTRING (437.668964 246.381271, 456.511417 241.574413)

LINESTRING (437.668964 246.381271, 436.218462 264.140372)

LINESTRING (437.668964 246.381271, 475.379344 253.831042)

LINESTRING (437.668964 246.381271, 476.145326 254.053840)

LINESTRING (437.668964 246.381271, 458.622452 249.288023)

LINESTRING (437.668964 246.381271, 470.081868 245.250221)

LINESTRING (437.668964 246.381271, 455.238746 257.815102)

LINESTRING (437.668964 246.381271, 436.646996 240.523480)

LINESTRING (437.668964 246.381271, 483.520082 236.833968)

LINESTRING (476.945465 264.860619, 472.068285 255.677044)

LINESTRING (476.945465 264.860619, 480.316726 256.259369)

LINESTRING (476.945465 264.860619, 467.807437 261.397497)

LINESTRING (476.945465 264.860619, 466.688379 274.757467)

LINESTRING (476.945465 264.860619, 456.511417 241.574413)

LINESTRING (476.945465 264.860619, 436.218462 264.140372)

LINESTRING (476.945465 264.860619, 475.379344 253.831042)

LINESTRING (476.945465 264.860619, 440.992330 266.027348)

LINESTRING (476.945465 264.860619, 476.145326 254.053840)

LINESTRING (476.945465 264.860619, 458.622452 249.288023)

LINESTRING (476.945465 264.860619, 470.081868 245.250221)

LINESTRING (476.945465 264.860619, 455.238746 257.815102)

LINESTRING (476.945465 264.860619, 438.892796 252.882908)

LINESTRING (476.945465 264.860619, 483.520082 236.833968)

LINESTRING (476.945465 264.860619, 462.156669 237.200893)

LINESTRING (472.068285 255.677044, 480.316726 256.259369)

LINESTRING (472.068285 255.677044, 467.807437 261.397497)

LINESTRING (472.068285 255.677044, 466.688379 274.757467)

LINESTRING (472.068285 255.677044, 456.511417 241.574413)

LINESTRING (472.068285 255.677044, 436.218462 264.140372)

LINESTRING (472.068285 255.677044, 440.992330 266.027348)

LINESTRING (472.068285 255.677044, 476.145326 254.053840)

LINESTRING (472.068285 255.677044, 458.622452 249.288023)

LINESTRING (472.068285 255.677044, 470.081868 245.250221)

LINESTRING (472.068285 255.677044, 455.238746 257.815102)

LINESTRING (472.068285 255.677044, 438.892796 252.882908)

LINESTRING (472.068285 255.677044, 436.646996 240.523480)

LINESTRING (472.068285 255.677044, 483.520082 236.833968)

LINESTRING (472.068285 255.677044, 462.156669 237.200893)

LINESTRING (480.316726 256.259369, 467.807437 261.397497)

LINESTRING (480.316726 256.259369, 466.688379 274.757467)

LINESTRING (480.316726 256.259369, 456.511417 241.574413)

LINESTRING (480.316726 256.259369, 436.218462 264.140372)

LINESTRING (480.316726 256.259369, 475.379344 253.831042)

LINESTRING (480.316726 256.259369, 440.992330 266.027348)

LINESTRING (480.316726 256.259369, 458.622452 249.288023)

LINESTRING (480.316726 256.259369, 470.081868 245.250221)

LINESTRING (480.316726 256.259369, 455.238746 257.815102)

LINESTRING (480.316726 256.259369, 438.892796 252.882908)

LINESTRING (480.316726 256.259369, 436.646996 240.523480)

LINESTRING (480.316726 256.259369, 483.520082 236.833968)

LINESTRING (480.316726 256.259369, 462.156669 237.200893)

LINESTRING (467.807437 261.397497, 466.688379 274.757467)

LINESTRING (467.807437 261.397497, 456.511417 241.574413)

LINESTRING (467.807437 261.397497, 436.218462 264.140372)

LINESTRING (467.807437 261.397497, 475.379344 253.831042)

LINESTRING (467.807437 261.397497, 440.992330 266.027348)

LINESTRING (467.807437 261.397497, 476.145326 254.053840)

LINESTRING (467.807437 261.397497, 458.622452 249.288023)

LINESTRING (467.807437 261.397497, 470.081868 245.250221)

LINESTRING (467.807437 261.397497, 438.892796 252.882908)

LINESTRING (467.807437 261.397497, 436.646996 240.523480)

LINESTRING (467.807437 261.397497, 483.520082 236.833968)

LINESTRING (467.807437 261.397497, 462.156669 237.200893)

LINESTRING (466.688379 274.757467, 456.511417 241.574413)

LINESTRING (466.688379 274.757467, 436.218462 264.140372)

LINESTRING (466.688379 274.757467, 475.379344 253.831042)

LINESTRING (466.688379 274.757467, 440.992330 266.027348)

LINESTRING (466.688379 274.757467, 476.145326 254.053840)

LINESTRING (466.688379 274.757467, 458.622452 249.288023)

LINESTRING (466.688379 274.757467, 470.081868 245.250221)

LINESTRING (466.688379 274.757467, 455.238746 257.815102)

LINESTRING (466.688379 274.757467, 438.892796 252.882908)

LINESTRING (466.688379 274.757467, 436.646996 240.523480)

LINESTRING (466.688379 274.757467, 483.520082 236.833968)

LINESTRING (466.688379 274.757467, 462.156669 237.200893)

LINESTRING (456.511417 241.574413, 436.218462 264.140372)

LINESTRING (456.511417 241.574413, 475.379344 253.831042)

LINESTRING (456.511417 241.574413, 476.145326 254.053840)

LINESTRING (456.511417 241.574413, 458.622452 249.288023)

LINESTRING (456.511417 241.574413, 470.081868 245.250221)

LINESTRING (456.511417 241.574413, 455.238746 257.815102)

LINESTRING (456.511417 241.574413, 436.646996 240.523480)

LINESTRING (456.511417 241.574413, 483.520082 236.833968)

LINESTRING (456.511417 241.574413, 462.156669 237.200893)

LINESTRING (436.218462 264.140372, 475.379344 253.831042)

LINESTRING (436.218462 264.140372, 440.992330 266.027348)

LINESTRING (436.218462 264.140372, 476.145326 254.053840)

LINESTRING (436.218462 264.140372, 458.622452 249.288023)

LINESTRING (436.218462 264.140372, 470.081868 245.250221)

LINESTRING (436.218462 264.140372, 455.238746 257.815102)

LINESTRING (436.218462 264.140372, 438.892796 252.882908)

LINESTRING (436.218462 264.140372, 436.646996 240.523480)

LINESTRING (436.218462 264.140372, 483.520082 236.833968)

LINESTRING (436.218462 264.140372, 462.156669 237.200893)

LINESTRING (475.379344 253.831042, 440.992330 266.027348)

LINESTRING (475.379344 253.831042, 476.145326 254.053840)

LINESTRING (475.379344 253.831042, 458.622452 249.288023)

LINESTRING (475.379344 253.831042, 470.081868 245.250221)

LINESTRING (475.379344 253.831042, 455.238746 257.815102)

LINESTRING (475.379344 253.831042, 438.892796 252.882908)

LINESTRING (475.379344 253.831042, 436.646996 240.523480)

LINESTRING (475.379344 253.831042, 483.520082 236.833968)

LINESTRING (440.992330 266.027348, 476.145326 254.053840)

LINESTRING (440.992330 266.027348, 458.622452 249.288023)

LINESTRING (440.992330 266.027348, 470.081868 245.250221)

LINESTRING (440.992330 266.027348, 455.238746 257.815102)

LINESTRING (440.992330 266.027348, 438.892796 252.882908)

LINESTRING (440.992330 266.027348, 436.646996 240.523480)

LINESTRING (440.992330 266.027348, 483.520082 236.833968)

LINESTRING (440.992330 266.027348, 462.156669 237.200893)

LINESTRING (476.145326 254.053840, 458.622452 249.288023)

LINESTRING (476.145326 254.053840, 470.081868 245.250221)

LINESTRING (476.145326 254.053840, 455.238746 257.815102)

LINESTRING (476.145326 254.053840, 438.892796 252.882908)

LINESTRING (476.145326 254.053840, 436.646996 240.523480)

LINESTRING (476.145326 254.053840, 483.520082 236.833968)

LINESTRING (476.145326 254.053840, 462.156669 237.200893)

LINESTRING (458.622452 249.288023, 470.081868 245.250221)

LINESTRING (458.622452 249.288023, 455.238746 257.815102)

LINESTRING (458.622452 249.288023, 438.892796 252.882908)

LINESTRING (458.622452 249.288023, 483.520082 236.833968)

LINESTRING (458.622452 249.288023, 462.156669 237.200893)

LINESTRING (470.081868 245.250221, 455.238746 257.815102)

LINESTRING (470.081868 245.250221, 438.892796 252.882908)

LINESTRING (470.081868 245.250221, 436.646996 240.523480)

LINESTRING (470.081868 245.250221, 483.520082 236.833968)

LINESTRING (470.081868 245.250221, 462.156669 237.200893)

LINESTRING (455.238746 257.815102, 438.892796 252.882908)

LINESTRING (455.238746 257.815102, 436.646996 240.523480)

LINESTRING (455.238746 257.815102, 483.520082 236.833968)

LINESTRING (455.238746 257.815102, 462.156669 237.200893)

LINESTRING (438.892796 252.882908, 483.520082 236.833968)

LINESTRING (438.892796 252.882908, 462.156669 237.200893)

LINESTRING (436.646996 240.523480, 483.520082 236.833968)

LINESTRING (436.646996 240.523480, 462.156669 237.200893)

LINESTRING (483.520082 236.833968, 462.156669 237.200893)

LINESTRING (60.000000 460.000000, 42.275467 450.303806)

LINESTRING (60.000000 460.000000, 63.282336 445.380532)

LINESTRING (60.000000 460.000000, 41.452040 468.737828)

LINESTRING (60.000000 460.000000, 70.609950 481.602165)

LINESTRING (60.000000 460.000000, 50.742846 458.185831)

LINESTRING (60.000000 460.000000, 58.764343 475.400042)

LINESTRING (60.000000 460.000000, 43.645375 473.678575)

LINESTRING (60.000000 460.000000, 59.711372 462.877120)

LINESTRING (60.000000 460.000000, 36.637712 448.797333)

LINESTRING (60.000000 460.000000, 55.290566 438.657010)

LINESTRING (60.000000 460.000000, 81.274519 457.362018)

LINESTRING (60.000000 460.000000, 52.627974 461.046627)

LINESTRING (60.000000 460.000000, 68.789903 460.115212)

LINESTRING (60.000000 460.000000, 80.008218 472.032526)

LINESTRING (60.000000 460.000000, 61.850030 480.429302)

LINESTRING (60.000000 460.000000, 37.837314 453.871788)

LINESTRING (60.000000 460.000000, 76.849416 461.376927)

LINESTRING (60.000000 460.000000, 69.686589 446.854980)

LINESTRING (60.000000 460.000000, 71.492855 444.709272)

LINESTRING (60.000000 460.000000, 53.894387 478.530331)

LINESTRING (42.275467 450.303806, 63.282336 445.380532)

LINESTRING (42.275467 450.303806, 41.452040 468.737828)

LINESTRING (42.275467 450.303806, 70.609950 481.602165)

LINESTRING (42.275467 450.303806, 50.742846 458.185831)

LINESTRING (42.275467 450.303806, 58.764343 475.400042)

LINESTRING (42.275467 450.303806, 43.645375 473.678575)

LINESTRING (42.275467 450.303806, 59.711372 462.877120)

LINESTRING (42.275467 450.303806, 36.637712 448.797333)

LINESTRING (42.275467 450.303806, 55.290566 438.657010)

LINESTRING (42.275467 450.303806, 81.274519 457.362018)

LINESTRING (42.275467 450.303806, 52.627974 461.046627)

LINESTRING (42.275467 450.303806, 68.789903 460.115212)

LINESTRING (42.275467 450.303806, 80.008218 472.032526)

LINESTRING (42.275467 450.303806, 61.850030 480.429302)

LINESTRING (42.275467 450.303806, 37.837314 453.871788)

LINESTRING (42.275467 450.303806, 76.849416 461.376927)

LINESTRING (42.275467 450.303806, 69.686589 446.854980)

LINESTRING (42.275467 450.303806, 53.894387 478.530331)

LINESTRING (63.282336 445.380532, 41.452040 468.737828)

LINESTRING (63.282336 445.380532, 70.609950 481.602165)

LINESTRING (63.282336 445.380532, 50.742846 458.185831)

LINESTRING (63.282336 445.380532, 58.764343 475.400042)

LINESTRING (63.282336 445.380532, 43.645375 473.678575)

LINESTRING (63.282336 445.380532, 59.711372 462.877120)

LINESTRING (63.282336 445.380532, 36.637712 448.797333)

LINESTRING (63.282336 445.380532, 55.290566 438.657010)

LINESTRING (63.282336 445.380532, 81.274519 457.362018)

LINESTRING (63.282336 445.380532, 52.627974 461.046627)

LINESTRING (63.282336 445.380532, 68.789903 460.115212)

LINESTRING (63.282336 445.380532, 80.008218 472.032526)

LINESTRING (63.282336 445.380532, 61.850030 480.429302)

LINESTRING (63.282336 445.380532, 37.837314 453.871788)

LINESTRING (63.282336 445.380532, 76.849416 461.376927)

LINESTRING (63.282336 445.380532, 69.686589 446.854980)

LINESTRING (63.282336 445.380532, 71.492855 444.709272)

LINESTRING (63.282336 445.380532, 53.894387 478.530331)

LINESTRING (41.452040 468.737828, 50.742846 458.185831)

LINESTRING (41.452040 468.737828, 58.764343 475.400042)

LINESTRING (41.452040 468.737828, 43.645375 473.678575)

LINESTRING (41.452040 468.737828, 59.711372 462.877120)

LINESTRING (41.452040 468.737828, 55.290566 438.657010)

LINESTRING (41.452040 468.737828, 81.274519 457.362018)

LINESTRING (41.452040 468.737828, 52.627974 461.046627)

LINESTRING (41.452040 468.737828, 80.008218 472.032526)

LINESTRING (41.452040 468.737828, 61.850030 480.429302)

LINESTRING (41.452040 468.737828, 37.837314 453.871788)

LINESTRING (41.452040 468.737828, 76.849416 461.376927)

LINESTRING (41.452040 468.737828, 69.686589 446.854980)

LINESTRING (41.452040 468.737828, 71.492855 444.709272)

LINESTRING (41.452040 468.737828, 53.894387 478.530331)

LINESTRING (70.609950 481.602165, 50.742846 458.185831)

LINESTRING (70.609950 481.602165, 58.764343 475.400042)

LINESTRING (70.609950 481.602165, 43.645375 473.678575)

LINESTRING (70.609950 481.602165, 59.711372 462.877120)

LINESTRING (70.609950 481.602165, 36.637712 448.797333)

LINESTRING (70.609950 481.602165, 81.274519 457.362018)

LINESTRING (70.609950 481.602165, 52.627974 461.046627)

LINESTRING (70.609950 481.602165, 68.789903 460.115212)

LINESTRING (70.609950 481.602165, 80.008218 472.032526)

LINESTRING (70.609950 481.602165, 61.850030 480.429302)

LINESTRING (70.609950 481.602165, 37.837314 453.871788)

LINESTRING (70.609950 481.602165, 76.849416 461.376927)

LINESTRING (70.609950 481.602165, 69.686589 446.854980)

LINESTRING (70.609950 481.602165, 71.492855 444.709272)

LINESTRING (70.609950 481.602165, 53.894387 478.530331)

LINESTRING (50.742846 458.185831, 58.764343 475.400042)

LINESTRING (50.742846 458.185831, 43.645375 473.678575)

LINESTRING (50.742846 458.185831, 59.711372 462.877120)

LINESTRING (50.742846 458.185831, 36.637712 448.797333)

LINESTRING (50.742846 458.185831, 55.290566 438.657010)

LINESTRING (50.742846 458.185831, 81.274519 457.362018)

LINESTRING (50.742846 458.185831, 52.627974 461.046627)

LINESTRING (50.742846 458.185831, 68.789903 460.115212)

LINESTRING (50.742846 458.185831, 80.008218 472.032526)

LINESTRING (50.742846 458.185831, 37.837314 453.871788)

LINESTRING (50.742846 458.185831, 76.849416 461.376927)

LINESTRING (50.742846 458.185831, 71.492855 444.709272)

LINESTRING (50.742846 458.185831, 53.894387 478.530331)

LINESTRING (58.764343 475.400042, 43.645375 473.678575)

LINESTRING (58.764343 475.400042, 59.711372 462.877120)

LINESTRING (58.764343 475.400042, 36.637712 448.797333)

LINESTRING (58.764343 475.400042, 55.290566 438.657010)

LINESTRING (58.764343 475.400042, 52.627974 461.046627)

LINESTRING (58.764343 475.400042, 68.789903 460.115212)

LINESTRING (58.764343 475.400042, 80.008218 472.032526)

LINESTRING (58.764343 475.400042, 61.850030 480.429302)

LINESTRING (58.764343 475.400042, 37.837314 453.871788)

LINESTRING (58.764343 475.400042, 76.849416 461.376927)

LINESTRING (58.764343 475.400042, 69.686589 446.854980)

LINESTRING (58.764343 475.400042, 71.492855 444.709272)

LINESTRING (58.764343 475.400042, 53.894387 478.530331)

LINESTRING (43.645375 473.678575, 59.711372 462.877120)

LINESTRING (43.645375 473.678575, 36.637712 448.797333)

LINESTRING (43.645375 473.678575, 55.290566 438.657010)

LINESTRING (43.645375 473.678575, 81.274519 457.362018)

LINESTRING (43.645375 473.678575, 52.627974 461.046627)

LINESTRING (43.645375 473.678575, 80.008218 472.032526)

LINESTRING (43.645375 473.678575, 61.850030 480.429302)

LINESTRING (43.645375 473.678575, 37.837314 453.871788)

LINESTRING (43.645375 473.678575, 76.849416 461.376927)

LINESTRING (43.645375 473.678575, 69.686589 446.854980)

LINESTRING (43.645375 473.678575, 71.492855 444.709272)

LINESTRING (43.645375 473.678575, 53.894387 478.530331)

LINESTRING (59.711372 462.877120, 36.637712 448.797333)

LINESTRING (59.711372 462.877120, 55.290566 438.657010)

LINESTRING (59.711372 462.877120, 52.627974 461.046627)

LINESTRING (59.711372 462.877120, 68.789903 460.115212)

LINESTRING (59.711372 462.877120, 80.008218 472.032526)

LINESTRING (59.711372 462.877120, 61.850030 480.429302)

LINESTRING (59.711372 462.877120, 37.837314 453.871788)

LINESTRING (59.711372 462.877120, 76.849416 461.376927)

LINESTRING (59.711372 462.877120, 69.686589 446.854980)

LINESTRING (59.711372 462.877120, 53.894387 478.530331)

LINESTRING (36.637712 448.797333, 55.290566 438.657010)

LINESTRING (36.637712 448.797333, 81.274519 457.362018)

LINESTRING (36.637712 448.797333, 52.627974 461.046627)

LINESTRING (36.637712 448.797333, 68.789903 460.115212)

LINESTRING (36.637712 448.797333, 80.008218 472.032526)

LINESTRING (36.637712 448.797333, 61.850030 480.429302)

LINESTRING (36.637712 448.797333, 37.837314 453.871788)

LINESTRING (36.637712 448.797333, 76.849416 461.376927)

LINESTRING (36.637712 448.797333, 69.686589 446.854980)

LINESTRING (36.637712 448.797333, 71.492855 444.709272)

LINESTRING (36.637712 448.797333, 53.894387 478.530331)

LINESTRING (55.290566 438.657010, 81.274519 457.362018)

LINESTRING (55.290566 438.657010, 68.789903 460.115212)

LINESTRING (55.290566 438.657010, 61.850030 480.429302)

LINESTRING (55.290566 438.657010, 37.837314 453.871788)

LINESTRING (55.290566 438.657010, 76.849416 461.376927)

LINESTRING (55.290566 438.657010, 71.492855 444.709272)

LINESTRING (55.290566 438.657010, 53.894387 478.530331)

LINESTRING (81.274519 457.362018, 52.627974 461.046627)

LINESTRING (81.274519 457.362018, 68.789903 460.115212)

LINESTRING (81.274519 457.362018, 80.008218 472.032526)

LINESTRING (81.274519 457.362018, 37.837314 453.871788)

LINESTRING (81.274519 457.362018, 76.849416 461.376927)

LINESTRING (81.274519 457.362018, 69.686589 446.854980)

LINESTRING (81.274519 457.362018, 71.492855 444.709272)

LINESTRING (81.274519 457.362018, 53.894387 478.530331)

LINESTRING (52.627974 461.046627, 68.789903 460.115212)

LINESTRING (52.627974 461.046627, 61.850030 480.429302)

LINESTRING (52.627974 461.046627, 37.837314 453.871788)

LINESTRING (52.627974 461.046627, 76.849416 461.376927)

LINESTRING (52.627974 461.046627, 69.686589 446.854980)

LINESTRING (52.627974 461.046627, 71.492855 444.709272)

LINESTRING (52.627974 461.046627, 53.894387 478.530331)

LINESTRING (68.789903 460.115212, 80.008218 472.032526)

LINESTRING (68.789903 460.115212, 61.850030 480.429302)

LINESTRING (68.789903 460.115212, 37.837314 453.871788)

LINESTRING (68.789903 460.115212, 76.849416 461.376927)

LINESTRING (68.789903 460.115212, 53.894387 478.530331)

LINESTRING (80.008218 472.032526, 61.850030 480.429302)

LINESTRING (80.008218 472.032526, 37.837314 453.871788)

LINESTRING (80.008218 472.032526, 76.849416 461.376927)

LINESTRING (80.008218 472.032526, 69.686589 446.854980)

LINESTRING (80.008218 472.032526, 71.492855 444.709272)

LINESTRING (80.008218 472.032526, 53.894387 478.530331)

LINESTRING (61.850030 480.429302, 37.837314 453.871788)

LINESTRING (61.850030 480.429302, 76.849416 461.376927)

LINESTRING (61.850030 480.429302, 69.686589 446.854980)

LINESTRING (61.850030 480.429302, 71.492855 444.709272)

LINESTRING (37.837314 453.871788, 76.849416 461.376927)

LINESTRING (37.837314 453.871788, 71.492855 444.709272)

LINESTRING (37.837314 453.871788, 53.894387 478.530331)

LINESTRING (76.849416 461.376927, 69.686589 446.854980)

LINESTRING (76.849416 461.376927, 71.492855 444.709272)

LINESTRING (76.849416 461.376927, 53.894387 478.530331)

LINESTRING (69.686589 446.854980, 71.492855 444.709272)

LINESTRING (69.686589 446.854980, 53.894387 478.530331)

LINESTRING (71.492855 444.709272, 53.894387 478.530331)

LINESTRING (260.000000 460.000000, 261.713940 467.418951)

LINESTRING (260.000000 460.000000, 273.347696 448.337620)

LINESTRING (260.000000 460.000000, 277.229547 444.465849)

LINESTRING (260.000000 460.000000, 277.416531 446.662516)

LINESTRING (260.000000 460.000000, 265.972289 439.031200)

LINESTRING (260.000000 460.000000, 237.704354 468.457683)

LINESTRING (260.000000 460.000000, 264.689881 447.244063)

LINESTRING (260.000000 460.000000, 246.687958 446.980130)

LINESTRING (260.000000 460.000000, 257.013337 480.502954)

LINESTRING (260.000000 460.000000, 252.969795 479.977924)

LINESTRING (260.000000 460.000000, 259.600229 448.259769)

LINESTRING (260.000000 460.000000, 242.893204 440.917454)

LINESTRING (260.000000 460.000000, 261.416599 457.594104)

LINESTRING (260.000000 460.000000, 254.665151 442.609062)

LINESTRING (260.000000 460.000000, 266.303240 436.996492)

LINESTRING (260.000000 460.000000, 252.377602 462.637694)

LINESTRING (260.000000 460.000000, 262.739003 455.898651)

LINESTRING (260.000000 460.000000, 266.583502 445.043334)

LINESTRING (260.000000 460.000000, 245.364611 441.822579)

LINESTRING (260.000000 460.000000, 255.195656 462.585623)

LINESTRING (261.713940 467.418951, 273.347696 448.337620)

LINESTRING (261.713940 467.418951, 277.229547 444.465849)

LINESTRING (261.713940 467.418951, 265.972289 439.031200)

LINESTRING (261.713940 467.418951, 237.704354 468.457683)

LINESTRING (261.713940 467.418951, 264.689881 447.244063)

LINESTRING (261.713940 467.418951, 246.687958 446.980130)

LINESTRING (261.713940 467.418951, 257.013337 480.502954)

LINESTRING (261.713940 467.418951, 252.969795 479.977924)

LINESTRING (261.713940 467.418951, 259.600229 448.259769)

LINESTRING (261.713940 467.418951, 242.893204 440.917454)

LINESTRING (261.713940 467.418951, 261.416599 457.594104)

LINESTRING (261.713940 467.418951, 254.665151 442.609062)

LINESTRING (261.713940 467.418951, 266.303240 436.996492)

LINESTRING (261.713940 467.418951, 252.377602 462.637694)

LINESTRING (261.713940 467.418951, 262.739003 455.898651)

LINESTRING (261.713940 467.418951, 266.583502 445.043334)

LINESTRING (261.713940 467.418951, 245.364611 441.822579)

LINESTRING (261.713940 467.418951, 255.195656 462.585623)

LINESTRING (273.347696 448.337620, 277.229547 444.465849)

LINESTRING (273.347696 448.337620, 277.416531 446.662516)

LINESTRING (273.347696 448.337620, 265.972289 439.031200)

LINESTRING (273.347696 448.337620, 237.704354 468.457683)

LINESTRING (273.347696 448.337620, 264.689881 447.244063)

LINESTRING (273.347696 448.337620, 246.687958 446.980130)

LINESTRING (273.347696 448.337620, 257.013337 480.502954)

LINESTRING (273.347696 448.337620, 252.969795 479.977924)

LINESTRING (273.347696 448.337620, 259.600229 448.259769)

LINESTRING (273.347696 448.337620, 242.893204 440.917454)

LINESTRING (273.347696 448.337620, 261.416599 457.594104)

LINESTRING (273.347696 448.337620, 254.665151 442.609062)

LINESTRING (273.347696 448.337620, 266.303240 436.996492)

LINESTRING (273.347696 448.337620, 252.377602 462.637694)

LINESTRING (273.347696 448.337620, 262.739003 455.898651)

LINESTRING (273.347696 448.337620, 266.583502 445.043334)

LINESTRING (273.347696 448.337620, 245.364611 441.822579)

LINESTRING (273.347696 448.337620, 255.195656 462.585623)

LINESTRING (277.229547 444.465849, 277.416531 446.662516)

LINESTRING (277.229547 444.465849, 265.972289 439.031200)

LINESTRING (277.229547 444.465849, 237.704354 468.457683)

LINESTRING (277.229547 444.465849, 264.689881 447.244063)

LINESTRING (277.229547 444.465849, 257.013337 480.502954)

LINESTRING (277.229547 444.465849, 252.969795 479.977924)

LINESTRING (277.229547 444.465849, 259.600229 448.259769)

LINESTRING (277.229547 444.465849, 242.893204 440.917454)

LINESTRING (277.229547 444.465849, 261.416599 457.594104)

LINESTRING (277.229547 444.465849, 254.665151 442.609062)

LINESTRING (277.229547 444.465849, 266.303240 436.996492)

LINESTRING (277.229547 444.465849, 252.377602 462.637694)

LINESTRING (277.229547 444.465849, 262.739003 455.898651)

LINESTRING (277.229547 444.465849, 266.583502 445.043334)

LINESTRING (277.229547 444.465849, 245.364611 441.822579)

LINESTRING (277.229547 444.465849, 255.195656 462.585623)

LINESTRING (277.416531 446.662516, 265.972289 439.031200)

LINESTRING (277.416531 446.662516, 237.704354 468.457683)

LINESTRING (277.416531 446.662516, 246.687958 446.980130)

LINESTRING (277.416531 446.662516, 257.013337 480.502954)

LINESTRING (277.416531 446.662516, 252.969795 479.977924)

LINESTRING (277.416531 446.662516, 259.600229 448.259769)

LINESTRING (277.416531 446.662516, 242.893204 440.917454)

LINESTRING (277.416531 446.662516, 261.416599 457.594104)

LINESTRING (277.416531 446.662516, 254.665151 442.609062)

LINESTRING (277.416531 446.662516, 266.303240 436.996492)

LINESTRING (277.416531 446.662516, 252.377602 462.637694)

LINESTRING (277.416531 446.662516, 262.739003 455.898651)

LINESTRING (277.416531 446.662516, 266.583502 445.043334)

LINESTRING (277.416531 446.662516, 245.364611 441.822579)

LINESTRING (277.416531 446.662516, 255.195656 462.585623)

LINESTRING (265.972289 439.031200, 237.704354 468.457683)

LINESTRING (265.972289 439.031200, 264.689881 447.244063)

LINESTRING (265.972289 439.031200, 246.687958 446.980130)

LINESTRING (265.972289 439.031200, 257.013337 480.502954)

LINESTRING (265.972289 439.031200, 252.969795 479.977924)

LINESTRING (265.972289 439.031200, 259.600229 448.259769)

LINESTRING (265.972289 439.031200, 242.893204 440.917454)

LINESTRING (265.972289 439.031200, 261.416599 457.594104)

LINESTRING (265.972289 439.031200, 266.303240 436.996492)

LINESTRING (265.972289 439.031200, 262.739003 455.898651)

LINESTRING (265.972289 439.031200, 266.583502 445.043334)

LINESTRING (265.972289 439.031200, 245.364611 441.822579)

LINESTRING (265.972289 439.031200, 255.195656 462.585623)

LINESTRING (237.704354 468.457683, 264.689881 447.244063)

LINESTRING (237.704354 468.457683, 246.687958 446.980130)

LINESTRING (237.704354 468.457683, 257.013337 480.502954)

LINESTRING (237.704354 468.457683, 252.969795 479.977924)

LINESTRING (237.704354 468.457683, 259.600229 448.259769)

LINESTRING (237.704354 468.457683, 242.893204 440.917454)

LINESTRING (237.704354 468.457683, 254.665151 442.609062)

LINESTRING (237.704354 468.457683, 266.303240 436.996492)

LINESTRING (237.704354 468.457683, 252.377602 462.637694)

LINESTRING (237.704354 468.457683, 262.739003 455.898651)

LINESTRING (237.704354 468.457683, 266.583502 445.043334)

LINESTRING (237.704354 468.457683, 245.364611 441.822579)

LINESTRING (237.704354 468.457683, 255.195656 462.585623)

LINESTRING (264.689881 447.244063, 246.687958 446.980130)

LINESTRING (264.689881 447.244063, 257.013337 480.502954)

LINESTRING (264.689881 447.244063, 252.969795 479.977924)

LINESTRING (264.689881 447.244063, 259.600229 448.259769)

LINESTRING (264.689881 447.244063, 261.416599 457.594104)

LINESTRING (264.689881 447.244063, 254.665151 442.609062)

LINESTRING (264.689881 447.244063, 266.303240 436.996492)

LINESTRING (264.689881 447.244063, 252.377602 462.637694)

LINESTRING (264.689881 447.244063, 262.739003 455.898651)

LINESTRING (264.689881 447.244063, 266.583502 445.043334)

LINESTRING (264.689881 447.244063, 245.364611 441.822579)

LINESTRING (264.689881 447.244063, 255.195656 462.585623)

LINESTRING (246.687958 446.980130, 257.013337 480.502954)

LINESTRING (246.687958 446.980130, 252.969795 479.977924)

LINESTRING (246.687958 446.980130, 259.600229 448.259769)

LINESTRING (246.687958 446.980130, 242.893204 440.917454)

LINESTRING (246.687958 446.980130, 261.416599 457.594104)

LINESTRING (246.687958 446.980130, 254.665151 442.609062)

LINESTRING (246.687958 446.980130, 266.303240 436.996492)

LINESTRING (246.687958 446.980130, 252.377602 462.637694)

LINESTRING (246.687958 446.980130, 262.739003 455.898651)

LINESTRING (246.687958 446.980130, 266.583502 445.043334)

LINESTRING (246.687958 446.980130, 245.364611 441.822579)

LINESTRING (246.687958 446.980130, 255.195656 462.585623)

LINESTRING (257.013337 480.502954, 252.969795 479.977924)

LINESTRING (257.013337 480.502954, 259.600229 448.259769)

LINESTRING (257.013337 480.502954, 242.893204 440.917454)

LINESTRING (257.013337 480.502954, 261.416599 457.594104)

LINESTRING (257.013337 480.502954, 254.665151 442.609062)

LINESTRING (257.013337 480.502954, 266.303240 436.996492)

LINESTRING (257.013337 480.502954, 252.377602 462.637694)

LINESTRING (257.013337 480.502954, 262.739003 455.898651)

LINESTRING (257.013337 480.502954, 266.583502 445.043334)

LINESTRING (257.013337 480.502954, 245.364611 441.822579)

LINESTRING (257.013337 480.502954, 255.195656 462.585623)

LINESTRING (252.969795 479.977924, 259.600229 448.259769)

LINESTRING (252.969795 479.977924, 242.893204 440.917454)

LINESTRING (252.969795 479.977924, 261.416599 457.594104)

LINESTRING (252.969795 479.977924, 254.665151 442.609062)

LINESTRING (252.969795 479.977924, 266.303240 436.996492)

LINESTRING (252.969795 479.977924, 252.377602 462.637694)

LINESTRING (252.969795 479.977924, 262.739003 455.898651)

LINESTRING (252.969795 479.977924, 266.583502 445.043334)

LINESTRING (252.969795 479.977924, 245.364611 441.822579)

LINESTRING (252.969795 479.977924, 255.195656 462.585623)

LINESTRING (259.600229 448.259769, 242.893204 440.917454)

LINESTRING (259.600229 448.259769, 261.416599 457.594104)

LINESTRING (259.600229 448.259769, 254.665151 442.609062)

LINESTRING (259.600229 448.259769, 266.303240 436.996492)

LINESTRING (259.600229 448.259769, 252.377602 462.637694)

LINESTRING (259.600229 448.259769, 262.739003 455.898651)

LINESTRING (259.600229 448.259769, 266.583502 445.043334)

LINESTRING (259.600229 448.259769, 245.364611 441.822579)

LINESTRING (259.600229 448.259769, 255.195656 462.585623)

LINESTRING (242.893204 440.917454, 254.665151 442.609062)

LINESTRING (242.893204 440.917454, 266.303240 436.996492)

LINESTRING (242.893204 440.917454, 252.377602 462.637694)

LINESTRING (242.893204 440.917454, 262.739003 455.898651)

LINESTRING (242.893204 440.917454, 266.583502 445.043334)

LINESTRING (242.893204 440.917454, 245.364611 441.822579)

LINESTRING (242.893204 440.917454, 255.195656 462.585623)

LINESTRING (261.416599 457.594104, 254.665151 442.609062)

LINESTRING (261.416599 457.594104, 266.303240 436.996492)

LINESTRING (261.416599 457.594104, 252.377602 462.637694)

LINESTRING (261.416599 457.594104, 262.739003 455.898651)

LINESTRING (261.416599 457.594104, 266.583502 445.043334)

LINESTRING (261.416599 457.594104, 245.364611 441.822579)

LINESTRING (261.416599 457.594104, 255.195656 462.585623)

LINESTRING (254.665151 442.609062, 266.303240 436.996492)

LINESTRING (254.665151 442.609062, 262.739003 455.898651)

LINESTRING (254.665151 442.609062, 266.583502 445.043334)

LINESTRING (254.665151 442.609062, 245.364611 441.822579)

LINESTRING (254.665151 442.609062, 255.195656 462.585623)

LINESTRING (266.303240 436.996492, 252.377602 462.637694)

LINESTRING (266.303240 436.996492, 262.739003 455.898651)

LINESTRING (266.303240 436.996492, 266.583502 445.043334)

LINESTRING (266.303240 436.996492, 245.364611 441.822579)

LINESTRING (266.303240 436.996492, 255.195656 462.585623)

LINESTRING (252.377602 462.637694, 262.739003 455.898651)

LINESTRING (252.377602 462.637694, 266.583502 445.043334)

LINESTRING (252.377602 462.637694, 245.364611 441.822579)

LINESTRING (252.377602 462.637694, 255.195656 462.585623)

LINESTRING (262.739003 455.898651, 266.583502 445.043334)

LINESTRING (262.739003 455.898651, 255.195656 462.585623)

LINESTRING (266.583502 445.043334, 255.195656 462.585623)

LINESTRING (245.364611 441.822579, 255.195656 462.585623)

LINESTRING (49.964448 81.388017, 279.048983 65.244934)

LINESTRING (60.000000 60.000000, 260.000000 60.000000)

LINESTRING (278.709810 43.536968, 441.218496 80.974818)

LINESTRING (260.000000 60.000000, 460.000000 60.000000)

LINESTRING (444.494480 73.846094, 55.338804 259.292315)

LINESTRING (460.000000 60.000000, 60.000000 260.000000)

LINESTRING (71.395135 252.156416, 241.233722 239.485472)

LINESTRING (60.000000 260.000000, 260.000000 260.000000)

LINESTRING (273.285488 253.996222, 462.156669 237.200893)

LINESTRING (260.000000 260.000000, 460.000000 260.000000)

LINESTRING (462.156669 237.200893, 43.645375 473.678575)

LINESTRING (460.000000 260.000000, 60.000000 460.000000)

LINESTRING (69.686589 446.854980, 266.583502 445.043334)

LINESTRING (60.000000 460.000000, 260.000000 460.000000)

