LINESTRING (60.000000 60.000000, 48.130752 72.327685)

LINESTRING (60.000000 60.000000, 66.146530 58.396198)

LINESTRING (60.000000 60.000000, 58.530432 53.599194)

LINESTRING (60.000000 60.000000, 69.400901 50.947632)

LINESTRING (60.000000 60.000000, 68.209418 72.867737)

LINESTRING (60.000000 60.000000, 59.084243 55.068905)

LINESTRING (60.000000 60.000000, 71.963345 46.956075)

LINESTRING (60.000000 60.000000, 53.873606 57.459663)

LINESTRING (48.130752 72.327685, 66.146530 58.396198)

LINESTRING (48.130752 72.327685, 58.530432 53.599194)

LINESTRING (48.130752 72.327685, 68.209418 72.867737)

LINESTRING (48.130752 72.327685, 59.084243 55.068905)

LINESTRING (48.130752 72.327685, 71.963345 46.956075)

LINESTRING (48.130752 72.327685, 53.873606 57.459663)

LINESTRING (66.146530 58.396198, 58.530432 53.599194)

LINESTRING (66.146530 58.396198, 69.400901 50.947632)

LINESTRING (66.146530 58.396198, 68.209418 72.867737)

LINESTRING (66.146530 58.396198, 59.084243 55.068905)

LINESTRING (66.146530 58.396198, 53.873606 57.459663)

LINESTRING (58.530432 53.599194, 59.084243 55.068905)

LINESTRING (58.530432 53.599194, 71.963345 46.956075)

LINESTRING (58.530432 53.599194, 53.873606 57.459663)

LINESTRING (69.400901 50.947632, 59.084243 55.068905)

LINESTRING (69.400901 50.947632, 71.963345 46.956075)

LINESTRING (69.400901 50.947632, 53.873606 57.459663)

LINESTRING (68.209418 72.867737, 59.084243 55.068905)

LINESTRING (68.209418 72.867737, 53.873606 57.459663)

LINESTRING (59.084243 55.068905, 71.963345 46.956075)

LINESTRING (59.084243 55.068905, 53.873606 57.459663)

LINESTRING (180.000000 60.000000, 184.812686 61.507013)

LINESTRING (180.000000 60.000000, 178.127529 69.439543)

LINESTRING (180.000000 60.000000, 175.972187 61.174734)

LINESTRING (180.000000 60.000000, 192.563958 54.815021)

LINESTRING (180.000000 60.000000, 180.866825 56.964014)

LINESTRING (180.000000 60.000000, 170.586407 54.173561)

LINESTRING (180.000000 60.000000, 192.654924 72.939503)

LINESTRING (180.000000 60.000000, 190.479066 56.688422)

LINESTRING (184.812686 61.507013, 175.972187 61.174734)

LINESTRING (184.812686 61.507013, 192.563958 54.815021)

LINESTRING (184.812686 61.507013, 180.866825 56.964014)

LINESTRING (184.812686 61.507013, 190.479066 56.688422)

LINESTRING (178.127529 69.439543, 180.866825 56.964014)

LINESTRING (178.127529 69.439543, 170.586407 54.173561)

LINESTRING (178.127529 69.439543, 190.479066 56.688422)

LINESTRING (175.972187 61.174734, 192.563958 54.815021)

LINESTRING (175.972187 61.174734, 180.866825 56.964014)

LINESTRING (175.972187 61.174734, 170.586407 54.173561)

LINESTRING (175.972187 61.174734, 192.654924 72.939503)

LINESTRING (192.563958 54.815021, 180.866825 56.964014)

LINESTRING (180.866825 56.964014, 170.586407 54.173561)

LINESTRING (180.866825 56.964014, 192.654924 72.939503)

LINESTRING (180.866825 56.964014, 190.479066 56.688422)

LINESTRING (170.586407 54.173561, 192.654924 72.939503)

LINESTRING (170.586407 54.173561, 190.479066 56.688422)

LINESTRING (60.000000 180.000000, 67.978445 190.508481)

LINESTRING (60.000000 180.000000, 61.566678 173.502307)

LINESTRING (60.000000 180.000000, 48.669910 176.699886)

LINESTRING (60.000000 180.000000, 54.283745 169.718031)

LINESTRING (60.000000 180.000000, 72.714277 188.937286)

LINESTRING (60.000000 180.000000, 61.080607 170.763228)

LINESTRING (60.000000 180.000000, 54.726283 180.859698)

LINESTRING (60.000000 180.000000, 58.613430 179.645466)

LINESTRING (67.978445 190.508481, 61.566678 173.502307)

LINESTRING (67.978445 190.508481, 48.669910 176.699886)

LINESTRING (67.978445 190.508481, 54.283745 169.718031)

LINESTRING (67.978445 190.508481, 72.714277 188.937286)

LINESTRING (67.978445 190.508481, 61.080607 170.763228)

LINESTRING (67.978445 190.508481, 54.726283 180.859698)

LINESTRING (67.978445 190.508481, 58.613430 179.645466)

LINESTRING (61.566678 173.502307, 48.669910 176.699886)

LINESTRING (61.566678 173.502307, 54.283745 169.718031)

LINESTRING (61.566678 173.502307, 72.714277 188.937286)

LINESTRING (61.566678 173.502307, 61.080607 170.763228)

LINESTRING (61.566678 173.502307, 58.613430 179.645466)

LINESTRING (48.669910 176.699886, 54.283745 169.718031)

LINESTRING (48.669910 176.699886, 72.714277 188.937286)

LINESTRING (48.669910 176.699886, 61.080607 170.763228)

LINESTRING (48.669910 176.699886, 54.726283 180.859698)

LINESTRING (54.283745 169.718031, 61.080607 170.763228)

LINESTRING (54.283745 169.718031, 54.726283 180.859698)

LINESTRING (54.283745 169.718031, 58.613430 179.645466)

LINESTRING (72.714277 188.937286, 61.080607 170.763228)

LINESTRING (72.714277 188.937286, 58.613430 179.645466)

LINESTRING (61.080607 170.763228, 54.726283 180.859698)

LINESTRING (61.080607 170.763228, 58.613430 179.645466)

LINESTRING (54.726283 180.859698, 58.613430 179.645466)

LINESTRING (180.000000 180.000000, 166.529600 176.427841)

LINESTRING (180.000000 180.000000, 190.224524 186.129328)

LINESTRING (180.000000 180.000000, 174.218410 193.378292)

LINESTRING (180.000000 180.000000, 192.481754 192.783689)

LINESTRING (180.000000 180.000000, 177.556452 183.527963)

LINESTRING (180.000000 180.000000, 171.676922 180.991347)

LINESTRING (180.000000 180.000000, 175.832821 181.688065)

LINESTRING (180.000000 180.000000, 173.495031 176.507479)

LINESTRING (166.529600 176.427841, 174.218410 193.378292)

LINESTRING (166.529600 176.427841, 192.481754 192.783689)

LINESTRING (166.529600 176.427841, 177.556452 183.527963)

LINESTRING (166.529600 176.427841, 171.676922 180.991347)

LINESTRING (166.529600 176.427841, 173.495031 176.507479)

LINESTRING (190.224524 186.129328, 174.218410 193.378292)

LINESTRING (190.224524 186.129328, 177.556452 183.527963)

LINESTRING (190.224524 186.129328, 171.676922 180.991347)

LINESTRING (190.224524 186.129328, 175.832821 181.688065)

LINESTRING (174.218410 193.378292, 192.481754 192.783689)

LINESTRING (174.218410 193.378292, 177.556452 183.527963)

LINESTRING (174.218410 193.378292, 171.676922 180.991347)

LINESTRING (174.218410 193.378292, 175.832821 181.688065)

LINESTRING (174.218410 193.378292, 173.495031 176.507479)

LINESTRING (192.481754 192.783689, 171.676922 180.991347)

LINESTRING (192.481754 192.783689, 175.832821 181.688065)

LINESTRING (192.481754 192.783689, 173.495031 176.507479)

LINESTRING (177.556452 183.527963, 171.676922 180.991347)

LINESTRING (177.556452 183.527963, 175.832821 181.688065)

LINESTRING (177.556452 183.527963, 173.495031 176.507479)

LINESTRING (171.676922 180.991347, 175.832821 181.688065)

LINESTRING (171.676922 180.991347, 173.495031 176.507479)

LINESTRING (69.400901 50.947632, 190.479066 56.688422)

LINESTRING (69.400901 50.947632, 192.654924 72.939503)

LINESTRING (68.209418 72.867737, 184.812686 61.507013)

LINESTRING (60.000000 60.000000, 180.000000 60.000000)

LINESTRING (178.127529 69.439543, 48.669910 176.699886)

LINESTRING (175.972187 61.174734, 48.669910 176.699886)

LINESTRING (184.812686 61.507013, 54.726283 180.859698)

LINESTRING (180.000000 60.000000, 60.000000 180.000000)

LINESTRING (61.080607 170.763228, 166.529600 176.427841)

LINESTRING (58.613430 179.645466, 174.218410 193.378292)

LINESTRING (54.283745 169.718031, 173.495031 176.507479)

LINESTRING (60.000000 180.000000, 180.000000 180.000000)

