LINESTRING (60.000000 60.000000, 53.786662 59.375747)

LINESTRING (60.000000 60.000000, 57.148886 53.628859)

LINESTRING (60.000000 60.000000, 57.530730 73.295118)

LINESTRING (60.000000 60.000000, 54.555004 66.463155)

LINESTRING (60.000000 60.000000, 51.693497 57.781047)

LINESTRING (60.000000 60.000000, 55.890900 53.907239)

LINESTRING (60.000000 60.000000, 65.758096 64.847884)

LINESTRING (60.000000 60.000000, 62.724609 57.619531)

LINESTRING (53.786662 59.375747, 54.555004 66.463155)

LINESTRING (53.786662 59.375747, 51.693497 57.781047)

LINESTRING (57.148886 53.628859, 57.530730 73.295118)

LINESTRING (57.148886 53.628859, 54.555004 66.463155)

LINESTRING (57.148886 53.628859, 51.693497 57.781047)

LINESTRING (57.148886 53.628859, 55.890900 53.907239)

LINESTRING (57.148886 53.628859, 62.724609 57.619531)

LINESTRING (57.530730 73.295118, 54.555004 66.463155)

LINESTRING (57.530730 73.295118, 51.693497 57.781047)

LINESTRING (57.530730 73.295118, 55.890900 53.907239)

LINESTRING (54.555004 66.463155, 51.693497 57.781047)

LINESTRING (54.555004 66.463155, 62.724609 57.619531)

LINESTRING (65.758096 64.847884, 62.724609 57.619531)

LINESTRING (180.000000 60.000000, 189.201702 46.507689)

LINESTRING (180.000000 60.000000, 181.669074 57.866558)

LINESTRING (180.000000 60.000000, 170.050405 73.378959)

LINESTRING (180.000000 60.000000, 177.745420 52.499394)

LINESTRING (180.000000 60.000000, 167.365554 67.104796)

LINESTRING (180.000000 60.000000, 171.160503 55.173794)

LINESTRING (180.000000 60.000000, 191.922247 72.810084)

LINESTRING (180.000000 60.000000, 193.231628 68.366159)

LINESTRING (189.201702 46.507689, 181.669074 57.866558)

LINESTRING (189.201702 46.507689, 170.050405 73.378959)

LINESTRING (189.201702 46.507689, 167.365554 67.104796)

LINESTRING (189.201702 46.507689, 171.160503 55.173794)

LINESTRING (189.201702 46.507689, 191.922247 72.810084)

LINESTRING (189.201702 46.507689, 193.231628 68.366159)

LINESTRING (181.669074 57.866558, 170.050405 73.378959)

LINESTRING (181.669074 57.866558, 167.365554 67.104796)

LINESTRING (181.669074 57.866558, 191.922247 72.810084)

LINESTRING (170.050405 73.378959, 177.745420 52.499394)

LINESTRING (170.050405 73.378959, 167.365554 67.104796)

LINESTRING (170.050405 73.378959, 171.160503 55.173794)

LINESTRING (170.050405 73.378959, 191.922247 72.810084)

LINESTRING (170.050405 73.378959, 193.231628 68.366159)

LINESTRING (177.745420 52.499394, 167.365554 67.104796)

LINESTRING (177.745420 52.499394, 191.922247 72.810084)

LINESTRING (167.365554 67.104796, 191.922247 72.810084)

LINESTRING (167.365554 67.104796, 193.231628 68.366159)

LINESTRING (171.160503 55.173794, 193.231628 68.366159)

LINESTRING (60.000000 180.000000, 54.768731 166.190154)

LINESTRING (60.000000 180.000000, 64.603181 179.526614)

LINESTRING (60.000000 180.000000, 57.158069 191.409110)

LINESTRING (60.000000 180.000000, 58.969285 183.744720)

LINESTRING (60.000000 180.000000, 49.882992 186.274306)

LINESTRING (60.000000 180.000000, 62.166017 184.497100)

LINESTRING (60.000000 180.000000, 67.138840 190.955251)

LINESTRING (60.000000 180.000000, 53.819810 192.625271)

LINESTRING (54.768731 166.190154, 58.969285 183.744720)

LINESTRING (54.768731 166.190154, 49.882992 186.274306)

LINESTRING (64.603181 179.526614, 57.158069 191.409110)

LINESTRING (64.603181 179.526614, 49.882992 186.274306)

LINESTRING (64.603181 179.526614, 62.166017 184.497100)

LINESTRING (64.603181 179.526614, 53.819810 192.625271)

LINESTRING (57.158069 191.409110, 53.819810 192.625271)

LINESTRING (58.969285 183.744720, 49.882992 186.274306)

LINESTRING (58.969285 183.744720, 67.138840 190.955251)

LINESTRING (58.969285 183.744720, 53.819810 192.625271)

LINESTRING (49.882992 186.274306, 67.138840 190.955251)

LINESTRING (49.882992 186.274306, 53.819810 192.625271)

LINESTRING (62.166017 184.497100, 53.819810 192.625271)

LINESTRING (180.000000 180.000000, 181.319949 174.830120)

LINESTRING (180.000000 180.000000, 170.645234 179.638002)

LINESTRING (180.000000 180.000000, 174.604724 170.587141)

LINESTRING (180.000000 180.000000, 174.159938 171.819682)

LINESTRING (180.000000 180.000000, 178.043958 190.523284)

LINESTRING (180.000000 180.000000, 184.838389 185.508605)

LINESTRING (180.000000 180.000000, 169.006235 191.990655)

LINESTRING (180.000000 180.000000, 187.986934 191.913817)

LINESTRING (181.319949 174.830120, 174.159938 171.819682)

LINESTRING (181.319949 174.830120, 187.986934 191.913817)

LINESTRING (170.645234 179.638002, 174.604724 170.587141)

LINESTRING (170.645234 179.638002, 174.159938 171.819682)

LINESTRING (170.645234 179.638002, 178.043958 190.523284)

LINESTRING (170.645234 179.638002, 169.006235 191.990655)

LINESTRING (170.645234 179.638002, 187.986934 191.913817)

LINESTRING (174.604724 170.587141, 174.159938 171.819682)

LINESTRING (174.159938 171.819682, 178.043958 190.523284)

LINESTRING (174.159938 171.819682, 187.986934 191.913817)

LINESTRING (178.043958 190.523284, 184.838389 185.508605)

LINESTRING (178.043958 190.523284, 187.986934 191.913817)

LINESTRING (184.838389 185.508605, 169.006235 191.990655)

LINESTRING (65.758096 64.847884, 189.201702 46.507689)

LINESTRING (65.758096 64.847884, 191.922247 72.810084)

LINESTRING (60.000000 60.000000, 180.000000 60.000000)

LINESTRING (181.669074 57.866558, 64.603181 179.526614)

LINESTRING (189.201702 46.507689, 64.603181 179.526614)

LINESTRING (180.000000 60.000000, 60.000000 180.000000)

LINESTRING (62.166017 184.497100, 178.043958 190.523284)

LINESTRING (57.158069 191.409110, 174.159938 171.819682)

LINESTRING (60.000000 180.000000, 180.000000 180.000000)

