LINESTRING (2238.703767 1233.018951, 2532.485208 1680.275630)

LINESTRING (2238.703767 1233.018951, 2355.384660 1135.063483)

LINESTRING (127.458510 970.572429, 185.059781 1108.603218)

LINESTRING (127.458510 970.572429, 277.168921 962.376810)

LINESTRING (1851.265174 1898.306628, 1767.841487 2032.607739)

LINESTRING (1851.265174 1898.306628, 1485.045173 1805.149919)

LINESTRING (2366.264839 1867.189042, 2393.048372 1884.897019)

LINESTRING (2366.264839 1867.189042, 2423.982791 1870.713147)

LINESTRING (1629.397814 2225.867094, 1433.816102 2038.535744)

LINESTRING (1629.397814 2225.867094, 1385.455222 2124.292035)

LINESTRING (1629.397814 2225.867094, 1672.606035 2363.456258)

LINESTRING (1629.397814 2225.867094, 1604.072173 2096.519646)

LINESTRING (2566.962756 381.455832, 2513.513297 477.263539)

LINESTRING (841.918236 1018.453618, 828.308237 1051.799459)

LINESTRING (841.918236 1018.453618, 840.415183 1103.519373)

LINESTRING (841.918236 1018.453618, 861.522829 1308.877264)

LINESTRING (1956.862016 2269.709266, 1956.445092 2155.282801)

LINESTRING (828.308237 1051.799459, 840.415183 1103.519373)

LINESTRING (828.308237 1051.799459, 1320.176090 874.399983)

LINESTRING (828.308237 1051.799459, 861.522829 1308.877264)

LINESTRING (459.852515 2376.322471, 552.373307 2262.239068)

LINESTRING (459.852515 2376.322471, 325.365276 2307.954123)

LINESTRING (459.852515 2376.322471, 331.064900 2283.614083)

LINESTRING (1018.109576 2572.081530, 1208.127748 2587.243043)

LINESTRING (1252.990472 1476.997413, 779.489849 1566.942279)

LINESTRING (1252.990472 1476.997413, 1193.967729 1651.610870)

LINESTRING (1433.816102 2038.535744, 1385.455222 2124.292035)

LINESTRING (1433.816102 2038.535744, 1604.072173 2096.519646)

LINESTRING (1433.816102 2038.535744, 1278.205182 2138.773097)

LINESTRING (185.059781 1108.603218, 392.594683 800.888297)

LINESTRING (185.059781 1108.603218, 277.168921 962.376810)

LINESTRING (1767.841487 2032.607739, 1385.455222 2124.292035)

LINESTRING (1767.841487 2032.607739, 1604.072173 2096.519646)

LINESTRING (1767.841487 2032.607739, 1278.205182 2138.773097)

LINESTRING (2393.048372 1884.897019, 2481.230346 2478.012213)

LINESTRING (2393.048372 1884.897019, 2423.982791 1870.713147)

LINESTRING (222.806692 1385.376547, 277.168921 962.376810)

LINESTRING (779.489849 1566.942279, 805.933583 1687.231468)

LINESTRING (779.489849 1566.942279, 613.327974 2046.664999)

LINESTRING (1954.458368 1309.459269, 1564.258440 1063.551592)

LINESTRING (1584.243731 202.202814, 1592.227690 394.937100)

LINESTRING (1584.243731 202.202814, 1990.704342 306.398612)

LINESTRING (1385.455222 2124.292035, 1371.429657 2530.208758)

LINESTRING (1385.455222 2124.292035, 1278.205182 2138.773097)

LINESTRING (1592.227690 394.937100, 1565.352757 438.590753)

LINESTRING (2423.982791 1870.713147, 2262.531013 1637.687758)

LINESTRING (2532.485208 1680.275630, 2603.050179 1629.609436)

LINESTRING (946.601907 182.743083, 430.431500 213.162200)

LINESTRING (2355.384660 1135.063483, 2018.788764 1012.737375)

LINESTRING (1195.267622 1105.935422, 1356.793947 1124.191827)

LINESTRING (1195.267622 1105.935422, 1041.100213 1211.081259)

LINESTRING (392.594683 800.888297, 277.168921 962.376810)

LINESTRING (392.594683 800.888297, 350.989426 820.861557)

LINESTRING (861.522829 1308.877264, 1193.967729 1651.610870)

LINESTRING (861.522829 1308.877264, 864.656654 1346.181954)

LINESTRING (1371.429657 2530.208758, 1208.127748 2587.243043)

LINESTRING (1306.024754 1774.143061, 1193.967729 1651.610870)

LINESTRING (1306.024754 1774.143061, 1485.045173 1805.149919)

LINESTRING (1306.024754 1774.143061, 1286.439783 1891.210603)

LINESTRING (1356.793947 1124.191827, 1564.258440 1063.551592)

LINESTRING (1356.793947 1124.191827, 1041.100213 1211.081259)

LINESTRING (1193.967729 1651.610870, 864.656654 1346.181954)

LINESTRING (2267.827526 786.572319, 2140.623319 787.730976)

LINESTRING (371.924978 2090.347681, 331.064900 2283.614083)

LINESTRING (325.365276 2307.954123, 331.064900 2283.614083)

LINESTRING (2122.235688 1769.788914, 2262.531013 1637.687758)

LINESTRING (277.168921 962.376810, 350.989426 820.861557)

