LINESTRING (60.000000 60.000000, 31.237645 71.371773)

LINESTRING (60.000000 60.000000, 43.244604 49.333195)

LINESTRING (60.000000 60.000000, 34.787207 78.767087)

LINESTRING (60.000000 60.000000, 25.688850 80.779872)

LINESTRING (60.000000 60.000000, 85.199451 38.970305)

LINESTRING (60.000000 60.000000, 35.508003 95.261694)

LINESTRING (60.000000 60.000000, 69.902998 26.344404)

LINESTRING (60.000000 60.000000, 43.599795 59.481959)

LINESTRING (60.000000 60.000000, 81.900250 38.628549)

LINESTRING (60.000000 60.000000, 49.221242 61.959425)

LINESTRING (60.000000 60.000000, 33.015641 28.803115)

LINESTRING (60.000000 60.000000, 62.187942 27.550513)

LINESTRING (31.237645 71.371773, 43.244604 49.333195)

LINESTRING (31.237645 71.371773, 34.787207 78.767087)

LINESTRING (31.237645 71.371773, 25.688850 80.779872)

LINESTRING (31.237645 71.371773, 85.199451 38.970305)

LINESTRING (31.237645 71.371773, 35.508003 95.261694)

LINESTRING (31.237645 71.371773, 69.902998 26.344404)

LINESTRING (31.237645 71.371773, 43.599795 59.481959)

LINESTRING (31.237645 71.371773, 49.221242 61.959425)

LINESTRING (31.237645 71.371773, 62.187942 27.550513)

LINESTRING (43.244604 49.333195, 34.787207 78.767087)

LINESTRING (43.244604 49.333195, 25.688850 80.779872)

LINESTRING (43.244604 49.333195, 85.199451 38.970305)

LINESTRING (43.244604 49.333195, 35.508003 95.261694)

LINESTRING (43.244604 49.333195, 69.902998 26.344404)

LINESTRING (43.244604 49.333195, 43.599795 59.481959)

LINESTRING (43.244604 49.333195, 81.900250 38.628549)

LINESTRING (43.244604 49.333195, 49.221242 61.959425)

LINESTRING (43.244604 49.333195, 33.015641 28.803115)

LINESTRING (43.244604 49.333195, 62.187942 27.550513)

LINESTRING (34.787207 78.767087, 25.688850 80.779872)

LINESTRING (34.787207 78.767087, 35.508003 95.261694)

LINESTRING (34.787207 78.767087, 69.902998 26.344404)

LINESTRING (34.787207 78.767087, 43.599795 59.481959)

LINESTRING (34.787207 78.767087, 81.900250 38.628549)

LINESTRING (34.787207 78.767087, 49.221242 61.959425)

LINESTRING (34.787207 78.767087, 33.015641 28.803115)

LINESTRING (34.787207 78.767087, 62.187942 27.550513)

LINESTRING (25.688850 80.779872, 85.199451 38.970305)

LINESTRING (25.688850 80.779872, 35.508003 95.261694)

LINESTRING (25.688850 80.779872, 69.902998 26.344404)

LINESTRING (25.688850 80.779872, 43.599795 59.481959)

LINESTRING (25.688850 80.779872, 81.900250 38.628549)

LINESTRING (25.688850 80.779872, 49.221242 61.959425)

LINESTRING (25.688850 80.779872, 33.015641 28.803115)

LINESTRING (85.199451 38.970305, 69.902998 26.344404)

LINESTRING (85.199451 38.970305, 43.599795 59.481959)

LINESTRING (85.199451 38.970305, 81.900250 38.628549)

LINESTRING (85.199451 38.970305, 33.015641 28.803115)

LINESTRING (85.199451 38.970305, 62.187942 27.550513)

LINESTRING (35.508003 95.261694, 69.902998 26.344404)

LINESTRING (35.508003 95.261694, 43.599795 59.481959)

LINESTRING (35.508003 95.261694, 81.900250 38.628549)

LINESTRING (35.508003 95.261694, 49.221242 61.959425)

LINESTRING (35.508003 95.261694, 33.015641 28.803115)

LINESTRING (35.508003 95.261694, 62.187942 27.550513)

LINESTRING (69.902998 26.344404, 43.599795 59.481959)

LINESTRING (69.902998 26.344404, 81.900250 38.628549)

LINESTRING (69.902998 26.344404, 49.221242 61.959425)

LINESTRING (69.902998 26.344404, 33.015641 28.803115)

LINESTRING (69.902998 26.344404, 62.187942 27.550513)

LINESTRING (43.599795 59.481959, 81.900250 38.628549)

LINESTRING (43.599795 59.481959, 49.221242 61.959425)

LINESTRING (43.599795 59.481959, 33.015641 28.803115)

LINESTRING (81.900250 38.628549, 49.221242 61.959425)

LINESTRING (81.900250 38.628549, 33.015641 28.803115)

LINESTRING (49.221242 61.959425, 33.015641 28.803115)

LINESTRING (49.221242 61.959425, 62.187942 27.550513)

LINESTRING (33.015641 28.803115, 62.187942 27.550513)

LINESTRING (360.000000 60.000000, 341.427885 74.042990)

LINESTRING (360.000000 60.000000, 379.675836 39.580266)

LINESTRING (360.000000 60.000000, 342.052803 45.027967)

LINESTRING (360.000000 60.000000, 377.986650 79.677757)

LINESTRING (360.000000 60.000000, 372.199005 44.454585)

LINESTRING (360.000000 60.000000, 392.515884 87.663433)

LINESTRING (360.000000 60.000000, 334.551743 81.417699)

LINESTRING (360.000000 60.000000, 343.504609 48.112393)

LINESTRING (360.000000 60.000000, 374.068121 39.038034)

LINESTRING (360.000000 60.000000, 383.791213 68.333803)

LINESTRING (360.000000 60.000000, 383.764359 72.016616)

LINESTRING (360.000000 60.000000, 329.452249 72.743659)

LINESTRING (341.427885 74.042990, 379.675836 39.580266)

LINESTRING (341.427885 74.042990, 377.986650 79.677757)

LINESTRING (341.427885 74.042990, 372.199005 44.454585)

LINESTRING (341.427885 74.042990, 392.515884 87.663433)

LINESTRING (341.427885 74.042990, 334.551743 81.417699)

LINESTRING (341.427885 74.042990, 343.504609 48.112393)

LINESTRING (341.427885 74.042990, 374.068121 39.038034)

LINESTRING (341.427885 74.042990, 383.791213 68.333803)

LINESTRING (341.427885 74.042990, 383.764359 72.016616)

LINESTRING (341.427885 74.042990, 329.452249 72.743659)

LINESTRING (379.675836 39.580266, 342.052803 45.027967)

LINESTRING (379.675836 39.580266, 372.199005 44.454585)

LINESTRING (379.675836 39.580266, 392.515884 87.663433)

LINESTRING (379.675836 39.580266, 334.551743 81.417699)

LINESTRING (379.675836 39.580266, 343.504609 48.112393)

LINESTRING (379.675836 39.580266, 374.068121 39.038034)

LINESTRING (379.675836 39.580266, 383.791213 68.333803)

LINESTRING (379.675836 39.580266, 383.764359 72.016616)

LINESTRING (379.675836 39.580266, 329.452249 72.743659)

LINESTRING (342.052803 45.027967, 377.986650 79.677757)

LINESTRING (342.052803 45.027967, 372.199005 44.454585)

LINESTRING (342.052803 45.027967, 392.515884 87.663433)

LINESTRING (342.052803 45.027967, 334.551743 81.417699)

LINESTRING (342.052803 45.027967, 343.504609 48.112393)

LINESTRING (342.052803 45.027967, 383.791213 68.333803)

LINESTRING (342.052803 45.027967, 383.764359 72.016616)

LINESTRING (342.052803 45.027967, 329.452249 72.743659)

LINESTRING (377.986650 79.677757, 372.199005 44.454585)

LINESTRING (377.986650 79.677757, 334.551743 81.417699)

LINESTRING (377.986650 79.677757, 343.504609 48.112393)

LINESTRING (377.986650 79.677757, 374.068121 39.038034)

LINESTRING (377.986650 79.677757, 383.791213 68.333803)

LINESTRING (377.986650 79.677757, 383.764359 72.016616)

LINESTRING (377.986650 79.677757, 329.452249 72.743659)

LINESTRING (372.199005 44.454585, 392.515884 87.663433)

LINESTRING (372.199005 44.454585, 334.551743 81.417699)

LINESTRING (372.199005 44.454585, 343.504609 48.112393)

LINESTRING (372.199005 44.454585, 374.068121 39.038034)

LINESTRING (372.199005 44.454585, 383.791213 68.333803)

LINESTRING (372.199005 44.454585, 383.764359 72.016616)

LINESTRING (372.199005 44.454585, 329.452249 72.743659)

LINESTRING (392.515884 87.663433, 334.551743 81.417699)

LINESTRING (392.515884 87.663433, 374.068121 39.038034)

LINESTRING (392.515884 87.663433, 383.791213 68.333803)

LINESTRING (392.515884 87.663433, 383.764359 72.016616)

LINESTRING (392.515884 87.663433, 329.452249 72.743659)

LINESTRING (334.551743 81.417699, 343.504609 48.112393)

LINESTRING (334.551743 81.417699, 374.068121 39.038034)

LINESTRING (334.551743 81.417699, 383.791213 68.333803)

LINESTRING (334.551743 81.417699, 383.764359 72.016616)

LINESTRING (334.551743 81.417699, 329.452249 72.743659)

LINESTRING (343.504609 48.112393, 374.068121 39.038034)

LINESTRING (343.504609 48.112393, 383.791213 68.333803)

LINESTRING (343.504609 48.112393, 383.764359 72.016616)

LINESTRING (343.504609 48.112393, 329.452249 72.743659)

LINESTRING (374.068121 39.038034, 383.791213 68.333803)

LINESTRING (374.068121 39.038034, 383.764359 72.016616)

LINESTRING (374.068121 39.038034, 329.452249 72.743659)

LINESTRING (383.791213 68.333803, 383.764359 72.016616)

LINESTRING (383.791213 68.333803, 329.452249 72.743659)

LINESTRING (383.764359 72.016616, 329.452249 72.743659)

LINESTRING (60.000000 360.000000, 58.031420 382.359538)

LINESTRING (60.000000 360.000000, 39.715816 364.341240)

LINESTRING (60.000000 360.000000, 81.320366 331.213472)

LINESTRING (60.000000 360.000000, 41.304677 379.132723)

LINESTRING (60.000000 360.000000, 42.523166 389.655330)

LINESTRING (60.000000 360.000000, 87.574358 380.978950)

LINESTRING (60.000000 360.000000, 73.919744 384.946266)

LINESTRING (60.000000 360.000000, 27.739573 389.953803)

LINESTRING (60.000000 360.000000, 41.460731 387.541752)

LINESTRING (60.000000 360.000000, 58.193027 332.164203)

LINESTRING (60.000000 360.000000, 37.376647 394.921705)

LINESTRING (60.000000 360.000000, 83.162569 376.786495)

LINESTRING (58.031420 382.359538, 39.715816 364.341240)

LINESTRING (58.031420 382.359538, 81.320366 331.213472)

LINESTRING (58.031420 382.359538, 41.304677 379.132723)

LINESTRING (58.031420 382.359538, 42.523166 389.655330)

LINESTRING (58.031420 382.359538, 87.574358 380.978950)

LINESTRING (58.031420 382.359538, 41.460731 387.541752)

LINESTRING (58.031420 382.359538, 58.193027 332.164203)

LINESTRING (58.031420 382.359538, 37.376647 394.921705)

LINESTRING (58.031420 382.359538, 83.162569 376.786495)

LINESTRING (39.715816 364.341240, 81.320366 331.213472)

LINESTRING (39.715816 364.341240, 41.304677 379.132723)

LINESTRING (39.715816 364.341240, 42.523166 389.655330)

LINESTRING (39.715816 364.341240, 87.574358 380.978950)

LINESTRING (39.715816 364.341240, 73.919744 384.946266)

LINESTRING (39.715816 364.341240, 27.739573 389.953803)

LINESTRING (39.715816 364.341240, 41.460731 387.541752)

LINESTRING (39.715816 364.341240, 58.193027 332.164203)

LINESTRING (39.715816 364.341240, 37.376647 394.921705)

LINESTRING (81.320366 331.213472, 41.304677 379.132723)

LINESTRING (81.320366 331.213472, 42.523166 389.655330)

LINESTRING (81.320366 331.213472, 87.574358 380.978950)

LINESTRING (81.320366 331.213472, 73.919744 384.946266)

LINESTRING (81.320366 331.213472, 27.739573 389.953803)

LINESTRING (81.320366 331.213472, 41.460731 387.541752)

LINESTRING (81.320366 331.213472, 58.193027 332.164203)

LINESTRING (81.320366 331.213472, 37.376647 394.921705)

LINESTRING (81.320366 331.213472, 83.162569 376.786495)

LINESTRING (41.304677 379.132723, 42.523166 389.655330)

LINESTRING (41.304677 379.132723, 87.574358 380.978950)

LINESTRING (41.304677 379.132723, 73.919744 384.946266)

LINESTRING (41.304677 379.132723, 27.739573 389.953803)

LINESTRING (41.304677 379.132723, 41.460731 387.541752)

LINESTRING (41.304677 379.132723, 58.193027 332.164203)

LINESTRING (41.304677 379.132723, 37.376647 394.921705)

LINESTRING (42.523166 389.655330, 87.574358 380.978950)

LINESTRING (42.523166 389.655330, 73.919744 384.946266)

LINESTRING (42.523166 389.655330, 27.739573 389.953803)

LINESTRING (42.523166 389.655330, 41.460731 387.541752)

LINESTRING (42.523166 389.655330, 37.376647 394.921705)

LINESTRING (42.523166 389.655330, 83.162569 376.786495)

LINESTRING (87.574358 380.978950, 27.739573 389.953803)

LINESTRING (87.574358 380.978950, 41.460731 387.541752)

LINESTRING (87.574358 380.978950, 58.193027 332.164203)

LINESTRING (87.574358 380.978950, 37.376647 394.921705)

LINESTRING (87.574358 380.978950, 83.162569 376.786495)

LINESTRING (73.919744 384.946266, 27.739573 389.953803)

LINESTRING (73.919744 384.946266, 41.460731 387.541752)

LINESTRING (73.919744 384.946266, 58.193027 332.164203)

LINESTRING (73.919744 384.946266, 83.162569 376.786495)

LINESTRING (27.739573 389.953803, 41.460731 387.541752)

LINESTRING (27.739573 389.953803, 37.376647 394.921705)

LINESTRING (27.739573 389.953803, 83.162569 376.786495)

LINESTRING (41.460731 387.541752, 58.193027 332.164203)

LINESTRING (41.460731 387.541752, 37.376647 394.921705)

LINESTRING (41.460731 387.541752, 83.162569 376.786495)

LINESTRING (58.193027 332.164203, 37.376647 394.921705)

LINESTRING (58.193027 332.164203, 83.162569 376.786495)

LINESTRING (37.376647 394.921705, 83.162569 376.786495)

LINESTRING (360.000000 360.000000, 368.650258 324.293393)

LINESTRING (360.000000 360.000000, 345.465856 363.597560)

LINESTRING (360.000000 360.000000, 327.161660 333.036232)

LINESTRING (360.000000 360.000000, 339.061751 363.653755)

LINESTRING (360.000000 360.000000, 380.897879 359.109653)

LINESTRING (360.000000 360.000000, 345.841738 365.859732)

LINESTRING (360.000000 360.000000, 384.668380 390.010960)

LINESTRING (360.000000 360.000000, 374.413839 368.811188)

LINESTRING (360.000000 360.000000, 372.458252 388.241780)

LINESTRING (360.000000 360.000000, 338.106407 334.885992)

LINESTRING (360.000000 360.000000, 325.165430 377.723554)

LINESTRING (360.000000 360.000000, 344.618956 325.663912)

LINESTRING (368.650258 324.293393, 345.465856 363.597560)

LINESTRING (368.650258 324.293393, 327.161660 333.036232)

LINESTRING (368.650258 324.293393, 339.061751 363.653755)

LINESTRING (368.650258 324.293393, 380.897879 359.109653)

LINESTRING (368.650258 324.293393, 345.841738 365.859732)

LINESTRING (368.650258 324.293393, 372.458252 388.241780)

LINESTRING (368.650258 324.293393, 338.106407 334.885992)

LINESTRING (368.650258 324.293393, 325.165430 377.723554)

LINESTRING (368.650258 324.293393, 344.618956 325.663912)

LINESTRING (345.465856 363.597560, 327.161660 333.036232)

LINESTRING (345.465856 363.597560, 339.061751 363.653755)

LINESTRING (345.465856 363.597560, 380.897879 359.109653)

LINESTRING (345.465856 363.597560, 345.841738 365.859732)

LINESTRING (345.465856 363.597560, 384.668380 390.010960)

LINESTRING (345.465856 363.597560, 374.413839 368.811188)

LINESTRING (345.465856 363.597560, 372.458252 388.241780)

LINESTRING (345.465856 363.597560, 338.106407 334.885992)

LINESTRING (345.465856 363.597560, 325.165430 377.723554)

LINESTRING (345.465856 363.597560, 344.618956 325.663912)

LINESTRING (327.161660 333.036232, 339.061751 363.653755)

LINESTRING (327.161660 333.036232, 380.897879 359.109653)

LINESTRING (327.161660 333.036232, 345.841738 365.859732)

LINESTRING (327.161660 333.036232, 384.668380 390.010960)

LINESTRING (327.161660 333.036232, 374.413839 368.811188)

LINESTRING (327.161660 333.036232, 372.458252 388.241780)

LINESTRING (327.161660 333.036232, 338.106407 334.885992)

LINESTRING (327.161660 333.036232, 325.165430 377.723554)

LINESTRING (327.161660 333.036232, 344.618956 325.663912)

LINESTRING (339.061751 363.653755, 380.897879 359.109653)

LINESTRING (339.061751 363.653755, 345.841738 365.859732)

LINESTRING (339.061751 363.653755, 374.413839 368.811188)

LINESTRING (339.061751 363.653755, 372.458252 388.241780)

LINESTRING (339.061751 363.653755, 325.165430 377.723554)

LINESTRING (339.061751 363.653755, 344.618956 325.663912)

LINESTRING (380.897879 359.109653, 345.841738 365.859732)

LINESTRING (380.897879 359.109653, 384.668380 390.010960)

LINESTRING (380.897879 359.109653, 374.413839 368.811188)

LINESTRING (380.897879 359.109653, 338.106407 334.885992)

LINESTRING (380.897879 359.109653, 344.618956 325.663912)

LINESTRING (345.841738 365.859732, 384.668380 390.010960)

LINESTRING (345.841738 365.859732, 374.413839 368.811188)

LINESTRING (345.841738 365.859732, 372.458252 388.241780)

LINESTRING (345.841738 365.859732, 338.106407 334.885992)

LINESTRING (345.841738 365.859732, 325.165430 377.723554)

LINESTRING (345.841738 365.859732, 344.618956 325.663912)

LINESTRING (384.668380 390.010960, 374.413839 368.811188)

LINESTRING (384.668380 390.010960, 372.458252 388.241780)

LINESTRING (384.668380 390.010960, 338.106407 334.885992)

LINESTRING (384.668380 390.010960, 325.165430 377.723554)

LINESTRING (384.668380 390.010960, 344.618956 325.663912)

LINESTRING (374.413839 368.811188, 372.458252 388.241780)

LINESTRING (374.413839 368.811188, 338.106407 334.885992)

LINESTRING (374.413839 368.811188, 325.165430 377.723554)

LINESTRING (374.413839 368.811188, 344.618956 325.663912)

LINESTRING (372.458252 388.241780, 338.106407 334.885992)

LINESTRING (372.458252 388.241780, 325.165430 377.723554)

LINESTRING (372.458252 388.241780, 344.618956 325.663912)

LINESTRING (338.106407 334.885992, 325.165430 377.723554)

LINESTRING (338.106407 334.885992, 344.618956 325.663912)

LINESTRING (81.900250 38.628549, 379.675836 39.580266)

LINESTRING (43.599795 59.481959, 334.551743 81.417699)

LINESTRING (60.000000 60.000000, 360.000000 60.000000)

LINESTRING (334.551743 81.417699, 83.162569 376.786495)

LINESTRING (379.675836 39.580266, 41.304677 379.132723)

LINESTRING (360.000000 60.000000, 60.000000 360.000000)

LINESTRING (83.162569 376.786495, 338.106407 334.885992)

LINESTRING (73.919744 384.946266, 344.618956 325.663912)

LINESTRING (60.000000 360.000000, 360.000000 360.000000)

