LINESTRING (80.000000 80.000000, 229.960129 76.541732)

LINESTRING (80.000000 80.000000, 162.478071 78.097953)

LINESTRING (162.478071 78.097953, 229.960129 76.541732)

LINESTRING (80.000000 80.000000, 206.479693 160.640481)

LINESTRING (80.000000 80.000000, 149.563831 124.352265)

LINESTRING (149.563831 124.352265, 206.479693 160.640481)

LINESTRING (80.000000 80.000000, 123.520400 223.547814)

LINESTRING (80.000000 80.000000, 103.936220 158.951297)

LINESTRING (103.936220 158.951297, 123.520400 223.547814)

LINESTRING (80.000000 80.000000, 29.754472 221.334309)

LINESTRING (80.000000 80.000000, 52.364959 157.733870)

LINESTRING (52.364959 157.733870, 29.754472 221.334309)

LINESTRING (80.000000 80.000000, -37.464556 173.284930)

LINESTRING (80.000000 80.000000, 15.394494 131.306711)

LINESTRING (15.394494 131.306711, -37.464556 173.284930)

LINESTRING (80.000000 80.000000, -69.629270 90.539530)

LINESTRING (80.000000 80.000000, -2.296098 85.796742)

LINESTRING (-2.296098 85.796742, -69.629270 90.539530)

LINESTRING (80.000000 80.000000, -37.274595 -13.523630)

LINESTRING (80.000000 80.000000, 15.498973 28.562003)

LINESTRING (15.498973 28.562003, -37.274595 -13.523630)

LINESTRING (80.000000 80.000000, 36.312009 -63.496897)

LINESTRING (80.000000 80.000000, 55.971605 1.076707)

LINESTRING (55.971605 1.076707, 36.312009 -63.496897)

LINESTRING (80.000000 80.000000, 129.215128 -61.696405)

LINESTRING (80.000000 80.000000, 107.068320 2.066977)

LINESTRING (107.068320 2.066977, 129.215128 -61.696405)

LINESTRING (80.000000 80.000000, 203.312830 -5.404602)

LINESTRING (80.000000 80.000000, 147.822056 33.027469)

LINESTRING (147.822056 33.027469, 203.312830 -5.404602)

LINESTRING (229.960129 76.541732, 206.479693 160.640481)

LINESTRING (206.479693 160.640481, 123.520400 223.547814)

LINESTRING (123.520400 223.547814, 29.754472 221.334309)

LINESTRING (29.754472 221.334309, -37.464556 173.284930)

LINESTRING (-37.464556 173.284930, -69.629270 90.539530)

LINESTRING (-69.629270 90.539530, -37.274595 -13.523630)

LINESTRING (-37.274595 -13.523630, 36.312009 -63.496897)

LINESTRING (36.312009 -63.496897, 129.215128 -61.696405)

LINESTRING (129.215128 -61.696405, 203.312830 -5.404602)

LINESTRING (203.312830 -5.404602, 229.960129 76.541732)

LINESTRING (480.000000 80.000000, 629.551120 91.595796)

LINESTRING (480.000000 80.000000, 562.253116 86.377688)

LINESTRING (562.253116 86.377688, 629.551120 91.595796)

LINESTRING (480.000000 80.000000, 603.170126 165.610281)

LINESTRING (480.000000 80.000000, 547.743569 127.085654)

LINESTRING (547.743569 127.085654, 603.170126 165.610281)

LINESTRING (480.000000 80.000000, 522.065566 223.980860)

LINESTRING (480.000000 80.000000, 503.136061 159.189473)

LINESTRING (503.136061 159.189473, 522.065566 223.980860)

LINESTRING (480.000000 80.000000, 433.605283 222.644769)

LINESTRING (480.000000 80.000000, 454.482906 158.454623)

LINESTRING (454.482906 158.454623, 433.605283 222.644769)

LINESTRING (480.000000 80.000000, 356.812481 165.585251)

LINESTRING (480.000000 80.000000, 412.246864 127.071888)

LINESTRING (412.246864 127.071888, 356.812481 165.585251)

LINESTRING (480.000000 80.000000, 330.193811 72.377296)

LINESTRING (480.000000 80.000000, 397.606596 75.807513)

LINESTRING (397.606596 75.807513, 330.193811 72.377296)

LINESTRING (480.000000 80.000000, 364.378656 -15.559953)

LINESTRING (480.000000 80.000000, 416.408261 27.442026)

LINESTRING (416.408261 27.442026, 364.378656 -15.559953)

LINESTRING (480.000000 80.000000, 441.535568 -64.984439)

LINESTRING (480.000000 80.000000, 458.844562 0.258559)

LINESTRING (458.844562 0.258559, 441.535568 -64.984439)

LINESTRING (480.000000 80.000000, 525.490421 -62.935725)

LINESTRING (480.000000 80.000000, 505.019731 1.385351)

LINESTRING (505.019731 1.385351, 525.490421 -62.935725)

LINESTRING (480.000000 80.000000, 596.338295 -14.685802)

LINESTRING (480.000000 80.000000, 543.986062 27.922809)

LINESTRING (543.986062 27.922809, 596.338295 -14.685802)

LINESTRING (629.551120 91.595796, 603.170126 165.610281)

LINESTRING (603.170126 165.610281, 522.065566 223.980860)

LINESTRING (522.065566 223.980860, 433.605283 222.644769)

LINESTRING (433.605283 222.644769, 356.812481 165.585251)

LINESTRING (356.812481 165.585251, 330.193811 72.377296)

LINESTRING (330.193811 72.377296, 364.378656 -15.559953)

LINESTRING (364.378656 -15.559953, 441.535568 -64.984439)

LINESTRING (441.535568 -64.984439, 525.490421 -62.935725)

LINESTRING (525.490421 -62.935725, 596.338295 -14.685802)

LINESTRING (596.338295 -14.685802, 629.551120 91.595796)

LINESTRING (880.000000 80.000000, 1029.748415 71.315984)

LINESTRING (880.000000 80.000000, 962.361628 75.223791)

LINESTRING (962.361628 75.223791, 1029.748415 71.315984)

LINESTRING (880.000000 80.000000, 996.686562 174.256279)

LINESTRING (880.000000 80.000000, 944.177609 131.840954)

LINESTRING (944.177609 131.840954, 996.686562 174.256279)

LINESTRING (880.000000 80.000000, 917.704560 225.183905)

LINESTRING (880.000000 80.000000, 900.737508 159.851148)

LINESTRING (900.737508 159.851148, 917.704560 225.183905)

LINESTRING (880.000000 80.000000, 826.013226 219.947948)

LINESTRING (880.000000 80.000000, 850.307274 156.971372)

LINESTRING (850.307274 156.971372, 826.013226 219.947948)

LINESTRING (880.000000 80.000000, 765.205121 176.551208)

LINESTRING (880.000000 80.000000, 816.862816 133.103164)

LINESTRING (816.862816 133.103164, 765.205121 176.551208)

LINESTRING (880.000000 80.000000, 730.024133 82.690609)

LINESTRING (880.000000 80.000000, 797.513273 81.479835)

LINESTRING (797.513273 81.479835, 730.024133 82.690609)

LINESTRING (880.000000 80.000000, 754.807582 -2.624806)

LINESTRING (880.000000 80.000000, 811.144170 34.556357)

LINESTRING (811.144170 34.556357, 754.807582 -2.624806)

LINESTRING (880.000000 80.000000, 841.487187 -64.971594)

LINESTRING (880.000000 80.000000, 858.817953 0.265623)

LINESTRING (858.817953 0.265623, 841.487187 -64.971594)

LINESTRING (880.000000 80.000000, 917.038948 -65.355139)

LINESTRING (880.000000 80.000000, 900.371421 0.054674)

LINESTRING (900.371421 0.054674, 917.038948 -65.355139)

LINESTRING (880.000000 80.000000, 994.324534 -17.107676)

LINESTRING (880.000000 80.000000, 942.878494 26.590778)

LINESTRING (942.878494 26.590778, 994.324534 -17.107676)

LINESTRING (1029.748415 71.315984, 996.686562 174.256279)

LINESTRING (996.686562 174.256279, 917.704560 225.183905)

LINESTRING (917.704560 225.183905, 826.013226 219.947948)

LINESTRING (826.013226 219.947948, 765.205121 176.551208)

LINESTRING (765.205121 176.551208, 730.024133 82.690609)

LINESTRING (730.024133 82.690609, 754.807582 -2.624806)

LINESTRING (754.807582 -2.624806, 841.487187 -64.971594)

LINESTRING (841.487187 -64.971594, 917.038948 -65.355139)

LINESTRING (917.038948 -65.355139, 994.324534 -17.107676)

LINESTRING (994.324534 -17.107676, 1029.748415 71.315984)

LINESTRING (80.000000 80.000000, 480.000000 80.000000)

LINESTRING (480.000000 80.000000, 880.000000 80.000000)

