LINESTRING (551919.779831 4179973.834596, 551920.623145 4179963.010845, 551921.517486 4179955.271924, 551922.120686 4179946.210821, 551931.130595 4179838.720349, 551931.793018 4179830.047959)

LINESTRING (551919.779831 4179973.834596, 551909.057340 4179972.923791, 551859.001079 4179968.725220, 551845.611091 4179967.597994, 551833.972652 4179966.670428)

LINESTRING (551931.793018 4179830.047959, 551931.130595 4179838.720349, 551922.120686 4179946.210821, 551921.517486 4179955.271924, 551920.623145 4179963.010845, 551919.779831 4179973.834596)

LINESTRING (551931.793018 4179830.047959, 551932.445027 4179821.630696, 551932.714793 4179817.959835, 551934.114233 4179801.358915, 551942.681615 4179701.232997, 551943.101967 4179696.031928, 551943.770142 4179687.847772)

LINESTRING (551931.793018 4179830.047959, 551920.859302 4179829.080334, 551857.401117 4179824.076155, 551847.541528 4179823.181960)

LINESTRING (551833.972652 4179966.670428, 551824.517550 4179965.911946, 551759.753737 4179959.990471, 551749.506762 4179959.093957)

LINESTRING (551833.972652 4179966.670428, 551845.611091 4179967.597994, 551859.001079 4179968.725220, 551909.057340 4179972.923791, 551919.779831 4179973.834596)

LINESTRING (551833.972652 4179966.670428, 551835.802460 4179955.830686, 551840.698968 4179897.155988, 551840.907748 4179894.771801, 551846.576711 4179830.931539, 551847.541528 4179823.181960)

LINESTRING (551943.770142 4179687.847772, 551944.399799 4179680.184855, 551944.724170 4179676.236955, 551954.275904 4179559.729441, 551954.628667 4179555.471052, 551955.353628 4179546.665917)

LINESTRING (551943.770142 4179687.847772, 551943.101967 4179696.031928, 551942.681615 4179701.232997, 551934.114233 4179801.358915, 551932.714793 4179817.959835, 551932.445027 4179821.630696, 551931.793018 4179830.047959)

LINESTRING (551943.770142 4179687.847772, 551933.284678 4179687.005008, 551867.181318 4179682.250392, 551857.628933 4179681.502361)

LINESTRING (551847.541528 4179823.181960, 551836.625758 4179822.159084, 551771.237298 4179817.343143, 551761.245784 4179816.414937)

LINESTRING (551847.541528 4179823.181960, 551857.401117 4179824.076155, 551920.859302 4179829.080334, 551931.793018 4179830.047959)

LINESTRING (551847.541528 4179823.181960, 551848.543323 4179815.155231, 551857.564687 4179690.311662, 551857.628933 4179681.502361)

LINESTRING (551847.541528 4179823.181960, 551846.576711 4179830.931539, 551840.907748 4179894.771801, 551840.698968 4179897.155988, 551835.802460 4179955.830686, 551833.972652 4179966.670428)

LINESTRING (551955.353628 4179546.665917, 551956.010077 4179538.947694, 551956.209809 4179536.607835, 551958.340167 4179511.667831, 551961.863218 4179471.214221, 551966.423508 4179417.142071, 551966.751948 4179413.948683, 551967.403036 4179405.686756)

LINESTRING (551955.353628 4179546.665917, 551954.628667 4179555.471052, 551954.275904 4179559.729441, 551944.724170 4179676.236955, 551944.399799 4179680.184855, 551943.770142 4179687.847772)

LINESTRING (551955.353628 4179546.665917, 551945.361102 4179545.848440, 551881.499417 4179541.629340, 551868.873233 4179540.795375)

LINESTRING (551857.628933 4179681.502361, 551857.687663 4179673.569557, 551868.188066 4179548.890665, 551868.873233 4179540.795375)

LINESTRING (551857.628933 4179681.502361, 551857.564687 4179690.311662, 551848.543323 4179815.155231, 551847.541528 4179823.181960)

LINESTRING (551857.628933 4179681.502361, 551848.596010 4179680.790895, 551783.431793 4179675.155233, 551773.650942 4179674.317101)

LINESTRING (551857.628933 4179681.502361, 551867.181318 4179682.250392, 551933.284678 4179687.005008, 551943.770142 4179687.847772)

LINESTRING (551967.403036 4179405.686756, 551956.961745 4179404.766580, 551892.658826 4179399.102236, 551882.877726 4179398.252884)

LINESTRING (551967.403036 4179405.686756, 551968.013504 4179398.278915, 551968.283296 4179394.608057, 551975.228477 4179307.386973, 551976.756171 4179297.011367, 551979.170444 4179287.129547, 551983.398506 4179275.983204, 551985.629736 4179271.381615, 551988.486820 4179262.523363)

LINESTRING (551967.403036 4179405.686756, 551966.751948 4179413.948683, 551966.423508 4179417.142071, 551961.863218 4179471.214221, 551958.340167 4179511.667831, 551956.209809 4179536.607835, 551956.010077 4179538.947694, 551955.353628 4179546.665917)

LINESTRING (551868.873233 4179540.795375, 551869.967130 4179530.738782, 551877.149343 4179464.456023, 551882.180516 4179406.858481, 551882.877726 4179398.252884)

LINESTRING (551868.873233 4179540.795375, 551868.188066 4179548.890665, 551857.687663 4179673.569557, 551857.628933 4179681.502361)

LINESTRING (551868.873233 4179540.795375, 551860.245822 4179540.008785, 551794.747876 4179534.038092, 551784.860951 4179533.232570)

LINESTRING (551868.873233 4179540.795375, 551881.499417 4179541.629340, 551945.361102 4179545.848440, 551955.353628 4179546.665917)

LINESTRING (551882.877726 4179398.252884, 551872.304363 4179397.320888, 551817.147136 4179392.680001)

LINESTRING (551882.877726 4179398.252884, 551892.658826 4179399.102236, 551956.961745 4179404.766580, 551967.403036 4179405.686756)

LINESTRING (551882.877726 4179398.252884, 551883.479660 4179390.789507, 551889.853898 4179300.369314, 551892.888318 4179264.727993, 551893.645072 4179263.456794, 551900.918611 4179255.469569)

LINESTRING (551882.877726 4179398.252884, 551882.180516 4179406.858481, 551877.149343 4179464.456023, 551869.967130 4179530.738782, 551868.873233 4179540.795375)

LINESTRING (551988.486820 4179262.523363, 551985.629736 4179271.381615, 551983.398506 4179275.983204, 551979.170444 4179287.129547, 551976.756171 4179297.011367, 551975.228477 4179307.386973, 551968.283296 4179394.608057, 551968.013504 4179398.278915, 551967.403036 4179405.686756)

LINESTRING (551988.486820 4179262.523363, 551974.628918 4179261.381900, 551910.401649 4179256.117347, 551909.916693 4179256.191959, 551900.918611 4179255.469569)

LINESTRING (551900.918611 4179255.469569, 551893.645072 4179263.456794, 551892.888318 4179264.727993, 551889.853898 4179300.369314, 551883.479660 4179390.789507, 551882.877726 4179398.252884)

LINESTRING (551900.918611 4179255.469569, 551909.916693 4179256.191959, 551910.401649 4179256.117347, 551974.628918 4179261.381900, 551988.486820 4179262.523363)

LINESTRING (551900.918611 4179255.469569, 551893.875244 4179254.881545, 551889.832078 4179254.867183, 551835.838091 4179250.000509, 551828.891469 4179249.435340)

LINESTRING (551773.650942 4179674.317101, 551774.244303 4179666.798185, 551784.192646 4179541.461115, 551784.860951 4179533.232570)

LINESTRING (551773.650942 4179674.317101, 551772.952887 4179683.078038, 551770.158586 4179718.454635, 551762.619204 4179802.498903, 551762.026462 4179808.519954, 551761.245784 4179816.414937)

LINESTRING (551773.650942 4179674.317101, 551763.007877 4179673.318230, 551723.991956 4179669.678066, 551721.799937 4179669.475686, 551710.768959 4179668.529925)

LINESTRING (551773.650942 4179674.317101, 551783.431793 4179675.155233, 551848.596010 4179680.790895, 551857.628933 4179681.502361)

LINESTRING (551784.860951 4179533.232570, 551785.576017 4179524.571600, 551797.663615 4179399.481013, 551798.412123 4179391.108735)

LINESTRING (551784.860951 4179533.232570, 551784.192646 4179541.461115, 551774.244303 4179666.798185, 551773.650942 4179674.317101)

LINESTRING (551784.860951 4179533.232570, 551775.229671 4179532.395379, 551734.942129 4179529.157713, 551733.392722 4179529.014842, 551727.933871 4179528.625524, 551722.351983 4179528.191056)

LINESTRING (551784.860951 4179533.232570, 551794.747876 4179534.038092, 551860.245822 4179540.008785, 551868.873233 4179540.795375)

LINESTRING (551761.245784 4179816.414937, 551762.026462 4179808.519954, 551762.619204 4179802.498903, 551770.158586 4179718.454635, 551772.952887 4179683.078038, 551773.650942 4179674.317101)

LINESTRING (551761.245784 4179816.414937, 551751.676907 4179815.511588, 551713.628227 4179812.243681, 551709.775070 4179810.067003, 551699.662069 4179804.633399)

LINESTRING (551761.245784 4179816.414937, 551771.237298 4179817.343143, 551836.625758 4179822.159084, 551847.541528 4179823.181960)

LINESTRING (551761.245784 4179816.414937, 551760.492995 4179824.077093, 551750.596149 4179949.725229, 551749.506762 4179959.093957)

LINESTRING (551710.768959 4179668.529925, 551716.490120 4179597.633299)

LINESTRING (551710.768959 4179668.529925, 551702.556172 4179770.145033, 551700.588242 4179794.597922, 551699.662069 4179804.633399)

LINESTRING (551710.768959 4179668.529925, 551721.799937 4179669.475686, 551723.991956 4179669.678066, 551763.007877 4179673.318230, 551773.650942 4179674.317101)

LINESTRING (551817.147136 4179392.680001, 551823.663048 4179313.233951, 551828.105733 4179258.118049, 551828.891469 4179249.435340)

LINESTRING (551817.147136 4179392.680001, 551806.784811 4179391.804894, 551798.412123 4179391.108735)

LINESTRING (551817.147136 4179392.680001, 551872.304363 4179397.320888, 551882.877726 4179398.252884)

LINESTRING (551734.080913 4179385.711742, 551731.293256 4179420.045415)

LINESTRING (551734.080913 4179385.711742, 551734.644136 4179378.780691, 551735.188280 4179372.082522, 551736.381682 4179357.377594)

LINESTRING (551734.080913 4179385.711742, 551744.470165 4179386.509259, 551747.780640 4179386.763048, 551798.412123 4179391.108735)

LINESTRING (551731.293256 4179420.045415, 551734.080913 4179385.711742)

LINESTRING (551731.293256 4179420.045415, 551730.673775 4179427.519785, 551722.351983 4179528.191056)

LINESTRING (551731.293256 4179420.045415, 551727.182421 4179419.597988, 551721.213241 4179419.105615, 551717.489136 4179418.793764, 551642.953503 4179412.656633, 551636.279927 4179412.115525)

LINESTRING (551736.381682 4179357.377594, 551742.032004 4179293.614870, 551745.188739 4179251.017497, 551746.502480 4179242.404669)

LINESTRING (551736.381682 4179357.377594, 551735.188280 4179372.082522, 551734.644136 4179378.780691, 551734.080913 4179385.711742)

LINESTRING (551798.412123 4179391.108735, 551797.663615 4179399.481013, 551785.576017 4179524.571600, 551784.860951 4179533.232570)

LINESTRING (551798.412123 4179391.108735, 551747.780640 4179386.763048, 551744.470165 4179386.509259, 551734.080913 4179385.711742)

LINESTRING (551798.412123 4179391.108735, 551806.784811 4179391.804894, 551817.147136 4179392.680001)

LINESTRING (551722.351983 4179528.191056, 551730.673775 4179427.519785, 551731.293256 4179420.045415)

LINESTRING (551722.351983 4179528.191056, 551718.043137 4179580.356502, 551717.252180 4179589.893532, 551716.490120 4179597.633299)

LINESTRING (551722.351983 4179528.191056, 551727.933871 4179528.625524, 551733.392722 4179529.014842, 551734.942129 4179529.157713, 551775.229671 4179532.395379, 551784.860951 4179533.232570)

LINESTRING (551636.279927 4179412.115525, 551636.862490 4179404.896111, 551640.212067 4179363.764493, 551641.366591 4179349.614077)

LINESTRING (551636.279927 4179412.115525, 551629.359926 4179411.539593, 551590.568952 4179408.345306, 551550.782333 4179405.189356, 551540.314926 4179404.214068)

LINESTRING (551636.279927 4179412.115525, 551642.953503 4179412.656633, 551717.489136 4179418.793764, 551721.213241 4179419.105615, 551727.182421 4179419.597988, 551731.293256 4179420.045415)

LINESTRING (551641.366591 4179349.614077, 551642.527193 4179337.305526)

LINESTRING (551641.366591 4179349.614077, 551651.623908 4179350.388459, 551726.326694 4179356.648757, 551736.381682 4179357.377594)

LINESTRING (551641.366591 4179349.614077, 551640.212067 4179363.764493, 551636.862490 4179404.896111, 551636.279927 4179412.115525)

LINESTRING (551540.314926 4179404.214068, 551539.611764 4179412.420219, 551538.242341 4179428.566463, 551534.765401 4179469.020506, 551533.519032 4179485.211903, 551529.464181 4179530.755097, 551527.241356 4179556.604429, 551527.020939 4179559.454553, 551525.778136 4179573.671005, 551525.030611 4179581.932358)

LINESTRING (551540.314926 4179404.214068, 551540.937565 4179396.207130, 551543.294408 4179365.842843, 551552.144767 4179252.159931, 551553.454869 4179235.647175, 551554.108189 4179226.963617)

LINESTRING (551540.314926 4179404.214068, 551550.782333 4179405.189356, 551590.568952 4179408.345306, 551629.359926 4179411.539593, 551636.279927 4179412.115525)

LINESTRING (551540.314926 4179404.214068, 551533.121438 4179403.703079, 551528.014622 4179403.349382, 551466.482405 4179398.293746, 551462.344430 4179397.957235, 551451.004564 4179397.043186, 551444.110757 4179396.500859)

LINESTRING (551525.030611 4179581.932358, 551535.789850 4179582.687548, 551581.711271 4179586.458797, 551608.362017 4179588.456389, 551616.505992 4179589.073259)

LINESTRING (551525.030611 4179581.932358, 551513.998457 4179581.153285, 551436.281444 4179574.066104, 551430.365419 4179573.540985)

LINESTRING (551525.030611 4179581.932358, 551524.254929 4179590.470919, 551522.845262 4179607.426877, 551522.212180 4179614.290934, 551519.782505 4179643.645105, 551517.499043 4179673.566054, 551512.744075 4179733.906073, 551511.457899 4179750.840618, 551510.721290 4179758.769182)

LINESTRING (551525.030611 4179581.932358, 551525.778136 4179573.671005, 551527.020939 4179559.454553, 551527.241356 4179556.604429, 551529.464181 4179530.755097, 551533.519032 4179485.211903, 551534.765401 4179469.020506, 551538.242341 4179428.566463, 551539.611764 4179412.420219, 551540.314926 4179404.214068)

LINESTRING (551554.108189 4179226.963617, 551553.454869 4179235.647175, 551552.144767 4179252.159931, 551543.294408 4179365.842843, 551540.937565 4179396.207130, 551540.314926 4179404.214068)

LINESTRING (551554.108189 4179226.963617, 551565.254909 4179227.810024, 551566.258385 4179227.927256, 551642.108067 4179234.094088, 551650.992444 4179234.693434)

LINESTRING (551554.108189 4179226.963617, 551549.150800 4179226.644129, 551544.483883 4179226.359748, 551465.572517 4179219.564454, 551458.793281 4179218.989548)

LINESTRING (551444.110757 4179396.500859, 551443.615823 4179403.820690, 551442.664418 4179415.120896, 551441.180081 4179434.184509, 551439.628205 4179454.190804, 551433.966805 4179527.173864, 551431.106395 4179564.902343, 551430.365419 4179573.540985)

LINESTRING (551444.110757 4179396.500859, 551451.004564 4179397.043186, 551462.344430 4179397.957235, 551466.482405 4179398.293746, 551528.014622 4179403.349382, 551533.121438 4179403.703079, 551540.314926 4179404.214068)

LINESTRING (551444.110757 4179396.500859, 551444.849544 4179388.217257, 551445.758920 4179376.595025, 551447.750372 4179352.497299, 551458.112458 4179227.861561, 551458.793281 4179218.989548)

LINESTRING (551444.110757 4179396.500859, 551436.345825 4179395.808863, 551429.144417 4179395.153676, 551406.413204 4179393.103456, 551396.421002 4179392.197888, 551382.862183 4179391.148045, 551369.312238 4179390.087185, 551358.922963 4179389.290141, 551348.278521 4179388.447139)

LINESTRING (551430.365419 4179573.540985, 551423.198430 4179573.041350, 551344.262433 4179566.480009, 551333.759287 4179565.615711)

LINESTRING (551430.365419 4179573.540985, 551436.281444 4179574.066104, 551513.998457 4179581.153285, 551525.030611 4179581.932358)

LINESTRING (551430.365419 4179573.540985, 551429.672861 4179582.890031, 551416.756224 4179742.959524, 551416.047583 4179750.655268)

LINESTRING (551430.365419 4179573.540985, 551431.106395 4179564.902343, 551433.966805 4179527.173864, 551439.628205 4179454.190804, 551441.180081 4179434.184509, 551442.664418 4179415.120896, 551443.615823 4179403.820690, 551444.110757 4179396.500859)

LINESTRING (551458.793281 4179218.989548, 551458.112458 4179227.861561, 551447.750372 4179352.497299, 551445.758920 4179376.595025, 551444.849544 4179388.217257, 551444.110757 4179396.500859)

LINESTRING (551458.793281 4179218.989548, 551465.572517 4179219.564454, 551544.483883 4179226.359748, 551549.150800 4179226.644129, 551554.108189 4179226.963617)

LINESTRING (551458.793281 4179218.989548, 551450.455490 4179218.316154, 551404.311130 4179214.644141, 551373.354461 4179212.187672, 551362.797876 4179211.345203)

LINESTRING (551348.278521 4179388.447139, 551339.007417 4179387.734754, 551260.184649 4179381.086193, 551251.979686 4179380.325062)

LINESTRING (551348.278521 4179388.447139, 551348.987813 4179380.640445, 551351.118642 4179355.334178, 551359.947811 4179247.453830, 551362.146001 4179219.829066, 551362.797876 4179211.345203)

LINESTRING (551348.278521 4179388.447139, 551358.922963 4179389.290141, 551369.312238 4179390.087185, 551382.862183 4179391.148045, 551396.421002 4179392.197888, 551406.413204 4179393.103456, 551429.144417 4179395.153676, 551436.345825 4179395.808863, 551444.110757 4179396.500859)

LINESTRING (551348.278521 4179388.447139, 551347.583666 4179396.764307, 551345.244033 4179425.897165, 551344.655337 4179432.728222, 551341.157201 4179475.323597, 551336.594092 4179531.925748, 551335.916114 4179540.365073, 551335.732140 4179541.617700, 551334.479920 4179557.398558, 551333.759287 4179565.615711)

LINESTRING (551251.979686 4179380.325062, 551242.251154 4179379.510084, 551166.701026 4179373.515202, 551156.012162 4179372.727650)

LINESTRING (551251.979686 4179380.325062, 551260.184649 4179381.086193, 551339.007417 4179387.734754, 551348.278521 4179388.447139)

LINESTRING (551251.979686 4179380.325062, 551252.737415 4179371.797466, 551258.719242 4179296.619442, 551259.394281 4179287.225898, 551263.066196 4179246.373553, 551265.164896 4179214.864786)

LINESTRING (551251.979686 4179380.325062, 551251.213679 4179390.184045, 551238.261335 4179546.603132)

LINESTRING (551362.797876 4179211.345203, 551373.354461 4179212.187672, 551404.311130 4179214.644141, 551450.455490 4179218.316154, 551458.793281 4179218.989548)

LINESTRING (551362.797876 4179211.345203, 551362.146001 4179219.829066, 551359.947811 4179247.453830, 551351.118642 4179355.334178, 551348.987813 4179380.640445, 551348.278521 4179388.447139)

LINESTRING (551362.797876 4179211.345203, 551350.436715 4179210.302883, 551341.280544 4179209.491357, 551274.466014 4179203.705271, 551266.102045 4179202.987521)

LINESTRING (551333.759287 4179565.615711, 551344.262433 4179566.480009, 551423.198430 4179573.041350, 551430.365419 4179573.540985)

LINESTRING (551333.759287 4179565.615711, 551322.233979 4179564.811633, 551287.828644 4179561.879076, 551286.921819 4179561.806861, 551245.498844 4179558.431377, 551237.311122 4179557.759127)

LINESTRING (551333.759287 4179565.615711, 551334.479920 4179557.398558, 551335.732140 4179541.617700, 551335.916114 4179540.365073, 551336.594092 4179531.925748, 551341.157201 4179475.323597, 551344.655337 4179432.728222, 551345.244033 4179425.897165, 551347.583666 4179396.764307, 551348.278521 4179388.447139)

LINESTRING (551333.759287 4179565.615711, 551333.059966 4179574.654052, 551330.690402 4179604.363691, 551322.571383 4179702.983935, 551319.984789 4179735.022250, 551319.211887 4179743.150318)

LINESTRING (551156.012162 4179372.727650, 551155.359614 4179381.355763, 551144.840532 4179507.921445, 551143.250303 4179527.128685, 551142.087432 4179541.345680, 551141.355772 4179549.951114)

LINESTRING (551156.012162 4179372.727650, 551156.813695 4179364.222510, 551163.256708 4179284.143161, 551164.281720 4179272.277526, 551168.244657 4179222.783697, 551169.910199 4179204.231561, 551170.577092 4179194.715914)

LINESTRING (551156.012162 4179372.727650, 551166.701026 4179373.515202, 551242.251154 4179379.510084, 551251.979686 4179380.325062)

LINESTRING (551156.012162 4179372.727650, 551144.425394 4179371.845776, 551092.215717 4179367.671856, 551088.156921 4179367.347120)

LINESTRING (551265.164896 4179214.864786, 551263.066196 4179246.373553, 551259.394281 4179287.225898, 551258.719242 4179296.619442, 551252.737415 4179371.797466, 551251.979686 4179380.325062)

LINESTRING (551238.261335 4179546.603132, 551251.213679 4179390.184045, 551251.979686 4179380.325062)

LINESTRING (551141.355772 4179549.951114, 551129.356852 4179548.811508, 551109.689870 4179547.003019, 551078.904351 4179544.127074, 551075.673471 4179543.829665)

LINESTRING (551141.355772 4179549.951114, 551142.087432 4179541.345680, 551143.250303 4179527.128685, 551144.840532 4179507.921445, 551155.359614 4179381.355763, 551156.012162 4179372.727650)

LINESTRING (551141.355772 4179549.951114, 551140.602779 4179559.155565, 551139.459048 4179573.128582, 551133.427605 4179646.564429)

LINESTRING (551141.355772 4179549.951114, 551152.440224 4179550.829870, 551228.559745 4179557.072286, 551237.311122 4179557.759127)

LINESTRING (551170.577092 4179194.715914, 551181.387577 4179195.814905, 551234.705425 4179200.440074, 551252.173564 4179201.835742, 551257.658730 4179202.280381, 551266.102045 4179202.987521)

LINESTRING (551170.577092 4179194.715914, 551158.347946 4179193.685798, 551105.873713 4179189.377024, 551103.100327 4179189.149016)

LINESTRING (551170.577092 4179194.715914, 551169.910199 4179204.231561, 551168.244657 4179222.783697, 551164.281720 4179272.277526, 551163.256708 4179284.143161, 551156.813695 4179364.222510, 551156.012162 4179372.727650)

LINESTRING (551088.156921 4179367.347120, 551088.307581 4179374.304823, 551076.336592 4179534.902037, 551076.202068 4179536.709741, 551075.673471 4179543.829665)

LINESTRING (551088.156921 4179367.347120, 551084.952535 4179367.027683, 551031.798852 4179361.661095, 551029.941386 4179361.472068)

LINESTRING (551088.156921 4179367.347120, 551092.215717 4179367.671856, 551144.425394 4179371.845776, 551156.012162 4179372.727650)

LINESTRING (551075.673471 4179543.829665, 551074.893508 4179553.133811, 551067.980078 4179635.373919, 551067.734154 4179638.101846, 551067.495457 4179641.085010)

LINESTRING (551075.673471 4179543.829665, 551078.904351 4179544.127074, 551109.689870 4179547.003019, 551129.356852 4179548.811508, 551141.355772 4179549.951114)

LINESTRING (551029.941386 4179361.472068, 551030.560440 4179353.964367, 551037.876314 4179265.025184, 551043.613908 4179194.838429, 551043.766388 4179192.975359, 551044.471819 4179184.325378)

LINESTRING (551029.941386 4179361.472068, 551031.798852 4179361.661095, 551084.952535 4179367.027683, 551088.156921 4179367.347120)

LINESTRING (551044.471819 4179184.325378, 551049.032519 4179184.697580, 551099.516967 4179188.849415, 551103.100327 4179189.149016)

LINESTRING (551688.725868 4179954.296497, 551689.576751 4179945.026124, 551693.490791 4179902.389066)

LINESTRING (551688.725868 4179954.296497, 551683.487699 4179953.875302, 551676.488748 4179953.321018, 551670.766431 4179952.852413, 551512.915868 4179940.313798, 551506.753494 4179939.787079, 551495.669665 4179938.896746)

LINESTRING (551688.725868 4179954.296497, 551687.956383 4179964.632534, 551683.978705 4180014.614320)

LINESTRING (551688.725868 4179954.296497, 551699.114335 4179955.105060, 551703.164224 4179955.396760, 551739.399524 4179958.386954, 551749.506762 4179959.093957)

LINESTRING (551693.490791 4179902.389066, 551689.576751 4179945.026124, 551688.725868 4179954.296497)

LINESTRING (551693.490791 4179902.389066, 551698.688587 4179815.190061, 551699.662069 4179804.633399)

LINESTRING (551495.669665 4179938.896746, 551496.517695 4179928.638853, 551498.089484 4179911.095844, 551498.335614 4179908.356832, 551501.449872 4179870.918419)

LINESTRING (551495.669665 4179938.896746, 551506.753494 4179939.787079, 551512.915868 4179940.313798, 551670.766431 4179952.852413, 551676.488748 4179953.321018, 551683.487699 4179953.875302, 551688.725868 4179954.296497)

LINESTRING (551495.669665 4179938.896746, 551488.837969 4179938.354763, 551484.480142 4179938.005767, 551452.312683 4179935.230718, 551425.902641 4179932.946635, 551407.362570 4179931.377454, 551400.645294 4179930.847353)

LINESTRING (551495.669665 4179938.896746, 551494.891891 4179949.188364, 551493.604528 4179966.322625, 551488.815321 4180029.369729, 551481.887852 4180111.831432, 551481.394919 4180117.420406)

LINESTRING (551683.978705 4180014.614320, 551677.220512 4180096.455611)

LINESTRING (551683.978705 4180014.614320, 551693.111507 4180020.407907, 551700.979304 4180032.684348, 551716.582796 4180099.321089)

LINESTRING (551683.978705 4180014.614320, 551687.956383 4179964.632534, 551688.725868 4179954.296497)

LINESTRING (551749.506762 4179959.093957, 551748.320729 4179969.826807, 551743.361037 4180049.892994, 551741.861576 4180067.059181, 551740.323823 4180084.713323, 551738.776224 4180102.533835)

LINESTRING (551749.506762 4179959.093957, 551759.753737 4179959.990471, 551824.517550 4179965.911946, 551833.972652 4179966.670428)

LINESTRING (551749.506762 4179959.093957, 551750.596149 4179949.725229, 551760.492995 4179824.077093, 551761.245784 4179816.414937)

LINESTRING (551749.506762 4179959.093957, 551739.399524 4179958.386954, 551703.164224 4179955.396760, 551699.114335 4179955.105060, 551688.725868 4179954.296497)

LINESTRING (551648.225695 4179774.519840, 551646.378141 4179764.333829, 551612.661290 4179599.589751, 551612.087129 4179597.034227, 551616.505992 4179589.073259)

LINESTRING (551648.225695 4179774.519840, 551656.044627 4179779.184515, 551690.270259 4179799.370762, 551699.662069 4179804.633399)

LINESTRING (551648.225695 4179774.519840, 551639.520977 4179769.239377, 551604.570426 4179766.313160, 551543.859337 4179761.384088, 551521.532868 4179759.569066, 551510.721290 4179758.769182)

LINESTRING (551648.225695 4179774.519840, 551650.430867 4179786.671968, 551655.629937 4179811.613608, 551672.793216 4179896.522949, 551677.349614 4179900.323942, 551681.044713 4179901.012838, 551683.235418 4179901.414916, 551693.490791 4179902.389066)

LINESTRING (551616.505992 4179589.073259, 551608.362017 4179588.456389, 551581.711271 4179586.458797, 551535.789850 4179582.687548, 551525.030611 4179581.932358)

LINESTRING (551616.505992 4179589.073259, 551625.592088 4179589.751515, 551628.330234 4179589.957290, 551686.262521 4179594.336957, 551706.498334 4179596.705162, 551716.490120 4179597.633299)

LINESTRING (551699.662069 4179804.633399, 551690.270259 4179799.370762, 551656.044627 4179779.184515, 551648.225695 4179774.519840)

LINESTRING (551699.662069 4179804.633399, 551700.588242 4179794.597922, 551702.556172 4179770.145033, 551710.768959 4179668.529925)

LINESTRING (551699.662069 4179804.633399, 551709.775070 4179810.067003, 551713.628227 4179812.243681, 551751.676907 4179815.511588, 551761.245784 4179816.414937)

LINESTRING (551699.662069 4179804.633399, 551698.688587 4179815.190061, 551693.490791 4179902.389066)

LINESTRING (551510.721290 4179758.769182, 551504.435052 4179758.308265, 551499.698388 4179757.956896, 551481.863262 4179756.281006, 551434.438394 4179752.212434, 551422.491750 4179751.216960, 551416.047583 4179750.655268)

LINESTRING (551510.721290 4179758.769182, 551510.030316 4179767.851947, 551508.511398 4179783.975078, 551504.672346 4179833.081253, 551501.449872 4179870.918419)

LINESTRING (551510.721290 4179758.769182, 551511.457899 4179750.840618, 551512.744075 4179733.906073, 551517.499043 4179673.566054, 551519.782505 4179643.645105, 551522.212180 4179614.290934, 551522.845262 4179607.426877, 551524.254929 4179590.470919, 551525.030611 4179581.932358)

LINESTRING (551510.721290 4179758.769182, 551521.532868 4179759.569066, 551543.859337 4179761.384088, 551604.570426 4179766.313160, 551639.520977 4179769.239377, 551648.225695 4179774.519840)

LINESTRING (551716.490120 4179597.633299, 551710.768959 4179668.529925)

LINESTRING (551716.490120 4179597.633299, 551706.498334 4179596.705162, 551686.262521 4179594.336957, 551628.330234 4179589.957290, 551625.592088 4179589.751515, 551616.505992 4179589.073259)

LINESTRING (551716.490120 4179597.633299, 551717.252180 4179589.893532, 551718.043137 4179580.356502, 551722.351983 4179528.191056)

LINESTRING (551642.527193 4179337.305526, 551641.366591 4179349.614077)

LINESTRING (551103.100327 4179189.149016, 551102.368754 4179197.743354, 551087.930071 4179357.049253, 551087.964002 4179358.680476, 551088.156921 4179367.347120)

LINESTRING (551103.100327 4179189.149016, 551099.516967 4179188.849415, 551049.032519 4179184.697580, 551044.471819 4179184.325378)

LINESTRING (551103.100327 4179189.149016, 551105.873713 4179189.377024, 551158.347946 4179193.685798, 551170.577092 4179194.715914)

LINESTRING (551032.151503 4179899.265203, 551041.694474 4179900.078794)

LINESTRING (551032.151503 4179899.265203, 551032.855091 4179890.903680, 551032.978457 4179889.473146, 551034.939484 4179862.967448, 551046.430546 4179731.314856, 551046.650725 4179728.475816, 551047.254770 4179720.546397)

LINESTRING (551041.694474 4179900.078794, 551032.151503 4179899.265203)

LINESTRING (551041.694474 4179900.078794, 551040.674713 4179911.134524, 551030.414289 4180031.854777, 551026.638936 4180073.993669, 551026.041045 4180080.935646)

LINESTRING (551041.694474 4179900.078794, 551045.708902 4179900.414332, 551070.340992 4179902.519743, 551090.544889 4179904.253815, 551100.775063 4179905.038450, 551112.069325 4179906.095985)

LINESTRING (551047.254770 4179720.546397, 551046.650725 4179728.475816, 551046.430546 4179731.314856, 551034.939484 4179862.967448, 551032.978457 4179889.473146, 551032.855091 4179890.903680, 551032.151503 4179899.265203)

LINESTRING (551047.254770 4179720.546397, 551049.843079 4179720.762147, 551095.684497 4179724.552393, 551114.444662 4179726.222087, 551127.264119 4179727.100480)

LINESTRING (551127.264119 4179727.100480, 551126.356324 4179737.125027, 551123.585191 4179769.217725, 551118.098235 4179834.435337, 551115.568895 4179864.476905, 551114.738056 4179874.879174, 551113.059386 4179897.003953, 551112.069325 4179906.095985)

LINESTRING (551127.264119 4179727.100480, 551114.444662 4179726.222087, 551095.684497 4179724.552393, 551049.843079 4179720.762147, 551047.254770 4179720.546397)

LINESTRING (551127.264119 4179727.100480, 551127.794958 4179718.205317, 551128.895101 4179702.734156, 551130.341108 4179684.047495, 551133.427605 4179646.564429)

LINESTRING (551127.264119 4179727.100480, 551137.949977 4179728.298511, 551157.998157 4179729.643438, 551164.671569 4179730.173066, 551208.912807 4179733.476908, 551217.583140 4179734.418421)

LINESTRING (551746.502480 4179242.404669, 551745.188739 4179251.017497, 551742.032004 4179293.614870, 551736.381682 4179357.377594)

LINESTRING (551746.502480 4179242.404669, 551757.094089 4179243.270041, 551811.106961 4179247.947696, 551821.909543 4179248.881050, 551828.891469 4179249.435340)

LINESTRING (551746.502480 4179242.404669, 551735.417732 4179241.514023, 551660.642047 4179235.475111, 551656.768113 4179235.162350, 551650.992444 4179234.693434)

LINESTRING (551416.047583 4179750.655268, 551416.756224 4179742.959524, 551429.672861 4179582.890031, 551430.365419 4179573.540985)

LINESTRING (551416.047583 4179750.655268, 551415.574558 4179760.116640, 551412.884807 4179795.926707, 551410.802964 4179820.423323, 551402.319683 4179920.827610, 551400.645294 4179930.847353)

LINESTRING (551416.047583 4179750.655268, 551422.491750 4179751.216960, 551434.438394 4179752.212434, 551481.863262 4179756.281006, 551499.698388 4179757.956896, 551504.435052 4179758.308265, 551510.721290 4179758.769182)

LINESTRING (551416.047583 4179750.655268, 551408.634470 4179750.098630, 551350.809552 4179745.610614, 551329.873558 4179743.982303, 551319.211887 4179743.150318)

LINESTRING (551501.449872 4179870.918419, 551498.335614 4179908.356832, 551498.089484 4179911.095844, 551496.517695 4179928.638853, 551495.669665 4179938.896746)

LINESTRING (551501.449872 4179870.918419, 551504.672346 4179833.081253, 551508.511398 4179783.975078, 551510.030316 4179767.851947, 551510.721290 4179758.769182)

LINESTRING (551501.449872 4179870.918419, 551512.323167 4179871.685394, 551555.540440 4179875.206618)

LINESTRING (551400.645294 4179930.847353, 551399.185566 4179941.756063, 551397.350231 4179963.458198, 551394.477305 4179999.000849, 551392.482385 4180023.697734, 551391.365941 4180037.471186, 551386.001218 4180103.954310, 551385.535188 4180109.476885)

LINESTRING (551400.645294 4179930.847353, 551392.396367 4179930.163465, 551386.902884 4179929.718676, 551381.136499 4179929.249998, 551372.544205 4179928.541797, 551365.149004 4179927.963117, 551361.979869 4179927.677074, 551334.759122 4179925.443707, 551315.012701 4179923.811742, 551304.474502 4179922.991637)

LINESTRING (551400.645294 4179930.847353, 551407.362570 4179931.377454, 551425.902641 4179932.946635, 551452.312683 4179935.230718, 551484.480142 4179938.005767, 551488.837969 4179938.354763, 551495.669665 4179938.896746)

LINESTRING (551400.645294 4179930.847353, 551402.319683 4179920.827610, 551410.802964 4179820.423323, 551412.884807 4179795.926707, 551415.574558 4179760.116640, 551416.047583 4179750.655268)

LINESTRING (551319.211887 4179743.150318, 551308.330499 4179742.239312, 551225.728166 4179734.846292, 551217.583140 4179734.418421)

LINESTRING (551319.211887 4179743.150318, 551329.873558 4179743.982303, 551350.809552 4179745.610614, 551408.634470 4179750.098630, 551416.047583 4179750.655268)

LINESTRING (551319.211887 4179743.150318, 551319.984789 4179735.022250, 551322.571383 4179702.983935, 551330.690402 4179604.363691, 551333.059966 4179574.654052, 551333.759287 4179565.615711)

LINESTRING (551319.211887 4179743.150318, 551318.585820 4179751.745305, 551316.189611 4179780.090062, 551311.376132 4179838.754422, 551310.127445 4179853.980545, 551308.011412 4179879.775125, 551307.420353 4179886.994510, 551306.743462 4179895.267418, 551305.923333 4179905.325783, 551305.396142 4179912.190515, 551304.474502 4179922.991637)

LINESTRING (551217.583140 4179734.418421, 551223.404086 4179726.133103, 551226.901625 4179682.106371, 551229.045796 4179656.001287, 551229.455395 4179649.624017, 551236.534081 4179566.563989, 551237.311122 4179557.759127)

LINESTRING (551217.583140 4179734.418421, 551212.112042 4179743.105350, 551198.073023 4179904.488520, 551201.881246 4179913.909934)

LINESTRING (551217.583140 4179734.418421, 551208.912807 4179733.476908, 551164.671569 4179730.173066, 551157.998157 4179729.643438, 551137.949977 4179728.298511, 551127.264119 4179727.100480)

LINESTRING (551217.583140 4179734.418421, 551225.728166 4179734.846292, 551308.330499 4179742.239312, 551319.211887 4179743.150318)

LINESTRING (551304.474502 4179922.991637, 551292.387860 4179921.884523, 551262.985099 4179919.260569, 551215.358021 4179915.269653, 551201.881246 4179913.909934)

LINESTRING (551304.474502 4179922.991637, 551303.542813 4179933.992412, 551301.518588 4179957.779312, 551300.273731 4179972.395219, 551299.076371 4179986.456655)

LINESTRING (551304.474502 4179922.991637, 551315.012701 4179923.811742, 551334.759122 4179925.443707, 551361.979869 4179927.677074, 551365.149004 4179927.963117, 551372.544205 4179928.541797, 551381.136499 4179929.249998, 551386.902884 4179929.718676, 551392.396367 4179930.163465, 551400.645294 4179930.847353)

LINESTRING (551304.474502 4179922.991637, 551305.396142 4179912.190515, 551305.923333 4179905.325783, 551306.743462 4179895.267418, 551307.420353 4179886.994510, 551308.011412 4179879.775125, 551310.127445 4179853.980545, 551311.376132 4179838.754422, 551316.189611 4179780.090062, 551318.585820 4179751.745305, 551319.211887 4179743.150318)

LINESTRING (551237.311122 4179557.759127, 551236.534081 4179566.563989, 551229.455395 4179649.624017, 551229.045796 4179656.001287, 551226.901625 4179682.106371, 551223.404086 4179726.133103, 551217.583140 4179734.418421)

LINESTRING (551237.311122 4179557.759127, 551245.498844 4179558.431377, 551286.921819 4179561.806861, 551287.828644 4179561.879076, 551322.233979 4179564.811633, 551333.759287 4179565.615711)

LINESTRING (551237.311122 4179557.759127, 551228.559745 4179557.072286, 551152.440224 4179550.829870, 551141.355772 4179549.951114)

LINESTRING (551201.881246 4179913.909934, 551198.073023 4179904.488520, 551212.112042 4179743.105350, 551217.583140 4179734.418421)

LINESTRING (551201.881246 4179913.909934, 551215.358021 4179915.269653, 551262.985099 4179919.260569, 551292.387860 4179921.884523, 551304.474502 4179922.991637)

LINESTRING (551201.881246 4179913.909934, 551189.125258 4179912.787716, 551149.730290 4179909.347616, 551142.088855 4179908.701036, 551130.168972 4179907.683958, 551122.447989 4179907.081284, 551112.069325 4179906.095985)

LINESTRING (551201.881246 4179913.909934, 551206.487916 4179925.244709, 551202.817954 4179977.203557)

LINESTRING (551112.069325 4179906.095985, 551100.775063 4179905.038450, 551090.544889 4179904.253815, 551070.340992 4179902.519743, 551045.708902 4179900.414332, 551041.694474 4179900.078794)

LINESTRING (551112.069325 4179906.095985, 551122.447989 4179907.081284, 551130.168972 4179907.683958, 551142.088855 4179908.701036, 551149.730290 4179909.347616, 551189.125258 4179912.787716, 551201.881246 4179913.909934)

LINESTRING (551112.069325 4179906.095985, 551113.059386 4179897.003953, 551114.738056 4179874.879174, 551115.568895 4179864.476905, 551118.098235 4179834.435337, 551123.585191 4179769.217725, 551126.356324 4179737.125027, 551127.264119 4179727.100480)

LINESTRING (551112.069325 4179906.095985, 551111.026280 4179918.050286, 551109.802125 4179933.642733, 551109.087520 4179942.348139, 551108.489139 4179949.356679, 551108.144533 4179953.792676, 551097.930225 4180079.705771, 551097.308190 4180086.270353)

LINESTRING (551133.427605 4179646.564429, 551130.341108 4179684.047495, 551128.895101 4179702.734156, 551127.794958 4179718.205317, 551127.264119 4179727.100480)

LINESTRING (551133.427605 4179646.564429, 551139.459048 4179573.128582, 551140.602779 4179559.155565, 551141.355772 4179549.951114)

LINESTRING (551133.427605 4179646.564429, 551122.651700 4179645.665420, 551067.495457 4179641.085010)

LINESTRING (551481.394919 4180117.420406, 551481.887852 4180111.831432, 551488.815321 4180029.369729, 551493.604528 4179966.322625, 551494.891891 4179949.188364, 551495.669665 4179938.896746)

LINESTRING (551481.394919 4180117.420406, 551474.229029 4180116.820867, 551470.584431 4180116.520715, 551457.634674 4180115.452343, 551391.081327 4180109.933099, 551385.535188 4180109.476885)

LINESTRING (551385.535188 4180109.476885, 551386.001218 4180103.954310, 551391.365941 4180037.471186, 551392.482385 4180023.697734, 551394.477305 4179999.000849, 551397.350231 4179963.458198, 551399.185566 4179941.756063, 551400.645294 4179930.847353)

LINESTRING (551385.535188 4180109.476885, 551391.081327 4180109.933099, 551457.634674 4180115.452343, 551470.584431 4180116.520715, 551474.229029 4180116.820867, 551481.394919 4180117.420406)

LINESTRING (551385.535188 4180109.476885, 551378.510069 4180108.900498, 551323.744026 4180104.409512, 551299.701940 4180102.429054, 551289.287481 4180101.576449)

LINESTRING (551555.540440 4179875.206618, 551512.323167 4179871.685394, 551501.449872 4179870.918419)

LINESTRING (551650.992444 4179234.693434, 551656.768113 4179235.162350, 551660.642047 4179235.475111, 551735.417732 4179241.514023, 551746.502480 4179242.404669)

LINESTRING (551650.992444 4179234.693434, 551642.108067 4179234.094088, 551566.258385 4179227.927256, 551565.254909 4179227.810024, 551554.108189 4179226.963617)

LINESTRING (551677.220512 4180096.455611, 551683.978705 4180014.614320)

LINESTRING (551677.220512 4180096.455611, 551682.890232 4180096.868415, 551686.887275 4180097.148682, 551688.075742 4180097.244900, 551716.582796 4180099.321089)

LINESTRING (551716.582796 4180099.321089, 551688.075742 4180097.244900, 551686.887275 4180097.148682, 551682.890232 4180096.868415, 551677.220512 4180096.455611)

LINESTRING (551716.582796 4180099.321089, 551700.979304 4180032.684348, 551693.111507 4180020.407907, 551683.978705 4180014.614320)

LINESTRING (551716.582796 4180099.321089, 551720.410088 4180101.386658, 551738.776224 4180102.533835)

LINESTRING (551828.891469 4179249.435340, 551828.105733 4179258.118049, 551823.663048 4179313.233951, 551817.147136 4179392.680001)

LINESTRING (551828.891469 4179249.435340, 551835.838091 4179250.000509, 551889.832078 4179254.867183, 551893.875244 4179254.881545, 551900.918611 4179255.469569)

LINESTRING (551828.891469 4179249.435340, 551821.909543 4179248.881050, 551811.106961 4179247.947696, 551757.094089 4179243.270041, 551746.502480 4179242.404669)

LINESTRING (551223.067516 4180096.238167, 551202.291828 4180094.466922, 551193.928692 4180093.760330)

LINESTRING (551193.928692 4180093.760330, 551194.531343 4180086.075004, 551194.693550 4180084.067756, 551199.637157 4180021.321046, 551201.641479 4179996.435562, 551202.817954 4179977.203557)

LINESTRING (551193.928692 4180093.760330, 551185.442247 4180093.052980, 551162.852802 4180091.170709)

LINESTRING (551738.776224 4180102.533835, 551720.410088 4180101.386658, 551716.582796 4180099.321089)

LINESTRING (551738.776224 4180102.533835, 551740.323823 4180084.713323, 551741.861576 4180067.059181, 551743.361037 4180049.892994, 551748.320729 4179969.826807, 551749.506762 4179959.093957)

LINESTRING (551289.287481 4180101.576449, 551278.643816 4180100.755716, 551261.741344 4180099.352383, 551223.067516 4180096.238167)

LINESTRING (551289.287481 4180101.576449, 551289.848291 4180094.967116, 551291.121887 4180079.974143, 551292.413861 4180064.859235, 551295.484173 4180028.663156, 551299.076371 4179986.456655)

LINESTRING (551289.287481 4180101.576449, 551299.701940 4180102.429054, 551323.744026 4180104.409512, 551378.510069 4180108.900498, 551385.535188 4180109.476885)

LINESTRING (551299.076371 4179986.456655, 551300.273731 4179972.395219, 551301.518588 4179957.779312, 551303.542813 4179933.992412, 551304.474502 4179922.991637)

LINESTRING (551299.076371 4179986.456655, 551295.484173 4180028.663156, 551292.413861 4180064.859235, 551291.121887 4180079.974143, 551289.848291 4180094.967116, 551289.287481 4180101.576449)

LINESTRING (551097.308190 4180086.270353, 551086.285420 4180085.502995, 551026.041045 4180080.935646)

LINESTRING (551097.308190 4180086.270353, 551097.930225 4180079.705771, 551108.144533 4179953.792676, 551108.489139 4179949.356679, 551109.087520 4179942.348139, 551109.802125 4179933.642733, 551111.026280 4179918.050286, 551112.069325 4179906.095985)

LINESTRING (551266.102045 4179202.987521, 551257.658730 4179202.280381, 551252.173564 4179201.835742, 551234.705425 4179200.440074, 551181.387577 4179195.814905, 551170.577092 4179194.715914)

LINESTRING (551266.102045 4179202.987521, 551274.466014 4179203.705271, 551341.280544 4179209.491357, 551350.436715 4179210.302883, 551362.797876 4179211.345203)

LINESTRING (551202.817954 4179977.203557, 551201.641479 4179996.435562, 551199.637157 4180021.321046, 551194.693550 4180084.067756, 551194.531343 4180086.075004, 551193.928692 4180093.760330)

LINESTRING (551202.817954 4179977.203557, 551209.983430 4179977.891618, 551288.205284 4179985.357113, 551299.076371 4179986.456655)

LINESTRING (551202.817954 4179977.203557, 551206.487916 4179925.244709, 551201.881246 4179913.909934)

LINESTRING (551162.852802 4180091.170709, 551106.758871 4180087.726981, 551097.308190 4180086.270353)

