LINESTRING (80.000000 80.000000, 229.993370 81.410300)

LINESTRING (80.000000 80.000000, 162.496354 80.775665)

LINESTRING (162.496354 80.775665, 229.993370 81.410300)

LINESTRING (80.000000 80.000000, 206.944106 159.907409)

LINESTRING (80.000000 80.000000, 149.819258 123.949075)

LINESTRING (149.819258 123.949075, 206.944106 159.907409)

LINESTRING (80.000000 80.000000, 158.109271 208.058353)

LINESTRING (80.000000 80.000000, 122.960099 150.432094)

LINESTRING (122.960099 150.432094, 158.109271 208.058353)

LINESTRING (80.000000 80.000000, 80.023057 229.999998)

LINESTRING (80.000000 80.000000, 80.012681 162.499999)

LINESTRING (80.012681 162.499999, 80.023057 229.999998)

LINESTRING (80.000000 80.000000, 1.513215 207.827323)

LINESTRING (80.000000 80.000000, 36.832268 150.305028)

LINESTRING (36.832268 150.305028, 1.513215 207.827323)

LINESTRING (80.000000 80.000000, -53.023830 149.315659)

LINESTRING (80.000000 80.000000, 6.836893 118.123612)

LINESTRING (6.836893 118.123612, -53.023830 149.315659)

LINESTRING (80.000000 80.000000, -69.579788 68.780066)

LINESTRING (80.000000 80.000000, -2.268884 73.829037)

LINESTRING (-2.268884 73.829037, -69.579788 68.780066)

LINESTRING (80.000000 80.000000, -54.139859 12.869544)

LINESTRING (80.000000 80.000000, 6.223077 43.078249)

LINESTRING (6.223077 43.078249, -54.139859 12.869544)

LINESTRING (80.000000 80.000000, 8.463473 -51.842805)

LINESTRING (80.000000 80.000000, 40.654910 7.486457)

LINESTRING (40.654910 7.486457, 8.463473 -51.842805)

LINESTRING (80.000000 80.000000, 69.898868 -69.659504)

LINESTRING (80.000000 80.000000, 74.444377 -2.312727)

LINESTRING (74.444377 -2.312727, 69.898868 -69.659504)

LINESTRING (80.000000 80.000000, 160.844228 -46.349558)

LINESTRING (80.000000 80.000000, 124.464325 10.507743)

LINESTRING (124.464325 10.507743, 160.844228 -46.349558)

LINESTRING (80.000000 80.000000, 213.334979 11.284765)

LINESTRING (80.000000 80.000000, 153.334238 42.206621)

LINESTRING (153.334238 42.206621, 213.334979 11.284765)

LINESTRING (229.993370 81.410300, 206.944106 159.907409)

LINESTRING (206.944106 159.907409, 158.109271 208.058353)

LINESTRING (158.109271 208.058353, 80.023057 229.999998)

LINESTRING (80.023057 229.999998, 1.513215 207.827323)

LINESTRING (1.513215 207.827323, -53.023830 149.315659)

LINESTRING (-53.023830 149.315659, -69.579788 68.780066)

LINESTRING (-69.579788 68.780066, -54.139859 12.869544)

LINESTRING (-54.139859 12.869544, 8.463473 -51.842805)

LINESTRING (8.463473 -51.842805, 69.898868 -69.659504)

LINESTRING (69.898868 -69.659504, 160.844228 -46.349558)

LINESTRING (160.844228 -46.349558, 213.334979 11.284765)

LINESTRING (213.334979 11.284765, 229.993370 81.410300)

LINESTRING (280.000000 80.000000, 429.858562 73.487586)

LINESTRING (280.000000 80.000000, 362.422209 76.418172)

LINESTRING (362.422209 76.418172, 429.858562 73.487586)

LINESTRING (280.000000 80.000000, 409.023741 156.504080)

LINESTRING (280.000000 80.000000, 350.963058 122.077244)

LINESTRING (350.963058 122.077244, 409.023741 156.504080)

LINESTRING (280.000000 80.000000, 358.412565 207.872865)

LINESTRING (280.000000 80.000000, 323.126911 150.330076)

LINESTRING (323.126911 150.330076, 358.412565 207.872865)

LINESTRING (280.000000 80.000000, 275.190165 229.922865)

LINESTRING (280.000000 80.000000, 277.354591 162.457576)

LINESTRING (277.354591 162.457576, 275.190165 229.922865)

LINESTRING (280.000000 80.000000, 215.348735 215.352185)

LINESTRING (280.000000 80.000000, 244.441804 154.443702)

LINESTRING (244.441804 154.443702, 215.348735 215.352185)

LINESTRING (280.000000 80.000000, 155.405653 163.523940)

LINESTRING (280.000000 80.000000, 211.473109 125.938167)

LINESTRING (211.473109 125.938167, 155.405653 163.523940)

LINESTRING (280.000000 80.000000, 130.103315 85.566305)

LINESTRING (280.000000 80.000000, 197.556823 83.061468)

LINESTRING (197.556823 83.061468, 130.103315 85.566305)

LINESTRING (280.000000 80.000000, 150.841779 3.723176)

LINESTRING (280.000000 80.000000, 208.962978 38.047747)

LINESTRING (208.962978 38.047747, 150.841779 3.723176)

LINESTRING (280.000000 80.000000, 211.086165 -53.232441)

LINESTRING (280.000000 80.000000, 242.097391 6.722157)

LINESTRING (242.097391 6.722157, 211.086165 -53.232441)

LINESTRING (280.000000 80.000000, 281.666934 -69.990737)

LINESTRING (280.000000 80.000000, 280.916814 -2.494906)

LINESTRING (280.916814 -2.494906, 281.666934 -69.990737)

LINESTRING (280.000000 80.000000, 361.234208 -46.099181)

LINESTRING (280.000000 80.000000, 324.678814 10.645450)

LINESTRING (324.678814 10.645450, 361.234208 -46.099181)

LINESTRING (280.000000 80.000000, 407.480087 0.950475)

LINESTRING (280.000000 80.000000, 350.114048 36.522761)

LINESTRING (350.114048 36.522761, 407.480087 0.950475)

LINESTRING (429.858562 73.487586, 409.023741 156.504080)

LINESTRING (409.023741 156.504080, 358.412565 207.872865)

LINESTRING (358.412565 207.872865, 275.190165 229.922865)

LINESTRING (275.190165 229.922865, 215.348735 215.352185)

LINESTRING (215.348735 215.352185, 155.405653 163.523940)

LINESTRING (155.405653 163.523940, 130.103315 85.566305)

LINESTRING (130.103315 85.566305, 150.841779 3.723176)

LINESTRING (150.841779 3.723176, 211.086165 -53.232441)

LINESTRING (211.086165 -53.232441, 281.666934 -69.990737)

LINESTRING (281.666934 -69.990737, 361.234208 -46.099181)

LINESTRING (361.234208 -46.099181, 407.480087 0.950475)

LINESTRING (407.480087 0.950475, 429.858562 73.487586)

LINESTRING (480.000000 80.000000, 629.769017 71.678855)

LINESTRING (480.000000 80.000000, 562.372960 75.423370)

LINESTRING (562.372960 75.423370, 629.769017 71.678855)

LINESTRING (480.000000 80.000000, 603.637414 164.934032)

LINESTRING (480.000000 80.000000, 548.000578 126.713718)

LINESTRING (548.000578 126.713718, 603.637414 164.934032)

LINESTRING (480.000000 80.000000, 545.653430 214.868926)

LINESTRING (480.000000 80.000000, 516.109387 154.177909)

LINESTRING (516.109387 154.177909, 545.653430 214.868926)

LINESTRING (480.000000 80.000000, 486.500875 229.859063)

LINESTRING (480.000000 80.000000, 483.575481 162.422484)

LINESTRING (483.575481 162.422484, 486.500875 229.859063)

LINESTRING (480.000000 80.000000, 395.867684 204.184352)

LINESTRING (480.000000 80.000000, 433.727226 148.301394)

LINESTRING (433.727226 148.301394, 395.867684 204.184352)

LINESTRING (480.000000 80.000000, 352.919180 159.689807)

LINESTRING (480.000000 80.000000, 410.105549 123.829394)

LINESTRING (410.105549 123.829394, 352.919180 159.689807)

LINESTRING (480.000000 80.000000, 330.217719 71.921120)

LINESTRING (480.000000 80.000000, 397.619745 75.556616)

LINESTRING (397.619745 75.556616, 330.217719 71.921120)

LINESTRING (480.000000 80.000000, 344.656045 15.331509)

LINESTRING (480.000000 80.000000, 405.560825 44.432330)

LINESTRING (405.560825 44.432330, 344.656045 15.331509)

LINESTRING (480.000000 80.000000, 401.025388 -47.526510)

LINESTRING (480.000000 80.000000, 436.563963 9.860420)

LINESTRING (436.563963 9.860420, 401.025388 -47.526510)

LINESTRING (480.000000 80.000000, 487.387009 -69.817997)

LINESTRING (480.000000 80.000000, 484.062855 -2.399898)

LINESTRING (484.062855 -2.399898, 487.387009 -69.817997)

LINESTRING (480.000000 80.000000, 560.789358 -46.384650)

LINESTRING (480.000000 80.000000, 524.434147 10.488443)

LINESTRING (524.434147 10.488443, 560.789358 -46.384650)

LINESTRING (480.000000 80.000000, 608.381096 2.422334)

LINESTRING (480.000000 80.000000, 550.609603 37.332284)

LINESTRING (550.609603 37.332284, 608.381096 2.422334)

LINESTRING (629.769017 71.678855, 603.637414 164.934032)

LINESTRING (603.637414 164.934032, 545.653430 214.868926)

LINESTRING (545.653430 214.868926, 486.500875 229.859063)

LINESTRING (486.500875 229.859063, 395.867684 204.184352)

LINESTRING (395.867684 204.184352, 352.919180 159.689807)

LINESTRING (352.919180 159.689807, 330.217719 71.921120)

LINESTRING (330.217719 71.921120, 344.656045 15.331509)

LINESTRING (344.656045 15.331509, 401.025388 -47.526510)

LINESTRING (401.025388 -47.526510, 487.387009 -69.817997)

LINESTRING (487.387009 -69.817997, 560.789358 -46.384650)

LINESTRING (560.789358 -46.384650, 608.381096 2.422334)

LINESTRING (608.381096 2.422334, 629.769017 71.678855)

LINESTRING (80.000000 80.000000, 280.000000 80.000000)

LINESTRING (280.000000 80.000000, 480.000000 80.000000)

