LINESTRING (80.000000 80.000000, 169.683874 103.206315)

LINESTRING (169.683874 103.206315, 250.975984 73.734986)

LINESTRING (250.975984 73.734986, 303.345468 22.470364)

LINESTRING (303.345468 22.470364, 312.983838 -67.694395)

LINESTRING (303.345468 22.470364, 378.406857 -38.805704)

LINESTRING (303.345468 22.470364, 367.776826 4.694545)

LINESTRING (250.975984 73.734986, 346.884442 46.522390)

LINESTRING (346.884442 46.522390, 418.570757 -12.082549)

LINESTRING (346.884442 46.522390, 416.914810 27.123423)

LINESTRING (346.884442 46.522390, 412.292860 85.610375)

LINESTRING (250.975984 73.734986, 319.881093 97.541114)

LINESTRING (319.881093 97.541114, 395.617507 94.679979)

LINESTRING (319.881093 97.541114, 395.424590 124.768202)

LINESTRING (319.881093 97.541114, 385.325758 157.577727)

LINESTRING (169.683874 103.206315, 264.405562 125.504021)

LINESTRING (264.405562 125.504021, 358.375093 102.433518)

LINESTRING (358.375093 102.433518, 415.463049 29.861016)

LINESTRING (358.375093 102.433518, 441.598493 101.045711)

LINESTRING (358.375093 102.433518, 418.308038 125.660175)

LINESTRING (264.405562 125.504021, 360.513593 160.569414)

LINESTRING (360.513593 160.569414, 447.833164 121.401293)

LINESTRING (360.513593 160.569414, 428.247680 199.678395)

LINESTRING (360.513593 160.569414, 424.088686 210.600295)

LINESTRING (264.405562 125.504021, 302.382925 189.163328)

LINESTRING (302.382925 189.163328, 387.252186 217.335604)

LINESTRING (302.382925 189.163328, 339.125223 259.867948)

LINESTRING (302.382925 189.163328, 330.993706 266.713670)

LINESTRING (169.683874 103.206315, 228.549962 146.027266)

LINESTRING (228.549962 146.027266, 291.691590 154.277250)

LINESTRING (291.691590 154.277250, 351.309893 149.673496)

LINESTRING (291.691590 154.277250, 369.098004 165.745223)

LINESTRING (291.691590 154.277250, 366.871269 223.880570)

LINESTRING (228.549962 146.027266, 267.612848 210.420662)

LINESTRING (267.612848 210.420662, 343.069963 230.905630)

LINESTRING (267.612848 210.420662, 311.449047 256.924391)

LINESTRING (267.612848 210.420662, 307.173490 304.924891)

LINESTRING (228.549962 146.027266, 259.178614 230.499901)

LINESTRING (259.178614 230.499901, 332.502173 290.992114)

LINESTRING (259.178614 230.499901, 269.906664 317.740069)

LINESTRING (259.178614 230.499901, 222.248535 297.756747)

LINESTRING (80.000000 80.000000, 122.711715 124.699959)

LINESTRING (122.711715 124.699959, 194.015380 137.970161)

LINESTRING (194.015380 137.970161, 277.201010 106.030297)

LINESTRING (277.201010 106.030297, 317.471272 39.610848)

LINESTRING (277.201010 106.030297, 342.784578 79.216383)

LINESTRING (277.201010 106.030297, 338.979244 109.669857)

LINESTRING (194.015380 137.970161, 258.144953 174.251496)

LINESTRING (258.144953 174.251496, 330.655380 168.906873)

LINESTRING (258.144953 174.251496, 333.421831 183.704368)

LINESTRING (258.144953 174.251496, 311.183453 236.193490)

LINESTRING (194.015380 137.970161, 234.993779 205.389328)

LINESTRING (234.993779 205.389328, 314.216420 223.704447)

LINESTRING (234.993779 205.389328, 310.613776 258.924604)

LINESTRING (234.993779 205.389328, 241.824653 276.025830)

LINESTRING (122.711715 124.699959, 175.796269 178.813813)

LINESTRING (175.796269 178.813813, 238.154754 191.430760)

LINESTRING (238.154754 191.430760, 322.311168 164.431022)

LINESTRING (238.154754 191.430760, 332.421021 209.734726)

LINESTRING (238.154754 191.430760, 302.104722 230.623316)

LINESTRING (175.796269 178.813813, 246.313267 251.802035)

LINESTRING (246.313267 251.802035, 323.152804 271.368914)

LINESTRING (246.313267 251.802035, 301.851215 302.964684)

LINESTRING (246.313267 251.802035, 254.500291 342.930077)

LINESTRING (175.796269 178.813813, 206.753789 243.998449)

LINESTRING (206.753789 243.998449, 257.457876 305.124147)

LINESTRING (206.753789 243.998449, 237.756441 334.889492)

LINESTRING (206.753789 243.998449, 204.132647 329.742851)

LINESTRING (122.711715 124.699959, 145.532287 201.209390)

LINESTRING (145.532287 201.209390, 182.145787 259.000654)

LINESTRING (182.145787 259.000654, 270.241224 283.123232)

LINESTRING (182.145787 259.000654, 246.747541 311.019725)

LINESTRING (182.145787 259.000654, 192.146709 349.881412)

LINESTRING (145.532287 201.209390, 173.048306 287.504518)

LINESTRING (173.048306 287.504518, 228.696634 324.670876)

LINESTRING (173.048306 287.504518, 175.327009 351.584947)

LINESTRING (173.048306 287.504518, 158.555010 380.460606)

LINESTRING (145.532287 201.209390, 141.675605 279.175444)

LINESTRING (141.675605 279.175444, 145.806242 343.506368)

LINESTRING (141.675605 279.175444, 101.490732 363.746825)

LINESTRING (141.675605 279.175444, 84.216422 354.086023)

LINESTRING (80.000000 80.000000, 111.190408 142.910853)

LINESTRING (111.190408 142.910853, 173.234850 209.942098)

LINESTRING (173.234850 209.942098, 248.916537 215.752663)

LINESTRING (248.916537 215.752663, 328.085139 206.194788)

LINESTRING (248.916537 215.752663, 334.250994 235.151465)

LINESTRING (248.916537 215.752663, 320.249301 283.238354)

LINESTRING (173.234850 209.942098, 217.492538 262.736381)

LINESTRING (217.492538 262.736381, 282.776555 286.285226)

LINESTRING (217.492538 262.736381, 293.560589 304.084748)

LINESTRING (217.492538 262.736381, 247.057114 345.258178)

LINESTRING (173.234850 209.942098, 213.456200 296.035653)

LINESTRING (213.456200 296.035653, 266.482944 335.658648)

LINESTRING (213.456200 296.035653, 219.892287 373.158906)

LINESTRING (213.456200 296.035653, 179.488973 378.349543)

LINESTRING (111.190408 142.910853, 115.994236 238.931149)

LINESTRING (115.994236 238.931149, 174.351470 289.894073)

LINESTRING (174.351470 289.894073, 243.473621 303.565427)

LINESTRING (174.351470 289.894073, 228.241886 349.561484)

LINESTRING (174.351470 289.894073, 211.565371 351.893115)

LINESTRING (115.994236 238.931149, 155.438836 317.225437)

LINESTRING (155.438836 317.225437, 217.202490 359.100523)

LINESTRING (155.438836 317.225437, 165.814031 411.677813)

LINESTRING (155.438836 317.225437, 141.002396 393.176718)

LINESTRING (115.994236 238.931149, 89.151548 304.736805)

LINESTRING (89.151548 304.736805, 117.810202 376.986133)

LINESTRING (89.151548 304.736805, 86.325131 374.422722)

LINESTRING (89.151548 304.736805, 46.039512 366.330987)

LINESTRING (111.190408 142.910853, 84.556917 215.567664)

LINESTRING (84.556917 215.567664, 121.166005 301.581792)

LINESTRING (121.166005 301.581792, 187.926187 343.447998)

LINESTRING (121.166005 301.581792, 155.805555 377.277461)

LINESTRING (121.166005 301.581792, 85.752360 374.719638)

LINESTRING (84.556917 215.567664, 81.196344 309.748377)

LINESTRING (81.196344 309.748377, 114.037222 374.387160)

LINESTRING (81.196344 309.748377, 56.921151 404.295140)

LINESTRING (81.196344 309.748377, 31.876000 368.159307)

LINESTRING (84.556917 215.567664, 10.619411 265.670749)

LINESTRING (10.619411 265.670749, -23.831959 354.556597)

LINESTRING (10.619411 265.670749, -52.072939 302.662669)

LINESTRING (10.619411 265.670749, -72.396041 291.067071)

