LINESTRING (114.087701 147.614992, 113.950464 117.526354)

LINESTRING (114.087701 147.614992, 133.905679 179.811849)

LINESTRING (114.087701 147.614992, 162.545230 169.142792)

LINESTRING (114.087701 147.614992, 167.817561 118.096080)

LINESTRING (114.087701 147.614992, 128.326030 131.880471)

LINESTRING (114.087701 147.614992, 152.769273 100.117801)

LINESTRING (114.087701 147.614992, 113.272635 175.216170)

LINESTRING (114.087701 147.614992, 110.474367 163.145459)

LINESTRING (114.087701 147.614992, 132.639657 122.380790)

LINESTRING (114.087701 147.614992, 167.560365 138.518382)

LINESTRING (114.087701 147.614992, 157.337121 116.488343)

LINESTRING (155.972303 115.905822, 113.950464 117.526354)

LINESTRING (155.972303 115.905822, 142.635517 125.105012)

LINESTRING (155.972303 115.905822, 133.905679 179.811849)

LINESTRING (155.972303 115.905822, 162.545230 169.142792)

LINESTRING (155.972303 115.905822, 167.817561 118.096080)

LINESTRING (155.972303 115.905822, 128.326030 131.880471)

LINESTRING (155.972303 115.905822, 179.754993 137.184693)

LINESTRING (155.972303 115.905822, 152.769273 100.117801)

LINESTRING (155.972303 115.905822, 113.272635 175.216170)

LINESTRING (155.972303 115.905822, 110.474367 163.145459)

LINESTRING (155.972303 115.905822, 132.639657 122.380790)

LINESTRING (155.972303 115.905822, 167.560365 138.518382)

LINESTRING (155.972303 115.905822, 157.337121 116.488343)

LINESTRING (113.950464 117.526354, 142.635517 125.105012)

LINESTRING (113.950464 117.526354, 133.905679 179.811849)

LINESTRING (113.950464 117.526354, 162.545230 169.142792)

LINESTRING (113.950464 117.526354, 167.817561 118.096080)

LINESTRING (113.950464 117.526354, 128.326030 131.880471)

LINESTRING (113.950464 117.526354, 113.272635 175.216170)

LINESTRING (113.950464 117.526354, 110.474367 163.145459)

LINESTRING (113.950464 117.526354, 167.560365 138.518382)

LINESTRING (113.950464 117.526354, 157.337121 116.488343)

LINESTRING (142.635517 125.105012, 162.545230 169.142792)

LINESTRING (142.635517 125.105012, 167.817561 118.096080)

LINESTRING (142.635517 125.105012, 128.326030 131.880471)

LINESTRING (142.635517 125.105012, 179.754993 137.184693)

LINESTRING (142.635517 125.105012, 152.769273 100.117801)

LINESTRING (142.635517 125.105012, 132.639657 122.380790)

LINESTRING (142.635517 125.105012, 167.560365 138.518382)

LINESTRING (133.905679 179.811849, 162.545230 169.142792)

LINESTRING (133.905679 179.811849, 167.817561 118.096080)

LINESTRING (133.905679 179.811849, 128.326030 131.880471)

LINESTRING (133.905679 179.811849, 179.754993 137.184693)

LINESTRING (133.905679 179.811849, 152.769273 100.117801)

LINESTRING (133.905679 179.811849, 113.272635 175.216170)

LINESTRING (133.905679 179.811849, 110.474367 163.145459)

LINESTRING (133.905679 179.811849, 157.337121 116.488343)

LINESTRING (162.545230 169.142792, 167.817561 118.096080)

LINESTRING (162.545230 169.142792, 128.326030 131.880471)

LINESTRING (162.545230 169.142792, 179.754993 137.184693)

LINESTRING (162.545230 169.142792, 152.769273 100.117801)

LINESTRING (162.545230 169.142792, 113.272635 175.216170)

LINESTRING (162.545230 169.142792, 110.474367 163.145459)

LINESTRING (162.545230 169.142792, 132.639657 122.380790)

LINESTRING (162.545230 169.142792, 167.560365 138.518382)

LINESTRING (162.545230 169.142792, 157.337121 116.488343)

LINESTRING (167.817561 118.096080, 128.326030 131.880471)

LINESTRING (167.817561 118.096080, 152.769273 100.117801)

LINESTRING (167.817561 118.096080, 113.272635 175.216170)

LINESTRING (167.817561 118.096080, 132.639657 122.380790)

LINESTRING (167.817561 118.096080, 167.560365 138.518382)

LINESTRING (167.817561 118.096080, 157.337121 116.488343)

LINESTRING (128.326030 131.880471, 179.754993 137.184693)

LINESTRING (128.326030 131.880471, 152.769273 100.117801)

LINESTRING (128.326030 131.880471, 110.474367 163.145459)

LINESTRING (128.326030 131.880471, 132.639657 122.380790)

LINESTRING (128.326030 131.880471, 167.560365 138.518382)

LINESTRING (128.326030 131.880471, 157.337121 116.488343)

LINESTRING (179.754993 137.184693, 152.769273 100.117801)

LINESTRING (179.754993 137.184693, 113.272635 175.216170)

LINESTRING (179.754993 137.184693, 110.474367 163.145459)

LINESTRING (179.754993 137.184693, 132.639657 122.380790)

LINESTRING (179.754993 137.184693, 167.560365 138.518382)

LINESTRING (179.754993 137.184693, 157.337121 116.488343)

LINESTRING (152.769273 100.117801, 113.272635 175.216170)

LINESTRING (152.769273 100.117801, 132.639657 122.380790)

LINESTRING (152.769273 100.117801, 167.560365 138.518382)

LINESTRING (113.272635 175.216170, 110.474367 163.145459)

LINESTRING (113.272635 175.216170, 132.639657 122.380790)

LINESTRING (113.272635 175.216170, 167.560365 138.518382)

LINESTRING (113.272635 175.216170, 157.337121 116.488343)

LINESTRING (110.474367 163.145459, 167.560365 138.518382)

LINESTRING (110.474367 163.145459, 157.337121 116.488343)

LINESTRING (132.639657 122.380790, 167.560365 138.518382)

LINESTRING (132.639657 122.380790, 157.337121 116.488343)

LINESTRING (167.560365 138.518382, 157.337121 116.488343)

LINESTRING (522.801605 143.949969, 526.639333 159.028010)

LINESTRING (522.801605 143.949969, 517.575168 170.143060)

LINESTRING (522.801605 143.949969, 475.785487 136.994118)

LINESTRING (522.801605 143.949969, 475.320181 131.387193)

LINESTRING (522.801605 143.949969, 504.155475 131.200501)

LINESTRING (522.801605 143.949969, 487.696675 117.260140)

LINESTRING (522.801605 143.949969, 481.824535 148.029943)

LINESTRING (522.801605 143.949969, 518.307889 161.100289)

LINESTRING (522.801605 143.949969, 453.868863 176.933367)

LINESTRING (522.801605 143.949969, 463.231334 156.948645)

LINESTRING (526.639333 159.028010, 517.575168 170.143060)

LINESTRING (526.639333 159.028010, 487.287964 103.770891)

LINESTRING (526.639333 159.028010, 475.785487 136.994118)

LINESTRING (526.639333 159.028010, 464.017265 106.668098)

LINESTRING (526.639333 159.028010, 463.229288 124.237923)

LINESTRING (526.639333 159.028010, 475.320181 131.387193)

LINESTRING (526.639333 159.028010, 506.205415 121.795387)

LINESTRING (526.639333 159.028010, 487.696675 117.260140)

LINESTRING (526.639333 159.028010, 518.307889 161.100289)

LINESTRING (526.639333 159.028010, 453.868863 176.933367)

LINESTRING (526.639333 159.028010, 463.231334 156.948645)

LINESTRING (517.575168 170.143060, 487.287964 103.770891)

LINESTRING (517.575168 170.143060, 475.785487 136.994118)

LINESTRING (517.575168 170.143060, 464.017265 106.668098)

LINESTRING (517.575168 170.143060, 463.229288 124.237923)

LINESTRING (517.575168 170.143060, 475.320181 131.387193)

LINESTRING (517.575168 170.143060, 504.155475 131.200501)

LINESTRING (517.575168 170.143060, 506.205415 121.795387)

LINESTRING (517.575168 170.143060, 487.696675 117.260140)

LINESTRING (517.575168 170.143060, 453.868863 176.933367)

LINESTRING (517.575168 170.143060, 463.231334 156.948645)

LINESTRING (487.287964 103.770891, 475.785487 136.994118)

LINESTRING (487.287964 103.770891, 464.017265 106.668098)

LINESTRING (487.287964 103.770891, 463.229288 124.237923)

LINESTRING (487.287964 103.770891, 475.320181 131.387193)

LINESTRING (487.287964 103.770891, 504.155475 131.200501)

LINESTRING (487.287964 103.770891, 506.205415 121.795387)

LINESTRING (487.287964 103.770891, 487.696675 117.260140)

LINESTRING (487.287964 103.770891, 481.824535 148.029943)

LINESTRING (487.287964 103.770891, 518.307889 161.100289)

LINESTRING (487.287964 103.770891, 453.868863 176.933367)

LINESTRING (475.785487 136.994118, 463.229288 124.237923)

LINESTRING (475.785487 136.994118, 475.320181 131.387193)

LINESTRING (475.785487 136.994118, 506.205415 121.795387)

LINESTRING (475.785487 136.994118, 487.696675 117.260140)

LINESTRING (475.785487 136.994118, 518.307889 161.100289)

LINESTRING (475.785487 136.994118, 453.868863 176.933367)

LINESTRING (475.785487 136.994118, 463.231334 156.948645)

LINESTRING (464.017265 106.668098, 475.320181 131.387193)

LINESTRING (464.017265 106.668098, 487.696675 117.260140)

LINESTRING (464.017265 106.668098, 481.824535 148.029943)

LINESTRING (464.017265 106.668098, 518.307889 161.100289)

LINESTRING (464.017265 106.668098, 453.868863 176.933367)

LINESTRING (464.017265 106.668098, 463.231334 156.948645)

LINESTRING (463.229288 124.237923, 475.320181 131.387193)

LINESTRING (463.229288 124.237923, 506.205415 121.795387)

LINESTRING (463.229288 124.237923, 487.696675 117.260140)

LINESTRING (463.229288 124.237923, 481.824535 148.029943)

LINESTRING (463.229288 124.237923, 453.868863 176.933367)

LINESTRING (463.229288 124.237923, 463.231334 156.948645)

LINESTRING (475.320181 131.387193, 504.155475 131.200501)

LINESTRING (475.320181 131.387193, 506.205415 121.795387)

LINESTRING (475.320181 131.387193, 487.696675 117.260140)

LINESTRING (475.320181 131.387193, 481.824535 148.029943)

LINESTRING (475.320181 131.387193, 518.307889 161.100289)

LINESTRING (475.320181 131.387193, 453.868863 176.933367)

LINESTRING (475.320181 131.387193, 463.231334 156.948645)

LINESTRING (504.155475 131.200501, 487.696675 117.260140)

LINESTRING (504.155475 131.200501, 481.824535 148.029943)

LINESTRING (504.155475 131.200501, 518.307889 161.100289)

LINESTRING (504.155475 131.200501, 453.868863 176.933367)

LINESTRING (504.155475 131.200501, 463.231334 156.948645)

LINESTRING (506.205415 121.795387, 487.696675 117.260140)

LINESTRING (506.205415 121.795387, 481.824535 148.029943)

LINESTRING (506.205415 121.795387, 518.307889 161.100289)

LINESTRING (506.205415 121.795387, 453.868863 176.933367)

LINESTRING (506.205415 121.795387, 463.231334 156.948645)

LINESTRING (487.696675 117.260140, 481.824535 148.029943)

LINESTRING (487.696675 117.260140, 518.307889 161.100289)

LINESTRING (487.696675 117.260140, 453.868863 176.933367)

LINESTRING (481.824535 148.029943, 518.307889 161.100289)

LINESTRING (481.824535 148.029943, 453.868863 176.933367)

LINESTRING (481.824535 148.029943, 463.231334 156.948645)

LINESTRING (518.307889 161.100289, 453.868863 176.933367)

LINESTRING (453.868863 176.933367, 463.231334 156.948645)

LINESTRING (823.584227 126.437724, 845.617868 108.773340)

LINESTRING (823.584227 126.437724, 872.812339 147.580413)

LINESTRING (823.584227 126.437724, 821.685027 100.122033)

LINESTRING (823.584227 126.437724, 827.474590 166.000826)

LINESTRING (823.584227 126.437724, 840.587463 119.388170)

LINESTRING (823.584227 126.437724, 813.364750 152.014501)

LINESTRING (823.584227 126.437724, 859.705655 140.935208)

LINESTRING (823.584227 126.437724, 857.889359 155.012369)

LINESTRING (823.584227 126.437724, 851.645607 130.702002)

LINESTRING (823.584227 126.437724, 870.198222 165.622948)

LINESTRING (845.617868 108.773340, 872.812339 147.580413)

LINESTRING (845.617868 108.773340, 857.985034 112.608189)

LINESTRING (845.617868 108.773340, 807.826679 159.849129)

LINESTRING (845.617868 108.773340, 821.685027 100.122033)

LINESTRING (845.617868 108.773340, 840.587463 119.388170)

LINESTRING (845.617868 108.773340, 859.705655 140.935208)

LINESTRING (845.617868 108.773340, 825.557997 144.340785)

LINESTRING (845.617868 108.773340, 870.198222 165.622948)

LINESTRING (872.812339 147.580413, 807.826679 159.849129)

LINESTRING (872.812339 147.580413, 821.685027 100.122033)

LINESTRING (872.812339 147.580413, 827.474590 166.000826)

LINESTRING (872.812339 147.580413, 824.470844 147.060222)

LINESTRING (872.812339 147.580413, 840.587463 119.388170)

LINESTRING (872.812339 147.580413, 859.705655 140.935208)

LINESTRING (872.812339 147.580413, 857.889359 155.012369)

LINESTRING (872.812339 147.580413, 825.557997 144.340785)

LINESTRING (872.812339 147.580413, 851.645607 130.702002)

LINESTRING (872.812339 147.580413, 870.198222 165.622948)

LINESTRING (857.985034 112.608189, 807.826679 159.849129)

LINESTRING (857.985034 112.608189, 821.685027 100.122033)

LINESTRING (857.985034 112.608189, 824.470844 147.060222)

LINESTRING (857.985034 112.608189, 840.587463 119.388170)

LINESTRING (857.985034 112.608189, 813.364750 152.014501)

LINESTRING (857.985034 112.608189, 859.705655 140.935208)

LINESTRING (857.985034 112.608189, 825.557997 144.340785)

LINESTRING (857.985034 112.608189, 870.198222 165.622948)

LINESTRING (807.826679 159.849129, 821.685027 100.122033)

LINESTRING (807.826679 159.849129, 827.474590 166.000826)

LINESTRING (807.826679 159.849129, 840.587463 119.388170)

LINESTRING (807.826679 159.849129, 813.364750 152.014501)

LINESTRING (807.826679 159.849129, 859.705655 140.935208)

LINESTRING (807.826679 159.849129, 857.889359 155.012369)

LINESTRING (807.826679 159.849129, 825.557997 144.340785)

LINESTRING (807.826679 159.849129, 870.198222 165.622948)

LINESTRING (821.685027 100.122033, 827.474590 166.000826)

LINESTRING (821.685027 100.122033, 824.470844 147.060222)

LINESTRING (821.685027 100.122033, 840.587463 119.388170)

LINESTRING (821.685027 100.122033, 859.705655 140.935208)

LINESTRING (821.685027 100.122033, 825.557997 144.340785)

LINESTRING (821.685027 100.122033, 851.645607 130.702002)

LINESTRING (821.685027 100.122033, 870.198222 165.622948)

LINESTRING (827.474590 166.000826, 824.470844 147.060222)

LINESTRING (827.474590 166.000826, 840.587463 119.388170)

LINESTRING (827.474590 166.000826, 813.364750 152.014501)

LINESTRING (827.474590 166.000826, 859.705655 140.935208)

LINESTRING (827.474590 166.000826, 857.889359 155.012369)

LINESTRING (827.474590 166.000826, 825.557997 144.340785)

LINESTRING (827.474590 166.000826, 870.198222 165.622948)

LINESTRING (824.470844 147.060222, 840.587463 119.388170)

LINESTRING (824.470844 147.060222, 813.364750 152.014501)

LINESTRING (824.470844 147.060222, 857.889359 155.012369)

LINESTRING (824.470844 147.060222, 825.557997 144.340785)

LINESTRING (824.470844 147.060222, 870.198222 165.622948)

LINESTRING (840.587463 119.388170, 813.364750 152.014501)

LINESTRING (840.587463 119.388170, 857.889359 155.012369)

LINESTRING (840.587463 119.388170, 825.557997 144.340785)

LINESTRING (840.587463 119.388170, 851.645607 130.702002)

LINESTRING (840.587463 119.388170, 870.198222 165.622948)

LINESTRING (813.364750 152.014501, 859.705655 140.935208)

LINESTRING (813.364750 152.014501, 857.889359 155.012369)

LINESTRING (813.364750 152.014501, 825.557997 144.340785)

LINESTRING (813.364750 152.014501, 851.645607 130.702002)

LINESTRING (813.364750 152.014501, 870.198222 165.622948)

LINESTRING (859.705655 140.935208, 857.889359 155.012369)

LINESTRING (859.705655 140.935208, 825.557997 144.340785)

LINESTRING (859.705655 140.935208, 851.645607 130.702002)

LINESTRING (859.705655 140.935208, 870.198222 165.622948)

LINESTRING (857.889359 155.012369, 825.557997 144.340785)

LINESTRING (857.889359 155.012369, 851.645607 130.702002)

LINESTRING (857.889359 155.012369, 870.198222 165.622948)

LINESTRING (825.557997 144.340785, 851.645607 130.702002)

LINESTRING (1150.668161 151.982326, 1200.780204 132.944896)

LINESTRING (1150.668161 151.982326, 1200.662633 123.998810)

LINESTRING (1150.668161 151.982326, 1195.452652 149.419681)

LINESTRING (1150.668161 151.982326, 1197.994288 155.210850)

LINESTRING (1150.668161 151.982326, 1190.828429 161.783133)

LINESTRING (1150.668161 151.982326, 1198.093717 142.660003)

LINESTRING (1150.668161 151.982326, 1189.019125 146.145881)

LINESTRING (1150.668161 151.982326, 1170.412428 158.383000)

LINESTRING (1150.668161 151.982326, 1195.418978 160.890405)

LINESTRING (1150.668161 151.982326, 1153.932408 154.888232)

LINESTRING (1200.780204 132.944896, 1200.662633 123.998810)

LINESTRING (1200.780204 132.944896, 1152.434079 148.706877)

LINESTRING (1200.780204 132.944896, 1195.452652 149.419681)

LINESTRING (1200.780204 132.944896, 1184.369954 143.694822)

LINESTRING (1200.780204 132.944896, 1178.912500 177.853053)

LINESTRING (1200.780204 132.944896, 1197.994288 155.210850)

LINESTRING (1200.780204 132.944896, 1191.400837 162.929573)

LINESTRING (1200.780204 132.944896, 1198.093717 142.660003)

LINESTRING (1200.780204 132.944896, 1170.412428 158.383000)

LINESTRING (1200.780204 132.944896, 1195.418978 160.890405)

LINESTRING (1200.780204 132.944896, 1153.932408 154.888232)

LINESTRING (1200.662633 123.998810, 1152.434079 148.706877)

LINESTRING (1200.662633 123.998810, 1195.452652 149.419681)

LINESTRING (1200.662633 123.998810, 1184.369954 143.694822)

LINESTRING (1200.662633 123.998810, 1197.994288 155.210850)

LINESTRING (1200.662633 123.998810, 1191.400837 162.929573)

LINESTRING (1200.662633 123.998810, 1198.093717 142.660003)

LINESTRING (1200.662633 123.998810, 1189.019125 146.145881)

LINESTRING (1200.662633 123.998810, 1170.412428 158.383000)

LINESTRING (1200.662633 123.998810, 1195.418978 160.890405)

LINESTRING (1200.662633 123.998810, 1153.932408 154.888232)

LINESTRING (1152.434079 148.706877, 1195.452652 149.419681)

LINESTRING (1152.434079 148.706877, 1184.369954 143.694822)

LINESTRING (1152.434079 148.706877, 1178.912500 177.853053)

LINESTRING (1152.434079 148.706877, 1191.400837 162.929573)

LINESTRING (1152.434079 148.706877, 1190.828429 161.783133)

LINESTRING (1152.434079 148.706877, 1198.093717 142.660003)

LINESTRING (1152.434079 148.706877, 1189.019125 146.145881)

LINESTRING (1152.434079 148.706877, 1170.412428 158.383000)

LINESTRING (1152.434079 148.706877, 1195.418978 160.890405)

LINESTRING (1152.434079 148.706877, 1153.932408 154.888232)

LINESTRING (1195.452652 149.419681, 1184.369954 143.694822)

LINESTRING (1195.452652 149.419681, 1178.912500 177.853053)

LINESTRING (1195.452652 149.419681, 1197.994288 155.210850)

LINESTRING (1195.452652 149.419681, 1191.400837 162.929573)

LINESTRING (1195.452652 149.419681, 1190.828429 161.783133)

LINESTRING (1195.452652 149.419681, 1198.093717 142.660003)

LINESTRING (1195.452652 149.419681, 1189.019125 146.145881)

LINESTRING (1195.452652 149.419681, 1170.412428 158.383000)

LINESTRING (1195.452652 149.419681, 1195.418978 160.890405)

LINESTRING (1195.452652 149.419681, 1153.932408 154.888232)

LINESTRING (1184.369954 143.694822, 1178.912500 177.853053)

LINESTRING (1184.369954 143.694822, 1197.994288 155.210850)

LINESTRING (1184.369954 143.694822, 1191.400837 162.929573)

LINESTRING (1184.369954 143.694822, 1190.828429 161.783133)

LINESTRING (1184.369954 143.694822, 1189.019125 146.145881)

LINESTRING (1184.369954 143.694822, 1170.412428 158.383000)

LINESTRING (1184.369954 143.694822, 1195.418978 160.890405)

LINESTRING (1178.912500 177.853053, 1197.994288 155.210850)

LINESTRING (1178.912500 177.853053, 1191.400837 162.929573)

LINESTRING (1178.912500 177.853053, 1190.828429 161.783133)

LINESTRING (1178.912500 177.853053, 1198.093717 142.660003)

LINESTRING (1178.912500 177.853053, 1189.019125 146.145881)

LINESTRING (1178.912500 177.853053, 1170.412428 158.383000)

LINESTRING (1178.912500 177.853053, 1195.418978 160.890405)

LINESTRING (1197.994288 155.210850, 1190.828429 161.783133)

LINESTRING (1197.994288 155.210850, 1198.093717 142.660003)

LINESTRING (1197.994288 155.210850, 1189.019125 146.145881)

LINESTRING (1197.994288 155.210850, 1195.418978 160.890405)

LINESTRING (1197.994288 155.210850, 1153.932408 154.888232)

LINESTRING (1191.400837 162.929573, 1198.093717 142.660003)

LINESTRING (1191.400837 162.929573, 1189.019125 146.145881)

LINESTRING (1191.400837 162.929573, 1170.412428 158.383000)

LINESTRING (1191.400837 162.929573, 1195.418978 160.890405)

LINESTRING (1191.400837 162.929573, 1153.932408 154.888232)

LINESTRING (1190.828429 161.783133, 1189.019125 146.145881)

LINESTRING (1190.828429 161.783133, 1195.418978 160.890405)

LINESTRING (1190.828429 161.783133, 1153.932408 154.888232)

LINESTRING (1198.093717 142.660003, 1170.412428 158.383000)

LINESTRING (1198.093717 142.660003, 1153.932408 154.888232)

LINESTRING (1189.019125 146.145881, 1170.412428 158.383000)

LINESTRING (1189.019125 146.145881, 1195.418978 160.890405)

LINESTRING (1170.412428 158.383000, 1153.932408 154.888232)

LINESTRING (1195.418978 160.890405, 1153.932408 154.888232)

LINESTRING (113.272635 175.216170, 518.307889 161.100289)

LINESTRING (114.087701 147.614992, 506.205415 121.795387)

LINESTRING (167.817561 118.096080, 464.017265 106.668098)

LINESTRING (114.087701 147.614992, 522.801605 143.949969)

LINESTRING (475.320181 131.387193, 840.587463 119.388170)

LINESTRING (504.155475 131.200501, 857.985034 112.608189)

LINESTRING (464.017265 106.668098, 824.470844 147.060222)

LINESTRING (522.801605 143.949969, 823.584227 126.437724)

LINESTRING (840.587463 119.388170, 1152.434079 148.706877)

LINESTRING (872.812339 147.580413, 1190.828429 161.783133)

LINESTRING (857.889359 155.012369, 1152.434079 148.706877)

LINESTRING (823.584227 126.437724, 1150.668161 151.982326)

