LINESTRING (80.000000 80.000000, 379.989146 77.448074)

LINESTRING (80.000000 80.000000, 244.994030 78.596441)

LINESTRING (244.994030 78.596441, 379.989146 77.448074)

LINESTRING (80.000000 80.000000, 327.577615 249.426457)

LINESTRING (80.000000 80.000000, 216.167688 173.184552)

LINESTRING (216.167688 173.184552, 327.577615 249.426457)

LINESTRING (80.000000 80.000000, 153.813661 370.777481)

LINESTRING (80.000000 80.000000, 120.597513 239.927615)

LINESTRING (120.597513 239.927615, 153.813661 370.777481)

LINESTRING (80.000000 80.000000, -33.291550 357.785933)

LINESTRING (80.000000 80.000000, 17.689647 232.782263)

LINESTRING (17.689647 232.782263, -33.291550 357.785933)

LINESTRING (80.000000 80.000000, -161.187022 258.406336)

LINESTRING (80.000000 80.000000, -52.652862 178.123485)

LINESTRING (-52.652862 178.123485, -161.187022 258.406336)

LINESTRING (80.000000 80.000000, -219.953817 74.736191)

LINESTRING (80.000000 80.000000, -84.974599 77.104905)

LINESTRING (-84.974599 77.104905, -219.953817 74.736191)

LINESTRING (80.000000 80.000000, -174.337058 -79.099531)

LINESTRING (80.000000 80.000000, -59.885382 -7.504742)

LINESTRING (-59.885382 -7.504742, -174.337058 -79.099531)

LINESTRING (80.000000 80.000000, -5.279999 -207.623576)

LINESTRING (80.000000 80.000000, 33.096000 -78.192967)

LINESTRING (33.096000 -78.192967, -5.279999 -207.623576)

LINESTRING (80.000000 80.000000, 161.258294 -208.785543)

LINESTRING (80.000000 80.000000, 124.692062 -78.832048)

LINESTRING (124.692062 -78.832048, 161.258294 -208.785543)

LINESTRING (80.000000 80.000000, 309.434746 -113.286568)

LINESTRING (80.000000 80.000000, 206.189110 -26.307612)

LINESTRING (206.189110 -26.307612, 309.434746 -113.286568)

LINESTRING (379.989146 77.448074, 327.577615 249.426457)

LINESTRING (327.577615 249.426457, 153.813661 370.777481)

LINESTRING (153.813661 370.777481, -33.291550 357.785933)

LINESTRING (-33.291550 357.785933, -161.187022 258.406336)

LINESTRING (-161.187022 258.406336, -219.953817 74.736191)

LINESTRING (-219.953817 74.736191, -174.337058 -79.099531)

LINESTRING (-174.337058 -79.099531, -5.279999 -207.623576)

LINESTRING (-5.279999 -207.623576, 161.258294 -208.785543)

LINESTRING (161.258294 -208.785543, 309.434746 -113.286568)

LINESTRING (309.434746 -113.286568, 379.989146 77.448074)

