LINESTRING (475.474401 397.146034, 461.885766 451.487540)

LINESTRING (461.885766 451.487540, 426.263541 480.698673)

LINESTRING (426.263541 480.698673, 377.300891 477.757097)

LINESTRING (377.300891 477.757097, 332.614699 446.115858)

LINESTRING (332.614699 446.115858, 318.328455 403.662288)

LINESTRING (318.328455 403.662288, 333.330956 350.235620)

LINESTRING (333.330956 350.235620, 377.585303 326.104077)

LINESTRING (377.585303 326.104077, 428.387256 328.861920)

LINESTRING (428.387256 328.861920, 464.461442 352.857304)

LINESTRING (464.461442 352.857304, 475.474401 397.146034)

LINESTRING (562.515812 396.787591, 528.347093 497.662039)

LINESTRING (528.347093 497.662039, 446.987679 553.827038)

LINESTRING (446.987679 553.827038, 348.551307 550.059982)

LINESTRING (348.551307 550.059982, 266.744671 495.853540)

LINESTRING (266.744671 495.853540, 236.137540 396.170166)

LINESTRING (236.137540 396.170166, 266.644858 306.779545)

LINESTRING (266.644858 306.779545, 348.409518 251.611773)

LINESTRING (348.409518 251.611773, 452.379535 251.335365)

LINESTRING (452.379535 251.335365, 532.631470 304.930053)

LINESTRING (532.631470 304.930053, 562.515812 396.787591)

LINESTRING (638.890232 398.149272, 598.194476 538.292850)

LINESTRING (598.194476 538.292850, 474.932842 632.763313)

LINESTRING (474.932842 632.763313, 321.853691 625.120878)

LINESTRING (321.853691 625.120878, 205.910562 538.748726)

LINESTRING (205.910562 538.748726, 157.715565 399.156648)

LINESTRING (157.715565 399.156648, 204.564398 256.897493)

LINESTRING (204.564398 256.897493, 325.234226 173.840605)

LINESTRING (325.234226 173.840605, 475.226064 167.221199)

LINESTRING (475.226064 167.221199, 598.376151 259.119080)

LINESTRING (598.376151 259.119080, 638.890232 398.149272)

LINESTRING (720.556081 395.017124, 654.233885 586.136369)

LINESTRING (654.233885 586.136369, 501.788809 701.250221)

LINESTRING (501.788809 701.250221, 301.204902 709.090554)

LINESTRING (301.204902 709.090554, 136.260953 583.114734)

LINESTRING (136.260953 583.114734, 82.874950 402.177602)

LINESTRING (82.874950 402.177602, 144.810308 208.403484)

LINESTRING (144.810308 208.403484, 300.090274 94.010970)

LINESTRING (300.090274 94.010970, 498.007463 96.721369)

LINESTRING (498.007463 96.721369, 663.427648 208.444960)

LINESTRING (663.427648 208.444960, 720.556081 395.017124)

LINESTRING (797.533025 400.689945, 722.174343 635.013127)

LINESTRING (722.174343 635.013127, 527.922804 782.826252)

LINESTRING (527.922804 782.826252, 279.303096 781.014227)

LINESTRING (279.303096 781.014227, 72.776788 633.070325)

LINESTRING (72.776788 633.070325, -0.632876 400.843791)

LINESTRING (-0.632876 400.843791, 79.184963 167.725045)

LINESTRING (79.184963 167.725045, 274.489653 23.152376)

LINESTRING (274.489653 23.152376, 526.443844 22.132563)

LINESTRING (526.443844 22.132563, 719.471668 162.865606)

LINESTRING (719.471668 162.865606, 797.533025 400.689945)

LINESTRING (881.984687 397.317296, 786.115353 686.579184)

LINESTRING (786.115353 686.579184, 552.329014 859.713036)

LINESTRING (552.329014 859.713036, 250.790792 853.821991)

LINESTRING (250.790792 853.821991, 10.063684 677.231858)

LINESTRING (10.063684 677.231858, -83.924712 402.435164)

LINESTRING (-83.924712 402.435164, 13.571077 115.275703)

LINESTRING (13.571077 115.275703, 252.347590 -61.270466)

LINESTRING (252.347590 -61.270466, 547.101177 -59.133431)

LINESTRING (547.101177 -59.133431, 792.818776 121.966529)

LINESTRING (792.818776 121.966529, 881.984687 397.317296)

LINESTRING (475.474401 397.146034, 562.515812 396.787591)

LINESTRING (562.515812 396.787591, 638.890232 398.149272)

LINESTRING (638.890232 398.149272, 720.556081 395.017124)

LINESTRING (720.556081 395.017124, 797.533025 400.689945)

LINESTRING (797.533025 400.689945, 881.984687 397.317296)

LINESTRING (461.885766 451.487540, 528.347093 497.662039)

LINESTRING (528.347093 497.662039, 598.194476 538.292850)

LINESTRING (598.194476 538.292850, 654.233885 586.136369)

LINESTRING (654.233885 586.136369, 722.174343 635.013127)

LINESTRING (722.174343 635.013127, 786.115353 686.579184)

LINESTRING (426.263541 480.698673, 446.987679 553.827038)

LINESTRING (446.987679 553.827038, 474.932842 632.763313)

LINESTRING (474.932842 632.763313, 501.788809 701.250221)

LINESTRING (501.788809 701.250221, 527.922804 782.826252)

LINESTRING (527.922804 782.826252, 552.329014 859.713036)

LINESTRING (377.300891 477.757097, 348.551307 550.059982)

LINESTRING (348.551307 550.059982, 321.853691 625.120878)

LINESTRING (321.853691 625.120878, 301.204902 709.090554)

LINESTRING (301.204902 709.090554, 279.303096 781.014227)

LINESTRING (279.303096 781.014227, 250.790792 853.821991)

LINESTRING (332.614699 446.115858, 266.744671 495.853540)

LINESTRING (266.744671 495.853540, 205.910562 538.748726)

LINESTRING (205.910562 538.748726, 136.260953 583.114734)

LINESTRING (136.260953 583.114734, 72.776788 633.070325)

LINESTRING (72.776788 633.070325, 10.063684 677.231858)

LINESTRING (318.328455 403.662288, 236.137540 396.170166)

LINESTRING (236.137540 396.170166, 157.715565 399.156648)

LINESTRING (157.715565 399.156648, 82.874950 402.177602)

LINESTRING (82.874950 402.177602, -0.632876 400.843791)

LINESTRING (-0.632876 400.843791, -83.924712 402.435164)

LINESTRING (333.330956 350.235620, 266.644858 306.779545)

LINESTRING (266.644858 306.779545, 204.564398 256.897493)

LINESTRING (204.564398 256.897493, 144.810308 208.403484)

LINESTRING (144.810308 208.403484, 79.184963 167.725045)

LINESTRING (79.184963 167.725045, 13.571077 115.275703)

LINESTRING (377.585303 326.104077, 348.409518 251.611773)

LINESTRING (348.409518 251.611773, 325.234226 173.840605)

LINESTRING (325.234226 173.840605, 300.090274 94.010970)

LINESTRING (300.090274 94.010970, 274.489653 23.152376)

LINESTRING (274.489653 23.152376, 252.347590 -61.270466)

LINESTRING (428.387256 328.861920, 452.379535 251.335365)

LINESTRING (452.379535 251.335365, 475.226064 167.221199)

LINESTRING (475.226064 167.221199, 498.007463 96.721369)

LINESTRING (498.007463 96.721369, 526.443844 22.132563)

LINESTRING (526.443844 22.132563, 547.101177 -59.133431)

LINESTRING (464.461442 352.857304, 532.631470 304.930053)

LINESTRING (532.631470 304.930053, 598.376151 259.119080)

LINESTRING (598.376151 259.119080, 663.427648 208.444960)

LINESTRING (663.427648 208.444960, 719.471668 162.865606)

LINESTRING (719.471668 162.865606, 792.818776 121.966529)

LINESTRING (400.000000 400.000000, 475.474401 397.146034)

