LINESTRING (276.812708 1253.666104, 173.956441 1666.104411)

LINESTRING (276.812708 1253.666104, 371.722056 1422.411106)

LINESTRING (1997.045925 2055.120243, 2149.063609 2026.614433)

LINESTRING (1997.045925 2055.120243, 1447.044472 1909.774368)

LINESTRING (2069.510913 1804.203825, 2074.608504 1719.384093)

LINESTRING (1090.815875 768.383247, 1309.737382 1284.410134)

LINESTRING (1090.815875 768.383247, 872.242419 413.012492)

LINESTRING (1256.806008 1520.693978, 1137.498874 1569.867171)

LINESTRING (1256.806008 1520.693978, 1396.676987 1476.505730)

LINESTRING (1256.806008 1520.693978, 1291.453433 1360.433193)

LINESTRING (1256.806008 1520.693978, 1374.208403 1580.357250)

LINESTRING (824.399171 2246.023092, 787.907237 2155.193090)

LINESTRING (1137.498874 1569.867171, 1074.291510 1942.125676)

LINESTRING (1309.737382 1284.410134, 1197.599494 1002.763321)

LINESTRING (1309.737382 1284.410134, 1291.453433 1360.433193)

LINESTRING (1309.737382 1284.410134, 1288.928440 1118.671109)

LINESTRING (1074.291510 1942.125676, 987.630109 1799.031737)

LINESTRING (1074.291510 1942.125676, 1313.003399 2148.251635)

LINESTRING (862.991819 157.938753, 872.242419 413.012492)

LINESTRING (163.352473 1916.225315, 173.956441 1666.104411)

LINESTRING (954.037049 1778.453322, 987.630109 1799.031737)

LINESTRING (954.037049 1778.453322, 1374.208403 1580.357250)

LINESTRING (2167.863306 1473.940539, 2231.714232 1345.045571)

LINESTRING (872.242419 413.012492, 1057.793092 441.772316)

LINESTRING (1396.676987 1476.505730, 1291.453433 1360.433193)

LINESTRING (1396.676987 1476.505730, 1374.208403 1580.357250)

LINESTRING (1197.599494 1002.763321, 1288.928440 1118.671109)

LINESTRING (173.956441 1666.104411, 371.722056 1422.411106)

LINESTRING (173.956441 1666.104411, 275.500515 1696.255859)

LINESTRING (371.722056 1422.411106, 526.385674 1544.262248)

LINESTRING (739.315297 991.471893, 892.405873 908.050583)

LINESTRING (739.315297 991.471893, 616.587808 890.062577)

LINESTRING (739.315297 991.471893, 801.158393 877.272208)

LINESTRING (2314.228723 1220.925529, 2231.714232 1345.045571)

LINESTRING (892.405873 908.050583, 1446.779968 1052.134060)

LINESTRING (892.405873 908.050583, 801.158393 877.272208)

LINESTRING (892.405873 908.050583, 1288.928440 1118.671109)

LINESTRING (1446.779968 1052.134060, 1288.928440 1118.671109)

LINESTRING (616.587808 890.062577, 801.158393 877.272208)

LINESTRING (1447.044472 1909.774368, 1313.003399 2148.251635)

LINESTRING (1746.118273 1345.880443, 1288.928440 1118.671109)

LINESTRING (1313.003399 2148.251635, 1772.480615 1802.852739)

LINESTRING (2084.445047 442.328823, 2140.967833 317.083191)

