LINESTRING (480.765933 397.271728, 460.835264 457.742161)

LINESTRING (460.835264 457.742161, 402.362839 475.471263)

LINESTRING (402.362839 475.471263, 344.436757 460.684655)

LINESTRING (344.436757 460.684655, 322.647020 404.270893)

LINESTRING (322.647020 404.270893, 347.290097 338.737393)

LINESTRING (347.290097 338.737393, 395.400472 318.316678)

LINESTRING (395.400472 318.316678, 455.542993 345.032165)

LINESTRING (455.542993 345.032165, 480.765933 397.271728)

LINESTRING (559.899598 396.640547, 516.166366 509.247474)

LINESTRING (516.166366 509.247474, 399.003395 559.120669)

LINESTRING (399.003395 559.120669, 290.564242 514.238444)

LINESTRING (290.564242 514.238444, 241.396614 395.817577)

LINESTRING (241.396614 395.817577, 283.570350 290.774364)

LINESTRING (283.570350 290.774364, 395.620566 235.392188)

LINESTRING (395.620566 235.392188, 509.402945 285.877511)

LINESTRING (509.402945 285.877511, 559.899598 396.640547)

LINESTRING (639.018011 401.360424, 568.719537 571.702528)

LINESTRING (568.719537 571.702528, 399.333576 636.200461)

LINESTRING (399.333576 636.200461, 225.302986 569.548244)

LINESTRING (225.302986 569.548244, 159.351586 397.528378)

LINESTRING (159.351586 397.528378, 233.058073 230.298277)

LINESTRING (233.058073 230.298277, 396.672348 163.298726)

LINESTRING (396.672348 163.298726, 566.134507 228.522089)

LINESTRING (566.134507 228.522089, 639.018011 401.360424)

LINESTRING (717.633555 400.715441, 627.706518 628.766267)

LINESTRING (627.706518 628.766267, 395.485643 721.069644)

LINESTRING (395.485643 721.069644, 172.781772 622.922678)

LINESTRING (172.781772 622.922678, 78.653811 404.623153)

LINESTRING (78.653811 404.623153, 178.669270 175.132274)

LINESTRING (178.669270 175.132274, 395.244969 81.374208)

LINESTRING (395.244969 81.374208, 628.893265 171.978142)

LINESTRING (628.893265 171.978142, 717.633555 400.715441)

LINESTRING (480.765933 397.271728, 559.899598 396.640547)

LINESTRING (559.899598 396.640547, 639.018011 401.360424)

LINESTRING (639.018011 401.360424, 717.633555 400.715441)

LINESTRING (460.835264 457.742161, 516.166366 509.247474)

LINESTRING (516.166366 509.247474, 568.719537 571.702528)

LINESTRING (568.719537 571.702528, 627.706518 628.766267)

LINESTRING (402.362839 475.471263, 399.003395 559.120669)

LINESTRING (399.003395 559.120669, 399.333576 636.200461)

LINESTRING (399.333576 636.200461, 395.485643 721.069644)

LINESTRING (344.436757 460.684655, 290.564242 514.238444)

LINESTRING (290.564242 514.238444, 225.302986 569.548244)

LINESTRING (225.302986 569.548244, 172.781772 622.922678)

LINESTRING (322.647020 404.270893, 241.396614 395.817577)

LINESTRING (241.396614 395.817577, 159.351586 397.528378)

LINESTRING (159.351586 397.528378, 78.653811 404.623153)

LINESTRING (347.290097 338.737393, 283.570350 290.774364)

LINESTRING (283.570350 290.774364, 233.058073 230.298277)

LINESTRING (233.058073 230.298277, 178.669270 175.132274)

LINESTRING (395.400472 318.316678, 395.620566 235.392188)

LINESTRING (395.620566 235.392188, 396.672348 163.298726)

LINESTRING (396.672348 163.298726, 395.244969 81.374208)

LINESTRING (455.542993 345.032165, 509.402945 285.877511)

LINESTRING (509.402945 285.877511, 566.134507 228.522089)

LINESTRING (566.134507 228.522089, 628.893265 171.978142)

LINESTRING (400.000000 400.000000, 480.765933 397.271728)

