LINESTRING (482.260869 404.230495, 475.137149 429.334111)

LINESTRING (475.137149 429.334111, 451.720104 452.549112)

LINESTRING (451.720104 452.549112, 427.816433 476.839675)

LINESTRING (427.816433 476.839675, 400.541243 476.467294)

LINESTRING (400.541243 476.467294, 370.023710 472.481387)

LINESTRING (370.023710 472.481387, 345.406250 452.380514)

LINESTRING (345.406250 452.380514, 326.279397 433.261577)

LINESTRING (326.279397 433.261577, 317.354248 398.461873)

LINESTRING (317.354248 398.461873, 329.173958 367.605678)

LINESTRING (329.173958 367.605678, 347.422986 347.424551)

LINESTRING (347.422986 347.424551, 366.077632 326.879410)

LINESTRING (366.077632 326.879410, 395.337490 315.286776)

LINESTRING (395.337490 315.286776, 430.707716 323.692671)

LINESTRING (430.707716 323.692671, 456.579634 343.342836)

LINESTRING (456.579634 343.342836, 475.742507 371.283256)

LINESTRING (475.742507 371.283256, 482.260869 404.230495)

LINESTRING (564.332853 400.942178, 550.956666 465.518659)

LINESTRING (550.956666 465.518659, 511.374253 514.409612)

LINESTRING (511.374253 514.409612, 458.735935 546.119488)

LINESTRING (458.735935 546.119488, 399.407371 555.388912)

LINESTRING (399.407371 555.388912, 339.500957 552.049959)

LINESTRING (339.500957 552.049959, 286.640642 517.412829)

LINESTRING (286.640642 517.412829, 255.783224 460.813541)

LINESTRING (255.783224 460.813541, 241.578347 395.393084)

LINESTRING (241.578347 395.393084, 253.396790 337.775331)

LINESTRING (253.396790 337.775331, 282.780092 286.766562)

LINESTRING (282.780092 286.766562, 342.380023 255.826602)

LINESTRING (342.380023 255.826602, 395.730736 244.838586)

LINESTRING (395.730736 244.838586, 463.829679 251.530540)

LINESTRING (463.829679 251.530540, 512.190713 284.038547)

LINESTRING (512.190713 284.038547, 552.238220 341.821751)

LINESTRING (552.238220 341.821751, 564.332853 400.942178)

LINESTRING (638.785169 397.884045, 619.862438 489.506510)

LINESTRING (619.862438 489.506510, 571.015479 568.640277)

LINESTRING (571.015479 568.640277, 495.521851 619.034232)

LINESTRING (495.521851 619.034232, 400.006294 637.663970)

LINESTRING (400.006294 637.663970, 305.772735 618.389750)

LINESTRING (305.772735 618.389750, 228.962514 565.806665)

LINESTRING (228.962514 565.806665, 181.869321 491.281891)

LINESTRING (181.869321 491.281891, 160.420046 395.116003)

LINESTRING (160.420046 395.116003, 174.651953 306.731607)

LINESTRING (174.651953 306.731607, 228.488552 226.661606)

LINESTRING (228.488552 226.661606, 311.510260 177.189113)

LINESTRING (311.510260 177.189113, 398.701611 157.942876)

LINESTRING (398.701611 157.942876, 493.825925 175.623740)

LINESTRING (493.825925 175.623740, 570.785026 226.681011)

LINESTRING (570.785026 226.681011, 623.542017 312.220425)

LINESTRING (623.542017 312.220425, 638.785169 397.884045)

LINESTRING (718.558697 396.530222, 699.568393 523.527164)

LINESTRING (699.568393 523.527164, 625.674157 624.966644)

LINESTRING (625.674157 624.966644, 524.911215 691.198945)

LINESTRING (524.911215 691.198945, 404.670291 718.867133)

LINESTRING (404.670291 718.867133, 277.318635 692.750642)

LINESTRING (277.318635 692.750642, 168.833537 623.440211)

LINESTRING (168.833537 623.440211, 109.273987 517.477320)

LINESTRING (109.273987 517.477320, 75.013401 401.285405)

LINESTRING (75.013401 401.285405, 100.268845 275.403754)

LINESTRING (100.268845 275.403754, 171.780148 178.409053)

LINESTRING (171.780148 178.409053, 280.693430 107.203495)

LINESTRING (280.693430 107.203495, 404.650335 78.819945)

LINESTRING (404.650335 78.819945, 526.075070 107.952217)

LINESTRING (526.075070 107.952217, 621.802890 171.918746)

LINESTRING (621.802890 171.918746, 691.857159 274.281043)

LINESTRING (691.857159 274.281043, 718.558697 396.530222)

LINESTRING (799.211388 401.586438, 768.304784 553.457494)

LINESTRING (768.304784 553.457494, 687.115914 680.877172)

LINESTRING (687.115914 680.877172, 557.063536 771.992240)

LINESTRING (557.063536 771.992240, 402.874589 799.527520)

LINESTRING (402.874589 799.527520, 249.240123 771.161008)

LINESTRING (249.240123 771.161008, 121.109871 686.407081)

LINESTRING (121.109871 686.407081, 29.853917 554.770770)

LINESTRING (29.853917 554.770770, -2.014572 395.149392)

LINESTRING (-2.014572 395.149392, 34.764385 242.052678)

LINESTRING (34.764385 242.052678, 118.025609 121.886612)

LINESTRING (118.025609 121.886612, 250.534600 31.817324)

LINESTRING (250.534600 31.817324, 398.005443 2.244125)

LINESTRING (398.005443 2.244125, 553.742692 31.369224)

LINESTRING (553.742692 31.369224, 685.875268 112.588933)

LINESTRING (685.875268 112.588933, 771.756171 243.522765)

LINESTRING (771.756171 243.522765, 799.211388 401.586438)

LINESTRING (876.540410 402.551122, 843.379839 583.128051)

LINESTRING (843.379839 583.128051, 743.830683 743.345313)

LINESTRING (743.830683 743.345313, 582.792353 842.094668)

LINESTRING (582.792353 842.094668, 396.790014 884.465930)

LINESTRING (396.790014 884.465930, 213.889722 845.434866)

LINESTRING (213.889722 845.434866, 63.264371 742.109317)

LINESTRING (63.264371 742.109317, -46.880682 580.203940)

LINESTRING (-46.880682 580.203940, -77.449379 403.298313)

LINESTRING (-77.449379 403.298313, -39.102772 214.234794)

LINESTRING (-39.102772 214.234794, 60.861332 62.569325)

LINESTRING (60.861332 62.569325, 211.658651 -42.477324)

LINESTRING (211.658651 -42.477324, 396.143778 -83.842441)

LINESTRING (396.143778 -83.842441, 587.061256 -48.020600)

LINESTRING (587.061256 -48.020600, 741.474095 63.199598)

LINESTRING (741.474095 63.199598, 842.458667 219.147362)

LINESTRING (842.458667 219.147362, 876.540410 402.551122)

LINESTRING (964.590734 399.576980, 918.199746 610.634972)

LINESTRING (918.199746 610.634972, 797.310851 799.264256)

LINESTRING (797.310851 799.264256, 614.930080 918.036247)

LINESTRING (614.930080 918.036247, 404.471829 961.398946)

LINESTRING (404.471829 961.398946, 181.908351 919.727990)

LINESTRING (181.908351 919.727990, 6.082207 798.163459)

LINESTRING (6.082207 798.163459, -121.078798 613.979114)

LINESTRING (-121.078798 613.979114, -158.292132 397.303541)

LINESTRING (-158.292132 397.303541, -121.162880 189.450769)

LINESTRING (-121.162880 189.450769, 7.535877 4.994139)

LINESTRING (7.535877 4.994139, 185.551670 -119.468990)

LINESTRING (185.551670 -119.468990, 399.715646 -160.599583)

LINESTRING (399.715646 -160.599583, 616.499335 -116.607454)

LINESTRING (616.499335 -116.607454, 797.673195 3.921426)

LINESTRING (797.673195 3.921426, 913.641621 187.833883)

LINESTRING (913.641621 187.833883, 964.590734 399.576980)

LINESTRING (482.260869 404.230495, 564.332853 400.942178)

LINESTRING (564.332853 400.942178, 638.785169 397.884045)

LINESTRING (638.785169 397.884045, 718.558697 396.530222)

LINESTRING (718.558697 396.530222, 799.211388 401.586438)

LINESTRING (799.211388 401.586438, 876.540410 402.551122)

LINESTRING (876.540410 402.551122, 964.590734 399.576980)

LINESTRING (475.137149 429.334111, 550.956666 465.518659)

LINESTRING (550.956666 465.518659, 619.862438 489.506510)

LINESTRING (619.862438 489.506510, 699.568393 523.527164)

LINESTRING (699.568393 523.527164, 768.304784 553.457494)

LINESTRING (768.304784 553.457494, 843.379839 583.128051)

LINESTRING (843.379839 583.128051, 918.199746 610.634972)

LINESTRING (451.720104 452.549112, 511.374253 514.409612)

LINESTRING (511.374253 514.409612, 571.015479 568.640277)

LINESTRING (571.015479 568.640277, 625.674157 624.966644)

LINESTRING (625.674157 624.966644, 687.115914 680.877172)

LINESTRING (687.115914 680.877172, 743.830683 743.345313)

LINESTRING (743.830683 743.345313, 797.310851 799.264256)

LINESTRING (427.816433 476.839675, 458.735935 546.119488)

LINESTRING (458.735935 546.119488, 495.521851 619.034232)

LINESTRING (495.521851 619.034232, 524.911215 691.198945)

LINESTRING (524.911215 691.198945, 557.063536 771.992240)

LINESTRING (557.063536 771.992240, 582.792353 842.094668)

LINESTRING (582.792353 842.094668, 614.930080 918.036247)

LINESTRING (400.541243 476.467294, 399.407371 555.388912)

LINESTRING (399.407371 555.388912, 400.006294 637.663970)

LINESTRING (400.006294 637.663970, 404.670291 718.867133)

LINESTRING (404.670291 718.867133, 402.874589 799.527520)

LINESTRING (402.874589 799.527520, 396.790014 884.465930)

LINESTRING (396.790014 884.465930, 404.471829 961.398946)

LINESTRING (370.023710 472.481387, 339.500957 552.049959)

LINESTRING (339.500957 552.049959, 305.772735 618.389750)

LINESTRING (305.772735 618.389750, 277.318635 692.750642)

LINESTRING (277.318635 692.750642, 249.240123 771.161008)

LINESTRING (249.240123 771.161008, 213.889722 845.434866)

LINESTRING (213.889722 845.434866, 181.908351 919.727990)

LINESTRING (345.406250 452.380514, 286.640642 517.412829)

LINESTRING (286.640642 517.412829, 228.962514 565.806665)

LINESTRING (228.962514 565.806665, 168.833537 623.440211)

LINESTRING (168.833537 623.440211, 121.109871 686.407081)

LINESTRING (121.109871 686.407081, 63.264371 742.109317)

LINESTRING (63.264371 742.109317, 6.082207 798.163459)

LINESTRING (326.279397 433.261577, 255.783224 460.813541)

LINESTRING (255.783224 460.813541, 181.869321 491.281891)

LINESTRING (181.869321 491.281891, 109.273987 517.477320)

LINESTRING (109.273987 517.477320, 29.853917 554.770770)

LINESTRING (29.853917 554.770770, -46.880682 580.203940)

LINESTRING (-46.880682 580.203940, -121.078798 613.979114)

LINESTRING (317.354248 398.461873, 241.578347 395.393084)

LINESTRING (241.578347 395.393084, 160.420046 395.116003)

LINESTRING (160.420046 395.116003, 75.013401 401.285405)

LINESTRING (75.013401 401.285405, -2.014572 395.149392)

LINESTRING (-2.014572 395.149392, -77.449379 403.298313)

LINESTRING (-77.449379 403.298313, -158.292132 397.303541)

LINESTRING (329.173958 367.605678, 253.396790 337.775331)

LINESTRING (253.396790 337.775331, 174.651953 306.731607)

LINESTRING (174.651953 306.731607, 100.268845 275.403754)

LINESTRING (100.268845 275.403754, 34.764385 242.052678)

LINESTRING (34.764385 242.052678, -39.102772 214.234794)

LINESTRING (-39.102772 214.234794, -121.162880 189.450769)

LINESTRING (347.422986 347.424551, 282.780092 286.766562)

LINESTRING (282.780092 286.766562, 228.488552 226.661606)

LINESTRING (228.488552 226.661606, 171.780148 178.409053)

LINESTRING (171.780148 178.409053, 118.025609 121.886612)

LINESTRING (118.025609 121.886612, 60.861332 62.569325)

LINESTRING (60.861332 62.569325, 7.535877 4.994139)

LINESTRING (366.077632 326.879410, 342.380023 255.826602)

LINESTRING (342.380023 255.826602, 311.510260 177.189113)

LINESTRING (311.510260 177.189113, 280.693430 107.203495)

LINESTRING (280.693430 107.203495, 250.534600 31.817324)

LINESTRING (250.534600 31.817324, 211.658651 -42.477324)

LINESTRING (211.658651 -42.477324, 185.551670 -119.468990)

LINESTRING (395.337490 315.286776, 395.730736 244.838586)

LINESTRING (395.730736 244.838586, 398.701611 157.942876)

LINESTRING (398.701611 157.942876, 404.650335 78.819945)

LINESTRING (404.650335 78.819945, 398.005443 2.244125)

LINESTRING (398.005443 2.244125, 396.143778 -83.842441)

LINESTRING (396.143778 -83.842441, 399.715646 -160.599583)

LINESTRING (430.707716 323.692671, 463.829679 251.530540)

LINESTRING (463.829679 251.530540, 493.825925 175.623740)

LINESTRING (493.825925 175.623740, 526.075070 107.952217)

LINESTRING (526.075070 107.952217, 553.742692 31.369224)

LINESTRING (553.742692 31.369224, 587.061256 -48.020600)

LINESTRING (587.061256 -48.020600, 616.499335 -116.607454)

LINESTRING (456.579634 343.342836, 512.190713 284.038547)

LINESTRING (512.190713 284.038547, 570.785026 226.681011)

LINESTRING (570.785026 226.681011, 621.802890 171.918746)

LINESTRING (621.802890 171.918746, 685.875268 112.588933)

LINESTRING (685.875268 112.588933, 741.474095 63.199598)

LINESTRING (741.474095 63.199598, 797.673195 3.921426)

LINESTRING (475.742507 371.283256, 552.238220 341.821751)

LINESTRING (552.238220 341.821751, 623.542017 312.220425)

LINESTRING (623.542017 312.220425, 691.857159 274.281043)

LINESTRING (691.857159 274.281043, 771.756171 243.522765)

LINESTRING (771.756171 243.522765, 842.458667 219.147362)

LINESTRING (842.458667 219.147362, 913.641621 187.833883)

LINESTRING (400.000000 400.000000, 482.260869 404.230495)

