LINESTRING (478.631965 397.465951, 461.217962 457.712483)

LINESTRING (461.217962 457.712483, 398.154662 475.490989)

LINESTRING (398.154662 475.490989, 347.304799 453.004721)

LINESTRING (347.304799 453.004721, 317.507545 403.998322)

LINESTRING (317.507545 403.998322, 339.647133 347.752282)

LINESTRING (339.647133 347.752282, 397.584929 318.373289)

LINESTRING (397.584929 318.373289, 460.833981 340.902496)

LINESTRING (460.833981 340.902496, 478.631965 397.465951)

LINESTRING (556.726107 396.262259, 515.824172 515.490809)

LINESTRING (515.824172 515.490809, 396.285174 557.101301)

LINESTRING (396.285174 557.101301, 286.295040 513.150259)

LINESTRING (286.295040 513.150259, 238.323474 404.131802)

LINESTRING (238.323474 404.131802, 286.706242 282.958954)

LINESTRING (286.706242 282.958954, 404.393229 244.163094)

LINESTRING (404.393229 244.163094, 510.990179 284.651976)

LINESTRING (510.990179 284.651976, 556.726107 396.262259)

LINESTRING (635.960714 404.190719, 568.944284 573.983127)

LINESTRING (568.944284 573.983127, 397.710932 635.359169)

LINESTRING (397.710932 635.359169, 229.897644 569.188207)

LINESTRING (229.897644 569.188207, 158.217740 403.690252)

LINESTRING (158.217740 403.690252, 230.696318 233.188019)

LINESTRING (230.696318 233.188019, 401.596668 158.672067)

LINESTRING (401.596668 158.672067, 566.115341 234.579266)

LINESTRING (566.115341 234.579266, 635.960714 404.190719)

LINESTRING (719.688936 402.733401, 628.681088 626.540425)

LINESTRING (628.681088 626.540425, 399.038972 719.296340)

LINESTRING (399.038972 719.296340, 176.903171 629.755863)

LINESTRING (176.903171 629.755863, 82.356539 399.491763)

LINESTRING (82.356539 399.491763, 172.062431 173.645897)

LINESTRING (172.062431 173.645897, 399.495934 79.551954)

LINESTRING (399.495934 79.551954, 628.506055 170.406445)

LINESTRING (628.506055 170.406445, 719.688936 402.733401)

LINESTRING (798.645628 396.237894, 680.024008 681.078636)

LINESTRING (680.024008 681.078636, 395.337361 800.259074)

LINESTRING (395.337361 800.259074, 113.014713 684.669769)

LINESTRING (113.014713 684.669769, -0.272768 397.726404)

LINESTRING (-0.272768 397.726404, 114.081146 120.218006)

LINESTRING (114.081146 120.218006, 404.205631 -1.568124)

LINESTRING (404.205631 -1.568124, 680.573334 117.559402)

LINESTRING (680.573334 117.559402, 798.645628 396.237894)

LINESTRING (881.466451 402.962757, 740.055019 738.597093)

LINESTRING (740.055019 738.597093, 400.922807 881.579960)

LINESTRING (400.922807 881.579960, 60.396924 737.449064)

LINESTRING (60.396924 737.449064, -79.454181 404.863558)

LINESTRING (-79.454181 404.863558, 59.611069 56.803209)

LINESTRING (59.611069 56.803209, 395.267116 -77.354392)

LINESTRING (395.267116 -77.354392, 739.344508 57.162244)

LINESTRING (739.344508 57.162244, 881.466451 402.962757)

LINESTRING (955.882022 401.466225, 792.552683 793.259837)

LINESTRING (792.552683 793.259837, 397.968600 961.368282)

LINESTRING (397.968600 961.368282, 1.924577 792.547219)

LINESTRING (1.924577 792.547219, -163.523193 400.564143)

LINESTRING (-163.523193 400.564143, 7.598252 2.068865)

LINESTRING (7.598252 2.068865, 402.137514 -156.124231)

LINESTRING (402.137514 -156.124231, 800.172549 3.586377)

LINESTRING (800.172549 3.586377, 955.882022 401.466225)

LINESTRING (1044.234520 396.858202, 847.632563 850.492320)

LINESTRING (847.632563 850.492320, 400.212389 1036.714646)

LINESTRING (400.212389 1036.714646, -50.419377 852.043758)

LINESTRING (-50.419377 852.043758, -238.313321 400.697307)

LINESTRING (-238.313321 400.697307, -51.868670 -48.970767)

LINESTRING (-51.868670 -48.970767, 397.042062 -241.549047)

LINESTRING (397.042062 -241.549047, 847.810874 -48.386987)

LINESTRING (847.810874 -48.386987, 1044.234520 396.858202)

LINESTRING (478.631965 397.465951, 556.726107 396.262259)

LINESTRING (556.726107 396.262259, 635.960714 404.190719)

LINESTRING (635.960714 404.190719, 719.688936 402.733401)

LINESTRING (719.688936 402.733401, 798.645628 396.237894)

LINESTRING (798.645628 396.237894, 881.466451 402.962757)

LINESTRING (881.466451 402.962757, 955.882022 401.466225)

LINESTRING (955.882022 401.466225, 1044.234520 396.858202)

LINESTRING (461.217962 457.712483, 515.824172 515.490809)

LINESTRING (515.824172 515.490809, 568.944284 573.983127)

LINESTRING (568.944284 573.983127, 628.681088 626.540425)

LINESTRING (628.681088 626.540425, 680.024008 681.078636)

LINESTRING (680.024008 681.078636, 740.055019 738.597093)

LINESTRING (740.055019 738.597093, 792.552683 793.259837)

LINESTRING (792.552683 793.259837, 847.632563 850.492320)

LINESTRING (398.154662 475.490989, 396.285174 557.101301)

LINESTRING (396.285174 557.101301, 397.710932 635.359169)

LINESTRING (397.710932 635.359169, 399.038972 719.296340)

LINESTRING (399.038972 719.296340, 395.337361 800.259074)

LINESTRING (395.337361 800.259074, 400.922807 881.579960)

LINESTRING (400.922807 881.579960, 397.968600 961.368282)

LINESTRING (397.968600 961.368282, 400.212389 1036.714646)

LINESTRING (347.304799 453.004721, 286.295040 513.150259)

LINESTRING (286.295040 513.150259, 229.897644 569.188207)

LINESTRING (229.897644 569.188207, 176.903171 629.755863)

LINESTRING (176.903171 629.755863, 113.014713 684.669769)

LINESTRING (113.014713 684.669769, 60.396924 737.449064)

LINESTRING (60.396924 737.449064, 1.924577 792.547219)

LINESTRING (1.924577 792.547219, -50.419377 852.043758)

LINESTRING (317.507545 403.998322, 238.323474 404.131802)

LINESTRING (238.323474 404.131802, 158.217740 403.690252)

LINESTRING (158.217740 403.690252, 82.356539 399.491763)

LINESTRING (82.356539 399.491763, -0.272768 397.726404)

LINESTRING (-0.272768 397.726404, -79.454181 404.863558)

LINESTRING (-79.454181 404.863558, -163.523193 400.564143)

LINESTRING (-163.523193 400.564143, -238.313321 400.697307)

LINESTRING (339.647133 347.752282, 286.706242 282.958954)

LINESTRING (286.706242 282.958954, 230.696318 233.188019)

LINESTRING (230.696318 233.188019, 172.062431 173.645897)

LINESTRING (172.062431 173.645897, 114.081146 120.218006)

LINESTRING (114.081146 120.218006, 59.611069 56.803209)

LINESTRING (59.611069 56.803209, 7.598252 2.068865)

LINESTRING (7.598252 2.068865, -51.868670 -48.970767)

LINESTRING (397.584929 318.373289, 404.393229 244.163094)

LINESTRING (404.393229 244.163094, 401.596668 158.672067)

LINESTRING (401.596668 158.672067, 399.495934 79.551954)

LINESTRING (399.495934 79.551954, 404.205631 -1.568124)

LINESTRING (404.205631 -1.568124, 395.267116 -77.354392)

LINESTRING (395.267116 -77.354392, 402.137514 -156.124231)

LINESTRING (402.137514 -156.124231, 397.042062 -241.549047)

LINESTRING (460.833981 340.902496, 510.990179 284.651976)

LINESTRING (510.990179 284.651976, 566.115341 234.579266)

LINESTRING (566.115341 234.579266, 628.506055 170.406445)

LINESTRING (628.506055 170.406445, 680.573334 117.559402)

LINESTRING (680.573334 117.559402, 739.344508 57.162244)

LINESTRING (739.344508 57.162244, 800.172549 3.586377)

LINESTRING (800.172549 3.586377, 847.810874 -48.386987)

LINESTRING (400.000000 400.000000, 478.631965 397.465951)

