LINESTRING (60.000000 60.000000, 70.039413 76.183509)

LINESTRING (60.000000 60.000000, 71.566146 38.582826)

LINESTRING (60.000000 60.000000, 72.126065 61.711204)

LINESTRING (60.000000 60.000000, 39.960776 52.498012)

LINESTRING (60.000000 60.000000, 66.435353 60.861979)

LINESTRING (60.000000 60.000000, 75.930872 55.616567)

LINESTRING (60.000000 60.000000, 38.645904 70.335963)

LINESTRING (60.000000 60.000000, 63.640804 54.142409)

LINESTRING (60.000000 60.000000, 44.987093 74.407833)

LINESTRING (60.000000 60.000000, 38.981223 41.847031)

LINESTRING (70.039413 76.183509, 71.566146 38.582826)

LINESTRING (70.039413 76.183509, 72.126065 61.711204)

LINESTRING (70.039413 76.183509, 63.640804 54.142409)

LINESTRING (70.039413 76.183509, 44.987093 74.407833)

LINESTRING (70.039413 76.183509, 38.981223 41.847031)

LINESTRING (71.566146 38.582826, 72.126065 61.711204)

LINESTRING (71.566146 38.582826, 39.960776 52.498012)

LINESTRING (71.566146 38.582826, 75.930872 55.616567)

LINESTRING (71.566146 38.582826, 38.645904 70.335963)

LINESTRING (71.566146 38.582826, 63.640804 54.142409)

LINESTRING (71.566146 38.582826, 44.987093 74.407833)

LINESTRING (72.126065 61.711204, 75.930872 55.616567)

LINESTRING (72.126065 61.711204, 63.640804 54.142409)

LINESTRING (39.960776 52.498012, 38.645904 70.335963)

LINESTRING (39.960776 52.498012, 38.981223 41.847031)

LINESTRING (66.435353 60.861979, 63.640804 54.142409)

LINESTRING (66.435353 60.861979, 44.987093 74.407833)

LINESTRING (66.435353 60.861979, 38.981223 41.847031)

LINESTRING (75.930872 55.616567, 38.645904 70.335963)

LINESTRING (75.930872 55.616567, 63.640804 54.142409)

LINESTRING (75.930872 55.616567, 44.987093 74.407833)

LINESTRING (75.930872 55.616567, 38.981223 41.847031)

LINESTRING (38.645904 70.335963, 63.640804 54.142409)

LINESTRING (38.645904 70.335963, 44.987093 74.407833)

LINESTRING (38.645904 70.335963, 38.981223 41.847031)

LINESTRING (63.640804 54.142409, 44.987093 74.407833)

LINESTRING (63.640804 54.142409, 38.981223 41.847031)

LINESTRING (44.987093 74.407833, 38.981223 41.847031)

LINESTRING (260.000000 60.000000, 240.501235 63.679484)

LINESTRING (260.000000 60.000000, 270.190644 49.031236)

LINESTRING (260.000000 60.000000, 255.079508 54.021931)

LINESTRING (260.000000 60.000000, 274.942732 69.582625)

LINESTRING (260.000000 60.000000, 264.929806 61.773605)

LINESTRING (260.000000 60.000000, 239.270492 53.440436)

LINESTRING (260.000000 60.000000, 246.974425 70.021029)

LINESTRING (260.000000 60.000000, 262.139788 83.658826)

LINESTRING (260.000000 60.000000, 242.442738 40.699048)

LINESTRING (260.000000 60.000000, 273.738270 66.213495)

LINESTRING (240.501235 63.679484, 274.942732 69.582625)

LINESTRING (240.501235 63.679484, 264.929806 61.773605)

LINESTRING (240.501235 63.679484, 239.270492 53.440436)

LINESTRING (240.501235 63.679484, 246.974425 70.021029)

LINESTRING (240.501235 63.679484, 242.442738 40.699048)

LINESTRING (270.190644 49.031236, 255.079508 54.021931)

LINESTRING (270.190644 49.031236, 274.942732 69.582625)

LINESTRING (270.190644 49.031236, 264.929806 61.773605)

LINESTRING (270.190644 49.031236, 239.270492 53.440436)

LINESTRING (270.190644 49.031236, 246.974425 70.021029)

LINESTRING (270.190644 49.031236, 262.139788 83.658826)

LINESTRING (255.079508 54.021931, 274.942732 69.582625)

LINESTRING (255.079508 54.021931, 242.442738 40.699048)

LINESTRING (274.942732 69.582625, 262.139788 83.658826)

LINESTRING (274.942732 69.582625, 242.442738 40.699048)

LINESTRING (274.942732 69.582625, 273.738270 66.213495)

LINESTRING (264.929806 61.773605, 239.270492 53.440436)

LINESTRING (264.929806 61.773605, 242.442738 40.699048)

LINESTRING (239.270492 53.440436, 246.974425 70.021029)

LINESTRING (239.270492 53.440436, 242.442738 40.699048)

LINESTRING (246.974425 70.021029, 242.442738 40.699048)

LINESTRING (460.000000 60.000000, 448.971894 62.124795)

LINESTRING (460.000000 60.000000, 437.757136 68.960846)

LINESTRING (460.000000 60.000000, 455.552151 68.743922)

LINESTRING (460.000000 60.000000, 453.307322 63.001488)

LINESTRING (460.000000 60.000000, 438.592119 70.585563)

LINESTRING (460.000000 60.000000, 473.270538 47.819994)

LINESTRING (460.000000 60.000000, 471.038503 46.320154)

LINESTRING (460.000000 60.000000, 460.939631 68.520991)

LINESTRING (460.000000 60.000000, 440.197960 73.892430)

LINESTRING (460.000000 60.000000, 463.739870 81.019517)

LINESTRING (448.971894 62.124795, 455.552151 68.743922)

LINESTRING (448.971894 62.124795, 438.592119 70.585563)

LINESTRING (448.971894 62.124795, 471.038503 46.320154)

LINESTRING (448.971894 62.124795, 460.939631 68.520991)

LINESTRING (437.757136 68.960846, 455.552151 68.743922)

LINESTRING (437.757136 68.960846, 438.592119 70.585563)

LINESTRING (437.757136 68.960846, 473.270538 47.819994)

LINESTRING (455.552151 68.743922, 438.592119 70.585563)

LINESTRING (455.552151 68.743922, 473.270538 47.819994)

LINESTRING (455.552151 68.743922, 471.038503 46.320154)

LINESTRING (455.552151 68.743922, 460.939631 68.520991)

LINESTRING (455.552151 68.743922, 440.197960 73.892430)

LINESTRING (453.307322 63.001488, 473.270538 47.819994)

LINESTRING (453.307322 63.001488, 440.197960 73.892430)

LINESTRING (453.307322 63.001488, 463.739870 81.019517)

LINESTRING (438.592119 70.585563, 473.270538 47.819994)

LINESTRING (438.592119 70.585563, 460.939631 68.520991)

LINESTRING (438.592119 70.585563, 440.197960 73.892430)

LINESTRING (473.270538 47.819994, 471.038503 46.320154)

LINESTRING (473.270538 47.819994, 460.939631 68.520991)

LINESTRING (471.038503 46.320154, 460.939631 68.520991)

LINESTRING (471.038503 46.320154, 463.739870 81.019517)

LINESTRING (460.939631 68.520991, 463.739870 81.019517)

LINESTRING (60.000000 260.000000, 43.051094 237.606230)

LINESTRING (60.000000 260.000000, 41.348744 247.603969)

LINESTRING (60.000000 260.000000, 54.197120 283.401068)

LINESTRING (60.000000 260.000000, 62.056421 257.458678)

LINESTRING (60.000000 260.000000, 76.010067 268.648089)

LINESTRING (60.000000 260.000000, 83.157164 272.210448)

LINESTRING (60.000000 260.000000, 82.308454 243.529664)

LINESTRING (60.000000 260.000000, 46.539040 283.801752)

LINESTRING (60.000000 260.000000, 79.156589 242.070573)

LINESTRING (60.000000 260.000000, 70.750671 259.453170)

LINESTRING (43.051094 237.606230, 41.348744 247.603969)

LINESTRING (43.051094 237.606230, 62.056421 257.458678)

LINESTRING (43.051094 237.606230, 76.010067 268.648089)

LINESTRING (43.051094 237.606230, 70.750671 259.453170)

LINESTRING (41.348744 247.603969, 62.056421 257.458678)

LINESTRING (41.348744 247.603969, 76.010067 268.648089)

LINESTRING (41.348744 247.603969, 82.308454 243.529664)

LINESTRING (41.348744 247.603969, 46.539040 283.801752)

LINESTRING (41.348744 247.603969, 79.156589 242.070573)

LINESTRING (54.197120 283.401068, 82.308454 243.529664)

LINESTRING (62.056421 257.458678, 83.157164 272.210448)

LINESTRING (62.056421 257.458678, 46.539040 283.801752)

LINESTRING (62.056421 257.458678, 79.156589 242.070573)

LINESTRING (62.056421 257.458678, 70.750671 259.453170)

LINESTRING (76.010067 268.648089, 82.308454 243.529664)

LINESTRING (76.010067 268.648089, 79.156589 242.070573)

LINESTRING (76.010067 268.648089, 70.750671 259.453170)

LINESTRING (83.157164 272.210448, 82.308454 243.529664)

LINESTRING (83.157164 272.210448, 79.156589 242.070573)

LINESTRING (83.157164 272.210448, 70.750671 259.453170)

LINESTRING (260.000000 260.000000, 240.299349 273.894814)

LINESTRING (260.000000 260.000000, 268.747346 272.934060)

LINESTRING (260.000000 260.000000, 252.229987 240.043647)

LINESTRING (260.000000 260.000000, 269.105359 246.874091)

LINESTRING (260.000000 260.000000, 239.964828 261.713217)

LINESTRING (260.000000 260.000000, 243.785476 280.892769)

LINESTRING (260.000000 260.000000, 241.215592 236.864427)

LINESTRING (260.000000 260.000000, 273.763460 266.028246)

LINESTRING (260.000000 260.000000, 246.078885 283.909833)

LINESTRING (260.000000 260.000000, 261.218781 244.734135)

LINESTRING (240.299349 273.894814, 268.747346 272.934060)

LINESTRING (240.299349 273.894814, 269.105359 246.874091)

LINESTRING (240.299349 273.894814, 241.215592 236.864427)

LINESTRING (240.299349 273.894814, 273.763460 266.028246)

LINESTRING (240.299349 273.894814, 246.078885 283.909833)

LINESTRING (240.299349 273.894814, 261.218781 244.734135)

LINESTRING (268.747346 272.934060, 239.964828 261.713217)

LINESTRING (268.747346 272.934060, 241.215592 236.864427)

LINESTRING (268.747346 272.934060, 246.078885 283.909833)

LINESTRING (268.747346 272.934060, 261.218781 244.734135)

LINESTRING (252.229987 240.043647, 269.105359 246.874091)

LINESTRING (252.229987 240.043647, 243.785476 280.892769)

LINESTRING (252.229987 240.043647, 246.078885 283.909833)

LINESTRING (269.105359 246.874091, 239.964828 261.713217)

LINESTRING (269.105359 246.874091, 243.785476 280.892769)

LINESTRING (269.105359 246.874091, 273.763460 266.028246)

LINESTRING (269.105359 246.874091, 246.078885 283.909833)

LINESTRING (239.964828 261.713217, 261.218781 244.734135)

LINESTRING (243.785476 280.892769, 246.078885 283.909833)

LINESTRING (243.785476 280.892769, 261.218781 244.734135)

LINESTRING (241.215592 236.864427, 273.763460 266.028246)

LINESTRING (273.763460 266.028246, 246.078885 283.909833)

LINESTRING (273.763460 266.028246, 261.218781 244.734135)

LINESTRING (460.000000 260.000000, 479.261465 272.176141)

LINESTRING (460.000000 260.000000, 437.447362 246.242011)

LINESTRING (460.000000 260.000000, 469.500507 241.910603)

LINESTRING (460.000000 260.000000, 465.486672 250.684834)

LINESTRING (460.000000 260.000000, 479.298447 270.084334)

LINESTRING (460.000000 260.000000, 461.175309 243.330343)

LINESTRING (460.000000 260.000000, 470.383940 245.353138)

LINESTRING (460.000000 260.000000, 482.785474 239.301529)

LINESTRING (460.000000 260.000000, 440.072089 257.392486)

LINESTRING (460.000000 260.000000, 466.277664 239.053036)

LINESTRING (479.261465 272.176141, 461.175309 243.330343)

LINESTRING (479.261465 272.176141, 470.383940 245.353138)

LINESTRING (479.261465 272.176141, 466.277664 239.053036)

LINESTRING (437.447362 246.242011, 479.298447 270.084334)

LINESTRING (437.447362 246.242011, 470.383940 245.353138)

LINESTRING (437.447362 246.242011, 482.785474 239.301529)

LINESTRING (437.447362 246.242011, 440.072089 257.392486)

LINESTRING (469.500507 241.910603, 479.298447 270.084334)

LINESTRING (469.500507 241.910603, 470.383940 245.353138)

LINESTRING (469.500507 241.910603, 440.072089 257.392486)

LINESTRING (465.486672 250.684834, 461.175309 243.330343)

LINESTRING (465.486672 250.684834, 482.785474 239.301529)

LINESTRING (465.486672 250.684834, 440.072089 257.392486)

LINESTRING (479.298447 270.084334, 461.175309 243.330343)

LINESTRING (479.298447 270.084334, 470.383940 245.353138)

LINESTRING (479.298447 270.084334, 440.072089 257.392486)

LINESTRING (479.298447 270.084334, 466.277664 239.053036)

LINESTRING (461.175309 243.330343, 470.383940 245.353138)

LINESTRING (461.175309 243.330343, 482.785474 239.301529)

LINESTRING (461.175309 243.330343, 440.072089 257.392486)

LINESTRING (461.175309 243.330343, 466.277664 239.053036)

LINESTRING (470.383940 245.353138, 482.785474 239.301529)

LINESTRING (470.383940 245.353138, 440.072089 257.392486)

LINESTRING (482.785474 239.301529, 440.072089 257.392486)

LINESTRING (482.785474 239.301529, 466.277664 239.053036)

LINESTRING (60.000000 460.000000, 55.245632 454.260394)

LINESTRING (60.000000 460.000000, 70.150894 436.161990)

LINESTRING (60.000000 460.000000, 61.491963 480.444312)

LINESTRING (60.000000 460.000000, 38.015542 444.953272)

LINESTRING (60.000000 460.000000, 49.854667 455.109288)

LINESTRING (60.000000 460.000000, 74.488189 453.680798)

LINESTRING (60.000000 460.000000, 65.966023 478.557066)

LINESTRING (60.000000 460.000000, 64.575492 445.725994)

LINESTRING (60.000000 460.000000, 38.177727 437.487729)

LINESTRING (60.000000 460.000000, 56.446724 458.229290)

LINESTRING (55.245632 454.260394, 70.150894 436.161990)

LINESTRING (55.245632 454.260394, 61.491963 480.444312)

LINESTRING (55.245632 454.260394, 38.015542 444.953272)

LINESTRING (55.245632 454.260394, 49.854667 455.109288)

LINESTRING (55.245632 454.260394, 74.488189 453.680798)

LINESTRING (55.245632 454.260394, 65.966023 478.557066)

LINESTRING (55.245632 454.260394, 64.575492 445.725994)

LINESTRING (55.245632 454.260394, 56.446724 458.229290)

LINESTRING (70.150894 436.161990, 61.491963 480.444312)

LINESTRING (70.150894 436.161990, 49.854667 455.109288)

LINESTRING (70.150894 436.161990, 74.488189 453.680798)

LINESTRING (70.150894 436.161990, 64.575492 445.725994)

LINESTRING (61.491963 480.444312, 64.575492 445.725994)

LINESTRING (38.015542 444.953272, 74.488189 453.680798)

LINESTRING (38.015542 444.953272, 65.966023 478.557066)

LINESTRING (38.015542 444.953272, 64.575492 445.725994)

LINESTRING (49.854667 455.109288, 65.966023 478.557066)

LINESTRING (49.854667 455.109288, 38.177727 437.487729)

LINESTRING (49.854667 455.109288, 56.446724 458.229290)

LINESTRING (74.488189 453.680798, 65.966023 478.557066)

LINESTRING (74.488189 453.680798, 64.575492 445.725994)

LINESTRING (74.488189 453.680798, 38.177727 437.487729)

LINESTRING (74.488189 453.680798, 56.446724 458.229290)

LINESTRING (65.966023 478.557066, 64.575492 445.725994)

LINESTRING (65.966023 478.557066, 38.177727 437.487729)

LINESTRING (64.575492 445.725994, 38.177727 437.487729)

LINESTRING (38.177727 437.487729, 56.446724 458.229290)

LINESTRING (260.000000 460.000000, 283.887312 463.586030)

LINESTRING (260.000000 460.000000, 250.868929 475.077854)

LINESTRING (260.000000 460.000000, 253.076017 474.511018)

LINESTRING (260.000000 460.000000, 252.285004 478.850532)

LINESTRING (260.000000 460.000000, 278.888507 475.946660)

LINESTRING (260.000000 460.000000, 243.964163 453.338576)

LINESTRING (260.000000 460.000000, 275.607433 445.232022)

LINESTRING (260.000000 460.000000, 242.239304 457.888802)

LINESTRING (260.000000 460.000000, 266.582609 440.591967)

LINESTRING (260.000000 460.000000, 281.519966 445.153719)

LINESTRING (283.887312 463.586030, 252.285004 478.850532)

LINESTRING (283.887312 463.586030, 275.607433 445.232022)

LINESTRING (283.887312 463.586030, 266.582609 440.591967)

LINESTRING (283.887312 463.586030, 281.519966 445.153719)

LINESTRING (250.868929 475.077854, 253.076017 474.511018)

LINESTRING (250.868929 475.077854, 252.285004 478.850532)

LINESTRING (250.868929 475.077854, 243.964163 453.338576)

LINESTRING (250.868929 475.077854, 242.239304 457.888802)

LINESTRING (250.868929 475.077854, 266.582609 440.591967)

LINESTRING (253.076017 474.511018, 266.582609 440.591967)

LINESTRING (278.888507 475.946660, 243.964163 453.338576)

LINESTRING (278.888507 475.946660, 242.239304 457.888802)

LINESTRING (278.888507 475.946660, 281.519966 445.153719)

LINESTRING (243.964163 453.338576, 266.582609 440.591967)

LINESTRING (275.607433 445.232022, 266.582609 440.591967)

LINESTRING (275.607433 445.232022, 281.519966 445.153719)

LINESTRING (266.582609 440.591967, 281.519966 445.153719)

LINESTRING (72.126065 61.711204, 264.929806 61.773605)

LINESTRING (66.435353 60.861979, 264.929806 61.773605)

LINESTRING (60.000000 60.000000, 260.000000 60.000000)

LINESTRING (255.079508 54.021931, 463.739870 81.019517)

LINESTRING (255.079508 54.021931, 437.757136 68.960846)

LINESTRING (260.000000 60.000000, 460.000000 60.000000)

LINESTRING (440.197960 73.892430, 41.348744 247.603969)

LINESTRING (463.739870 81.019517, 83.157164 272.210448)

LINESTRING (460.000000 60.000000, 60.000000 260.000000)

LINESTRING (62.056421 257.458678, 246.078885 283.909833)

LINESTRING (76.010067 268.648089, 252.229987 240.043647)

LINESTRING (60.000000 260.000000, 260.000000 260.000000)

LINESTRING (252.229987 240.043647, 479.261465 272.176141)

LINESTRING (239.964828 261.713217, 470.383940 245.353138)

LINESTRING (260.000000 260.000000, 460.000000 260.000000)

LINESTRING (437.447362 246.242011, 38.177727 437.487729)

LINESTRING (479.261465 272.176141, 61.491963 480.444312)

LINESTRING (460.000000 260.000000, 60.000000 460.000000)

LINESTRING (64.575492 445.725994, 250.868929 475.077854)

LINESTRING (61.491963 480.444312, 283.887312 463.586030)

LINESTRING (60.000000 460.000000, 260.000000 460.000000)

