LINESTRING (60.000000 60.000000, 50.650674 36.322980)

LINESTRING (60.000000 60.000000, 67.366825 91.085660)

LINESTRING (60.000000 60.000000, 38.401438 32.819773)

LINESTRING (60.000000 60.000000, 51.946683 52.253808)

LINESTRING (60.000000 60.000000, 26.557128 86.606640)

LINESTRING (60.000000 60.000000, 77.076993 73.598458)

LINESTRING (60.000000 60.000000, 52.110466 52.184888)

LINESTRING (60.000000 60.000000, 89.230937 57.712045)

LINESTRING (60.000000 60.000000, 27.348030 90.973996)

LINESTRING (60.000000 60.000000, 75.444771 55.005682)

LINESTRING (60.000000 60.000000, 55.210741 32.312073)

LINESTRING (60.000000 60.000000, 30.845437 28.594154)

LINESTRING (60.000000 60.000000, 90.297111 88.300784)

LINESTRING (60.000000 60.000000, 35.467244 86.022519)

LINESTRING (60.000000 60.000000, 42.076497 65.744820)

LINESTRING (60.000000 60.000000, 63.997955 27.894001)

LINESTRING (50.650674 36.322980, 67.366825 91.085660)

LINESTRING (50.650674 36.322980, 51.946683 52.253808)

LINESTRING (50.650674 36.322980, 26.557128 86.606640)

LINESTRING (50.650674 36.322980, 77.076993 73.598458)

LINESTRING (50.650674 36.322980, 52.110466 52.184888)

LINESTRING (50.650674 36.322980, 89.230937 57.712045)

LINESTRING (50.650674 36.322980, 27.348030 90.973996)

LINESTRING (50.650674 36.322980, 75.444771 55.005682)

LINESTRING (50.650674 36.322980, 55.210741 32.312073)

LINESTRING (50.650674 36.322980, 30.845437 28.594154)

LINESTRING (50.650674 36.322980, 90.297111 88.300784)

LINESTRING (50.650674 36.322980, 42.076497 65.744820)

LINESTRING (50.650674 36.322980, 63.997955 27.894001)

LINESTRING (67.366825 91.085660, 38.401438 32.819773)

LINESTRING (67.366825 91.085660, 51.946683 52.253808)

LINESTRING (67.366825 91.085660, 26.557128 86.606640)

LINESTRING (67.366825 91.085660, 77.076993 73.598458)

LINESTRING (67.366825 91.085660, 52.110466 52.184888)

LINESTRING (67.366825 91.085660, 89.230937 57.712045)

LINESTRING (67.366825 91.085660, 27.348030 90.973996)

LINESTRING (67.366825 91.085660, 75.444771 55.005682)

LINESTRING (67.366825 91.085660, 55.210741 32.312073)

LINESTRING (67.366825 91.085660, 30.845437 28.594154)

LINESTRING (67.366825 91.085660, 35.467244 86.022519)

LINESTRING (67.366825 91.085660, 42.076497 65.744820)

LINESTRING (67.366825 91.085660, 63.997955 27.894001)

LINESTRING (38.401438 32.819773, 51.946683 52.253808)

LINESTRING (38.401438 32.819773, 26.557128 86.606640)

LINESTRING (38.401438 32.819773, 52.110466 52.184888)

LINESTRING (38.401438 32.819773, 89.230937 57.712045)

LINESTRING (38.401438 32.819773, 27.348030 90.973996)

LINESTRING (38.401438 32.819773, 75.444771 55.005682)

LINESTRING (38.401438 32.819773, 55.210741 32.312073)

LINESTRING (38.401438 32.819773, 30.845437 28.594154)

LINESTRING (38.401438 32.819773, 90.297111 88.300784)

LINESTRING (38.401438 32.819773, 42.076497 65.744820)

LINESTRING (38.401438 32.819773, 63.997955 27.894001)

LINESTRING (51.946683 52.253808, 26.557128 86.606640)

LINESTRING (51.946683 52.253808, 77.076993 73.598458)

LINESTRING (51.946683 52.253808, 89.230937 57.712045)

LINESTRING (51.946683 52.253808, 55.210741 32.312073)

LINESTRING (51.946683 52.253808, 30.845437 28.594154)

LINESTRING (51.946683 52.253808, 35.467244 86.022519)

LINESTRING (51.946683 52.253808, 42.076497 65.744820)

LINESTRING (51.946683 52.253808, 63.997955 27.894001)

LINESTRING (26.557128 86.606640, 77.076993 73.598458)

LINESTRING (26.557128 86.606640, 52.110466 52.184888)

LINESTRING (26.557128 86.606640, 89.230937 57.712045)

LINESTRING (26.557128 86.606640, 27.348030 90.973996)

LINESTRING (26.557128 86.606640, 75.444771 55.005682)

LINESTRING (26.557128 86.606640, 55.210741 32.312073)

LINESTRING (26.557128 86.606640, 30.845437 28.594154)

LINESTRING (26.557128 86.606640, 90.297111 88.300784)

LINESTRING (26.557128 86.606640, 35.467244 86.022519)

LINESTRING (26.557128 86.606640, 63.997955 27.894001)

LINESTRING (77.076993 73.598458, 52.110466 52.184888)

LINESTRING (77.076993 73.598458, 89.230937 57.712045)

LINESTRING (77.076993 73.598458, 27.348030 90.973996)

LINESTRING (77.076993 73.598458, 30.845437 28.594154)

LINESTRING (77.076993 73.598458, 90.297111 88.300784)

LINESTRING (77.076993 73.598458, 35.467244 86.022519)

LINESTRING (77.076993 73.598458, 42.076497 65.744820)

LINESTRING (52.110466 52.184888, 89.230937 57.712045)

LINESTRING (52.110466 52.184888, 27.348030 90.973996)

LINESTRING (52.110466 52.184888, 75.444771 55.005682)

LINESTRING (52.110466 52.184888, 55.210741 32.312073)

LINESTRING (52.110466 52.184888, 30.845437 28.594154)

LINESTRING (52.110466 52.184888, 35.467244 86.022519)

LINESTRING (52.110466 52.184888, 42.076497 65.744820)

LINESTRING (52.110466 52.184888, 63.997955 27.894001)

LINESTRING (89.230937 57.712045, 27.348030 90.973996)

LINESTRING (89.230937 57.712045, 75.444771 55.005682)

LINESTRING (89.230937 57.712045, 55.210741 32.312073)

LINESTRING (89.230937 57.712045, 90.297111 88.300784)

LINESTRING (89.230937 57.712045, 35.467244 86.022519)

LINESTRING (89.230937 57.712045, 63.997955 27.894001)

LINESTRING (27.348030 90.973996, 75.444771 55.005682)

LINESTRING (27.348030 90.973996, 55.210741 32.312073)

LINESTRING (27.348030 90.973996, 30.845437 28.594154)

LINESTRING (27.348030 90.973996, 90.297111 88.300784)

LINESTRING (27.348030 90.973996, 35.467244 86.022519)

LINESTRING (27.348030 90.973996, 42.076497 65.744820)

LINESTRING (27.348030 90.973996, 63.997955 27.894001)

LINESTRING (75.444771 55.005682, 55.210741 32.312073)

LINESTRING (75.444771 55.005682, 30.845437 28.594154)

LINESTRING (75.444771 55.005682, 90.297111 88.300784)

LINESTRING (75.444771 55.005682, 42.076497 65.744820)

LINESTRING (75.444771 55.005682, 63.997955 27.894001)

LINESTRING (55.210741 32.312073, 30.845437 28.594154)

LINESTRING (55.210741 32.312073, 90.297111 88.300784)

LINESTRING (55.210741 32.312073, 35.467244 86.022519)

LINESTRING (55.210741 32.312073, 42.076497 65.744820)

LINESTRING (55.210741 32.312073, 63.997955 27.894001)

LINESTRING (30.845437 28.594154, 90.297111 88.300784)

LINESTRING (30.845437 28.594154, 35.467244 86.022519)

LINESTRING (30.845437 28.594154, 42.076497 65.744820)

LINESTRING (30.845437 28.594154, 63.997955 27.894001)

LINESTRING (90.297111 88.300784, 35.467244 86.022519)

LINESTRING (90.297111 88.300784, 42.076497 65.744820)

LINESTRING (90.297111 88.300784, 63.997955 27.894001)

LINESTRING (35.467244 86.022519, 42.076497 65.744820)

LINESTRING (35.467244 86.022519, 63.997955 27.894001)

LINESTRING (42.076497 65.744820, 63.997955 27.894001)

LINESTRING (360.000000 60.000000, 364.671065 55.654127)

LINESTRING (360.000000 60.000000, 373.203012 71.419380)

LINESTRING (360.000000 60.000000, 380.877115 91.471878)

LINESTRING (360.000000 60.000000, 346.417726 94.994009)

LINESTRING (360.000000 60.000000, 371.526457 29.218820)

LINESTRING (360.000000 60.000000, 359.434589 49.460586)

LINESTRING (360.000000 60.000000, 351.005373 83.208056)

LINESTRING (360.000000 60.000000, 360.982951 90.020899)

LINESTRING (360.000000 60.000000, 353.714151 84.790017)

LINESTRING (360.000000 60.000000, 386.588736 42.630835)

LINESTRING (360.000000 60.000000, 365.261035 71.415159)

LINESTRING (360.000000 60.000000, 348.429910 24.225566)

LINESTRING (360.000000 60.000000, 350.417173 24.253496)

LINESTRING (360.000000 60.000000, 357.077950 36.047886)

LINESTRING (360.000000 60.000000, 359.643098 66.911398)

LINESTRING (360.000000 60.000000, 355.185325 25.989704)

LINESTRING (364.671065 55.654127, 373.203012 71.419380)

LINESTRING (364.671065 55.654127, 380.877115 91.471878)

LINESTRING (364.671065 55.654127, 346.417726 94.994009)

LINESTRING (364.671065 55.654127, 359.434589 49.460586)

LINESTRING (364.671065 55.654127, 351.005373 83.208056)

LINESTRING (364.671065 55.654127, 360.982951 90.020899)

LINESTRING (364.671065 55.654127, 386.588736 42.630835)

LINESTRING (364.671065 55.654127, 365.261035 71.415159)

LINESTRING (364.671065 55.654127, 348.429910 24.225566)

LINESTRING (364.671065 55.654127, 357.077950 36.047886)

LINESTRING (364.671065 55.654127, 355.185325 25.989704)

LINESTRING (373.203012 71.419380, 380.877115 91.471878)

LINESTRING (373.203012 71.419380, 346.417726 94.994009)

LINESTRING (373.203012 71.419380, 371.526457 29.218820)

LINESTRING (373.203012 71.419380, 351.005373 83.208056)

LINESTRING (373.203012 71.419380, 353.714151 84.790017)

LINESTRING (373.203012 71.419380, 386.588736 42.630835)

LINESTRING (373.203012 71.419380, 348.429910 24.225566)

LINESTRING (373.203012 71.419380, 350.417173 24.253496)

LINESTRING (373.203012 71.419380, 359.643098 66.911398)

LINESTRING (373.203012 71.419380, 355.185325 25.989704)

LINESTRING (380.877115 91.471878, 346.417726 94.994009)

LINESTRING (380.877115 91.471878, 371.526457 29.218820)

LINESTRING (380.877115 91.471878, 359.434589 49.460586)

LINESTRING (380.877115 91.471878, 351.005373 83.208056)

LINESTRING (380.877115 91.471878, 360.982951 90.020899)

LINESTRING (380.877115 91.471878, 353.714151 84.790017)

LINESTRING (380.877115 91.471878, 386.588736 42.630835)

LINESTRING (380.877115 91.471878, 365.261035 71.415159)

LINESTRING (380.877115 91.471878, 348.429910 24.225566)

LINESTRING (380.877115 91.471878, 350.417173 24.253496)

LINESTRING (380.877115 91.471878, 357.077950 36.047886)

LINESTRING (380.877115 91.471878, 359.643098 66.911398)

LINESTRING (380.877115 91.471878, 355.185325 25.989704)

LINESTRING (346.417726 94.994009, 371.526457 29.218820)

LINESTRING (346.417726 94.994009, 359.434589 49.460586)

LINESTRING (346.417726 94.994009, 360.982951 90.020899)

LINESTRING (346.417726 94.994009, 353.714151 84.790017)

LINESTRING (346.417726 94.994009, 386.588736 42.630835)

LINESTRING (346.417726 94.994009, 365.261035 71.415159)

LINESTRING (346.417726 94.994009, 348.429910 24.225566)

LINESTRING (346.417726 94.994009, 350.417173 24.253496)

LINESTRING (346.417726 94.994009, 357.077950 36.047886)

LINESTRING (346.417726 94.994009, 359.643098 66.911398)

LINESTRING (346.417726 94.994009, 355.185325 25.989704)

LINESTRING (371.526457 29.218820, 359.434589 49.460586)

LINESTRING (371.526457 29.218820, 351.005373 83.208056)

LINESTRING (371.526457 29.218820, 360.982951 90.020899)

LINESTRING (371.526457 29.218820, 353.714151 84.790017)

LINESTRING (371.526457 29.218820, 386.588736 42.630835)

LINESTRING (371.526457 29.218820, 348.429910 24.225566)

LINESTRING (371.526457 29.218820, 350.417173 24.253496)

LINESTRING (371.526457 29.218820, 357.077950 36.047886)

LINESTRING (371.526457 29.218820, 359.643098 66.911398)

LINESTRING (371.526457 29.218820, 355.185325 25.989704)

LINESTRING (359.434589 49.460586, 351.005373 83.208056)

LINESTRING (359.434589 49.460586, 360.982951 90.020899)

LINESTRING (359.434589 49.460586, 353.714151 84.790017)

LINESTRING (359.434589 49.460586, 386.588736 42.630835)

LINESTRING (359.434589 49.460586, 365.261035 71.415159)

LINESTRING (359.434589 49.460586, 348.429910 24.225566)

LINESTRING (359.434589 49.460586, 350.417173 24.253496)

LINESTRING (359.434589 49.460586, 357.077950 36.047886)

LINESTRING (359.434589 49.460586, 359.643098 66.911398)

LINESTRING (359.434589 49.460586, 355.185325 25.989704)

LINESTRING (351.005373 83.208056, 360.982951 90.020899)

LINESTRING (351.005373 83.208056, 353.714151 84.790017)

LINESTRING (351.005373 83.208056, 386.588736 42.630835)

LINESTRING (351.005373 83.208056, 365.261035 71.415159)

LINESTRING (351.005373 83.208056, 348.429910 24.225566)

LINESTRING (351.005373 83.208056, 350.417173 24.253496)

LINESTRING (351.005373 83.208056, 357.077950 36.047886)

LINESTRING (351.005373 83.208056, 359.643098 66.911398)

LINESTRING (351.005373 83.208056, 355.185325 25.989704)

LINESTRING (360.982951 90.020899, 386.588736 42.630835)

LINESTRING (360.982951 90.020899, 365.261035 71.415159)

LINESTRING (360.982951 90.020899, 348.429910 24.225566)

LINESTRING (360.982951 90.020899, 350.417173 24.253496)

LINESTRING (360.982951 90.020899, 357.077950 36.047886)

LINESTRING (360.982951 90.020899, 359.643098 66.911398)

LINESTRING (360.982951 90.020899, 355.185325 25.989704)

LINESTRING (353.714151 84.790017, 386.588736 42.630835)

LINESTRING (353.714151 84.790017, 365.261035 71.415159)

LINESTRING (353.714151 84.790017, 348.429910 24.225566)

LINESTRING (353.714151 84.790017, 350.417173 24.253496)

LINESTRING (353.714151 84.790017, 357.077950 36.047886)

LINESTRING (353.714151 84.790017, 359.643098 66.911398)

LINESTRING (353.714151 84.790017, 355.185325 25.989704)

LINESTRING (386.588736 42.630835, 365.261035 71.415159)

LINESTRING (386.588736 42.630835, 348.429910 24.225566)

LINESTRING (386.588736 42.630835, 350.417173 24.253496)

LINESTRING (386.588736 42.630835, 357.077950 36.047886)

LINESTRING (386.588736 42.630835, 359.643098 66.911398)

LINESTRING (386.588736 42.630835, 355.185325 25.989704)

LINESTRING (365.261035 71.415159, 348.429910 24.225566)

LINESTRING (365.261035 71.415159, 350.417173 24.253496)

LINESTRING (365.261035 71.415159, 357.077950 36.047886)

LINESTRING (365.261035 71.415159, 359.643098 66.911398)

LINESTRING (365.261035 71.415159, 355.185325 25.989704)

LINESTRING (348.429910 24.225566, 350.417173 24.253496)

LINESTRING (348.429910 24.225566, 357.077950 36.047886)

LINESTRING (348.429910 24.225566, 359.643098 66.911398)

LINESTRING (348.429910 24.225566, 355.185325 25.989704)

LINESTRING (350.417173 24.253496, 357.077950 36.047886)

LINESTRING (350.417173 24.253496, 359.643098 66.911398)

LINESTRING (350.417173 24.253496, 355.185325 25.989704)

LINESTRING (357.077950 36.047886, 359.643098 66.911398)

LINESTRING (357.077950 36.047886, 355.185325 25.989704)

LINESTRING (359.643098 66.911398, 355.185325 25.989704)

LINESTRING (660.000000 60.000000, 660.165856 40.802744)

LINESTRING (660.000000 60.000000, 629.571833 40.723107)

LINESTRING (660.000000 60.000000, 625.117132 45.388358)

LINESTRING (660.000000 60.000000, 650.346101 59.279090)

LINESTRING (660.000000 60.000000, 625.643767 80.110298)

LINESTRING (660.000000 60.000000, 657.106489 43.004089)

LINESTRING (660.000000 60.000000, 634.455851 49.861116)

LINESTRING (660.000000 60.000000, 662.131217 82.383910)

LINESTRING (660.000000 60.000000, 662.724058 78.974917)

LINESTRING (660.000000 60.000000, 674.284032 49.818393)

LINESTRING (660.000000 60.000000, 643.262217 76.973444)

LINESTRING (660.000000 60.000000, 690.393020 55.753275)

LINESTRING (660.000000 60.000000, 658.330154 94.993259)

LINESTRING (660.000000 60.000000, 651.933278 62.556691)

LINESTRING (660.000000 60.000000, 638.084974 38.230756)

LINESTRING (660.000000 60.000000, 640.327828 43.301719)

LINESTRING (660.165856 40.802744, 629.571833 40.723107)

LINESTRING (660.165856 40.802744, 625.117132 45.388358)

LINESTRING (660.165856 40.802744, 650.346101 59.279090)

LINESTRING (660.165856 40.802744, 625.643767 80.110298)

LINESTRING (660.165856 40.802744, 657.106489 43.004089)

LINESTRING (660.165856 40.802744, 634.455851 49.861116)

LINESTRING (660.165856 40.802744, 662.131217 82.383910)

LINESTRING (660.165856 40.802744, 662.724058 78.974917)

LINESTRING (660.165856 40.802744, 674.284032 49.818393)

LINESTRING (660.165856 40.802744, 643.262217 76.973444)

LINESTRING (660.165856 40.802744, 690.393020 55.753275)

LINESTRING (660.165856 40.802744, 658.330154 94.993259)

LINESTRING (660.165856 40.802744, 651.933278 62.556691)

LINESTRING (660.165856 40.802744, 638.084974 38.230756)

LINESTRING (660.165856 40.802744, 640.327828 43.301719)

LINESTRING (629.571833 40.723107, 625.117132 45.388358)

LINESTRING (629.571833 40.723107, 650.346101 59.279090)

LINESTRING (629.571833 40.723107, 625.643767 80.110298)

LINESTRING (629.571833 40.723107, 657.106489 43.004089)

LINESTRING (629.571833 40.723107, 634.455851 49.861116)

LINESTRING (629.571833 40.723107, 662.131217 82.383910)

LINESTRING (629.571833 40.723107, 662.724058 78.974917)

LINESTRING (629.571833 40.723107, 674.284032 49.818393)

LINESTRING (629.571833 40.723107, 690.393020 55.753275)

LINESTRING (629.571833 40.723107, 658.330154 94.993259)

LINESTRING (629.571833 40.723107, 651.933278 62.556691)

LINESTRING (629.571833 40.723107, 638.084974 38.230756)

LINESTRING (629.571833 40.723107, 640.327828 43.301719)

LINESTRING (625.117132 45.388358, 650.346101 59.279090)

LINESTRING (625.117132 45.388358, 625.643767 80.110298)

LINESTRING (625.117132 45.388358, 657.106489 43.004089)

LINESTRING (625.117132 45.388358, 634.455851 49.861116)

LINESTRING (625.117132 45.388358, 662.131217 82.383910)

LINESTRING (625.117132 45.388358, 662.724058 78.974917)

LINESTRING (625.117132 45.388358, 674.284032 49.818393)

LINESTRING (625.117132 45.388358, 643.262217 76.973444)

LINESTRING (625.117132 45.388358, 690.393020 55.753275)

LINESTRING (625.117132 45.388358, 651.933278 62.556691)

LINESTRING (625.117132 45.388358, 638.084974 38.230756)

LINESTRING (625.117132 45.388358, 640.327828 43.301719)

LINESTRING (650.346101 59.279090, 625.643767 80.110298)

LINESTRING (650.346101 59.279090, 657.106489 43.004089)

LINESTRING (650.346101 59.279090, 634.455851 49.861116)

LINESTRING (650.346101 59.279090, 662.131217 82.383910)

LINESTRING (650.346101 59.279090, 643.262217 76.973444)

LINESTRING (650.346101 59.279090, 690.393020 55.753275)

LINESTRING (650.346101 59.279090, 658.330154 94.993259)

LINESTRING (650.346101 59.279090, 651.933278 62.556691)

LINESTRING (650.346101 59.279090, 638.084974 38.230756)

LINESTRING (650.346101 59.279090, 640.327828 43.301719)

LINESTRING (625.643767 80.110298, 657.106489 43.004089)

LINESTRING (625.643767 80.110298, 634.455851 49.861116)

LINESTRING (625.643767 80.110298, 662.131217 82.383910)

LINESTRING (625.643767 80.110298, 674.284032 49.818393)

LINESTRING (625.643767 80.110298, 643.262217 76.973444)

LINESTRING (625.643767 80.110298, 690.393020 55.753275)

LINESTRING (625.643767 80.110298, 658.330154 94.993259)

LINESTRING (625.643767 80.110298, 651.933278 62.556691)

LINESTRING (625.643767 80.110298, 638.084974 38.230756)

LINESTRING (625.643767 80.110298, 640.327828 43.301719)

LINESTRING (657.106489 43.004089, 634.455851 49.861116)

LINESTRING (657.106489 43.004089, 662.131217 82.383910)

LINESTRING (657.106489 43.004089, 662.724058 78.974917)

LINESTRING (657.106489 43.004089, 674.284032 49.818393)

LINESTRING (657.106489 43.004089, 643.262217 76.973444)

LINESTRING (657.106489 43.004089, 690.393020 55.753275)

LINESTRING (657.106489 43.004089, 658.330154 94.993259)

LINESTRING (657.106489 43.004089, 651.933278 62.556691)

LINESTRING (657.106489 43.004089, 638.084974 38.230756)

LINESTRING (657.106489 43.004089, 640.327828 43.301719)

LINESTRING (634.455851 49.861116, 662.131217 82.383910)

LINESTRING (634.455851 49.861116, 662.724058 78.974917)

LINESTRING (634.455851 49.861116, 674.284032 49.818393)

LINESTRING (634.455851 49.861116, 643.262217 76.973444)

LINESTRING (634.455851 49.861116, 690.393020 55.753275)

LINESTRING (634.455851 49.861116, 658.330154 94.993259)

LINESTRING (634.455851 49.861116, 651.933278 62.556691)

LINESTRING (634.455851 49.861116, 638.084974 38.230756)

LINESTRING (634.455851 49.861116, 640.327828 43.301719)

LINESTRING (662.131217 82.383910, 662.724058 78.974917)

LINESTRING (662.131217 82.383910, 674.284032 49.818393)

LINESTRING (662.131217 82.383910, 643.262217 76.973444)

LINESTRING (662.131217 82.383910, 690.393020 55.753275)

LINESTRING (662.131217 82.383910, 658.330154 94.993259)

LINESTRING (662.131217 82.383910, 651.933278 62.556691)

LINESTRING (662.131217 82.383910, 638.084974 38.230756)

LINESTRING (662.131217 82.383910, 640.327828 43.301719)

LINESTRING (662.724058 78.974917, 674.284032 49.818393)

LINESTRING (662.724058 78.974917, 643.262217 76.973444)

LINESTRING (662.724058 78.974917, 658.330154 94.993259)

LINESTRING (662.724058 78.974917, 651.933278 62.556691)

LINESTRING (662.724058 78.974917, 638.084974 38.230756)

LINESTRING (662.724058 78.974917, 640.327828 43.301719)

LINESTRING (674.284032 49.818393, 643.262217 76.973444)

LINESTRING (674.284032 49.818393, 690.393020 55.753275)

LINESTRING (674.284032 49.818393, 658.330154 94.993259)

LINESTRING (674.284032 49.818393, 651.933278 62.556691)

LINESTRING (674.284032 49.818393, 638.084974 38.230756)

LINESTRING (674.284032 49.818393, 640.327828 43.301719)

LINESTRING (643.262217 76.973444, 690.393020 55.753275)

LINESTRING (643.262217 76.973444, 651.933278 62.556691)

LINESTRING (643.262217 76.973444, 638.084974 38.230756)

LINESTRING (643.262217 76.973444, 640.327828 43.301719)

LINESTRING (690.393020 55.753275, 658.330154 94.993259)

LINESTRING (690.393020 55.753275, 651.933278 62.556691)

LINESTRING (690.393020 55.753275, 640.327828 43.301719)

LINESTRING (658.330154 94.993259, 651.933278 62.556691)

LINESTRING (658.330154 94.993259, 638.084974 38.230756)

LINESTRING (658.330154 94.993259, 640.327828 43.301719)

LINESTRING (651.933278 62.556691, 638.084974 38.230756)

LINESTRING (651.933278 62.556691, 640.327828 43.301719)

LINESTRING (638.084974 38.230756, 640.327828 43.301719)

LINESTRING (60.000000 360.000000, 92.775034 383.466556)

LINESTRING (60.000000 360.000000, 55.828610 382.841696)

LINESTRING (60.000000 360.000000, 76.524571 355.304434)

LINESTRING (60.000000 360.000000, 40.238980 339.203028)

LINESTRING (60.000000 360.000000, 89.145430 371.356152)

LINESTRING (60.000000 360.000000, 91.730746 391.265161)

LINESTRING (60.000000 360.000000, 82.995206 344.007307)

LINESTRING (60.000000 360.000000, 94.432338 350.632825)

LINESTRING (60.000000 360.000000, 35.396190 377.918928)

LINESTRING (60.000000 360.000000, 57.404565 374.035526)

LINESTRING (60.000000 360.000000, 44.922985 328.101310)

LINESTRING (60.000000 360.000000, 59.164631 351.311042)

LINESTRING (60.000000 360.000000, 69.147802 381.162250)

LINESTRING (60.000000 360.000000, 31.511509 381.072038)

LINESTRING (60.000000 360.000000, 60.659047 357.791326)

LINESTRING (60.000000 360.000000, 39.434153 376.668630)

LINESTRING (92.775034 383.466556, 55.828610 382.841696)

LINESTRING (92.775034 383.466556, 76.524571 355.304434)

LINESTRING (92.775034 383.466556, 40.238980 339.203028)

LINESTRING (92.775034 383.466556, 89.145430 371.356152)

LINESTRING (92.775034 383.466556, 82.995206 344.007307)

LINESTRING (92.775034 383.466556, 94.432338 350.632825)

LINESTRING (92.775034 383.466556, 35.396190 377.918928)

LINESTRING (92.775034 383.466556, 57.404565 374.035526)

LINESTRING (92.775034 383.466556, 44.922985 328.101310)

LINESTRING (92.775034 383.466556, 69.147802 381.162250)

LINESTRING (92.775034 383.466556, 39.434153 376.668630)

LINESTRING (55.828610 382.841696, 76.524571 355.304434)

LINESTRING (55.828610 382.841696, 40.238980 339.203028)

LINESTRING (55.828610 382.841696, 89.145430 371.356152)

LINESTRING (55.828610 382.841696, 91.730746 391.265161)

LINESTRING (55.828610 382.841696, 82.995206 344.007307)

LINESTRING (55.828610 382.841696, 94.432338 350.632825)

LINESTRING (55.828610 382.841696, 35.396190 377.918928)

LINESTRING (55.828610 382.841696, 57.404565 374.035526)

LINESTRING (55.828610 382.841696, 44.922985 328.101310)

LINESTRING (55.828610 382.841696, 59.164631 351.311042)

LINESTRING (55.828610 382.841696, 69.147802 381.162250)

LINESTRING (55.828610 382.841696, 31.511509 381.072038)

LINESTRING (55.828610 382.841696, 60.659047 357.791326)

LINESTRING (76.524571 355.304434, 40.238980 339.203028)

LINESTRING (76.524571 355.304434, 89.145430 371.356152)

LINESTRING (76.524571 355.304434, 91.730746 391.265161)

LINESTRING (76.524571 355.304434, 94.432338 350.632825)

LINESTRING (76.524571 355.304434, 35.396190 377.918928)

LINESTRING (76.524571 355.304434, 57.404565 374.035526)

LINESTRING (76.524571 355.304434, 44.922985 328.101310)

LINESTRING (76.524571 355.304434, 59.164631 351.311042)

LINESTRING (76.524571 355.304434, 69.147802 381.162250)

LINESTRING (76.524571 355.304434, 31.511509 381.072038)

LINESTRING (76.524571 355.304434, 60.659047 357.791326)

LINESTRING (76.524571 355.304434, 39.434153 376.668630)

LINESTRING (40.238980 339.203028, 89.145430 371.356152)

LINESTRING (40.238980 339.203028, 82.995206 344.007307)

LINESTRING (40.238980 339.203028, 35.396190 377.918928)

LINESTRING (40.238980 339.203028, 57.404565 374.035526)

LINESTRING (40.238980 339.203028, 44.922985 328.101310)

LINESTRING (40.238980 339.203028, 59.164631 351.311042)

LINESTRING (40.238980 339.203028, 69.147802 381.162250)

LINESTRING (40.238980 339.203028, 31.511509 381.072038)

LINESTRING (40.238980 339.203028, 39.434153 376.668630)

LINESTRING (89.145430 371.356152, 91.730746 391.265161)

LINESTRING (89.145430 371.356152, 82.995206 344.007307)

LINESTRING (89.145430 371.356152, 94.432338 350.632825)

LINESTRING (89.145430 371.356152, 35.396190 377.918928)

LINESTRING (89.145430 371.356152, 57.404565 374.035526)

LINESTRING (89.145430 371.356152, 44.922985 328.101310)

LINESTRING (89.145430 371.356152, 59.164631 351.311042)

LINESTRING (89.145430 371.356152, 69.147802 381.162250)

LINESTRING (89.145430 371.356152, 31.511509 381.072038)

LINESTRING (89.145430 371.356152, 60.659047 357.791326)

LINESTRING (89.145430 371.356152, 39.434153 376.668630)

LINESTRING (91.730746 391.265161, 82.995206 344.007307)

LINESTRING (91.730746 391.265161, 94.432338 350.632825)

LINESTRING (91.730746 391.265161, 35.396190 377.918928)

LINESTRING (91.730746 391.265161, 57.404565 374.035526)

LINESTRING (91.730746 391.265161, 44.922985 328.101310)

LINESTRING (91.730746 391.265161, 69.147802 381.162250)

LINESTRING (91.730746 391.265161, 31.511509 381.072038)

LINESTRING (91.730746 391.265161, 60.659047 357.791326)

LINESTRING (91.730746 391.265161, 39.434153 376.668630)

LINESTRING (82.995206 344.007307, 94.432338 350.632825)

LINESTRING (82.995206 344.007307, 35.396190 377.918928)

LINESTRING (82.995206 344.007307, 57.404565 374.035526)

LINESTRING (82.995206 344.007307, 44.922985 328.101310)

LINESTRING (82.995206 344.007307, 69.147802 381.162250)

LINESTRING (82.995206 344.007307, 31.511509 381.072038)

LINESTRING (82.995206 344.007307, 39.434153 376.668630)

LINESTRING (94.432338 350.632825, 35.396190 377.918928)

LINESTRING (94.432338 350.632825, 57.404565 374.035526)

LINESTRING (94.432338 350.632825, 44.922985 328.101310)

LINESTRING (94.432338 350.632825, 59.164631 351.311042)

LINESTRING (94.432338 350.632825, 69.147802 381.162250)

LINESTRING (94.432338 350.632825, 31.511509 381.072038)

LINESTRING (94.432338 350.632825, 60.659047 357.791326)

LINESTRING (94.432338 350.632825, 39.434153 376.668630)

LINESTRING (35.396190 377.918928, 57.404565 374.035526)

LINESTRING (35.396190 377.918928, 44.922985 328.101310)

LINESTRING (35.396190 377.918928, 59.164631 351.311042)

LINESTRING (35.396190 377.918928, 69.147802 381.162250)

LINESTRING (35.396190 377.918928, 31.511509 381.072038)

LINESTRING (35.396190 377.918928, 60.659047 357.791326)

LINESTRING (35.396190 377.918928, 39.434153 376.668630)

LINESTRING (57.404565 374.035526, 44.922985 328.101310)

LINESTRING (57.404565 374.035526, 59.164631 351.311042)

LINESTRING (57.404565 374.035526, 69.147802 381.162250)

LINESTRING (57.404565 374.035526, 31.511509 381.072038)

LINESTRING (57.404565 374.035526, 60.659047 357.791326)

LINESTRING (57.404565 374.035526, 39.434153 376.668630)

LINESTRING (44.922985 328.101310, 59.164631 351.311042)

LINESTRING (44.922985 328.101310, 69.147802 381.162250)

LINESTRING (44.922985 328.101310, 31.511509 381.072038)

LINESTRING (44.922985 328.101310, 60.659047 357.791326)

LINESTRING (44.922985 328.101310, 39.434153 376.668630)

LINESTRING (59.164631 351.311042, 69.147802 381.162250)

LINESTRING (59.164631 351.311042, 31.511509 381.072038)

LINESTRING (59.164631 351.311042, 60.659047 357.791326)

LINESTRING (59.164631 351.311042, 39.434153 376.668630)

LINESTRING (69.147802 381.162250, 31.511509 381.072038)

LINESTRING (69.147802 381.162250, 60.659047 357.791326)

LINESTRING (31.511509 381.072038, 39.434153 376.668630)

LINESTRING (60.659047 357.791326, 39.434153 376.668630)

LINESTRING (360.000000 360.000000, 338.033216 337.967026)

LINESTRING (360.000000 360.000000, 326.872930 324.722383)

LINESTRING (360.000000 360.000000, 343.736440 395.081427)

LINESTRING (360.000000 360.000000, 358.513978 355.951573)

LINESTRING (360.000000 360.000000, 373.344740 364.786894)

LINESTRING (360.000000 360.000000, 357.759724 335.831323)

LINESTRING (360.000000 360.000000, 347.110149 339.947143)

LINESTRING (360.000000 360.000000, 392.728276 390.884178)

LINESTRING (360.000000 360.000000, 368.667335 349.697467)

LINESTRING (360.000000 360.000000, 370.351510 370.873141)

LINESTRING (360.000000 360.000000, 344.075014 373.600757)

LINESTRING (360.000000 360.000000, 372.537989 342.991855)

LINESTRING (360.000000 360.000000, 359.987718 328.096683)

LINESTRING (360.000000 360.000000, 330.307455 373.703545)

LINESTRING (360.000000 360.000000, 360.884075 393.847274)

LINESTRING (360.000000 360.000000, 352.578733 358.543773)

LINESTRING (338.033216 337.967026, 326.872930 324.722383)

LINESTRING (338.033216 337.967026, 343.736440 395.081427)

LINESTRING (338.033216 337.967026, 358.513978 355.951573)

LINESTRING (338.033216 337.967026, 347.110149 339.947143)

LINESTRING (338.033216 337.967026, 392.728276 390.884178)

LINESTRING (338.033216 337.967026, 368.667335 349.697467)

LINESTRING (338.033216 337.967026, 344.075014 373.600757)

LINESTRING (338.033216 337.967026, 372.537989 342.991855)

LINESTRING (338.033216 337.967026, 359.987718 328.096683)

LINESTRING (338.033216 337.967026, 330.307455 373.703545)

LINESTRING (338.033216 337.967026, 360.884075 393.847274)

LINESTRING (338.033216 337.967026, 352.578733 358.543773)

LINESTRING (326.872930 324.722383, 343.736440 395.081427)

LINESTRING (326.872930 324.722383, 358.513978 355.951573)

LINESTRING (326.872930 324.722383, 373.344740 364.786894)

LINESTRING (326.872930 324.722383, 357.759724 335.831323)

LINESTRING (326.872930 324.722383, 347.110149 339.947143)

LINESTRING (326.872930 324.722383, 392.728276 390.884178)

LINESTRING (326.872930 324.722383, 368.667335 349.697467)

LINESTRING (326.872930 324.722383, 370.351510 370.873141)

LINESTRING (326.872930 324.722383, 344.075014 373.600757)

LINESTRING (326.872930 324.722383, 359.987718 328.096683)

LINESTRING (326.872930 324.722383, 330.307455 373.703545)

LINESTRING (326.872930 324.722383, 360.884075 393.847274)

LINESTRING (326.872930 324.722383, 352.578733 358.543773)

LINESTRING (343.736440 395.081427, 358.513978 355.951573)

LINESTRING (343.736440 395.081427, 373.344740 364.786894)

LINESTRING (343.736440 395.081427, 357.759724 335.831323)

LINESTRING (343.736440 395.081427, 347.110149 339.947143)

LINESTRING (343.736440 395.081427, 392.728276 390.884178)

LINESTRING (343.736440 395.081427, 368.667335 349.697467)

LINESTRING (343.736440 395.081427, 370.351510 370.873141)

LINESTRING (343.736440 395.081427, 344.075014 373.600757)

LINESTRING (343.736440 395.081427, 372.537989 342.991855)

LINESTRING (343.736440 395.081427, 330.307455 373.703545)

LINESTRING (343.736440 395.081427, 360.884075 393.847274)

LINESTRING (358.513978 355.951573, 373.344740 364.786894)

LINESTRING (358.513978 355.951573, 357.759724 335.831323)

LINESTRING (358.513978 355.951573, 347.110149 339.947143)

LINESTRING (358.513978 355.951573, 392.728276 390.884178)

LINESTRING (358.513978 355.951573, 370.351510 370.873141)

LINESTRING (358.513978 355.951573, 372.537989 342.991855)

LINESTRING (358.513978 355.951573, 359.987718 328.096683)

LINESTRING (358.513978 355.951573, 330.307455 373.703545)

LINESTRING (358.513978 355.951573, 360.884075 393.847274)

LINESTRING (358.513978 355.951573, 352.578733 358.543773)

LINESTRING (373.344740 364.786894, 357.759724 335.831323)

LINESTRING (373.344740 364.786894, 347.110149 339.947143)

LINESTRING (373.344740 364.786894, 392.728276 390.884178)

LINESTRING (373.344740 364.786894, 368.667335 349.697467)

LINESTRING (373.344740 364.786894, 370.351510 370.873141)

LINESTRING (373.344740 364.786894, 344.075014 373.600757)

LINESTRING (373.344740 364.786894, 372.537989 342.991855)

LINESTRING (373.344740 364.786894, 359.987718 328.096683)

LINESTRING (373.344740 364.786894, 330.307455 373.703545)

LINESTRING (373.344740 364.786894, 360.884075 393.847274)

LINESTRING (373.344740 364.786894, 352.578733 358.543773)

LINESTRING (357.759724 335.831323, 347.110149 339.947143)

LINESTRING (357.759724 335.831323, 392.728276 390.884178)

LINESTRING (357.759724 335.831323, 368.667335 349.697467)

LINESTRING (357.759724 335.831323, 370.351510 370.873141)

LINESTRING (357.759724 335.831323, 344.075014 373.600757)

LINESTRING (357.759724 335.831323, 372.537989 342.991855)

LINESTRING (357.759724 335.831323, 359.987718 328.096683)

LINESTRING (357.759724 335.831323, 330.307455 373.703545)

LINESTRING (357.759724 335.831323, 360.884075 393.847274)

LINESTRING (347.110149 339.947143, 392.728276 390.884178)

LINESTRING (347.110149 339.947143, 368.667335 349.697467)

LINESTRING (347.110149 339.947143, 370.351510 370.873141)

LINESTRING (347.110149 339.947143, 372.537989 342.991855)

LINESTRING (347.110149 339.947143, 330.307455 373.703545)

LINESTRING (347.110149 339.947143, 360.884075 393.847274)

LINESTRING (347.110149 339.947143, 352.578733 358.543773)

LINESTRING (392.728276 390.884178, 368.667335 349.697467)

LINESTRING (392.728276 390.884178, 370.351510 370.873141)

LINESTRING (392.728276 390.884178, 344.075014 373.600757)

LINESTRING (392.728276 390.884178, 359.987718 328.096683)

LINESTRING (392.728276 390.884178, 330.307455 373.703545)

LINESTRING (392.728276 390.884178, 360.884075 393.847274)

LINESTRING (392.728276 390.884178, 352.578733 358.543773)

LINESTRING (368.667335 349.697467, 370.351510 370.873141)

LINESTRING (368.667335 349.697467, 344.075014 373.600757)

LINESTRING (368.667335 349.697467, 372.537989 342.991855)

LINESTRING (368.667335 349.697467, 359.987718 328.096683)

LINESTRING (368.667335 349.697467, 330.307455 373.703545)

LINESTRING (368.667335 349.697467, 360.884075 393.847274)

LINESTRING (368.667335 349.697467, 352.578733 358.543773)

LINESTRING (370.351510 370.873141, 372.537989 342.991855)

LINESTRING (370.351510 370.873141, 359.987718 328.096683)

LINESTRING (370.351510 370.873141, 330.307455 373.703545)

LINESTRING (370.351510 370.873141, 360.884075 393.847274)

LINESTRING (344.075014 373.600757, 372.537989 342.991855)

LINESTRING (344.075014 373.600757, 359.987718 328.096683)

LINESTRING (344.075014 373.600757, 330.307455 373.703545)

LINESTRING (344.075014 373.600757, 360.884075 393.847274)

LINESTRING (372.537989 342.991855, 359.987718 328.096683)

LINESTRING (372.537989 342.991855, 330.307455 373.703545)

LINESTRING (372.537989 342.991855, 360.884075 393.847274)

LINESTRING (359.987718 328.096683, 330.307455 373.703545)

LINESTRING (359.987718 328.096683, 360.884075 393.847274)

LINESTRING (359.987718 328.096683, 352.578733 358.543773)

LINESTRING (330.307455 373.703545, 360.884075 393.847274)

LINESTRING (330.307455 373.703545, 352.578733 358.543773)

LINESTRING (360.884075 393.847274, 352.578733 358.543773)

LINESTRING (75.444771 55.005682, 365.261035 71.415159)

LINESTRING (27.348030 90.973996, 364.671065 55.654127)

LINESTRING (60.000000 60.000000, 360.000000 60.000000)

LINESTRING (348.429910 24.225566, 625.643767 80.110298)

LINESTRING (359.434589 49.460586, 651.933278 62.556691)

LINESTRING (360.000000 60.000000, 660.000000 60.000000)

LINESTRING (662.131217 82.383910, 91.730746 391.265161)

LINESTRING (662.724058 78.974917, 89.145430 371.356152)

LINESTRING (660.000000 60.000000, 60.000000 360.000000)

LINESTRING (69.147802 381.162250, 368.667335 349.697467)

LINESTRING (44.922985 328.101310, 343.736440 395.081427)

LINESTRING (60.000000 360.000000, 360.000000 360.000000)

