LINESTRING (50.893230 48.783679, 157.659230 54.805621)

LINESTRING (157.659230 54.805621, 240.806953 51.059597)

LINESTRING (240.806953 51.059597, 344.368740 54.956429)

LINESTRING (344.368740 54.956429, 443.191873 55.307249)

LINESTRING (443.191873 55.307249, 554.625849 52.078892)

LINESTRING (554.625849 52.078892, 647.958091 59.154538)

LINESTRING (647.958091 59.154538, 745.154484 41.893939)

LINESTRING (745.154484 41.893939, 846.628663 45.797254)

LINESTRING (846.628663 45.797254, 945.689086 53.258147)

LINESTRING (945.689086 53.258147, 1040.576079 41.287743)

LINESTRING (1040.576079 41.287743, 1140.951754 42.861964)

LINESTRING (1140.951754 42.861964, 1244.236728 53.999728)

LINESTRING (1244.236728 53.999728, 1355.296523 56.185762)

LINESTRING (1355.296523 56.185762, 1447.116488 49.517364)

LINESTRING (1447.116488 49.517364, 1550.489450 50.623120)

LINESTRING (1550.489450 50.623120, 1649.420873 49.483064)

LINESTRING (1649.420873 49.483064, 1755.640832 54.378223)

LINESTRING (1755.640832 54.378223, 1855.762528 50.446683)

LINESTRING (41.502527 141.886497, 141.564771 158.362714)

LINESTRING (141.564771 158.362714, 249.824591 159.497844)

LINESTRING (249.824591 159.497844, 353.634418 152.143680)

LINESTRING (353.634418 152.143680, 447.377500 157.671502)

LINESTRING (447.377500 157.671502, 540.033449 143.490700)

LINESTRING (540.033449 143.490700, 658.307748 151.297356)

LINESTRING (658.307748 151.297356, 749.444373 156.706538)

LINESTRING (749.444373 156.706538, 857.641508 150.913116)

LINESTRING (857.641508 150.913116, 954.739160 158.982785)

LINESTRING (954.739160 158.982785, 1051.927933 151.797185)

LINESTRING (1051.927933 151.797185, 1150.123475 144.505083)

LINESTRING (1150.123475 144.505083, 1244.781091 158.202124)

LINESTRING (1244.781091 158.202124, 1358.670476 146.040093)

LINESTRING (1358.670476 146.040093, 1443.457154 159.353239)

LINESTRING (1443.457154 159.353239, 1551.567572 148.644281)

LINESTRING (1551.567572 148.644281, 1654.503184 154.059913)

LINESTRING (1654.503184 154.059913, 1758.241426 151.695547)

LINESTRING (1758.241426 151.695547, 1842.105213 142.618863)

LINESTRING (50.673369 245.267177, 144.853711 252.494090)

LINESTRING (144.853711 252.494090, 258.675076 246.256136)

LINESTRING (258.675076 246.256136, 344.749954 258.972777)

LINESTRING (344.749954 258.972777, 452.101299 254.778457)

LINESTRING (452.101299 254.778457, 552.340024 253.331760)

LINESTRING (552.340024 253.331760, 640.967910 258.748041)

LINESTRING (640.967910 258.748041, 746.738318 247.257819)

LINESTRING (746.738318 247.257819, 855.385845 251.069086)

LINESTRING (855.385845 251.069086, 946.362099 259.372481)

LINESTRING (946.362099 259.372481, 1050.053816 250.297783)

LINESTRING (1050.053816 250.297783, 1151.315651 244.341331)

LINESTRING (1151.315651 244.341331, 1259.943222 247.165683)

LINESTRING (1259.943222 247.165683, 1358.164006 259.815453)

LINESTRING (1358.164006 259.815453, 1445.372836 242.594059)

LINESTRING (1445.372836 242.594059, 1558.432607 248.386443)

LINESTRING (1558.432607 248.386443, 1644.232911 244.978737)

LINESTRING (1644.232911 244.978737, 1748.755699 259.581144)

LINESTRING (1748.755699 259.581144, 1849.470750 250.949818)

LINESTRING (48.625196 356.490737, 150.998128 348.382847)

LINESTRING (150.998128 348.382847, 259.567240 344.159336)

LINESTRING (259.567240 344.159336, 349.343448 357.880522)

LINESTRING (349.343448 357.880522, 458.471127 357.194144)

LINESTRING (458.471127 357.194144, 543.864952 349.776449)

LINESTRING (543.864952 349.776449, 656.653425 350.045908)

LINESTRING (656.653425 350.045908, 746.859788 342.405395)

LINESTRING (746.859788 342.405395, 840.719047 359.167792)

LINESTRING (840.719047 359.167792, 949.381472 344.084262)

LINESTRING (949.381472 344.084262, 1040.551628 359.976246)

LINESTRING (1040.551628 359.976246, 1152.458985 349.381410)

LINESTRING (1152.458985 349.381410, 1249.223278 341.133037)

LINESTRING (1249.223278 341.133037, 1345.909166 345.224426)

LINESTRING (1345.909166 345.224426, 1441.167023 342.278163)

LINESTRING (1441.167023 342.278163, 1549.024556 351.484063)

LINESTRING (1549.024556 351.484063, 1654.919020 349.383734)

LINESTRING (1654.919020 349.383734, 1745.728650 359.088717)

LINESTRING (1745.728650 359.088717, 1852.558767 346.705767)

LINESTRING (59.951750 445.815120, 140.180957 459.721571)

LINESTRING (140.180957 459.721571, 248.425912 441.416086)

LINESTRING (248.425912 441.416086, 355.454114 448.539841)

LINESTRING (355.454114 448.539841, 444.500792 459.512520)

LINESTRING (444.500792 459.512520, 547.326527 440.915378)

LINESTRING (547.326527 440.915378, 651.777673 459.624236)

LINESTRING (651.777673 459.624236, 745.805989 446.148058)

LINESTRING (745.805989 446.148058, 856.373288 450.941827)

LINESTRING (856.373288 450.941827, 952.621655 458.452372)

LINESTRING (952.621655 458.452372, 1047.937053 445.628323)

LINESTRING (1047.937053 445.628323, 1149.906744 459.721534)

LINESTRING (1149.906744 459.721534, 1259.233926 453.421929)

LINESTRING (1259.233926 453.421929, 1353.935732 442.978365)

LINESTRING (1353.935732 442.978365, 1449.354491 455.742242)

LINESTRING (1449.354491 455.742242, 1552.573085 455.001697)

LINESTRING (1552.573085 455.001697, 1652.921759 456.191494)

LINESTRING (1652.921759 456.191494, 1750.599103 446.103926)

LINESTRING (1750.599103 446.103926, 1859.497003 440.469558)

LINESTRING (45.293764 556.262952, 144.665512 550.207814)

LINESTRING (144.665512 550.207814, 255.604283 550.430584)

LINESTRING (255.604283 550.430584, 357.504512 558.747682)

LINESTRING (357.504512 558.747682, 453.798083 549.859113)

LINESTRING (453.798083 549.859113, 555.352996 544.145254)

LINESTRING (555.352996 544.145254, 642.366304 550.101708)

LINESTRING (642.366304 550.101708, 743.767138 540.322598)

LINESTRING (743.767138 540.322598, 853.028247 550.427300)

LINESTRING (853.028247 550.427300, 954.032457 540.847454)

LINESTRING (954.032457 540.847454, 1051.397515 559.235698)

LINESTRING (1051.397515 559.235698, 1150.263986 543.653038)

LINESTRING (1150.263986 543.653038, 1245.108334 556.639532)

LINESTRING (1245.108334 556.639532, 1359.764145 541.538847)

LINESTRING (1359.764145 541.538847, 1450.157807 559.190891)

LINESTRING (1450.157807 559.190891, 1545.471077 542.215097)

LINESTRING (1545.471077 542.215097, 1641.309890 553.273957)

LINESTRING (1641.309890 553.273957, 1740.543937 553.746938)

LINESTRING (1740.543937 553.746938, 1850.067341 549.852708)

LINESTRING (55.033834 655.978957, 142.205515 652.755950)

LINESTRING (142.205515 652.755950, 255.749689 640.872453)

LINESTRING (255.749689 640.872453, 359.980139 655.945644)

LINESTRING (359.980139 655.945644, 452.931531 646.747768)

LINESTRING (452.931531 646.747768, 558.693888 649.523221)

LINESTRING (558.693888 649.523221, 649.441296 651.410365)

LINESTRING (649.441296 651.410365, 750.943064 659.723061)

LINESTRING (750.943064 659.723061, 847.736042 652.543518)

LINESTRING (847.736042 652.543518, 950.748886 654.594713)

LINESTRING (950.748886 654.594713, 1057.397786 643.072213)

LINESTRING (1057.397786 643.072213, 1157.212158 642.377638)

LINESTRING (1157.212158 642.377638, 1250.635272 641.980939)

LINESTRING (1250.635272 641.980939, 1346.738662 644.434815)

LINESTRING (1346.738662 644.434815, 1456.989239 644.693233)

LINESTRING (1456.989239 644.693233, 1559.643967 644.504458)

LINESTRING (1559.643967 644.504458, 1657.688747 649.523094)

LINESTRING (1657.688747 649.523094, 1740.228129 656.269896)

LINESTRING (1740.228129 656.269896, 1853.352816 655.503443)

LINESTRING (50.833275 751.979978, 155.941414 742.458467)

LINESTRING (155.941414 742.458467, 252.272969 743.265176)

LINESTRING (252.272969 743.265176, 350.017776 753.284050)

LINESTRING (350.017776 753.284050, 449.380216 743.991987)

LINESTRING (449.380216 743.991987, 544.506939 757.886795)

LINESTRING (544.506939 757.886795, 642.999792 759.361504)

LINESTRING (642.999792 759.361504, 741.883082 741.987423)

LINESTRING (741.883082 741.987423, 850.154071 757.792541)

LINESTRING (850.154071 757.792541, 953.503508 748.790558)

LINESTRING (953.503508 748.790558, 1040.977151 742.504563)

LINESTRING (1040.977151 742.504563, 1155.077818 748.807704)

LINESTRING (1155.077818 748.807704, 1256.006663 741.588176)

LINESTRING (1256.006663 741.588176, 1353.936740 755.097950)

LINESTRING (1353.936740 755.097950, 1453.727745 746.945370)

LINESTRING (1453.727745 746.945370, 1545.094593 755.375863)

LINESTRING (1545.094593 755.375863, 1647.183959 745.819512)

LINESTRING (1647.183959 745.819512, 1748.946710 745.195271)

LINESTRING (1748.946710 745.195271, 1856.678300 756.174346)

LINESTRING (43.958825 840.023374, 150.887748 850.688615)

LINESTRING (150.887748 850.688615, 254.524704 846.307895)

LINESTRING (254.524704 846.307895, 359.505658 849.577570)

LINESTRING (359.505658 849.577570, 444.209194 846.084694)

LINESTRING (444.209194 846.084694, 556.146369 858.566240)

LINESTRING (556.146369 858.566240, 643.456686 852.497177)

LINESTRING (643.456686 852.497177, 749.632676 847.394701)

LINESTRING (749.632676 847.394701, 858.392762 853.945791)

LINESTRING (858.392762 853.945791, 956.906815 856.230487)

LINESTRING (956.906815 856.230487, 1050.761831 854.594506)

LINESTRING (1050.761831 854.594506, 1148.258137 847.793740)

LINESTRING (1148.258137 847.793740, 1257.756265 848.032928)

LINESTRING (1257.756265 848.032928, 1351.885563 858.906417)

LINESTRING (1351.885563 858.906417, 1447.097093 845.714344)

LINESTRING (1447.097093 845.714344, 1545.602562 841.836865)

LINESTRING (1545.602562 841.836865, 1644.587221 844.929408)

LINESTRING (1644.587221 844.929408, 1756.268951 855.619344)

LINESTRING (1756.268951 855.619344, 1854.345975 857.063486)

LINESTRING (52.128896 945.449436, 146.643702 956.071144)

LINESTRING (146.643702 956.071144, 243.385057 959.879838)

LINESTRING (243.385057 959.879838, 355.473270 943.328392)

LINESTRING (355.473270 943.328392, 441.846414 950.031815)

LINESTRING (441.846414 950.031815, 544.546632 940.949180)

LINESTRING (544.546632 940.949180, 644.444826 942.182224)

LINESTRING (644.444826 942.182224, 757.506502 948.680096)

LINESTRING (757.506502 948.680096, 844.465844 946.405900)

LINESTRING (844.465844 946.405900, 948.447156 940.902609)

LINESTRING (948.447156 940.902609, 1049.353186 944.028548)

LINESTRING (1049.353186 944.028548, 1143.403525 940.623659)

LINESTRING (1143.403525 940.623659, 1256.854929 954.699899)

LINESTRING (1256.854929 954.699899, 1343.775566 944.500271)

LINESTRING (1343.775566 944.500271, 1446.670055 942.056977)

LINESTRING (1446.670055 942.056977, 1544.670286 945.867388)

LINESTRING (1544.670286 945.867388, 1655.629236 940.968132)

LINESTRING (1655.629236 940.968132, 1752.323639 959.245307)

LINESTRING (1752.323639 959.245307, 1841.661337 950.985303)

LINESTRING (59.578232 1052.224745, 159.475132 1043.377690)

LINESTRING (159.475132 1043.377690, 247.679714 1058.531256)

LINESTRING (247.679714 1058.531256, 357.358736 1057.025065)

LINESTRING (357.358736 1057.025065, 450.950698 1058.061705)

LINESTRING (450.950698 1058.061705, 547.013899 1049.270762)

LINESTRING (547.013899 1049.270762, 654.131730 1058.085320)

LINESTRING (654.131730 1058.085320, 748.633102 1041.617331)

LINESTRING (748.633102 1041.617331, 858.702160 1057.589947)

LINESTRING (858.702160 1057.589947, 952.857275 1059.927734)

LINESTRING (952.857275 1059.927734, 1050.418899 1054.379024)

LINESTRING (1050.418899 1054.379024, 1158.344343 1058.165238)

LINESTRING (1158.344343 1058.165238, 1253.985494 1057.426872)

LINESTRING (1253.985494 1057.426872, 1358.388403 1055.156978)

LINESTRING (1358.388403 1055.156978, 1446.443728 1054.641490)

LINESTRING (1446.443728 1054.641490, 1543.217756 1046.105855)

LINESTRING (1543.217756 1046.105855, 1641.345852 1052.404971)

LINESTRING (1641.345852 1052.404971, 1741.931804 1048.705563)

LINESTRING (1741.931804 1048.705563, 1859.417166 1054.440111)

LINESTRING (52.539794 1157.511222, 141.413246 1148.848509)

LINESTRING (141.413246 1148.848509, 244.768054 1158.124009)

LINESTRING (244.768054 1158.124009, 344.579938 1157.263592)

LINESTRING (344.579938 1157.263592, 449.423944 1147.941315)

LINESTRING (449.423944 1147.941315, 542.003474 1145.093215)

LINESTRING (542.003474 1145.093215, 654.313598 1156.229356)

LINESTRING (654.313598 1156.229356, 747.246757 1153.260624)

LINESTRING (747.246757 1153.260624, 858.560921 1150.557236)

LINESTRING (858.560921 1150.557236, 940.606644 1157.836545)

LINESTRING (940.606644 1157.836545, 1055.272350 1142.635408)

LINESTRING (1055.272350 1142.635408, 1147.597042 1151.249327)

LINESTRING (1147.597042 1151.249327, 1243.356888 1146.140885)

LINESTRING (1243.356888 1146.140885, 1344.741054 1142.200258)

LINESTRING (1344.741054 1142.200258, 1444.824217 1151.432613)

LINESTRING (1444.824217 1151.432613, 1556.470106 1159.516414)

LINESTRING (1556.470106 1159.516414, 1652.761408 1150.532086)

LINESTRING (1652.761408 1150.532086, 1743.024053 1151.880696)

LINESTRING (1743.024053 1151.880696, 1854.800255 1141.854086)

LINESTRING (47.687179 1256.216502, 155.565643 1251.835473)

LINESTRING (155.565643 1251.835473, 255.724715 1248.891547)

LINESTRING (255.724715 1248.891547, 346.766798 1240.533198)

LINESTRING (346.766798 1240.533198, 449.576686 1244.580042)

LINESTRING (449.576686 1244.580042, 545.205218 1248.004447)

LINESTRING (545.205218 1248.004447, 641.668241 1249.347511)

LINESTRING (641.668241 1249.347511, 758.020172 1243.699136)

LINESTRING (758.020172 1243.699136, 844.284521 1253.687888)

LINESTRING (844.284521 1253.687888, 948.993271 1249.261171)

LINESTRING (948.993271 1249.261171, 1059.422668 1255.120759)

LINESTRING (1059.422668 1255.120759, 1146.676104 1241.065565)

LINESTRING (1146.676104 1241.065565, 1255.444667 1249.934750)

LINESTRING (1255.444667 1249.934750, 1347.495909 1257.588563)

LINESTRING (1347.495909 1257.588563, 1456.652419 1240.159252)

LINESTRING (1456.652419 1240.159252, 1544.877291 1248.768849)

LINESTRING (1544.877291 1248.768849, 1645.421884 1249.274057)

LINESTRING (1645.421884 1249.274057, 1756.538843 1244.951415)

LINESTRING (1756.538843 1244.951415, 1859.339036 1245.889620)

LINESTRING (44.514196 1359.632658, 146.129556 1348.434000)

LINESTRING (146.129556 1348.434000, 248.666518 1341.263972)

LINESTRING (248.666518 1341.263972, 344.883490 1350.753336)

LINESTRING (344.883490 1350.753336, 451.978197 1340.395999)

LINESTRING (451.978197 1340.395999, 548.624764 1349.715617)

LINESTRING (548.624764 1349.715617, 643.081090 1354.696041)

LINESTRING (643.081090 1354.696041, 757.514437 1346.704014)

LINESTRING (757.514437 1346.704014, 851.892759 1349.733931)

LINESTRING (851.892759 1349.733931, 954.429880 1348.414565)

LINESTRING (954.429880 1348.414565, 1058.938629 1351.901000)

LINESTRING (1058.938629 1351.901000, 1155.970478 1350.861475)

LINESTRING (1155.970478 1350.861475, 1242.141268 1345.643472)

LINESTRING (1242.141268 1345.643472, 1353.619989 1346.131462)

LINESTRING (1353.619989 1346.131462, 1451.041031 1344.606197)

LINESTRING (1451.041031 1344.606197, 1552.989894 1343.477941)

LINESTRING (1552.989894 1343.477941, 1649.611718 1341.804518)

LINESTRING (1649.611718 1341.804518, 1749.757898 1344.596719)

LINESTRING (1749.757898 1344.596719, 1856.967360 1342.393702)

LINESTRING (58.923900 1456.425334, 159.177072 1444.798851)

LINESTRING (159.177072 1444.798851, 252.465329 1446.631812)

LINESTRING (252.465329 1446.631812, 355.321141 1447.088683)

LINESTRING (355.321141 1447.088683, 444.507935 1455.356463)

LINESTRING (444.507935 1455.356463, 552.762535 1450.694926)

LINESTRING (552.762535 1450.694926, 643.796279 1444.288244)

LINESTRING (643.796279 1444.288244, 754.314172 1447.573507)

LINESTRING (754.314172 1447.573507, 859.768710 1445.990602)

LINESTRING (859.768710 1445.990602, 949.048825 1441.201480)

LINESTRING (949.048825 1441.201480, 1056.865890 1455.226230)

LINESTRING (1056.865890 1455.226230, 1157.641754 1459.667590)

LINESTRING (1157.641754 1459.667590, 1253.539408 1455.158708)

LINESTRING (1253.539408 1455.158708, 1350.057030 1440.785984)

LINESTRING (1350.057030 1440.785984, 1440.041411 1458.346654)

LINESTRING (1440.041411 1458.346654, 1542.611222 1444.333763)

LINESTRING (1542.611222 1444.333763, 1643.272260 1442.514795)

LINESTRING (1643.272260 1442.514795, 1754.384422 1441.117378)

LINESTRING (1754.384422 1441.117378, 1845.425963 1441.562037)

LINESTRING (50.498161 1554.302215, 157.956264 1550.784469)

LINESTRING (157.956264 1550.784469, 242.768754 1555.384182)

LINESTRING (242.768754 1555.384182, 355.808883 1557.958263)

LINESTRING (355.808883 1557.958263, 452.469454 1550.021106)

LINESTRING (452.469454 1550.021106, 558.845120 1547.154492)

LINESTRING (558.845120 1547.154492, 647.353668 1550.061234)

LINESTRING (647.353668 1550.061234, 740.734405 1556.937780)

LINESTRING (740.734405 1556.937780, 847.365883 1556.767869)

LINESTRING (847.365883 1556.767869, 959.655784 1555.662441)

LINESTRING (959.655784 1555.662441, 1044.914252 1543.030147)

LINESTRING (1044.914252 1543.030147, 1149.667562 1542.420475)

LINESTRING (1149.667562 1542.420475, 1248.160919 1554.452401)

LINESTRING (1248.160919 1554.452401, 1345.763739 1553.379949)

LINESTRING (1345.763739 1553.379949, 1454.942933 1542.700514)

LINESTRING (1454.942933 1542.700514, 1546.281284 1540.756862)

LINESTRING (1546.281284 1540.756862, 1644.895877 1546.994079)

LINESTRING (1644.895877 1546.994079, 1749.842615 1540.066599)

LINESTRING (1749.842615 1540.066599, 1842.768565 1545.745241)

LINESTRING (48.100449 1651.476802, 145.602418 1650.769430)

LINESTRING (145.602418 1650.769430, 253.874055 1659.961571)

LINESTRING (253.874055 1659.961571, 345.456975 1648.722339)

LINESTRING (345.456975 1648.722339, 449.941667 1654.655140)

LINESTRING (449.941667 1654.655140, 558.246181 1657.766800)

LINESTRING (558.246181 1657.766800, 658.675017 1654.152599)

LINESTRING (658.675017 1654.152599, 742.751008 1650.389346)

LINESTRING (742.751008 1650.389346, 843.126713 1653.029351)

LINESTRING (843.126713 1653.029351, 942.100390 1658.806219)

LINESTRING (942.100390 1658.806219, 1040.863984 1648.261430)

LINESTRING (1040.863984 1648.261430, 1146.526715 1648.586963)

LINESTRING (1146.526715 1648.586963, 1252.157803 1659.396811)

LINESTRING (1252.157803 1659.396811, 1343.783985 1645.682241)

LINESTRING (1343.783985 1645.682241, 1443.552090 1652.675554)

LINESTRING (1443.552090 1652.675554, 1549.652374 1659.757795)

LINESTRING (1549.652374 1659.757795, 1646.715850 1654.517731)

LINESTRING (1646.715850 1654.517731, 1751.573356 1646.877861)

LINESTRING (1751.573356 1646.877861, 1859.203162 1645.973585)

LINESTRING (48.617468 1757.401783, 152.230348 1759.525720)

LINESTRING (152.230348 1759.525720, 241.764532 1753.579233)

LINESTRING (241.764532 1753.579233, 347.614406 1754.795129)

LINESTRING (347.614406 1754.795129, 440.089248 1747.631519)

LINESTRING (440.089248 1747.631519, 545.012557 1755.095264)

LINESTRING (545.012557 1755.095264, 648.568807 1746.313486)

LINESTRING (648.568807 1746.313486, 743.452797 1758.842508)

LINESTRING (743.452797 1758.842508, 849.802702 1752.962765)

LINESTRING (849.802702 1752.962765, 954.137460 1758.366311)

LINESTRING (954.137460 1758.366311, 1048.211693 1745.599352)

LINESTRING (1048.211693 1745.599352, 1147.572609 1745.356207)

LINESTRING (1147.572609 1745.356207, 1245.647846 1756.667169)

LINESTRING (1245.647846 1756.667169, 1342.718607 1743.807609)

LINESTRING (1342.718607 1743.807609, 1441.412149 1744.183606)

LINESTRING (1441.412149 1744.183606, 1553.734672 1743.750036)

LINESTRING (1553.734672 1743.750036, 1646.021874 1744.105285)

LINESTRING (1646.021874 1744.105285, 1752.490327 1745.088613)

LINESTRING (1752.490327 1745.088613, 1856.775161 1749.852873)

LINESTRING (41.500344 1856.128937, 147.195814 1851.381377)

LINESTRING (147.195814 1851.381377, 245.887410 1854.103489)

LINESTRING (245.887410 1854.103489, 354.462426 1851.309563)

LINESTRING (354.462426 1851.309563, 446.134131 1842.324573)

LINESTRING (446.134131 1842.324573, 541.498213 1859.938020)

LINESTRING (541.498213 1859.938020, 652.262462 1854.301604)

LINESTRING (652.262462 1854.301604, 753.625158 1858.863590)

LINESTRING (753.625158 1858.863590, 844.007650 1843.770071)

LINESTRING (844.007650 1843.770071, 944.907805 1854.385525)

LINESTRING (944.907805 1854.385525, 1052.381741 1858.106420)

LINESTRING (1052.381741 1858.106420, 1147.431595 1843.506559)

LINESTRING (1147.431595 1843.506559, 1254.413539 1849.411896)

LINESTRING (1254.413539 1849.411896, 1358.566541 1852.018977)

LINESTRING (1358.566541 1852.018977, 1450.872534 1851.363931)

LINESTRING (1450.872534 1851.363931, 1544.314523 1842.550421)

LINESTRING (1544.314523 1842.550421, 1659.178544 1854.344990)

LINESTRING (1659.178544 1854.344990, 1753.041314 1849.380296)

LINESTRING (1753.041314 1849.380296, 1843.034327 1849.698567)

LINESTRING (50.893230 48.783679, 41.502527 141.886497)

LINESTRING (157.659230 54.805621, 141.564771 158.362714)

LINESTRING (240.806953 51.059597, 249.824591 159.497844)

LINESTRING (344.368740 54.956429, 353.634418 152.143680)

LINESTRING (443.191873 55.307249, 447.377500 157.671502)

LINESTRING (554.625849 52.078892, 540.033449 143.490700)

LINESTRING (647.958091 59.154538, 658.307748 151.297356)

LINESTRING (745.154484 41.893939, 749.444373 156.706538)

LINESTRING (846.628663 45.797254, 857.641508 150.913116)

LINESTRING (945.689086 53.258147, 954.739160 158.982785)

LINESTRING (1040.576079 41.287743, 1051.927933 151.797185)

LINESTRING (1140.951754 42.861964, 1150.123475 144.505083)

LINESTRING (1244.236728 53.999728, 1244.781091 158.202124)

LINESTRING (1355.296523 56.185762, 1358.670476 146.040093)

LINESTRING (1447.116488 49.517364, 1443.457154 159.353239)

LINESTRING (1550.489450 50.623120, 1551.567572 148.644281)

LINESTRING (1649.420873 49.483064, 1654.503184 154.059913)

LINESTRING (1755.640832 54.378223, 1758.241426 151.695547)

LINESTRING (1855.762528 50.446683, 1842.105213 142.618863)

LINESTRING (41.502527 141.886497, 50.673369 245.267177)

LINESTRING (141.564771 158.362714, 144.853711 252.494090)

LINESTRING (249.824591 159.497844, 258.675076 246.256136)

LINESTRING (353.634418 152.143680, 344.749954 258.972777)

LINESTRING (447.377500 157.671502, 452.101299 254.778457)

LINESTRING (540.033449 143.490700, 552.340024 253.331760)

LINESTRING (658.307748 151.297356, 640.967910 258.748041)

LINESTRING (749.444373 156.706538, 746.738318 247.257819)

LINESTRING (857.641508 150.913116, 855.385845 251.069086)

LINESTRING (954.739160 158.982785, 946.362099 259.372481)

LINESTRING (1051.927933 151.797185, 1050.053816 250.297783)

LINESTRING (1150.123475 144.505083, 1151.315651 244.341331)

LINESTRING (1244.781091 158.202124, 1259.943222 247.165683)

LINESTRING (1358.670476 146.040093, 1358.164006 259.815453)

LINESTRING (1443.457154 159.353239, 1445.372836 242.594059)

LINESTRING (1551.567572 148.644281, 1558.432607 248.386443)

LINESTRING (1654.503184 154.059913, 1644.232911 244.978737)

LINESTRING (1758.241426 151.695547, 1748.755699 259.581144)

LINESTRING (1842.105213 142.618863, 1849.470750 250.949818)

LINESTRING (50.673369 245.267177, 48.625196 356.490737)

LINESTRING (144.853711 252.494090, 150.998128 348.382847)

LINESTRING (258.675076 246.256136, 259.567240 344.159336)

LINESTRING (344.749954 258.972777, 349.343448 357.880522)

LINESTRING (452.101299 254.778457, 458.471127 357.194144)

LINESTRING (552.340024 253.331760, 543.864952 349.776449)

LINESTRING (640.967910 258.748041, 656.653425 350.045908)

LINESTRING (746.738318 247.257819, 746.859788 342.405395)

LINESTRING (855.385845 251.069086, 840.719047 359.167792)

LINESTRING (946.362099 259.372481, 949.381472 344.084262)

LINESTRING (1050.053816 250.297783, 1040.551628 359.976246)

LINESTRING (1151.315651 244.341331, 1152.458985 349.381410)

LINESTRING (1259.943222 247.165683, 1249.223278 341.133037)

LINESTRING (1358.164006 259.815453, 1345.909166 345.224426)

LINESTRING (1445.372836 242.594059, 1441.167023 342.278163)

LINESTRING (1558.432607 248.386443, 1549.024556 351.484063)

LINESTRING (1644.232911 244.978737, 1654.919020 349.383734)

LINESTRING (1748.755699 259.581144, 1745.728650 359.088717)

LINESTRING (1849.470750 250.949818, 1852.558767 346.705767)

LINESTRING (48.625196 356.490737, 59.951750 445.815120)

LINESTRING (150.998128 348.382847, 140.180957 459.721571)

LINESTRING (259.567240 344.159336, 248.425912 441.416086)

LINESTRING (349.343448 357.880522, 355.454114 448.539841)

LINESTRING (458.471127 357.194144, 444.500792 459.512520)

LINESTRING (543.864952 349.776449, 547.326527 440.915378)

LINESTRING (656.653425 350.045908, 651.777673 459.624236)

LINESTRING (746.859788 342.405395, 745.805989 446.148058)

LINESTRING (840.719047 359.167792, 856.373288 450.941827)

LINESTRING (949.381472 344.084262, 952.621655 458.452372)

LINESTRING (1040.551628 359.976246, 1047.937053 445.628323)

LINESTRING (1152.458985 349.381410, 1149.906744 459.721534)

LINESTRING (1249.223278 341.133037, 1259.233926 453.421929)

LINESTRING (1345.909166 345.224426, 1353.935732 442.978365)

LINESTRING (1441.167023 342.278163, 1449.354491 455.742242)

LINESTRING (1549.024556 351.484063, 1552.573085 455.001697)

LINESTRING (1654.919020 349.383734, 1652.921759 456.191494)

LINESTRING (1745.728650 359.088717, 1750.599103 446.103926)

LINESTRING (1852.558767 346.705767, 1859.497003 440.469558)

LINESTRING (59.951750 445.815120, 45.293764 556.262952)

LINESTRING (140.180957 459.721571, 144.665512 550.207814)

LINESTRING (248.425912 441.416086, 255.604283 550.430584)

LINESTRING (355.454114 448.539841, 357.504512 558.747682)

LINESTRING (444.500792 459.512520, 453.798083 549.859113)

LINESTRING (547.326527 440.915378, 555.352996 544.145254)

LINESTRING (651.777673 459.624236, 642.366304 550.101708)

LINESTRING (745.805989 446.148058, 743.767138 540.322598)

LINESTRING (856.373288 450.941827, 853.028247 550.427300)

LINESTRING (952.621655 458.452372, 954.032457 540.847454)

LINESTRING (1047.937053 445.628323, 1051.397515 559.235698)

LINESTRING (1149.906744 459.721534, 1150.263986 543.653038)

LINESTRING (1259.233926 453.421929, 1245.108334 556.639532)

LINESTRING (1353.935732 442.978365, 1359.764145 541.538847)

LINESTRING (1449.354491 455.742242, 1450.157807 559.190891)

LINESTRING (1552.573085 455.001697, 1545.471077 542.215097)

LINESTRING (1652.921759 456.191494, 1641.309890 553.273957)

LINESTRING (1750.599103 446.103926, 1740.543937 553.746938)

LINESTRING (1859.497003 440.469558, 1850.067341 549.852708)

LINESTRING (45.293764 556.262952, 55.033834 655.978957)

LINESTRING (144.665512 550.207814, 142.205515 652.755950)

LINESTRING (255.604283 550.430584, 255.749689 640.872453)

LINESTRING (357.504512 558.747682, 359.980139 655.945644)

LINESTRING (453.798083 549.859113, 452.931531 646.747768)

LINESTRING (555.352996 544.145254, 558.693888 649.523221)

LINESTRING (642.366304 550.101708, 649.441296 651.410365)

LINESTRING (743.767138 540.322598, 750.943064 659.723061)

LINESTRING (853.028247 550.427300, 847.736042 652.543518)

LINESTRING (954.032457 540.847454, 950.748886 654.594713)

LINESTRING (1051.397515 559.235698, 1057.397786 643.072213)

LINESTRING (1150.263986 543.653038, 1157.212158 642.377638)

LINESTRING (1245.108334 556.639532, 1250.635272 641.980939)

LINESTRING (1359.764145 541.538847, 1346.738662 644.434815)

LINESTRING (1450.157807 559.190891, 1456.989239 644.693233)

LINESTRING (1545.471077 542.215097, 1559.643967 644.504458)

LINESTRING (1641.309890 553.273957, 1657.688747 649.523094)

LINESTRING (1740.543937 553.746938, 1740.228129 656.269896)

LINESTRING (1850.067341 549.852708, 1853.352816 655.503443)

LINESTRING (55.033834 655.978957, 50.833275 751.979978)

LINESTRING (142.205515 652.755950, 155.941414 742.458467)

LINESTRING (255.749689 640.872453, 252.272969 743.265176)

LINESTRING (359.980139 655.945644, 350.017776 753.284050)

LINESTRING (452.931531 646.747768, 449.380216 743.991987)

LINESTRING (558.693888 649.523221, 544.506939 757.886795)

LINESTRING (649.441296 651.410365, 642.999792 759.361504)

LINESTRING (750.943064 659.723061, 741.883082 741.987423)

LINESTRING (847.736042 652.543518, 850.154071 757.792541)

LINESTRING (950.748886 654.594713, 953.503508 748.790558)

LINESTRING (1057.397786 643.072213, 1040.977151 742.504563)

LINESTRING (1157.212158 642.377638, 1155.077818 748.807704)

LINESTRING (1250.635272 641.980939, 1256.006663 741.588176)

LINESTRING (1346.738662 644.434815, 1353.936740 755.097950)

LINESTRING (1456.989239 644.693233, 1453.727745 746.945370)

LINESTRING (1559.643967 644.504458, 1545.094593 755.375863)

LINESTRING (1657.688747 649.523094, 1647.183959 745.819512)

LINESTRING (1740.228129 656.269896, 1748.946710 745.195271)

LINESTRING (1853.352816 655.503443, 1856.678300 756.174346)

LINESTRING (50.833275 751.979978, 43.958825 840.023374)

LINESTRING (155.941414 742.458467, 150.887748 850.688615)

LINESTRING (252.272969 743.265176, 254.524704 846.307895)

LINESTRING (350.017776 753.284050, 359.505658 849.577570)

LINESTRING (449.380216 743.991987, 444.209194 846.084694)

LINESTRING (544.506939 757.886795, 556.146369 858.566240)

LINESTRING (642.999792 759.361504, 643.456686 852.497177)

LINESTRING (741.883082 741.987423, 749.632676 847.394701)

LINESTRING (850.154071 757.792541, 858.392762 853.945791)

LINESTRING (953.503508 748.790558, 956.906815 856.230487)

LINESTRING (1040.977151 742.504563, 1050.761831 854.594506)

LINESTRING (1155.077818 748.807704, 1148.258137 847.793740)

LINESTRING (1256.006663 741.588176, 1257.756265 848.032928)

LINESTRING (1353.936740 755.097950, 1351.885563 858.906417)

LINESTRING (1453.727745 746.945370, 1447.097093 845.714344)

LINESTRING (1545.094593 755.375863, 1545.602562 841.836865)

LINESTRING (1647.183959 745.819512, 1644.587221 844.929408)

LINESTRING (1748.946710 745.195271, 1756.268951 855.619344)

LINESTRING (1856.678300 756.174346, 1854.345975 857.063486)

LINESTRING (43.958825 840.023374, 52.128896 945.449436)

LINESTRING (150.887748 850.688615, 146.643702 956.071144)

LINESTRING (254.524704 846.307895, 243.385057 959.879838)

LINESTRING (359.505658 849.577570, 355.473270 943.328392)

LINESTRING (444.209194 846.084694, 441.846414 950.031815)

LINESTRING (556.146369 858.566240, 544.546632 940.949180)

LINESTRING (643.456686 852.497177, 644.444826 942.182224)

LINESTRING (749.632676 847.394701, 757.506502 948.680096)

LINESTRING (858.392762 853.945791, 844.465844 946.405900)

LINESTRING (956.906815 856.230487, 948.447156 940.902609)

LINESTRING (1050.761831 854.594506, 1049.353186 944.028548)

LINESTRING (1148.258137 847.793740, 1143.403525 940.623659)

LINESTRING (1257.756265 848.032928, 1256.854929 954.699899)

LINESTRING (1351.885563 858.906417, 1343.775566 944.500271)

LINESTRING (1447.097093 845.714344, 1446.670055 942.056977)

LINESTRING (1545.602562 841.836865, 1544.670286 945.867388)

LINESTRING (1644.587221 844.929408, 1655.629236 940.968132)

LINESTRING (1756.268951 855.619344, 1752.323639 959.245307)

LINESTRING (1854.345975 857.063486, 1841.661337 950.985303)

LINESTRING (52.128896 945.449436, 59.578232 1052.224745)

LINESTRING (146.643702 956.071144, 159.475132 1043.377690)

LINESTRING (243.385057 959.879838, 247.679714 1058.531256)

LINESTRING (355.473270 943.328392, 357.358736 1057.025065)

LINESTRING (441.846414 950.031815, 450.950698 1058.061705)

LINESTRING (544.546632 940.949180, 547.013899 1049.270762)

LINESTRING (644.444826 942.182224, 654.131730 1058.085320)

LINESTRING (757.506502 948.680096, 748.633102 1041.617331)

LINESTRING (844.465844 946.405900, 858.702160 1057.589947)

LINESTRING (948.447156 940.902609, 952.857275 1059.927734)

LINESTRING (1049.353186 944.028548, 1050.418899 1054.379024)

LINESTRING (1143.403525 940.623659, 1158.344343 1058.165238)

LINESTRING (1256.854929 954.699899, 1253.985494 1057.426872)

LINESTRING (1343.775566 944.500271, 1358.388403 1055.156978)

LINESTRING (1446.670055 942.056977, 1446.443728 1054.641490)

LINESTRING (1544.670286 945.867388, 1543.217756 1046.105855)

LINESTRING (1655.629236 940.968132, 1641.345852 1052.404971)

LINESTRING (1752.323639 959.245307, 1741.931804 1048.705563)

LINESTRING (1841.661337 950.985303, 1859.417166 1054.440111)

LINESTRING (59.578232 1052.224745, 52.539794 1157.511222)

LINESTRING (159.475132 1043.377690, 141.413246 1148.848509)

LINESTRING (247.679714 1058.531256, 244.768054 1158.124009)

LINESTRING (357.358736 1057.025065, 344.579938 1157.263592)

LINESTRING (450.950698 1058.061705, 449.423944 1147.941315)

LINESTRING (547.013899 1049.270762, 542.003474 1145.093215)

LINESTRING (654.131730 1058.085320, 654.313598 1156.229356)

LINESTRING (748.633102 1041.617331, 747.246757 1153.260624)

LINESTRING (858.702160 1057.589947, 858.560921 1150.557236)

LINESTRING (952.857275 1059.927734, 940.606644 1157.836545)

LINESTRING (1050.418899 1054.379024, 1055.272350 1142.635408)

LINESTRING (1158.344343 1058.165238, 1147.597042 1151.249327)

LINESTRING (1253.985494 1057.426872, 1243.356888 1146.140885)

LINESTRING (1358.388403 1055.156978, 1344.741054 1142.200258)

LINESTRING (1446.443728 1054.641490, 1444.824217 1151.432613)

LINESTRING (1543.217756 1046.105855, 1556.470106 1159.516414)

LINESTRING (1641.345852 1052.404971, 1652.761408 1150.532086)

LINESTRING (1741.931804 1048.705563, 1743.024053 1151.880696)

LINESTRING (1859.417166 1054.440111, 1854.800255 1141.854086)

LINESTRING (52.539794 1157.511222, 47.687179 1256.216502)

LINESTRING (141.413246 1148.848509, 155.565643 1251.835473)

LINESTRING (244.768054 1158.124009, 255.724715 1248.891547)

LINESTRING (344.579938 1157.263592, 346.766798 1240.533198)

LINESTRING (449.423944 1147.941315, 449.576686 1244.580042)

LINESTRING (542.003474 1145.093215, 545.205218 1248.004447)

LINESTRING (654.313598 1156.229356, 641.668241 1249.347511)

LINESTRING (747.246757 1153.260624, 758.020172 1243.699136)

LINESTRING (858.560921 1150.557236, 844.284521 1253.687888)

LINESTRING (940.606644 1157.836545, 948.993271 1249.261171)

LINESTRING (1055.272350 1142.635408, 1059.422668 1255.120759)

LINESTRING (1147.597042 1151.249327, 1146.676104 1241.065565)

LINESTRING (1243.356888 1146.140885, 1255.444667 1249.934750)

LINESTRING (1344.741054 1142.200258, 1347.495909 1257.588563)

LINESTRING (1444.824217 1151.432613, 1456.652419 1240.159252)

LINESTRING (1556.470106 1159.516414, 1544.877291 1248.768849)

LINESTRING (1652.761408 1150.532086, 1645.421884 1249.274057)

LINESTRING (1743.024053 1151.880696, 1756.538843 1244.951415)

LINESTRING (1854.800255 1141.854086, 1859.339036 1245.889620)

LINESTRING (47.687179 1256.216502, 44.514196 1359.632658)

LINESTRING (155.565643 1251.835473, 146.129556 1348.434000)

LINESTRING (255.724715 1248.891547, 248.666518 1341.263972)

LINESTRING (346.766798 1240.533198, 344.883490 1350.753336)

LINESTRING (449.576686 1244.580042, 451.978197 1340.395999)

LINESTRING (545.205218 1248.004447, 548.624764 1349.715617)

LINESTRING (641.668241 1249.347511, 643.081090 1354.696041)

LINESTRING (758.020172 1243.699136, 757.514437 1346.704014)

LINESTRING (844.284521 1253.687888, 851.892759 1349.733931)

LINESTRING (948.993271 1249.261171, 954.429880 1348.414565)

LINESTRING (1059.422668 1255.120759, 1058.938629 1351.901000)

LINESTRING (1146.676104 1241.065565, 1155.970478 1350.861475)

LINESTRING (1255.444667 1249.934750, 1242.141268 1345.643472)

LINESTRING (1347.495909 1257.588563, 1353.619989 1346.131462)

LINESTRING (1456.652419 1240.159252, 1451.041031 1344.606197)

LINESTRING (1544.877291 1248.768849, 1552.989894 1343.477941)

LINESTRING (1645.421884 1249.274057, 1649.611718 1341.804518)

LINESTRING (1756.538843 1244.951415, 1749.757898 1344.596719)

LINESTRING (1859.339036 1245.889620, 1856.967360 1342.393702)

LINESTRING (44.514196 1359.632658, 58.923900 1456.425334)

LINESTRING (146.129556 1348.434000, 159.177072 1444.798851)

LINESTRING (248.666518 1341.263972, 252.465329 1446.631812)

LINESTRING (344.883490 1350.753336, 355.321141 1447.088683)

LINESTRING (451.978197 1340.395999, 444.507935 1455.356463)

LINESTRING (548.624764 1349.715617, 552.762535 1450.694926)

LINESTRING (643.081090 1354.696041, 643.796279 1444.288244)

LINESTRING (757.514437 1346.704014, 754.314172 1447.573507)

LINESTRING (851.892759 1349.733931, 859.768710 1445.990602)

LINESTRING (954.429880 1348.414565, 949.048825 1441.201480)

LINESTRING (1058.938629 1351.901000, 1056.865890 1455.226230)

LINESTRING (1155.970478 1350.861475, 1157.641754 1459.667590)

LINESTRING (1242.141268 1345.643472, 1253.539408 1455.158708)

LINESTRING (1353.619989 1346.131462, 1350.057030 1440.785984)

LINESTRING (1451.041031 1344.606197, 1440.041411 1458.346654)

LINESTRING (1552.989894 1343.477941, 1542.611222 1444.333763)

LINESTRING (1649.611718 1341.804518, 1643.272260 1442.514795)

LINESTRING (1749.757898 1344.596719, 1754.384422 1441.117378)

LINESTRING (1856.967360 1342.393702, 1845.425963 1441.562037)

LINESTRING (58.923900 1456.425334, 50.498161 1554.302215)

LINESTRING (159.177072 1444.798851, 157.956264 1550.784469)

LINESTRING (252.465329 1446.631812, 242.768754 1555.384182)

LINESTRING (355.321141 1447.088683, 355.808883 1557.958263)

LINESTRING (444.507935 1455.356463, 452.469454 1550.021106)

LINESTRING (552.762535 1450.694926, 558.845120 1547.154492)

LINESTRING (643.796279 1444.288244, 647.353668 1550.061234)

LINESTRING (754.314172 1447.573507, 740.734405 1556.937780)

LINESTRING (859.768710 1445.990602, 847.365883 1556.767869)

LINESTRING (949.048825 1441.201480, 959.655784 1555.662441)

LINESTRING (1056.865890 1455.226230, 1044.914252 1543.030147)

LINESTRING (1157.641754 1459.667590, 1149.667562 1542.420475)

LINESTRING (1253.539408 1455.158708, 1248.160919 1554.452401)

LINESTRING (1350.057030 1440.785984, 1345.763739 1553.379949)

LINESTRING (1440.041411 1458.346654, 1454.942933 1542.700514)

LINESTRING (1542.611222 1444.333763, 1546.281284 1540.756862)

LINESTRING (1643.272260 1442.514795, 1644.895877 1546.994079)

LINESTRING (1754.384422 1441.117378, 1749.842615 1540.066599)

LINESTRING (1845.425963 1441.562037, 1842.768565 1545.745241)

LINESTRING (50.498161 1554.302215, 48.100449 1651.476802)

LINESTRING (157.956264 1550.784469, 145.602418 1650.769430)

LINESTRING (242.768754 1555.384182, 253.874055 1659.961571)

LINESTRING (355.808883 1557.958263, 345.456975 1648.722339)

LINESTRING (452.469454 1550.021106, 449.941667 1654.655140)

LINESTRING (558.845120 1547.154492, 558.246181 1657.766800)

LINESTRING (647.353668 1550.061234, 658.675017 1654.152599)

LINESTRING (740.734405 1556.937780, 742.751008 1650.389346)

LINESTRING (847.365883 1556.767869, 843.126713 1653.029351)

LINESTRING (959.655784 1555.662441, 942.100390 1658.806219)

LINESTRING (1044.914252 1543.030147, 1040.863984 1648.261430)

LINESTRING (1149.667562 1542.420475, 1146.526715 1648.586963)

LINESTRING (1248.160919 1554.452401, 1252.157803 1659.396811)

LINESTRING (1345.763739 1553.379949, 1343.783985 1645.682241)

LINESTRING (1454.942933 1542.700514, 1443.552090 1652.675554)

LINESTRING (1546.281284 1540.756862, 1549.652374 1659.757795)

LINESTRING (1644.895877 1546.994079, 1646.715850 1654.517731)

LINESTRING (1749.842615 1540.066599, 1751.573356 1646.877861)

LINESTRING (1842.768565 1545.745241, 1859.203162 1645.973585)

LINESTRING (48.100449 1651.476802, 48.617468 1757.401783)

LINESTRING (145.602418 1650.769430, 152.230348 1759.525720)

LINESTRING (253.874055 1659.961571, 241.764532 1753.579233)

LINESTRING (345.456975 1648.722339, 347.614406 1754.795129)

LINESTRING (449.941667 1654.655140, 440.089248 1747.631519)

LINESTRING (558.246181 1657.766800, 545.012557 1755.095264)

LINESTRING (658.675017 1654.152599, 648.568807 1746.313486)

LINESTRING (742.751008 1650.389346, 743.452797 1758.842508)

LINESTRING (843.126713 1653.029351, 849.802702 1752.962765)

LINESTRING (942.100390 1658.806219, 954.137460 1758.366311)

LINESTRING (1040.863984 1648.261430, 1048.211693 1745.599352)

LINESTRING (1146.526715 1648.586963, 1147.572609 1745.356207)

LINESTRING (1252.157803 1659.396811, 1245.647846 1756.667169)

LINESTRING (1343.783985 1645.682241, 1342.718607 1743.807609)

LINESTRING (1443.552090 1652.675554, 1441.412149 1744.183606)

LINESTRING (1549.652374 1659.757795, 1553.734672 1743.750036)

LINESTRING (1646.715850 1654.517731, 1646.021874 1744.105285)

LINESTRING (1751.573356 1646.877861, 1752.490327 1745.088613)

LINESTRING (1859.203162 1645.973585, 1856.775161 1749.852873)

LINESTRING (48.617468 1757.401783, 41.500344 1856.128937)

LINESTRING (152.230348 1759.525720, 147.195814 1851.381377)

LINESTRING (241.764532 1753.579233, 245.887410 1854.103489)

LINESTRING (347.614406 1754.795129, 354.462426 1851.309563)

LINESTRING (440.089248 1747.631519, 446.134131 1842.324573)

LINESTRING (545.012557 1755.095264, 541.498213 1859.938020)

LINESTRING (648.568807 1746.313486, 652.262462 1854.301604)

LINESTRING (743.452797 1758.842508, 753.625158 1858.863590)

LINESTRING (849.802702 1752.962765, 844.007650 1843.770071)

LINESTRING (954.137460 1758.366311, 944.907805 1854.385525)

LINESTRING (1048.211693 1745.599352, 1052.381741 1858.106420)

LINESTRING (1147.572609 1745.356207, 1147.431595 1843.506559)

LINESTRING (1245.647846 1756.667169, 1254.413539 1849.411896)

LINESTRING (1342.718607 1743.807609, 1358.566541 1852.018977)

LINESTRING (1441.412149 1744.183606, 1450.872534 1851.363931)

LINESTRING (1553.734672 1743.750036, 1544.314523 1842.550421)

LINESTRING (1646.021874 1744.105285, 1659.178544 1854.344990)

LINESTRING (1752.490327 1745.088613, 1753.041314 1849.380296)

LINESTRING (1856.775161 1749.852873, 1843.034327 1849.698567)

LINESTRING (157.659230 54.805621, 249.824591 159.497844)

LINESTRING (240.806953 51.059597, 353.634418 152.143680)

LINESTRING (443.191873 55.307249, 540.033449 143.490700)

LINESTRING (554.625849 52.078892, 658.307748 151.297356)

LINESTRING (647.958091 59.154538, 749.444373 156.706538)

LINESTRING (1040.576079 41.287743, 1150.123475 144.505083)

LINESTRING (1140.951754 42.861964, 1244.781091 158.202124)

LINESTRING (1755.640832 54.378223, 1842.105213 142.618863)

LINESTRING (41.502527 141.886497, 144.853711 252.494090)

LINESTRING (141.564771 158.362714, 258.675076 246.256136)

LINESTRING (954.739160 158.982785, 1050.053816 250.297783)

LINESTRING (1051.927933 151.797185, 1151.315651 244.341331)

LINESTRING (640.967910 258.748041, 746.859788 342.405395)

LINESTRING (1259.943222 247.165683, 1345.909166 345.224426)

LINESTRING (1445.372836 242.594059, 1549.024556 351.484063)

LINESTRING (1748.755699 259.581144, 1852.558767 346.705767)

LINESTRING (952.621655 458.452372, 1051.397515 559.235698)

LINESTRING (1449.354491 455.742242, 1545.471077 542.215097)

LINESTRING (1552.573085 455.001697, 1641.309890 553.273957)

LINESTRING (144.665512 550.207814, 255.749689 640.872453)

LINESTRING (357.504512 558.747682, 452.931531 646.747768)

LINESTRING (1150.263986 543.653038, 1250.635272 641.980939)

LINESTRING (1057.397786 643.072213, 1155.077818 748.807704)

LINESTRING (1250.635272 641.980939, 1353.936740 755.097950)

LINESTRING (1657.688747 649.523094, 1748.946710 745.195271)

LINESTRING (155.941414 742.458467, 254.524704 846.307895)

LINESTRING (252.272969 743.265176, 359.505658 849.577570)

LINESTRING (1453.727745 746.945370, 1545.602562 841.836865)

LINESTRING (254.524704 846.307895, 355.473270 943.328392)

LINESTRING (359.505658 849.577570, 441.846414 950.031815)

LINESTRING (1148.258137 847.793740, 1256.854929 954.699899)

LINESTRING (1545.602562 841.836865, 1655.629236 940.968132)

LINESTRING (1756.268951 855.619344, 1841.661337 950.985303)

LINESTRING (52.128896 945.449436, 159.475132 1043.377690)

LINESTRING (243.385057 959.879838, 357.358736 1057.025065)

LINESTRING (355.473270 943.328392, 450.950698 1058.061705)

LINESTRING (544.546632 940.949180, 654.131730 1058.085320)

LINESTRING (1049.353186 944.028548, 1158.344343 1058.165238)

LINESTRING (1655.629236 940.968132, 1741.931804 1048.705563)

LINESTRING (748.633102 1041.617331, 858.560921 1150.557236)

LINESTRING (952.857275 1059.927734, 1055.272350 1142.635408)

LINESTRING (1446.443728 1054.641490, 1556.470106 1159.516414)

LINESTRING (1741.931804 1048.705563, 1854.800255 1141.854086)

LINESTRING (141.413246 1148.848509, 255.724715 1248.891547)

LINESTRING (940.606644 1157.836545, 1059.422668 1255.120759)

LINESTRING (1243.356888 1146.140885, 1347.495909 1257.588563)

LINESTRING (1444.824217 1151.432613, 1544.877291 1248.768849)

LINESTRING (1743.024053 1151.880696, 1859.339036 1245.889620)

LINESTRING (47.687179 1256.216502, 146.129556 1348.434000)

LINESTRING (44.514196 1359.632658, 159.177072 1444.798851)

LINESTRING (1353.619989 1346.131462, 1440.041411 1458.346654)

LINESTRING (1552.989894 1343.477941, 1643.272260 1442.514795)

LINESTRING (444.507935 1455.356463, 558.845120 1547.154492)

LINESTRING (1157.641754 1459.667590, 1248.160919 1554.452401)

LINESTRING (452.469454 1550.021106, 558.246181 1657.766800)

LINESTRING (1149.667562 1542.420475, 1252.157803 1659.396811)

LINESTRING (1248.160919 1554.452401, 1343.783985 1645.682241)

LINESTRING (1040.863984 1648.261430, 1147.572609 1745.356207)

LINESTRING (1146.526715 1648.586963, 1245.647846 1756.667169)

LINESTRING (48.617468 1757.401783, 147.195814 1851.381377)

LINESTRING (849.802702 1752.962765, 944.907805 1854.385525)

