LINESTRING (80.000000 80.000000, 229.732215 88.959002)

LINESTRING (80.000000 80.000000, 162.352718 84.927451)

LINESTRING (162.352718 84.927451, 229.732215 88.959002)

LINESTRING (80.000000 80.000000, 198.339712 172.172190)

LINESTRING (80.000000 80.000000, 145.086842 130.694704)

LINESTRING (145.086842 130.694704, 198.339712 172.172190)

LINESTRING (80.000000 80.000000, 122.239944 223.929799)

LINESTRING (80.000000 80.000000, 103.231969 159.161390)

LINESTRING (103.231969 159.161390, 122.239944 223.929799)

LINESTRING (80.000000 80.000000, 34.020829 222.779256)

LINESTRING (80.000000 80.000000, 54.711456 158.528591)

LINESTRING (54.711456 158.528591, 34.020829 222.779256)

LINESTRING (80.000000 80.000000, -46.367987 160.815418)

LINESTRING (80.000000 80.000000, 10.497607 124.448480)

LINESTRING (10.497607 124.448480, -46.367987 160.815418)

LINESTRING (80.000000 80.000000, -69.999978 80.081451)

LINESTRING (80.000000 80.000000, -2.499988 80.044798)

LINESTRING (-2.499988 80.044798, -69.999978 80.081451)

LINESTRING (80.000000 80.000000, -36.548768 -14.426611)

LINESTRING (80.000000 80.000000, 15.898178 28.065364)

LINESTRING (15.898178 28.065364, -36.548768 -14.426611)

LINESTRING (80.000000 80.000000, 27.558371 -60.534251)

LINESTRING (80.000000 80.000000, 51.157104 2.706162)

LINESTRING (51.157104 2.706162, 27.558371 -60.534251)

LINESTRING (80.000000 80.000000, 136.677561 -58.879999)

LINESTRING (80.000000 80.000000, 111.172659 3.616001)

LINESTRING (111.172659 3.616001, 136.677561 -58.879999)

LINESTRING (80.000000 80.000000, 199.142959 -11.131528)

LINESTRING (80.000000 80.000000, 145.528627 29.877660)

LINESTRING (145.528627 29.877660, 199.142959 -11.131528)

LINESTRING (229.732215 88.959002, 198.339712 172.172190)

LINESTRING (198.339712 172.172190, 122.239944 223.929799)

LINESTRING (122.239944 223.929799, 34.020829 222.779256)

LINESTRING (34.020829 222.779256, -46.367987 160.815418)

LINESTRING (-46.367987 160.815418, -69.999978 80.081451)

LINESTRING (-69.999978 80.081451, -36.548768 -14.426611)

LINESTRING (-36.548768 -14.426611, 27.558371 -60.534251)

LINESTRING (27.558371 -60.534251, 136.677561 -58.879999)

LINESTRING (136.677561 -58.879999, 199.142959 -11.131528)

LINESTRING (199.142959 -11.131528, 229.732215 88.959002)

LINESTRING (680.000000 80.000000, 829.999697 79.698491)

LINESTRING (680.000000 80.000000, 762.499833 79.834170)

LINESTRING (762.499833 79.834170, 829.999697 79.698491)

LINESTRING (680.000000 80.000000, 798.031176 172.566956)

LINESTRING (680.000000 80.000000, 744.917147 130.911826)

LINESTRING (744.917147 130.911826, 798.031176 172.566956)

LINESTRING (680.000000 80.000000, 737.435320 218.568337)

LINESTRING (680.000000 80.000000, 711.589426 156.212585)

LINESTRING (711.589426 156.212585, 737.435320 218.568337)

LINESTRING (680.000000 80.000000, 634.306525 222.870943)

LINESTRING (680.000000 80.000000, 654.868589 158.579019)

LINESTRING (654.868589 158.579019, 634.306525 222.870943)

LINESTRING (680.000000 80.000000, 562.647431 173.425770)

LINESTRING (680.000000 80.000000, 615.456087 131.384174)

LINESTRING (615.456087 131.384174, 562.647431 173.425770)

LINESTRING (680.000000 80.000000, 530.055761 84.089635)

LINESTRING (680.000000 80.000000, 597.530668 82.249299)

LINESTRING (597.530668 82.249299, 530.055761 84.089635)

LINESTRING (680.000000 80.000000, 560.455273 -10.603854)

LINESTRING (680.000000 80.000000, 614.250400 30.167880)

LINESTRING (614.250400 30.167880, 560.455273 -10.603854)

LINESTRING (680.000000 80.000000, 628.316856 -60.814959)

LINESTRING (680.000000 80.000000, 651.574271 2.551773)

LINESTRING (651.574271 2.551773, 628.316856 -60.814959)

LINESTRING (680.000000 80.000000, 735.532850 -59.341675)

LINESTRING (680.000000 80.000000, 710.543068 3.362078)

LINESTRING (710.543068 3.362078, 735.532850 -59.341675)

LINESTRING (680.000000 80.000000, 807.849034 1.548584)

LINESTRING (680.000000 80.000000, 750.316968 36.851721)

LINESTRING (750.316968 36.851721, 807.849034 1.548584)

LINESTRING (829.999697 79.698491, 798.031176 172.566956)

LINESTRING (798.031176 172.566956, 737.435320 218.568337)

LINESTRING (737.435320 218.568337, 634.306525 222.870943)

LINESTRING (634.306525 222.870943, 562.647431 173.425770)

LINESTRING (562.647431 173.425770, 530.055761 84.089635)

LINESTRING (530.055761 84.089635, 560.455273 -10.603854)

LINESTRING (560.455273 -10.603854, 628.316856 -60.814959)

LINESTRING (628.316856 -60.814959, 735.532850 -59.341675)

LINESTRING (735.532850 -59.341675, 807.849034 1.548584)

LINESTRING (807.849034 1.548584, 829.999697 79.698491)

LINESTRING (1280.000000 80.000000, 1429.998671 80.631382)

LINESTRING (1280.000000 80.000000, 1362.499269 80.347260)

LINESTRING (1362.499269 80.347260, 1429.998671 80.631382)

LINESTRING (1280.000000 80.000000, 1407.827347 158.486746)

LINESTRING (1280.000000 80.000000, 1350.305041 123.167710)

LINESTRING (1350.305041 123.167710, 1407.827347 158.486746)

LINESTRING (1280.000000 80.000000, 1328.520027 221.935926)

LINESTRING (1280.000000 80.000000, 1306.686015 158.064759)

LINESTRING (1306.686015 158.064759, 1328.520027 221.935926)

LINESTRING (1280.000000 80.000000, 1225.585340 219.782133)

LINESTRING (1280.000000 80.000000, 1250.071937 156.880173)

LINESTRING (1250.071937 156.880173, 1225.585340 219.782133)

LINESTRING (1280.000000 80.000000, 1155.090433 163.051791)

LINESTRING (1280.000000 80.000000, 1211.299738 125.678485)

LINESTRING (1211.299738 125.678485, 1155.090433 163.051791)

LINESTRING (1280.000000 80.000000, 1130.113876 74.156217)

LINESTRING (1280.000000 80.000000, 1197.562632 76.785919)

LINESTRING (1197.562632 76.785919, 1130.113876 74.156217)

LINESTRING (1280.000000 80.000000, 1154.754615 -2.544494)

LINESTRING (1280.000000 80.000000, 1211.115038 34.600528)

LINESTRING (1211.115038 34.600528, 1154.754615 -2.544494)

LINESTRING (1280.000000 80.000000, 1238.923593 -64.266174)

LINESTRING (1280.000000 80.000000, 1257.407976 0.653605)

LINESTRING (1257.407976 0.653605, 1238.923593 -64.266174)

LINESTRING (1280.000000 80.000000, 1329.812402 -61.487542)

LINESTRING (1280.000000 80.000000, 1307.396821 2.181852)

LINESTRING (1307.396821 2.181852, 1329.812402 -61.487542)

LINESTRING (1280.000000 80.000000, 1395.726909 -15.432083)

LINESTRING (1280.000000 80.000000, 1343.649800 27.512354)

LINESTRING (1343.649800 27.512354, 1395.726909 -15.432083)

LINESTRING (1429.998671 80.631382, 1407.827347 158.486746)

LINESTRING (1407.827347 158.486746, 1328.520027 221.935926)

LINESTRING (1328.520027 221.935926, 1225.585340 219.782133)

LINESTRING (1225.585340 219.782133, 1155.090433 163.051791)

LINESTRING (1155.090433 163.051791, 1130.113876 74.156217)

LINESTRING (1130.113876 74.156217, 1154.754615 -2.544494)

LINESTRING (1154.754615 -2.544494, 1238.923593 -64.266174)

LINESTRING (1238.923593 -64.266174, 1329.812402 -61.487542)

LINESTRING (1329.812402 -61.487542, 1395.726909 -15.432083)

LINESTRING (1395.726909 -15.432083, 1429.998671 80.631382)

LINESTRING (80.000000 80.000000, 680.000000 80.000000)

LINESTRING (680.000000 80.000000, 1280.000000 80.000000)

