LINESTRING (50.000000 650.000000, 172.448980 650.000000)

LINESTRING (172.448980 650.000000, 294.897959 650.000000)

LINESTRING (294.897959 650.000000, 417.346939 650.000000)

LINESTRING (417.346939 650.000000, 539.795918 650.000000)

LINESTRING (539.795918 650.000000, 662.244898 650.000000)

LINESTRING (662.244898 650.000000, 784.693878 650.000000)

LINESTRING (784.693878 650.000000, 907.142857 650.000000)

LINESTRING (907.142857 650.000000, 1029.591837 650.000000)

LINESTRING (1029.591837 650.000000, 1152.040816 650.000000)

LINESTRING (1152.040816 650.000000, 1274.489796 650.000000)

LINESTRING (1274.489796 650.000000, 1396.938776 650.000000)

LINESTRING (1396.938776 650.000000, 1519.387755 650.000000)

LINESTRING (1519.387755 650.000000, 1641.836735 650.000000)

LINESTRING (1641.836735 650.000000, 1764.285714 650.000000)

LINESTRING (1764.285714 650.000000, 1886.734694 650.000000)

LINESTRING (1886.734694 650.000000, 2009.183673 650.000000)

LINESTRING (2009.183673 650.000000, 2131.632653 650.000000)

LINESTRING (2131.632653 650.000000, 2254.081633 650.000000)

LINESTRING (2254.081633 650.000000, 2376.530612 650.000000)

LINESTRING (2376.530612 650.000000, 2498.979592 650.000000)

LINESTRING (2498.979592 650.000000, 2621.428571 650.000000)

LINESTRING (2621.428571 650.000000, 2743.877551 650.000000)

LINESTRING (2743.877551 650.000000, 2866.326531 650.000000)

LINESTRING (2866.326531 650.000000, 2988.775510 650.000000)

LINESTRING (2988.775510 650.000000, 3111.224490 650.000000)

LINESTRING (3111.224490 650.000000, 3233.673469 650.000000)

LINESTRING (3233.673469 650.000000, 3356.122449 650.000000)

LINESTRING (3356.122449 650.000000, 3478.571429 650.000000)

LINESTRING (3478.571429 650.000000, 3601.020408 650.000000)

LINESTRING (3601.020408 650.000000, 3723.469388 650.000000)

LINESTRING (3723.469388 650.000000, 3845.918367 650.000000)

LINESTRING (3845.918367 650.000000, 3968.367347 650.000000)

LINESTRING (3968.367347 650.000000, 4090.816327 650.000000)

LINESTRING (4090.816327 650.000000, 4213.265306 650.000000)

LINESTRING (4213.265306 650.000000, 4335.714286 650.000000)

LINESTRING (4335.714286 650.000000, 4458.163265 650.000000)

LINESTRING (4458.163265 650.000000, 4580.612245 650.000000)

LINESTRING (4580.612245 650.000000, 4703.061224 650.000000)

LINESTRING (4703.061224 650.000000, 4825.510204 650.000000)

LINESTRING (4825.510204 650.000000, 4947.959184 650.000000)

LINESTRING (4947.959184 650.000000, 5070.408163 650.000000)

LINESTRING (5070.408163 650.000000, 5192.857143 650.000000)

LINESTRING (5192.857143 650.000000, 5315.306122 650.000000)

LINESTRING (5315.306122 650.000000, 5437.755102 650.000000)

LINESTRING (5437.755102 650.000000, 5560.204082 650.000000)

LINESTRING (5560.204082 650.000000, 5682.653061 650.000000)

LINESTRING (5682.653061 650.000000, 5805.102041 650.000000)

LINESTRING (5805.102041 650.000000, 5927.551020 650.000000)

LINESTRING (5927.551020 650.000000, 6050.000000 650.000000)

LINESTRING (172.448980 650.000000, 172.448980 750.000000)

LINESTRING (294.897959 650.000000, 294.897959 550.000000)

