LINESTRING (3542.916443 3276.218931, 2983.292556 4428.565121)

LINESTRING (3542.916443 3276.218931, 2354.430468 1414.000754)

LINESTRING (3542.916443 3276.218931, 5655.109679 3014.477790)

LINESTRING (3542.916443 3276.218931, 3415.931953 2749.909471)

LINESTRING (3542.916443 3276.218931, 2088.608536 3421.784827)

LINESTRING (3542.916443 3276.218931, 4056.178504 2326.159850)

LINESTRING (3542.916443 3276.218931, 4760.576222 2933.398899)

LINESTRING (7628.832648 5010.684790, 6789.011761 5372.763030)

LINESTRING (2811.356307 4089.617211, 2983.292556 4428.565121)

LINESTRING (2811.356307 4089.617211, 4056.178504 2326.159850)

LINESTRING (2811.356307 4089.617211, 2525.601206 3583.652354)

LINESTRING (6789.011761 5372.763030, 6712.703970 5532.384835)

LINESTRING (6789.011761 5372.763030, 7326.027241 7385.568541)

LINESTRING (2983.292556 4428.565121, 2088.608536 3421.784827)

LINESTRING (2983.292556 4428.565121, 2525.601206 3583.652354)

LINESTRING (2983.292556 4428.565121, 4659.038176 3931.014723)

LINESTRING (1096.512477 2305.973079, 422.703757 1784.507167)

LINESTRING (1096.512477 2305.973079, 187.189873 283.419906)

LINESTRING (1096.512477 2305.973079, 3415.931953 2749.909471)

LINESTRING (1096.512477 2305.973079, 2088.608536 3421.784827)

LINESTRING (4523.149595 3702.242510, 5655.109679 3014.477790)

LINESTRING (4523.149595 3702.242510, 3415.931953 2749.909471)

LINESTRING (4523.149595 3702.242510, 5748.557461 3684.851269)

LINESTRING (4523.149595 3702.242510, 4659.038176 3931.014723)

LINESTRING (4523.149595 3702.242510, 4760.576222 2933.398899)

LINESTRING (422.703757 1784.507167, 187.189873 283.419906)

LINESTRING (4837.058843 6248.714454, 2590.368242 6144.386080)

LINESTRING (4837.058843 6248.714454, 4659.038176 3931.014723)

LINESTRING (6712.703970 5532.384835, 5268.871710 5018.030405)

LINESTRING (6712.703970 5532.384835, 7200.107346 6611.515565)

LINESTRING (6712.703970 5532.384835, 5592.640290 7047.495881)

LINESTRING (4002.608355 742.772837, 4844.171811 546.936121)

LINESTRING (4002.608355 742.772837, 5258.339668 773.528930)

LINESTRING (4002.608355 742.772837, 4056.178504 2326.159850)

LINESTRING (4002.608355 742.772837, 4760.576222 2933.398899)

LINESTRING (938.640130 5713.560774, 2348.819484 5355.040023)

LINESTRING (938.640130 5713.560774, 888.902482 6455.906724)

LINESTRING (2354.430468 1414.000754, 2088.608536 3421.784827)

LINESTRING (2354.430468 1414.000754, 4056.178504 2326.159850)

LINESTRING (2354.430468 1414.000754, 2525.601206 3583.652354)

LINESTRING (5268.871710 5018.030405, 4530.794400 7107.787795)

LINESTRING (5268.871710 5018.030405, 5611.847271 5068.108820)

LINESTRING (5268.871710 5018.030405, 4659.038176 3931.014723)

LINESTRING (5268.871710 5018.030405, 6223.448579 6964.769944)

LINESTRING (4530.794400 7107.787795, 2268.069156 6741.643516)

LINESTRING (4530.794400 7107.787795, 6223.448579 6964.769944)

LINESTRING (5655.109679 3014.477790, 5748.557461 3684.851269)

LINESTRING (5655.109679 3014.477790, 6997.163854 1675.642422)

LINESTRING (5655.109679 3014.477790, 5611.847271 5068.108820)

LINESTRING (5655.109679 3014.477790, 5258.339668 773.528930)

LINESTRING (3415.931953 2749.909471, 4056.178504 2326.159850)

LINESTRING (3415.931953 2749.909471, 4760.576222 2933.398899)

LINESTRING (6796.719318 704.804246, 4844.171811 546.936121)

LINESTRING (6796.719318 704.804246, 6777.858583 867.635047)

LINESTRING (5748.557461 3684.851269, 4056.178504 2326.159850)

LINESTRING (7202.033535 7262.253195, 7200.107346 6611.515565)

LINESTRING (7202.033535 7262.253195, 5592.640290 7047.495881)

LINESTRING (7202.033535 7262.253195, 7326.027241 7385.568541)

LINESTRING (1251.360266 7024.358003, 2590.368242 6144.386080)

LINESTRING (1251.360266 7024.358003, 2348.819484 5355.040023)

LINESTRING (1251.360266 7024.358003, 888.902482 6455.906724)

LINESTRING (2590.368242 6144.386080, 2268.069156 6741.643516)

LINESTRING (2590.368242 6144.386080, 888.902482 6455.906724)

LINESTRING (7200.107346 6611.515565, 7326.027241 7385.568541)

LINESTRING (4844.171811 546.936121, 5258.339668 773.528930)

LINESTRING (4844.171811 546.936121, 4056.178504 2326.159850)

LINESTRING (5611.847271 5068.108820, 5592.640290 7047.495881)

LINESTRING (5611.847271 5068.108820, 6223.448579 6964.769944)

LINESTRING (2088.608536 3421.784827, 2525.601206 3583.652354)

LINESTRING (2088.608536 3421.784827, 2348.819484 5355.040023)

LINESTRING (2268.069156 6741.643516, 888.902482 6455.906724)

LINESTRING (5258.339668 773.528930, 4056.178504 2326.159850)

LINESTRING (5258.339668 773.528930, 6777.858583 867.635047)

LINESTRING (5258.339668 773.528930, 4760.576222 2933.398899)

LINESTRING (5592.640290 7047.495881, 6223.448579 6964.769944)

LINESTRING (5592.640290 7047.495881, 7326.027241 7385.568541)

