LINESTRING (1542.848521 3572.624890, 1266.476690 3745.323157)

LINESTRING (1542.848521 3572.624890, 1301.801390 3346.041052)

LINESTRING (1542.848521 3572.624890, 1140.705596 3933.144617)

LINESTRING (1542.848521 3572.624890, 1145.197403 4566.656862)

LINESTRING (1542.848521 3572.624890, 2994.434447 4329.599194)

LINESTRING (1542.848521 3572.624890, 2101.914491 3151.481439)

LINESTRING (1542.848521 3572.624890, 1063.188363 3447.120375)

LINESTRING (4793.498737 2044.604930, 4268.296424 1926.198652)

LINESTRING (4793.498737 2044.604930, 4175.216958 586.172495)

LINESTRING (1490.765242 775.438749, 1596.801811 192.899586)

LINESTRING (1490.765242 775.438749, 2280.456924 625.407377)

LINESTRING (1266.476690 3745.323157, 1301.801390 3346.041052)

LINESTRING (1266.476690 3745.323157, 1140.705596 3933.144617)

LINESTRING (1266.476690 3745.323157, 119.575281 3963.268793)

LINESTRING (1266.476690 3745.323157, 1686.770028 5144.725553)

LINESTRING (1266.476690 3745.323157, 1145.197403 4566.656862)

LINESTRING (1266.476690 3745.323157, 328.670180 3596.823818)

LINESTRING (1266.476690 3745.323157, 1063.188363 3447.120375)

LINESTRING (7869.236164 3437.458451, 8239.441955 4878.652462)

LINESTRING (7869.236164 3437.458451, 8121.238008 1858.714032)

LINESTRING (7869.236164 3437.458451, 7759.367543 3504.355078)

LINESTRING (7180.617755 7335.434268, 7482.589797 6012.842149)

LINESTRING (7180.617755 7335.434268, 7438.542668 5734.519407)

LINESTRING (7180.617755 7335.434268, 5677.938971 7965.621190)

LINESTRING (7180.617755 7335.434268, 6513.228648 6790.752151)

LINESTRING (5032.340892 5817.633776, 4909.928999 5925.091914)

LINESTRING (5032.340892 5817.633776, 4863.153129 6105.004450)

LINESTRING (5032.340892 5817.633776, 3702.897656 6998.339948)

LINESTRING (5032.340892 5817.633776, 3707.977638 6554.636313)

LINESTRING (4607.948734 8072.096107, 3775.608592 7885.923062)

LINESTRING (4607.948734 8072.096107, 5246.756428 6725.962918)

LINESTRING (4607.948734 8072.096107, 3683.258075 6602.262696)

LINESTRING (4607.948734 8072.096107, 5677.938971 7965.621190)

LINESTRING (4411.401331 6041.274781, 5051.292789 4467.787131)

LINESTRING (4411.401331 6041.274781, 4909.928999 5925.091914)

LINESTRING (4411.401331 6041.274781, 3628.910307 4527.818102)

LINESTRING (4411.401331 6041.274781, 3510.576932 6594.511188)

LINESTRING (4411.401331 6041.274781, 4863.153129 6105.004450)

LINESTRING (4411.401331 6041.274781, 3971.853082 4872.671639)

LINESTRING (4411.401331 6041.274781, 3707.977638 6554.636313)

LINESTRING (1301.801390 3346.041052, 1140.705596 3933.144617)

LINESTRING (1301.801390 3346.041052, 1145.197403 4566.656862)

LINESTRING (1301.801390 3346.041052, 948.004700 4514.151138)

LINESTRING (1301.801390 3346.041052, 1063.188363 3447.120375)

LINESTRING (8239.441955 4878.652462, 7759.367543 3504.355078)

LINESTRING (3561.496254 4943.337128, 3794.685804 5227.458794)

LINESTRING (3561.496254 4943.337128, 3628.910307 4527.818102)

LINESTRING (3561.496254 4943.337128, 3971.853082 4872.671639)

LINESTRING (2779.202785 4766.267940, 3207.584679 4392.160911)

LINESTRING (2779.202785 4766.267940, 2994.434447 4329.599194)

LINESTRING (2779.202785 4766.267940, 2101.914491 3151.481439)

LINESTRING (2779.202785 4766.267940, 2631.193725 5037.394796)

LINESTRING (7822.879589 1337.916345, 8121.238008 1858.714032)

LINESTRING (7822.879589 1337.916345, 7663.345508 1374.779072)

LINESTRING (7822.879589 1337.916345, 6485.167004 2059.213148)

LINESTRING (7822.879589 1337.916345, 8117.077499 1500.444780)

LINESTRING (8121.238008 1858.714032, 6485.167004 2059.213148)

LINESTRING (8121.238008 1858.714032, 8117.077499 1500.444780)

LINESTRING (1551.040906 7506.773307, 1720.904655 6980.149527)

LINESTRING (4268.296424 1926.198652, 3901.984907 1966.036125)

LINESTRING (4268.296424 1926.198652, 2570.413751 2493.633327)

LINESTRING (3794.685804 5227.458794, 5051.292789 4467.787131)

LINESTRING (3794.685804 5227.458794, 3977.152234 5577.223290)

LINESTRING (3794.685804 5227.458794, 3683.258075 6602.262696)

LINESTRING (3794.685804 5227.458794, 2631.193725 5037.394796)

LINESTRING (3794.685804 5227.458794, 3971.853082 4872.671639)

LINESTRING (5246.756428 6725.962918, 4909.928999 5925.091914)

LINESTRING (5246.756428 6725.962918, 3977.152234 5577.223290)

LINESTRING (5246.756428 6725.962918, 5677.938971 7965.621190)

LINESTRING (5246.756428 6725.962918, 3707.977638 6554.636313)

LINESTRING (5246.756428 6725.962918, 6513.228648 6790.752151)

LINESTRING (8122.957011 7544.718437, 7482.589797 6012.842149)

LINESTRING (7482.589797 6012.842149, 7438.542668 5734.519407)

LINESTRING (4664.766419 4465.547164, 5051.292789 4467.787131)

LINESTRING (4664.766419 4465.547164, 4172.099372 3132.908832)

LINESTRING (4664.766419 4465.547164, 5998.773568 3517.873409)

LINESTRING (4664.766419 4465.547164, 3628.910307 4527.818102)

LINESTRING (4664.766419 4465.547164, 4863.153129 6105.004450)

LINESTRING (5051.292789 4467.787131, 6233.706975 4045.841956)

LINESTRING (6452.930045 2858.785170, 6485.167004 2059.213148)

LINESTRING (6452.930045 2858.785170, 7045.150677 3299.264391)

LINESTRING (6452.930045 2858.785170, 7759.367543 3504.355078)

LINESTRING (6452.930045 2858.785170, 7221.989429 2607.365630)

LINESTRING (4909.928999 5925.091914, 3977.152234 5577.223290)

LINESTRING (4909.928999 5925.091914, 4863.153129 6105.004450)

LINESTRING (4909.928999 5925.091914, 3702.897656 6998.339948)

LINESTRING (7663.345508 1374.779072, 8117.077499 1500.444780)

LINESTRING (3207.584679 4392.160911, 3047.324712 5546.936981)

LINESTRING (3207.584679 4392.160911, 4172.099372 3132.908832)

LINESTRING (3207.584679 4392.160911, 2994.434447 4329.599194)

LINESTRING (3207.584679 4392.160911, 3082.069840 3966.240059)

LINESTRING (3207.584679 4392.160911, 3628.910307 4527.818102)

LINESTRING (1140.705596 3933.144617, 1686.770028 5144.725553)

LINESTRING (1140.705596 3933.144617, 328.670180 3596.823818)

LINESTRING (1140.705596 3933.144617, 1063.188363 3447.120375)

LINESTRING (119.575281 3963.268793, 168.470318 4846.413738)

LINESTRING (119.575281 3963.268793, 328.670180 3596.823818)

LINESTRING (119.575281 3963.268793, 294.350946 4953.883691)

LINESTRING (3387.634655 1097.013424, 3901.984907 1966.036125)

LINESTRING (3387.634655 1097.013424, 2570.413751 2493.633327)

LINESTRING (6485.167004 2059.213148, 5998.773568 3517.873409)

LINESTRING (6485.167004 2059.213148, 5953.000453 3667.440560)

LINESTRING (3047.324712 5546.936981, 3082.069840 3966.240059)

LINESTRING (3047.324712 5546.936981, 3628.910307 4527.818102)

LINESTRING (3047.324712 5546.936981, 2513.939457 5307.763823)

LINESTRING (3047.324712 5546.936981, 3971.853082 4872.671639)

LINESTRING (168.470318 4846.413738, 294.350946 4953.883691)

LINESTRING (168.470318 4846.413738, 1063.188363 3447.120375)

LINESTRING (1686.770028 5144.725553, 1272.631621 4952.529255)

LINESTRING (1686.770028 5144.725553, 294.350946 4953.883691)

LINESTRING (1686.770028 5144.725553, 948.004700 4514.151138)

LINESTRING (1686.770028 5144.725553, 2513.939457 5307.763823)

LINESTRING (3901.984907 1966.036125, 4172.099372 3132.908832)

LINESTRING (3901.984907 1966.036125, 4729.776225 3107.918250)

LINESTRING (4172.099372 3132.908832, 4729.776225 3107.918250)

LINESTRING (4172.099372 3132.908832, 3082.069840 3966.240059)

LINESTRING (4729.776225 3107.918250, 5998.773568 3517.873409)

LINESTRING (4729.776225 3107.918250, 3628.910307 4527.818102)

LINESTRING (7045.150677 3299.264391, 7117.742493 3547.047886)

LINESTRING (7045.150677 3299.264391, 7759.367543 3504.355078)

LINESTRING (1272.631621 4952.529255, 1145.197403 4566.656862)

LINESTRING (1272.631621 4952.529255, 948.004700 4514.151138)

LINESTRING (1145.197403 4566.656862, 948.004700 4514.151138)

LINESTRING (1145.197403 4566.656862, 2631.193725 5037.394796)

LINESTRING (1145.197403 4566.656862, 2513.939457 5307.763823)

LINESTRING (1145.197403 4566.656862, 1063.188363 3447.120375)

LINESTRING (7117.742493 3547.047886, 5953.000453 3667.440560)

LINESTRING (2994.434447 4329.599194, 3082.069840 3966.240059)

LINESTRING (2101.914491 3151.481439, 3082.069840 3966.240059)

LINESTRING (2101.914491 3151.481439, 2570.413751 2493.633327)

LINESTRING (5998.773568 3517.873409, 5953.000453 3667.440560)

LINESTRING (5998.773568 3517.873409, 6233.706975 4045.841956)

LINESTRING (7221.989429 2607.365630, 5953.000453 3667.440560)

LINESTRING (7438.542668 5734.519407, 6481.939434 6707.930694)

LINESTRING (7438.542668 5734.519407, 6513.228648 6790.752151)

LINESTRING (3977.152234 5577.223290, 3683.258075 6602.262696)

LINESTRING (3977.152234 5577.223290, 2631.193725 5037.394796)

LINESTRING (3977.152234 5577.223290, 3971.853082 4872.671639)

LINESTRING (6222.966112 120.368547, 6259.951360 1288.106164)

LINESTRING (3082.069840 3966.240059, 3628.910307 4527.818102)

LINESTRING (3082.069840 3966.240059, 2631.193725 5037.394796)

LINESTRING (3683.258075 6602.262696, 3510.576932 6594.511188)

LINESTRING (3683.258075 6602.262696, 2867.469988 6833.835507)

LINESTRING (3683.258075 6602.262696, 3702.897656 6998.339948)

LINESTRING (3683.258075 6602.262696, 3707.977638 6554.636313)

LINESTRING (3628.910307 4527.818102, 2631.193725 5037.394796)

LINESTRING (3628.910307 4527.818102, 2513.939457 5307.763823)

LINESTRING (3628.910307 4527.818102, 3971.853082 4872.671639)

LINESTRING (3510.576932 6594.511188, 2631.193725 5037.394796)

LINESTRING (3510.576932 6594.511188, 3971.853082 4872.671639)

LINESTRING (3510.576932 6594.511188, 3702.897656 6998.339948)

LINESTRING (3510.576932 6594.511188, 3707.977638 6554.636313)

LINESTRING (6481.939434 6707.930694, 6513.228648 6790.752151)

LINESTRING (2631.193725 5037.394796, 2513.939457 5307.763823)

LINESTRING (2631.193725 5037.394796, 3971.853082 4872.671639)

LINESTRING (4863.153129 6105.004450, 3971.853082 4872.671639)

LINESTRING (2513.939457 5307.763823, 2867.469988 6833.835507)

LINESTRING (1530.448441 6794.821986, 2867.469988 6833.835507)

LINESTRING (1530.448441 6794.821986, 1720.904655 6980.149527)

LINESTRING (3971.853082 4872.671639, 3707.977638 6554.636313)

LINESTRING (2252.379262 7227.072031, 1720.904655 6980.149527)

LINESTRING (5953.000453 3667.440560, 6233.706975 4045.841956)

LINESTRING (3702.897656 6998.339948, 3707.977638 6554.636313)

