LINESTRING (60.000000 60.000000, 62.145120 57.900082)

LINESTRING (60.000000 60.000000, 60.803099 58.592486)

LINESTRING (60.000000 60.000000, 54.872548 70.205531)

LINESTRING (60.000000 60.000000, 60.868468 66.054026)

LINESTRING (60.000000 60.000000, 59.638394 56.524058)

LINESTRING (60.000000 60.000000, 70.149635 50.797150)

LINESTRING (60.000000 60.000000, 53.487369 68.012439)

LINESTRING (60.000000 60.000000, 47.759832 64.698842)

LINESTRING (62.145120 57.900082, 60.868468 66.054026)

LINESTRING (62.145120 57.900082, 53.487369 68.012439)

LINESTRING (62.145120 57.900082, 47.759832 64.698842)

LINESTRING (60.803099 58.592486, 54.872548 70.205531)

LINESTRING (60.803099 58.592486, 70.149635 50.797150)

LINESTRING (60.803099 58.592486, 53.487369 68.012439)

LINESTRING (60.803099 58.592486, 47.759832 64.698842)

LINESTRING (54.872548 70.205531, 59.638394 56.524058)

LINESTRING (54.872548 70.205531, 70.149635 50.797150)

LINESTRING (54.872548 70.205531, 47.759832 64.698842)

LINESTRING (60.868468 66.054026, 70.149635 50.797150)

LINESTRING (60.868468 66.054026, 53.487369 68.012439)

LINESTRING (59.638394 56.524058, 70.149635 50.797150)

LINESTRING (59.638394 56.524058, 53.487369 68.012439)

LINESTRING (59.638394 56.524058, 47.759832 64.698842)

LINESTRING (70.149635 50.797150, 53.487369 68.012439)

LINESTRING (70.149635 50.797150, 47.759832 64.698842)

LINESTRING (53.487369 68.012439, 47.759832 64.698842)

LINESTRING (180.000000 60.000000, 179.212772 60.371076)

LINESTRING (180.000000 60.000000, 176.696083 47.899233)

LINESTRING (180.000000 60.000000, 171.528997 47.247022)

LINESTRING (180.000000 60.000000, 189.194480 46.770343)

LINESTRING (180.000000 60.000000, 191.021246 71.384919)

LINESTRING (180.000000 60.000000, 165.878120 64.634716)

LINESTRING (180.000000 60.000000, 178.978793 69.284477)

LINESTRING (180.000000 60.000000, 193.073728 72.871918)

LINESTRING (179.212772 60.371076, 171.528997 47.247022)

LINESTRING (179.212772 60.371076, 191.021246 71.384919)

LINESTRING (179.212772 60.371076, 165.878120 64.634716)

LINESTRING (179.212772 60.371076, 178.978793 69.284477)

LINESTRING (176.696083 47.899233, 171.528997 47.247022)

LINESTRING (176.696083 47.899233, 191.021246 71.384919)

LINESTRING (176.696083 47.899233, 165.878120 64.634716)

LINESTRING (171.528997 47.247022, 189.194480 46.770343)

LINESTRING (171.528997 47.247022, 193.073728 72.871918)

LINESTRING (189.194480 46.770343, 193.073728 72.871918)

LINESTRING (191.021246 71.384919, 165.878120 64.634716)

LINESTRING (191.021246 71.384919, 178.978793 69.284477)

LINESTRING (191.021246 71.384919, 193.073728 72.871918)

LINESTRING (178.978793 69.284477, 193.073728 72.871918)

LINESTRING (60.000000 180.000000, 52.974395 192.850967)

LINESTRING (60.000000 180.000000, 70.994806 186.109196)

LINESTRING (60.000000 180.000000, 66.920911 192.103318)

LINESTRING (60.000000 180.000000, 67.608876 185.667700)

LINESTRING (60.000000 180.000000, 49.995849 171.392497)

LINESTRING (60.000000 180.000000, 68.048045 173.574750)

LINESTRING (60.000000 180.000000, 61.076186 184.048873)

LINESTRING (60.000000 180.000000, 72.687142 170.255834)

LINESTRING (52.974395 192.850967, 66.920911 192.103318)

LINESTRING (52.974395 192.850967, 67.608876 185.667700)

LINESTRING (52.974395 192.850967, 61.076186 184.048873)

LINESTRING (70.994806 186.109196, 66.920911 192.103318)

LINESTRING (70.994806 186.109196, 67.608876 185.667700)

LINESTRING (70.994806 186.109196, 49.995849 171.392497)

LINESTRING (70.994806 186.109196, 72.687142 170.255834)

LINESTRING (66.920911 192.103318, 68.048045 173.574750)

LINESTRING (66.920911 192.103318, 61.076186 184.048873)

LINESTRING (67.608876 185.667700, 49.995849 171.392497)

LINESTRING (67.608876 185.667700, 61.076186 184.048873)

LINESTRING (67.608876 185.667700, 72.687142 170.255834)

LINESTRING (68.048045 173.574750, 61.076186 184.048873)

LINESTRING (68.048045 173.574750, 72.687142 170.255834)

LINESTRING (61.076186 184.048873, 72.687142 170.255834)

LINESTRING (59.638394 56.524058, 189.194480 46.770343)

LINESTRING (47.759832 64.698842, 171.528997 47.247022)

LINESTRING (70.149635 50.797150, 189.194480 46.770343)

LINESTRING (60.000000 60.000000, 180.000000 60.000000)

LINESTRING (193.073728 72.871918, 66.920911 192.103318)

LINESTRING (179.212772 60.371076, 66.920911 192.103318)

LINESTRING (179.212772 60.371076, 61.076186 184.048873)

LINESTRING (180.000000 60.000000, 60.000000 180.000000)

