LINESTRING (482.807821 396.115319, 456.555256 452.039684)

LINESTRING (456.555256 452.039684, 395.751311 480.323641)

LINESTRING (395.751311 480.323641, 340.491305 452.540316)

LINESTRING (340.491305 452.540316, 320.593356 403.233138)

LINESTRING (320.593356 403.233138, 340.369465 341.928804)

LINESTRING (340.369465 341.928804, 401.180303 320.711657)

LINESTRING (401.180303 320.711657, 455.737276 341.364953)

LINESTRING (455.737276 341.364953, 482.807821 396.115319)

LINESTRING (558.006188 402.958431, 509.466410 510.993733)

LINESTRING (509.466410 510.993733, 398.242260 562.768759)

LINESTRING (398.242260 562.768759, 289.842797 517.243489)

LINESTRING (289.842797 517.243489, 244.239696 402.018229)

LINESTRING (244.239696 402.018229, 288.099463 284.687434)

LINESTRING (288.099463 284.687434, 400.057994 239.776655)

LINESTRING (400.057994 239.776655, 510.747751 282.766198)

LINESTRING (510.747751 282.766198, 558.006188 402.958431)

LINESTRING (639.936281 395.989548, 570.636246 572.826567)

LINESTRING (570.636246 572.826567, 395.748366 636.705699)

LINESTRING (395.748366 636.705699, 225.841010 572.939040)

LINESTRING (225.841010 572.939040, 155.920014 395.395673)

LINESTRING (155.920014 395.395673, 230.587054 234.089212)

LINESTRING (230.587054 234.089212, 402.479868 162.962573)

LINESTRING (402.479868 162.962573, 573.881078 233.850995)

LINESTRING (573.881078 233.850995, 639.936281 395.989548)

LINESTRING (721.552829 404.855784, 628.649273 621.796200)

LINESTRING (628.649273 621.796200, 404.405513 718.114574)

LINESTRING (404.405513 718.114574, 176.877447 623.861891)

LINESTRING (176.877447 623.861891, 79.382451 400.240829)

LINESTRING (79.382451 400.240829, 169.539328 173.744477)

LINESTRING (169.539328 173.744477, 402.192308 81.824400)

LINESTRING (402.192308 81.824400, 630.615652 174.825556)

LINESTRING (630.615652 174.825556, 721.552829 404.855784)

LINESTRING (802.738965 397.507677, 678.113066 679.641205)

LINESTRING (678.113066 679.641205, 403.395340 795.025946)

LINESTRING (403.395340 795.025946, 120.159859 677.894056)

LINESTRING (120.159859 677.894056, 0.663493 400.494455)

LINESTRING (0.663493 400.494455, 116.896906 113.007123)

LINESTRING (116.896906 113.007123, 398.021414 4.686354)

LINESTRING (398.021414 4.686354, 681.492907 121.930488)

LINESTRING (681.492907 121.930488, 802.738965 397.507677)

LINESTRING (877.447062 401.520206, 739.334539 735.117592)

LINESTRING (739.334539 735.117592, 395.701285 883.025211)

LINESTRING (395.701285 883.025211, 63.375194 743.991783)

LINESTRING (63.375194 743.991783, -79.638444 404.907367)

LINESTRING (-79.638444 404.907367, 58.083463 57.520093)

LINESTRING (58.083463 57.520093, 399.723444 -77.910152)

LINESTRING (399.723444 -77.910152, 738.979528 64.687151)

LINESTRING (738.979528 64.687151, 877.447062 401.520206)

LINESTRING (964.485456 395.262848, 793.567578 799.199740)

LINESTRING (793.567578 799.199740, 398.779209 962.418833)

LINESTRING (398.779209 962.418833, 3.204364 797.281341)

LINESTRING (3.204364 797.281341, -159.166996 400.542945)

LINESTRING (-159.166996 400.542945, -0.371917 1.166938)

LINESTRING (-0.371917 1.166938, 402.014127 -160.654092)

LINESTRING (402.014127 -160.654092, 796.717655 8.094628)

LINESTRING (796.717655 8.094628, 964.485456 395.262848)

LINESTRING (482.807821 396.115319, 558.006188 402.958431)

LINESTRING (558.006188 402.958431, 639.936281 395.989548)

LINESTRING (639.936281 395.989548, 721.552829 404.855784)

LINESTRING (721.552829 404.855784, 802.738965 397.507677)

LINESTRING (802.738965 397.507677, 877.447062 401.520206)

LINESTRING (877.447062 401.520206, 964.485456 395.262848)

LINESTRING (456.555256 452.039684, 509.466410 510.993733)

LINESTRING (509.466410 510.993733, 570.636246 572.826567)

LINESTRING (570.636246 572.826567, 628.649273 621.796200)

LINESTRING (628.649273 621.796200, 678.113066 679.641205)

LINESTRING (678.113066 679.641205, 739.334539 735.117592)

LINESTRING (739.334539 735.117592, 793.567578 799.199740)

LINESTRING (395.751311 480.323641, 398.242260 562.768759)

LINESTRING (398.242260 562.768759, 395.748366 636.705699)

LINESTRING (395.748366 636.705699, 404.405513 718.114574)

LINESTRING (404.405513 718.114574, 403.395340 795.025946)

LINESTRING (403.395340 795.025946, 395.701285 883.025211)

LINESTRING (395.701285 883.025211, 398.779209 962.418833)

LINESTRING (340.491305 452.540316, 289.842797 517.243489)

LINESTRING (289.842797 517.243489, 225.841010 572.939040)

LINESTRING (225.841010 572.939040, 176.877447 623.861891)

LINESTRING (176.877447 623.861891, 120.159859 677.894056)

LINESTRING (120.159859 677.894056, 63.375194 743.991783)

LINESTRING (63.375194 743.991783, 3.204364 797.281341)

LINESTRING (320.593356 403.233138, 244.239696 402.018229)

LINESTRING (244.239696 402.018229, 155.920014 395.395673)

LINESTRING (155.920014 395.395673, 79.382451 400.240829)

LINESTRING (79.382451 400.240829, 0.663493 400.494455)

LINESTRING (0.663493 400.494455, -79.638444 404.907367)

LINESTRING (-79.638444 404.907367, -159.166996 400.542945)

LINESTRING (340.369465 341.928804, 288.099463 284.687434)

LINESTRING (288.099463 284.687434, 230.587054 234.089212)

LINESTRING (230.587054 234.089212, 169.539328 173.744477)

LINESTRING (169.539328 173.744477, 116.896906 113.007123)

LINESTRING (116.896906 113.007123, 58.083463 57.520093)

LINESTRING (58.083463 57.520093, -0.371917 1.166938)

LINESTRING (401.180303 320.711657, 400.057994 239.776655)

LINESTRING (400.057994 239.776655, 402.479868 162.962573)

LINESTRING (402.479868 162.962573, 402.192308 81.824400)

LINESTRING (402.192308 81.824400, 398.021414 4.686354)

LINESTRING (398.021414 4.686354, 399.723444 -77.910152)

LINESTRING (399.723444 -77.910152, 402.014127 -160.654092)

LINESTRING (455.737276 341.364953, 510.747751 282.766198)

LINESTRING (510.747751 282.766198, 573.881078 233.850995)

LINESTRING (573.881078 233.850995, 630.615652 174.825556)

LINESTRING (630.615652 174.825556, 681.492907 121.930488)

LINESTRING (681.492907 121.930488, 738.979528 64.687151)

LINESTRING (738.979528 64.687151, 796.717655 8.094628)

LINESTRING (400.000000 400.000000, 482.807821 396.115319)

