LINESTRING (80.000000 80.000000, 200.789273 109.995346)

LINESTRING (200.789273 109.995346, 307.590632 72.141452)

LINESTRING (307.590632 72.141452, 392.639227 -8.256339)

LINESTRING (392.639227 -8.256339, 428.036505 -127.985492)

LINESTRING (392.639227 -8.256339, 479.075724 -85.113416)

LINESTRING (392.639227 -8.256339, 503.662229 -39.916536)

LINESTRING (307.590632 72.141452, 431.121060 41.508954)

LINESTRING (431.121060 41.508954, 519.775672 -40.371115)

LINESTRING (431.121060 41.508954, 549.467686 20.396572)

LINESTRING (431.121060 41.508954, 545.330526 72.910772)

LINESTRING (307.590632 72.141452, 421.412545 105.581004)

LINESTRING (421.412545 105.581004, 540.694054 69.089773)

LINESTRING (421.412545 105.581004, 541.175631 131.043527)

LINESTRING (421.412545 105.581004, 499.560026 180.632766)

LINESTRING (200.789273 109.995346, 310.303337 133.840708)

LINESTRING (310.303337 133.840708, 421.090714 94.862553)

LINESTRING (421.090714 94.862553, 496.131569 11.344477)

LINESTRING (421.090714 94.862553, 544.357278 58.585907)

LINESTRING (421.090714 94.862553, 534.679502 118.331321)

LINESTRING (310.303337 133.840708, 422.092280 158.034569)

LINESTRING (422.092280 158.034569, 531.624973 135.577393)

LINESTRING (422.092280 158.034569, 546.822069 190.167836)

LINESTRING (422.092280 158.034569, 505.402745 251.796111)

LINESTRING (310.303337 133.840708, 400.086169 212.613998)

LINESTRING (400.086169 212.613998, 510.878832 250.526334)

LINESTRING (400.086169 212.613998, 479.428300 300.769794)

LINESTRING (400.086169 212.613998, 425.256505 330.677383)

LINESTRING (200.789273 109.995346, 287.439805 191.089391)

LINESTRING (287.439805 191.089391, 401.648915 213.941102)

LINESTRING (401.648915 213.941102, 516.957314 178.895436)

LINESTRING (401.648915 213.941102, 513.771550 253.797955)

LINESTRING (401.648915 213.941102, 494.036643 304.899039)

LINESTRING (287.439805 191.089391, 368.435412 278.168377)

LINESTRING (368.435412 278.168377, 487.366367 312.427829)

LINESTRING (368.435412 278.168377, 443.642692 359.542327)

LINESTRING (368.435412 278.168377, 407.392186 401.195533)

LINESTRING (287.439805 191.089391, 317.114352 297.360312)

LINESTRING (317.114352 297.360312, 402.663028 387.921466)

LINESTRING (317.114352 297.360312, 350.149455 421.837873)

LINESTRING (317.114352 297.360312, 278.153747 409.557483)

LINESTRING (80.000000 80.000000, 157.568243 163.839315)

LINESTRING (157.568243 163.839315, 268.717065 197.397322)

LINESTRING (268.717065 197.397322, 379.522053 161.190173)

LINESTRING (379.522053 161.190173, 456.093590 68.133772)

LINESTRING (379.522053 161.190173, 489.438414 137.906934)

LINESTRING (379.522053 161.190173, 490.178890 195.781105)

LINESTRING (268.717065 197.397322, 384.712415 230.050641)

LINESTRING (384.712415 230.050641, 491.568851 206.917044)

LINESTRING (384.712415 230.050641, 510.341318 251.694587)

LINESTRING (384.712415 230.050641, 461.915666 319.020441)

LINESTRING (268.717065 197.397322, 344.474083 272.908208)

LINESTRING (344.474083 272.908208, 452.854488 297.282435)

LINESTRING (344.474083 272.908208, 437.124590 364.499657)

LINESTRING (344.474083 272.908208, 370.655242 380.748653)

LINESTRING (157.568243 163.839315, 249.259157 240.234652)

LINESTRING (249.259157 240.234652, 359.016469 271.757637)

LINESTRING (359.016469 271.757637, 477.886803 244.088400)

LINESTRING (359.016469 271.757637, 470.778227 309.517647)

LINESTRING (359.016469 271.757637, 452.250095 366.134938)

LINESTRING (249.259157 240.234652, 328.159886 320.585085)

LINESTRING (328.159886 320.585085, 434.645786 347.864253)

LINESTRING (328.159886 320.585085, 416.614226 402.662650)

LINESTRING (328.159886 320.585085, 367.110041 443.891483)

LINESTRING (249.259157 240.234652, 278.118233 364.689217)

LINESTRING (278.118233 364.689217, 358.035145 444.179404)

LINESTRING (278.118233 364.689217, 318.267735 486.264014)

LINESTRING (278.118233 364.689217, 245.025974 488.585110)

LINESTRING (157.568243 163.839315, 191.444770 288.660862)

LINESTRING (191.444770 288.660862, 278.815407 363.886212)

LINESTRING (278.815407 363.886212, 389.934727 398.058991)

LINESTRING (278.815407 363.886212, 363.233268 452.435765)

LINESTRING (278.815407 363.886212, 309.691366 476.355720)

LINESTRING (191.444770 288.660862, 230.729592 396.367511)

LINESTRING (230.729592 396.367511, 307.814467 471.469163)

LINESTRING (230.729592 396.367511, 252.274972 514.446551)

LINESTRING (230.729592 396.367511, 204.430272 515.138568)

LINESTRING (191.444770 288.660862, 165.984418 400.916367)

LINESTRING (165.984418 400.916367, 189.750192 512.813555)

LINESTRING (165.984418 400.916367, 141.584347 524.935108)

LINESTRING (165.984418 400.916367, 76.994916 482.965507)

LINESTRING (80.000000 80.000000, 111.524411 186.595269)

LINESTRING (111.524411 186.595269, 191.317818 269.107762)

LINESTRING (191.317818 269.107762, 308.003608 296.648011)

LINESTRING (308.003608 296.648011, 416.127148 266.128267)

LINESTRING (308.003608 296.648011, 429.351565 335.085130)

LINESTRING (308.003608 296.648011, 389.001871 371.709423)

LINESTRING (191.317818 269.107762, 277.106204 354.316546)

LINESTRING (277.106204 354.316546, 391.910085 392.552459)

LINESTRING (277.106204 354.316546, 371.942479 430.844868)

LINESTRING (277.106204 354.316546, 308.743885 473.425199)

LINESTRING (191.317818 269.107762, 232.040727 380.559070)

LINESTRING (232.040727 380.559070, 307.497088 473.788130)

LINESTRING (232.040727 380.559070, 256.922117 497.602414)

LINESTRING (232.040727 380.559070, 202.001296 504.246981)

LINESTRING (111.524411 186.595269, 137.135047 297.795319)

LINESTRING (137.135047 297.795319, 221.219466 384.381593)

LINESTRING (221.219466 384.381593, 337.747848 414.343972)

LINESTRING (221.219466 384.381593, 305.094893 464.640201)

LINESTRING (221.219466 384.381593, 245.959254 497.406932)

LINESTRING (137.135047 297.795319, 177.818781 422.830334)

LINESTRING (177.818781 422.830334, 255.530745 506.249658)

LINESTRING (177.818781 422.830334, 217.646342 539.310915)

LINESTRING (177.818781 422.830334, 137.653937 542.054067)

LINESTRING (137.135047 297.795319, 100.729510 416.883863)

LINESTRING (100.729510 416.883863, 122.667175 542.250248)

LINESTRING (100.729510 416.883863, 61.325318 529.845217)

LINESTRING (100.729510 416.883863, 24.818791 504.868229)

LINESTRING (111.524411 186.595269, 83.839120 298.922056)

LINESTRING (83.839120 298.922056, 107.311672 409.019611)

LINESTRING (107.311672 409.019611, 194.411139 488.992657)

LINESTRING (107.311672 409.019611, 145.046715 519.611672)

LINESTRING (107.311672 409.019611, 84.508730 527.410249)

LINESTRING (83.839120 298.922056, 56.879457 419.096021)

LINESTRING (56.879457 419.096021, 86.626515 537.315770)

LINESTRING (56.879457 419.096021, 16.877612 528.504712)

LINESTRING (56.879457 419.096021, -29.561591 501.633255)

LINESTRING (83.839120 298.922056, -3.046776 387.026629)

LINESTRING (-3.046776 387.026629, -41.309626 509.042593)

LINESTRING (-3.046776 387.026629, -85.094386 480.101299)

LINESTRING (-3.046776 387.026629, -111.523664 425.981844)

