LINESTRING (80.000000 80.000000, 372.529816 152.502917)

LINESTRING (372.529816 152.502917, 671.785175 78.035413)

LINESTRING (671.785175 78.035413, 877.060624 -130.827854)

LINESTRING (877.060624 -130.827854, 956.686004 -424.121497)

LINESTRING (877.060624 -130.827854, 1159.251995 -204.308549)

LINESTRING (671.785175 78.035413, 964.175934 165.187855)

LINESTRING (964.175934 165.187855, 1252.242431 94.031593)

LINESTRING (964.175934 165.187855, 1179.787104 380.462654)

LINESTRING (372.529816 152.502917, 585.635162 371.107023)

LINESTRING (585.635162 371.107023, 880.104715 446.740991)

LINESTRING (880.104715 446.740991, 1162.067447 373.087472)

LINESTRING (880.104715 446.740991, 1089.284453 657.633490)

LINESTRING (585.635162 371.107023, 668.453335 669.618117)

LINESTRING (668.453335 669.618117, 883.417059 878.548488)

LINESTRING (668.453335 669.618117, 594.235363 968.147583)

LINESTRING (80.000000 80.000000, 148.653995 377.773019)

LINESTRING (148.653995 377.773019, 355.957183 594.945085)

LINESTRING (355.957183 594.945085, 643.714553 671.377664)

LINESTRING (643.714553 671.377664, 929.918430 603.383002)

LINESTRING (643.714553 671.377664, 852.683718 876.950376)

LINESTRING (355.957183 594.945085, 435.919685 880.384520)

LINESTRING (435.919685 880.384520, 651.164285 1085.910639)

LINESTRING (435.919685 880.384520, 348.584068 1165.825125)

LINESTRING (148.653995 377.773019, 74.118942 657.919635)

LINESTRING (74.118942 657.919635, 158.086674 956.650303)

LINESTRING (158.086674 956.650303, 369.162569 1166.731211)

LINESTRING (158.086674 956.650303, 81.851083 1238.177109)

LINESTRING (74.118942 657.919635, -133.774743 879.557211)

LINESTRING (-133.774743 879.557211, -219.242109 1173.174210)

LINESTRING (-133.774743 879.557211, -420.440168 957.570726)

