LINESTRING (33.798614 67.888754, 110.103059 33.822455)

LINESTRING (110.103059 33.822455, 109.836845 26.658478)

LINESTRING (109.836845 26.658478, 165.896735 74.531191)

LINESTRING (165.896735 74.531191, 204.609738 58.945227)

LINESTRING (204.609738 58.945227, 220.427638 47.338904)

LINESTRING (220.427638 47.338904, 267.609894 27.534363)

LINESTRING (267.609894 27.534363, 355.470701 65.783504)

LINESTRING (355.470701 65.783504, 377.386532 63.428030)

LINESTRING (76.845805 67.660747, 85.136304 109.505627)

LINESTRING (85.136304 109.505627, 128.624854 78.059310)

LINESTRING (128.624854 78.059310, 195.457490 115.079289)

LINESTRING (195.457490 115.079289, 224.386236 88.888721)

LINESTRING (224.386236 88.888721, 231.677510 114.605538)

LINESTRING (231.677510 114.605538, 280.271315 70.259572)

LINESTRING (280.271315 70.259572, 348.570509 119.806996)

LINESTRING (348.570509 119.806996, 381.540147 68.462904)

LINESTRING (62.684966 124.207829, 116.682667 135.606352)

LINESTRING (116.682667 135.606352, 104.174442 126.911799)

LINESTRING (104.174442 126.911799, 184.039742 113.260204)

LINESTRING (184.039742 113.260204, 198.324707 101.079226)

LINESTRING (198.324707 101.079226, 221.854392 159.913625)

LINESTRING (221.854392 159.913625, 308.373726 156.610917)

LINESTRING (308.373726 156.610917, 307.688605 123.649781)

LINESTRING (307.688605 123.649781, 399.841698 140.913525)

LINESTRING (35.431986 199.768322, 95.333343 140.764469)

LINESTRING (95.333343 140.764469, 152.454786 188.117160)

LINESTRING (152.454786 188.117160, 186.773476 154.904627)

LINESTRING (186.773476 154.904627, 190.185472 162.105905)

LINESTRING (190.185472 162.105905, 241.342425 157.915547)

LINESTRING (241.342425 157.915547, 273.182529 190.967645)

LINESTRING (273.182529 190.967645, 349.716513 180.356975)

LINESTRING (349.716513 180.356975, 395.803602 152.799240)

LINESTRING (44.501940 231.013851, 79.492272 181.837692)

LINESTRING (79.492272 181.837692, 119.221371 203.309043)

LINESTRING (119.221371 203.309043, 159.981227 229.830503)

LINESTRING (159.981227 229.830503, 224.637902 220.689935)

LINESTRING (224.637902 220.689935, 257.345832 217.935864)

LINESTRING (257.345832 217.935864, 264.004587 208.377104)

LINESTRING (264.004587 208.377104, 315.618725 198.613083)

LINESTRING (315.618725 198.613083, 372.541313 217.154678)

LINESTRING (79.853395 251.982953, 100.309412 254.876786)

LINESTRING (100.309412 254.876786, 110.885552 273.618144)

LINESTRING (110.885552 273.618144, 167.409589 227.777304)

LINESTRING (167.409589 227.777304, 202.842043 270.939235)

LINESTRING (202.842043 270.939235, 245.844472 272.530048)

LINESTRING (245.844472 272.530048, 278.220119 250.372874)

LINESTRING (278.220119 250.372874, 323.435546 278.768275)

LINESTRING (323.435546 278.768275, 343.032312 248.302514)

LINESTRING (30.408246 319.702373, 91.271100 273.686742)

LINESTRING (91.271100 273.686742, 131.204566 315.402027)

LINESTRING (131.204566 315.402027, 178.008197 310.953340)

LINESTRING (178.008197 310.953340, 227.615113 296.864727)

LINESTRING (227.615113 296.864727, 220.853041 282.192084)

LINESTRING (220.853041 282.192084, 305.975295 280.721963)

LINESTRING (305.975295 280.721963, 330.085008 264.654952)

LINESTRING (330.085008 264.654952, 360.339641 277.819341)

LINESTRING (37.843820 310.624703, 64.885213 348.396040)

LINESTRING (64.885213 348.396040, 107.395284 349.559103)

LINESTRING (107.395284 349.559103, 140.547538 313.376896)

LINESTRING (140.547538 313.376896, 191.487158 335.349012)

LINESTRING (191.487158 335.349012, 250.676636 340.351564)

LINESTRING (250.676636 340.351564, 290.337614 357.937302)

LINESTRING (290.337614 357.937302, 359.576113 311.040959)

LINESTRING (359.576113 311.040959, 392.384709 307.010589)

LINESTRING (50.781281 396.425445, 114.408866 375.213832)

LINESTRING (114.408866 375.213832, 114.963564 368.024397)

LINESTRING (114.963564 368.024397, 182.431362 345.364565)

LINESTRING (182.431362 345.364565, 191.224210 386.426558)

LINESTRING (191.224210 386.426558, 278.356399 388.644206)

LINESTRING (278.356399 388.644206, 265.821970 371.828181)

LINESTRING (265.821970 371.828181, 307.392640 361.338563)

LINESTRING (307.392640 361.338563, 395.268986 388.438816)

LINESTRING (33.798614 67.888754, 76.845805 67.660747)

LINESTRING (110.103059 33.822455, 85.136304 109.505627)

LINESTRING (109.836845 26.658478, 128.624854 78.059310)

LINESTRING (165.896735 74.531191, 195.457490 115.079289)

LINESTRING (204.609738 58.945227, 224.386236 88.888721)

LINESTRING (220.427638 47.338904, 231.677510 114.605538)

LINESTRING (267.609894 27.534363, 280.271315 70.259572)

LINESTRING (355.470701 65.783504, 348.570509 119.806996)

LINESTRING (377.386532 63.428030, 381.540147 68.462904)

LINESTRING (76.845805 67.660747, 62.684966 124.207829)

LINESTRING (85.136304 109.505627, 116.682667 135.606352)

LINESTRING (128.624854 78.059310, 104.174442 126.911799)

LINESTRING (195.457490 115.079289, 184.039742 113.260204)

LINESTRING (224.386236 88.888721, 198.324707 101.079226)

LINESTRING (231.677510 114.605538, 221.854392 159.913625)

LINESTRING (280.271315 70.259572, 308.373726 156.610917)

LINESTRING (348.570509 119.806996, 307.688605 123.649781)

LINESTRING (381.540147 68.462904, 399.841698 140.913525)

LINESTRING (62.684966 124.207829, 35.431986 199.768322)

LINESTRING (116.682667 135.606352, 95.333343 140.764469)

LINESTRING (104.174442 126.911799, 152.454786 188.117160)

LINESTRING (184.039742 113.260204, 186.773476 154.904627)

LINESTRING (198.324707 101.079226, 190.185472 162.105905)

LINESTRING (221.854392 159.913625, 241.342425 157.915547)

LINESTRING (308.373726 156.610917, 273.182529 190.967645)

LINESTRING (307.688605 123.649781, 349.716513 180.356975)

LINESTRING (399.841698 140.913525, 395.803602 152.799240)

LINESTRING (35.431986 199.768322, 44.501940 231.013851)

LINESTRING (95.333343 140.764469, 79.492272 181.837692)

LINESTRING (152.454786 188.117160, 119.221371 203.309043)

LINESTRING (186.773476 154.904627, 159.981227 229.830503)

LINESTRING (190.185472 162.105905, 224.637902 220.689935)

LINESTRING (241.342425 157.915547, 257.345832 217.935864)

LINESTRING (273.182529 190.967645, 264.004587 208.377104)

LINESTRING (349.716513 180.356975, 315.618725 198.613083)

LINESTRING (395.803602 152.799240, 372.541313 217.154678)

LINESTRING (44.501940 231.013851, 79.853395 251.982953)

LINESTRING (79.492272 181.837692, 100.309412 254.876786)

LINESTRING (119.221371 203.309043, 110.885552 273.618144)

LINESTRING (159.981227 229.830503, 167.409589 227.777304)

LINESTRING (224.637902 220.689935, 202.842043 270.939235)

LINESTRING (257.345832 217.935864, 245.844472 272.530048)

LINESTRING (264.004587 208.377104, 278.220119 250.372874)

LINESTRING (315.618725 198.613083, 323.435546 278.768275)

LINESTRING (372.541313 217.154678, 343.032312 248.302514)

LINESTRING (79.853395 251.982953, 30.408246 319.702373)

LINESTRING (100.309412 254.876786, 91.271100 273.686742)

LINESTRING (110.885552 273.618144, 131.204566 315.402027)

LINESTRING (167.409589 227.777304, 178.008197 310.953340)

LINESTRING (202.842043 270.939235, 227.615113 296.864727)

LINESTRING (245.844472 272.530048, 220.853041 282.192084)

LINESTRING (278.220119 250.372874, 305.975295 280.721963)

LINESTRING (323.435546 278.768275, 330.085008 264.654952)

LINESTRING (343.032312 248.302514, 360.339641 277.819341)

LINESTRING (30.408246 319.702373, 37.843820 310.624703)

LINESTRING (91.271100 273.686742, 64.885213 348.396040)

LINESTRING (131.204566 315.402027, 107.395284 349.559103)

LINESTRING (178.008197 310.953340, 140.547538 313.376896)

LINESTRING (227.615113 296.864727, 191.487158 335.349012)

LINESTRING (220.853041 282.192084, 250.676636 340.351564)

LINESTRING (305.975295 280.721963, 290.337614 357.937302)

LINESTRING (330.085008 264.654952, 359.576113 311.040959)

LINESTRING (360.339641 277.819341, 392.384709 307.010589)

LINESTRING (37.843820 310.624703, 50.781281 396.425445)

LINESTRING (64.885213 348.396040, 114.408866 375.213832)

LINESTRING (107.395284 349.559103, 114.963564 368.024397)

LINESTRING (140.547538 313.376896, 182.431362 345.364565)

LINESTRING (191.487158 335.349012, 191.224210 386.426558)

LINESTRING (250.676636 340.351564, 278.356399 388.644206)

LINESTRING (290.337614 357.937302, 265.821970 371.828181)

LINESTRING (359.576113 311.040959, 307.392640 361.338563)

LINESTRING (392.384709 307.010589, 395.268986 388.438816)

