LINESTRING (60.000000 60.000000, 60.151782 40.400219)

LINESTRING (60.000000 60.000000, 55.105653 66.834622)

LINESTRING (60.000000 60.000000, 49.127793 52.631318)

LINESTRING (60.000000 60.000000, 47.547383 77.413245)

LINESTRING (60.000000 60.000000, 73.588118 69.987725)

LINESTRING (60.000000 60.000000, 48.138055 80.040377)

LINESTRING (60.000000 60.000000, 75.502020 39.560389)

LINESTRING (60.000000 60.000000, 71.239127 51.438978)

LINESTRING (60.151782 40.400219, 55.105653 66.834622)

LINESTRING (60.151782 40.400219, 49.127793 52.631318)

LINESTRING (60.151782 40.400219, 73.588118 69.987725)

LINESTRING (60.151782 40.400219, 48.138055 80.040377)

LINESTRING (60.151782 40.400219, 75.502020 39.560389)

LINESTRING (55.105653 66.834622, 49.127793 52.631318)

LINESTRING (49.127793 52.631318, 73.588118 69.987725)

LINESTRING (49.127793 52.631318, 75.502020 39.560389)

LINESTRING (47.547383 77.413245, 73.588118 69.987725)

LINESTRING (47.547383 77.413245, 48.138055 80.040377)

LINESTRING (73.588118 69.987725, 48.138055 80.040377)

LINESTRING (260.000000 60.000000, 261.668467 68.156719)

LINESTRING (260.000000 60.000000, 239.738357 67.373975)

LINESTRING (260.000000 60.000000, 250.283268 46.673556)

LINESTRING (260.000000 60.000000, 266.188898 60.927243)

LINESTRING (260.000000 60.000000, 274.209130 63.399744)

LINESTRING (260.000000 60.000000, 257.859957 83.683098)

LINESTRING (260.000000 60.000000, 251.274025 63.124180)

LINESTRING (260.000000 60.000000, 275.529941 73.686038)

LINESTRING (261.668467 68.156719, 239.738357 67.373975)

LINESTRING (261.668467 68.156719, 266.188898 60.927243)

LINESTRING (261.668467 68.156719, 274.209130 63.399744)

LINESTRING (261.668467 68.156719, 257.859957 83.683098)

LINESTRING (261.668467 68.156719, 275.529941 73.686038)

LINESTRING (239.738357 67.373975, 274.209130 63.399744)

LINESTRING (239.738357 67.373975, 257.859957 83.683098)

LINESTRING (239.738357 67.373975, 275.529941 73.686038)

LINESTRING (250.283268 46.673556, 266.188898 60.927243)

LINESTRING (250.283268 46.673556, 274.209130 63.399744)

LINESTRING (250.283268 46.673556, 257.859957 83.683098)

LINESTRING (250.283268 46.673556, 251.274025 63.124180)

LINESTRING (250.283268 46.673556, 275.529941 73.686038)

LINESTRING (266.188898 60.927243, 257.859957 83.683098)

LINESTRING (274.209130 63.399744, 257.859957 83.683098)

LINESTRING (257.859957 83.683098, 275.529941 73.686038)

LINESTRING (460.000000 60.000000, 459.547276 83.855161)

LINESTRING (460.000000 60.000000, 449.618140 41.660822)

LINESTRING (460.000000 60.000000, 443.844855 48.502390)

LINESTRING (460.000000 60.000000, 449.721918 49.688847)

LINESTRING (460.000000 60.000000, 472.286313 70.595020)

LINESTRING (460.000000 60.000000, 457.367801 61.665073)

LINESTRING (460.000000 60.000000, 439.268208 52.920233)

LINESTRING (460.000000 60.000000, 472.575438 77.434935)

LINESTRING (459.547276 83.855161, 443.844855 48.502390)

LINESTRING (459.547276 83.855161, 472.286313 70.595020)

LINESTRING (449.618140 41.660822, 443.844855 48.502390)

LINESTRING (449.618140 41.660822, 472.286313 70.595020)

LINESTRING (449.618140 41.660822, 457.367801 61.665073)

LINESTRING (449.618140 41.660822, 439.268208 52.920233)

LINESTRING (443.844855 48.502390, 449.721918 49.688847)

LINESTRING (449.721918 49.688847, 472.286313 70.595020)

LINESTRING (457.367801 61.665073, 439.268208 52.920233)

LINESTRING (457.367801 61.665073, 472.575438 77.434935)

LINESTRING (60.000000 260.000000, 48.443154 279.197470)

LINESTRING (60.000000 260.000000, 71.851682 277.445444)

LINESTRING (60.000000 260.000000, 73.383380 266.686431)

LINESTRING (60.000000 260.000000, 62.091578 240.852751)

LINESTRING (60.000000 260.000000, 63.040499 247.693253)

LINESTRING (60.000000 260.000000, 65.541825 251.445876)

LINESTRING (60.000000 260.000000, 46.836699 259.156085)

LINESTRING (60.000000 260.000000, 82.851468 236.445057)

LINESTRING (48.443154 279.197470, 71.851682 277.445444)

LINESTRING (48.443154 279.197470, 63.040499 247.693253)

LINESTRING (71.851682 277.445444, 73.383380 266.686431)

LINESTRING (71.851682 277.445444, 62.091578 240.852751)

LINESTRING (71.851682 277.445444, 63.040499 247.693253)

LINESTRING (71.851682 277.445444, 65.541825 251.445876)

LINESTRING (73.383380 266.686431, 62.091578 240.852751)

LINESTRING (73.383380 266.686431, 63.040499 247.693253)

LINESTRING (73.383380 266.686431, 65.541825 251.445876)

LINESTRING (73.383380 266.686431, 46.836699 259.156085)

LINESTRING (62.091578 240.852751, 63.040499 247.693253)

LINESTRING (63.040499 247.693253, 46.836699 259.156085)

LINESTRING (65.541825 251.445876, 46.836699 259.156085)

LINESTRING (260.000000 260.000000, 245.335517 269.455412)

LINESTRING (260.000000 260.000000, 237.512414 238.473059)

LINESTRING (260.000000 260.000000, 244.504364 272.283352)

LINESTRING (260.000000 260.000000, 257.380991 253.541367)

LINESTRING (260.000000 260.000000, 283.676590 259.692037)

LINESTRING (260.000000 260.000000, 264.063989 246.751015)

LINESTRING (260.000000 260.000000, 271.546777 258.339512)

LINESTRING (260.000000 260.000000, 255.431237 245.387629)

LINESTRING (245.335517 269.455412, 257.380991 253.541367)

LINESTRING (245.335517 269.455412, 255.431237 245.387629)

LINESTRING (237.512414 238.473059, 283.676590 259.692037)

LINESTRING (237.512414 238.473059, 264.063989 246.751015)

LINESTRING (237.512414 238.473059, 271.546777 258.339512)

LINESTRING (244.504364 272.283352, 283.676590 259.692037)

LINESTRING (244.504364 272.283352, 271.546777 258.339512)

LINESTRING (257.380991 253.541367, 283.676590 259.692037)

LINESTRING (257.380991 253.541367, 264.063989 246.751015)

LINESTRING (257.380991 253.541367, 271.546777 258.339512)

LINESTRING (257.380991 253.541367, 255.431237 245.387629)

LINESTRING (283.676590 259.692037, 271.546777 258.339512)

LINESTRING (283.676590 259.692037, 255.431237 245.387629)

LINESTRING (264.063989 246.751015, 271.546777 258.339512)

LINESTRING (264.063989 246.751015, 255.431237 245.387629)

LINESTRING (460.000000 260.000000, 469.376401 257.064058)

LINESTRING (460.000000 260.000000, 476.914532 276.479816)

LINESTRING (460.000000 260.000000, 440.529019 275.136014)

LINESTRING (460.000000 260.000000, 438.001339 242.492122)

LINESTRING (460.000000 260.000000, 439.731595 263.298855)

LINESTRING (460.000000 260.000000, 451.249184 279.019706)

LINESTRING (460.000000 260.000000, 452.816019 278.199891)

LINESTRING (460.000000 260.000000, 464.375525 279.935557)

LINESTRING (469.376401 257.064058, 476.914532 276.479816)

LINESTRING (469.376401 257.064058, 440.529019 275.136014)

LINESTRING (469.376401 257.064058, 438.001339 242.492122)

LINESTRING (469.376401 257.064058, 439.731595 263.298855)

LINESTRING (476.914532 276.479816, 440.529019 275.136014)

LINESTRING (476.914532 276.479816, 438.001339 242.492122)

LINESTRING (476.914532 276.479816, 451.249184 279.019706)

LINESTRING (476.914532 276.479816, 452.816019 278.199891)

LINESTRING (440.529019 275.136014, 439.731595 263.298855)

LINESTRING (440.529019 275.136014, 452.816019 278.199891)

LINESTRING (440.529019 275.136014, 464.375525 279.935557)

LINESTRING (438.001339 242.492122, 452.816019 278.199891)

LINESTRING (439.731595 263.298855, 452.816019 278.199891)

LINESTRING (439.731595 263.298855, 464.375525 279.935557)

LINESTRING (452.816019 278.199891, 464.375525 279.935557)

LINESTRING (60.000000 460.000000, 77.524729 476.929525)

LINESTRING (60.000000 460.000000, 53.546384 467.672484)

LINESTRING (60.000000 460.000000, 83.015936 469.644154)

LINESTRING (60.000000 460.000000, 77.343821 463.353511)

LINESTRING (60.000000 460.000000, 60.735917 452.167349)

LINESTRING (60.000000 460.000000, 59.238224 482.082585)

LINESTRING (60.000000 460.000000, 77.954330 478.530277)

LINESTRING (60.000000 460.000000, 41.338211 464.195428)

LINESTRING (77.524729 476.929525, 53.546384 467.672484)

LINESTRING (77.524729 476.929525, 77.343821 463.353511)

LINESTRING (77.524729 476.929525, 59.238224 482.082585)

LINESTRING (77.524729 476.929525, 77.954330 478.530277)

LINESTRING (53.546384 467.672484, 83.015936 469.644154)

LINESTRING (53.546384 467.672484, 77.343821 463.353511)

LINESTRING (53.546384 467.672484, 60.735917 452.167349)

LINESTRING (53.546384 467.672484, 77.954330 478.530277)

LINESTRING (53.546384 467.672484, 41.338211 464.195428)

LINESTRING (83.015936 469.644154, 77.343821 463.353511)

LINESTRING (83.015936 469.644154, 60.735917 452.167349)

LINESTRING (77.343821 463.353511, 59.238224 482.082585)

LINESTRING (60.735917 452.167349, 59.238224 482.082585)

LINESTRING (60.735917 452.167349, 41.338211 464.195428)

LINESTRING (59.238224 482.082585, 77.954330 478.530277)

LINESTRING (59.238224 482.082585, 41.338211 464.195428)

LINESTRING (77.954330 478.530277, 41.338211 464.195428)

LINESTRING (260.000000 460.000000, 244.201714 443.191187)

LINESTRING (260.000000 460.000000, 273.766048 454.862440)

LINESTRING (260.000000 460.000000, 238.114169 483.945263)

LINESTRING (260.000000 460.000000, 238.386324 436.676004)

LINESTRING (260.000000 460.000000, 237.934775 459.878702)

LINESTRING (260.000000 460.000000, 274.569983 474.432361)

LINESTRING (260.000000 460.000000, 276.826485 483.895488)

LINESTRING (260.000000 460.000000, 257.630940 437.530025)

LINESTRING (244.201714 443.191187, 273.766048 454.862440)

LINESTRING (244.201714 443.191187, 238.114169 483.945263)

LINESTRING (244.201714 443.191187, 238.386324 436.676004)

LINESTRING (244.201714 443.191187, 237.934775 459.878702)

LINESTRING (244.201714 443.191187, 276.826485 483.895488)

LINESTRING (244.201714 443.191187, 257.630940 437.530025)

LINESTRING (273.766048 454.862440, 238.114169 483.945263)

LINESTRING (273.766048 454.862440, 237.934775 459.878702)

LINESTRING (273.766048 454.862440, 276.826485 483.895488)

LINESTRING (273.766048 454.862440, 257.630940 437.530025)

LINESTRING (238.114169 483.945263, 238.386324 436.676004)

LINESTRING (238.114169 483.945263, 237.934775 459.878702)

LINESTRING (238.114169 483.945263, 274.569983 474.432361)

LINESTRING (238.114169 483.945263, 257.630940 437.530025)

LINESTRING (238.386324 436.676004, 237.934775 459.878702)

LINESTRING (238.386324 436.676004, 257.630940 437.530025)

LINESTRING (237.934775 459.878702, 276.826485 483.895488)

LINESTRING (237.934775 459.878702, 257.630940 437.530025)

LINESTRING (274.569983 474.432361, 257.630940 437.530025)

LINESTRING (276.826485 483.895488, 257.630940 437.530025)

LINESTRING (47.547383 77.413245, 266.188898 60.927243)

LINESTRING (75.502020 39.560389, 250.283268 46.673556)

LINESTRING (60.000000 60.000000, 260.000000 60.000000)

LINESTRING (266.188898 60.927243, 459.547276 83.855161)

LINESTRING (251.274025 63.124180, 472.286313 70.595020)

LINESTRING (260.000000 60.000000, 460.000000 60.000000)

LINESTRING (457.367801 61.665073, 63.040499 247.693253)

LINESTRING (443.844855 48.502390, 73.383380 266.686431)

LINESTRING (460.000000 60.000000, 60.000000 260.000000)

LINESTRING (65.541825 251.445876, 237.512414 238.473059)

LINESTRING (62.091578 240.852751, 271.546777 258.339512)

LINESTRING (60.000000 260.000000, 260.000000 260.000000)

LINESTRING (255.431237 245.387629, 439.731595 263.298855)

LINESTRING (257.380991 253.541367, 451.249184 279.019706)

LINESTRING (260.000000 260.000000, 460.000000 260.000000)

LINESTRING (469.376401 257.064058, 59.238224 482.082585)

LINESTRING (469.376401 257.064058, 59.238224 482.082585)

LINESTRING (460.000000 260.000000, 60.000000 460.000000)

LINESTRING (77.524729 476.929525, 276.826485 483.895488)

LINESTRING (59.238224 482.082585, 238.386324 436.676004)

LINESTRING (60.000000 460.000000, 260.000000 460.000000)

