LINESTRING (80.000000 80.000000, 382.578758 193.495296)

LINESTRING (382.578758 193.495296, 705.500951 78.489128)

LINESTRING (705.500951 78.489128, 886.324920 -112.418158)

LINESTRING (886.324920 -112.418158, 940.961355 -411.166257)

LINESTRING (940.961355 -411.166257, 894.011320 -701.136178)

LINESTRING (894.011320 -701.136178, 665.479168 -888.593707)

LINESTRING (894.011320 -701.136178, 797.485505 -1028.304274)

LINESTRING (894.011320 -701.136178, 938.185034 -953.987103)

LINESTRING (940.961355 -411.166257, 1043.049535 -732.503449)

LINESTRING (1043.049535 -732.503449, 942.251671 -1039.156394)

LINESTRING (1043.049535 -732.503449, 1112.027057 -1028.945016)

LINESTRING (1043.049535 -732.503449, 1261.626810 -922.942632)

LINESTRING (940.961355 -411.166257, 1147.770503 -633.949663)

LINESTRING (1147.770503 -633.949663, 1254.212035 -941.729699)

LINESTRING (1147.770503 -633.949663, 1337.902560 -884.996383)

LINESTRING (1147.770503 -633.949663, 1474.239648 -698.363079)

LINESTRING (886.324920 -112.418158, 1095.535293 -343.360544)

LINESTRING (1095.535293 -343.360544, 1155.470237 -616.918922)

LINESTRING (1155.470237 -616.918922, 1042.415267 -906.917669)

LINESTRING (1155.470237 -616.918922, 1244.622945 -880.042429)

LINESTRING (1155.470237 -616.918922, 1336.709460 -860.994318)

LINESTRING (1095.535293 -343.360544, 1281.981134 -587.446624)

LINESTRING (1281.981134 -587.446624, 1350.576559 -845.465441)

LINESTRING (1281.981134 -587.446624, 1489.926567 -820.051073)

LINESTRING (1281.981134 -587.446624, 1554.732318 -655.745719)

LINESTRING (1095.535293 -343.360544, 1414.324703 -415.615683)

LINESTRING (1414.324703 -415.615683, 1648.535185 -591.041713)

LINESTRING (1414.324703 -415.615683, 1685.940644 -514.304979)

LINESTRING (1414.324703 -415.615683, 1712.271107 -355.548074)

LINESTRING (886.324920 -112.418158, 1186.647374 -229.423001)

LINESTRING (1186.647374 -229.423001, 1428.717622 -406.958336)

LINESTRING (1428.717622 -406.958336, 1510.393941 -704.142976)

LINESTRING (1428.717622 -406.958336, 1666.003884 -584.316766)

LINESTRING (1428.717622 -406.958336, 1724.633268 -518.325738)

LINESTRING (1186.647374 -229.423001, 1483.363956 -316.520835)

LINESTRING (1483.363956 -316.520835, 1725.649828 -530.225305)

LINESTRING (1483.363956 -316.520835, 1806.752844 -397.778210)

LINESTRING (1483.363956 -316.520835, 1746.203792 -271.096490)

LINESTRING (1186.647374 -229.423001, 1502.684713 -175.501310)

LINESTRING (1502.684713 -175.501310, 1811.805162 -241.806680)

LINESTRING (1502.684713 -175.501310, 1828.036698 -115.106135)

LINESTRING (1502.684713 -175.501310, 1706.715896 30.961033)

LINESTRING (705.500951 78.489128, 996.111494 16.330666)

LINESTRING (996.111494 16.330666, 1203.283093 -163.174932)

LINESTRING (1203.283093 -163.174932, 1244.309937 -424.693749)

LINESTRING (1244.309937 -424.693749, 1155.573330 -676.549216)

LINESTRING (1244.309937 -424.693749, 1288.687806 -730.748246)

LINESTRING (1244.309937 -424.693749, 1473.698172 -662.554990)

LINESTRING (1203.283093 -163.174932, 1387.617500 -338.244691)

LINESTRING (1387.617500 -338.244691, 1490.025477 -620.746786)

LINESTRING (1387.617500 -338.244691, 1591.886018 -568.369824)

LINESTRING (1387.617500 -338.244691, 1686.317730 -385.974943)

LINESTRING (1203.283093 -163.174932, 1487.943842 -254.337640)

LINESTRING (1487.943842 -254.337640, 1667.577838 -481.805508)

LINESTRING (1487.943842 -254.337640, 1811.945284 -342.277031)

LINESTRING (1487.943842 -254.337640, 1745.259964 -192.624443)

LINESTRING (996.111494 16.330666, 1248.106043 -93.395861)

LINESTRING (1248.106043 -93.395861, 1484.511625 -295.918104)

LINESTRING (1484.511625 -295.918104, 1575.640975 -614.967253)

LINESTRING (1484.511625 -295.918104, 1697.436006 -520.094604)

LINESTRING (1484.511625 -295.918104, 1781.346061 -409.034194)

LINESTRING (1248.106043 -93.395861, 1577.365489 -203.096636)

LINESTRING (1577.365489 -203.096636, 1795.264621 -410.077225)

LINESTRING (1577.365489 -203.096636, 1863.704142 -270.141502)

LINESTRING (1577.365489 -203.096636, 1850.731081 -100.482602)

LINESTRING (1248.106043 -93.395861, 1519.552348 -25.026731)

LINESTRING (1519.552348 -25.026731, 1812.352951 -89.502143)

LINESTRING (1519.552348 -25.026731, 1848.330041 79.179844)

LINESTRING (1519.552348 -25.026731, 1735.736363 161.417511)

LINESTRING (996.111494 16.330666, 1281.916020 123.946510)

LINESTRING (1281.916020 123.946510, 1541.065915 50.751016)

LINESTRING (1541.065915 50.751016, 1721.766649 -163.154556)

LINESTRING (1541.065915 50.751016, 1845.560433 -29.979738)

LINESTRING (1541.065915 50.751016, 1826.846799 121.891146)

LINESTRING (1281.916020 123.946510, 1551.795113 238.447814)

LINESTRING (1551.795113 238.447814, 1832.718139 122.289897)

LINESTRING (1551.795113 238.447814, 1827.641371 297.330960)

LINESTRING (1551.795113 238.447814, 1724.633653 486.017347)

LINESTRING (1281.916020 123.946510, 1457.184908 365.544064)

LINESTRING (1457.184908 365.544064, 1761.272891 475.370304)

LINESTRING (1457.184908 365.544064, 1630.318629 561.842260)

LINESTRING (1457.184908 365.544064, 1507.352323 652.871691)

LINESTRING (705.500951 78.489128, 1017.934225 158.827487)

LINESTRING (1017.934225 158.827487, 1304.118664 72.209555)

LINESTRING (1304.118664 72.209555, 1488.099712 -134.790760)

LINESTRING (1488.099712 -134.790760, 1602.780020 -421.993119)

LINESTRING (1488.099712 -134.790760, 1740.202528 -324.442357)

LINESTRING (1488.099712 -134.790760, 1813.146658 -198.140332)

LINESTRING (1304.118664 72.209555, 1586.957291 -19.724558)

LINESTRING (1586.957291 -19.724558, 1799.677029 -240.585306)

LINESTRING (1586.957291 -19.724558, 1838.251086 -93.020612)

LINESTRING (1586.957291 -19.724558, 1886.413191 40.614894)

LINESTRING (1304.118664 72.209555, 1564.539310 115.128504)

LINESTRING (1564.539310 115.128504, 1841.492570 2.421448)

LINESTRING (1564.539310 115.128504, 1875.123474 185.322286)

LINESTRING (1564.539310 115.128504, 1761.836034 293.985445)

LINESTRING (1017.934225 158.827487, 1277.087841 235.987823)

LINESTRING (1277.087841 235.987823, 1577.619132 151.248985)

LINESTRING (1577.619132 151.248985, 1779.166916 -73.620221)

LINESTRING (1577.619132 151.248985, 1834.119200 56.928183)

LINESTRING (1577.619132 151.248985, 1835.667153 248.953490)

LINESTRING (1277.087841 235.987823, 1551.676008 306.483726)

LINESTRING (1551.676008 306.483726, 1828.960730 238.951989)

LINESTRING (1551.676008 306.483726, 1836.750012 423.362175)

LINESTRING (1551.676008 306.483726, 1781.741199 486.473383)

LINESTRING (1277.087841 235.987823, 1488.896779 411.288955)

LINESTRING (1488.896779 411.288955, 1773.862355 483.878327)

LINESTRING (1488.896779 411.288955, 1728.042823 604.391714)

LINESTRING (1488.896779 411.288955, 1593.537061 713.902810)

LINESTRING (1017.934225 158.827487, 1269.111153 380.760655)

LINESTRING (1269.111153 380.760655, 1559.460290 477.760671)

LINESTRING (1559.460290 477.760671, 1874.142467 405.873755)

LINESTRING (1559.460290 477.760671, 1856.451000 562.226815)

LINESTRING (1559.460290 477.760671, 1765.630366 720.387370)

LINESTRING (1269.111153 380.760655, 1500.641183 624.890819)

LINESTRING (1500.641183 624.890819, 1814.729783 726.791310)

LINESTRING (1500.641183 624.890819, 1714.451943 870.844033)

LINESTRING (1500.641183 624.890819, 1543.717225 892.426672)

LINESTRING (1269.111153 380.760655, 1349.700797 655.922199)

LINESTRING (1349.700797 655.922199, 1568.462189 867.821864)

LINESTRING (1349.700797 655.922199, 1435.727935 973.813446)

LINESTRING (1349.700797 655.922199, 1264.755819 928.424152)

LINESTRING (382.578758 193.495296, 635.821731 310.840722)

LINESTRING (635.821731 310.840722, 904.680686 257.352306)

LINESTRING (904.680686 257.352306, 1097.366829 57.531309)

LINESTRING (1097.366829 57.531309, 1208.702313 -233.396934)

LINESTRING (1208.702313 -233.396934, 1163.336659 -552.507963)

LINESTRING (1208.702313 -233.396934, 1292.560128 -547.423738)

LINESTRING (1208.702313 -233.396934, 1421.319265 -468.448381)

LINESTRING (1097.366829 57.531309, 1310.813214 -152.728675)

LINESTRING (1310.813214 -152.728675, 1360.235463 -449.701620)

LINESTRING (1310.813214 -152.728675, 1495.992269 -330.229688)

LINESTRING (1310.813214 -152.728675, 1611.215315 -226.015341)

LINESTRING (1097.366829 57.531309, 1411.921821 -11.809807)

LINESTRING (1411.921821 -11.809807, 1621.470777 -250.514252)

LINESTRING (1411.921821 -11.809807, 1691.077545 -90.802597)

LINESTRING (1411.921821 -11.809807, 1683.172610 81.124659)

LINESTRING (904.680686 257.352306, 1174.735684 153.172122)

LINESTRING (1174.735684 153.172122, 1369.315769 -60.583954)

LINESTRING (1369.315769 -60.583954, 1470.605819 -364.366597)

LINESTRING (1369.315769 -60.583954, 1579.403930 -279.438369)

LINESTRING (1369.315769 -60.583954, 1675.316771 -155.757790)

LINESTRING (1174.735684 153.172122, 1427.042390 114.198098)

LINESTRING (1427.042390 114.198098, 1621.276901 -60.830191)

LINESTRING (1427.042390 114.198098, 1679.905243 60.485001)

LINESTRING (1427.042390 114.198098, 1722.760288 176.806643)

LINESTRING (1174.735684 153.172122, 1456.402152 227.100743)

LINESTRING (1456.402152 227.100743, 1712.285601 166.891113)

LINESTRING (1456.402152 227.100743, 1739.551984 292.772761)

LINESTRING (1456.402152 227.100743, 1629.616097 411.862363)

LINESTRING (904.680686 257.352306, 1194.181120 308.752980)

LINESTRING (1194.181120 308.752980, 1477.574930 228.102432)

LINESTRING (1477.574930 228.102432, 1660.048859 24.080943)

LINESTRING (1477.574930 228.102432, 1792.695595 135.470484)

LINESTRING (1477.574930 228.102432, 1747.515765 325.972587)

LINESTRING (1194.181120 308.752980, 1501.104549 346.686289)

LINESTRING (1501.104549 346.686289, 1825.099074 242.276340)

LINESTRING (1501.104549 346.686289, 1829.069286 417.794150)

LINESTRING (1501.104549 346.686289, 1713.183522 574.038621)

LINESTRING (1194.181120 308.752980, 1388.294677 541.480905)

LINESTRING (1388.294677 541.480905, 1660.962210 645.956819)

LINESTRING (1388.294677 541.480905, 1571.984199 790.921992)

LINESTRING (1388.294677 541.480905, 1491.046262 811.361752)

LINESTRING (635.821731 310.840722, 962.766542 350.366993)

LINESTRING (962.766542 350.366993, 1263.517200 259.988786)

LINESTRING (1263.517200 259.988786, 1455.885838 34.016101)

LINESTRING (1455.885838 34.016101, 1535.418506 -223.695182)

LINESTRING (1455.885838 34.016101, 1683.091726 -144.521441)

LINESTRING (1455.885838 34.016101, 1751.509373 -27.920512)

LINESTRING (1263.517200 259.988786, 1573.869337 165.669321)

LINESTRING (1573.869337 165.669321, 1823.440137 -42.161698)

LINESTRING (1573.869337 165.669321, 1841.693825 53.481132)

LINESTRING (1573.869337 165.669321, 1889.975440 248.775934)

LINESTRING (1263.517200 259.988786, 1558.673867 325.229336)

LINESTRING (1558.673867 325.229336, 1825.395726 223.005060)

LINESTRING (1558.673867 325.229336, 1825.473840 392.496684)

LINESTRING (1558.673867 325.229336, 1803.253760 571.172895)

LINESTRING (962.766542 350.366993, 1263.016944 432.922349)

LINESTRING (1263.016944 432.922349, 1530.238407 318.918776)

LINESTRING (1530.238407 318.918776, 1711.813946 119.023691)

LINESTRING (1530.238407 318.918776, 1793.203296 227.876716)

LINESTRING (1530.238407 318.918776, 1851.713765 385.141578)

LINESTRING (1263.016944 432.922349, 1540.079189 514.602196)

LINESTRING (1540.079189 514.602196, 1794.381217 427.342024)

LINESTRING (1540.079189 514.602196, 1838.586604 603.217701)

LINESTRING (1540.079189 514.602196, 1735.421513 749.158491)

LINESTRING (1263.016944 432.922349, 1459.975851 645.733895)

LINESTRING (1459.975851 645.733895, 1737.136463 717.543060)

LINESTRING (1459.975851 645.733895, 1687.599504 883.430459)

LINESTRING (1459.975851 645.733895, 1551.978924 910.919112)

LINESTRING (962.766542 350.366993, 1172.640091 581.825193)

LINESTRING (1172.640091 581.825193, 1501.583401 662.135868)

LINESTRING (1501.583401 662.135868, 1779.669500 598.432308)

LINESTRING (1501.583401 662.135868, 1807.178833 702.859421)

LINESTRING (1501.583401 662.135868, 1677.976646 899.740792)

LINESTRING (1172.640091 581.825193, 1379.444280 782.839802)

LINESTRING (1379.444280 782.839802, 1696.737204 873.451131)

LINESTRING (1379.444280 782.839802, 1583.095068 964.718921)

LINESTRING (1379.444280 782.839802, 1476.897563 1091.216725)

LINESTRING (1172.640091 581.825193, 1228.613654 901.463365)

LINESTRING (1228.613654 901.463365, 1433.119608 1105.875626)

LINESTRING (1228.613654 901.463365, 1311.020368 1210.895523)

LINESTRING (1228.613654 901.463365, 1164.663181 1217.263141)

LINESTRING (635.821731 310.840722, 872.331623 535.340482)

LINESTRING (872.331623 535.340482, 1131.721850 585.577971)

LINESTRING (1131.721850 585.577971, 1401.826828 526.016698)

LINESTRING (1401.826828 526.016698, 1644.898641 287.309770)

LINESTRING (1401.826828 526.016698, 1729.891142 434.632939)

LINESTRING (1401.826828 526.016698, 1660.100974 574.056752)

LINESTRING (1131.721850 585.577971, 1411.820166 633.408681)

LINESTRING (1411.820166 633.408681, 1682.767571 563.260823)

LINESTRING (1411.820166 633.408681, 1702.360698 749.129715)

LINESTRING (1411.820166 633.408681, 1651.654022 857.347917)

LINESTRING (1131.721850 585.577971, 1332.524986 799.428802)

LINESTRING (1332.524986 799.428802, 1626.180823 848.351326)

LINESTRING (1332.524986 799.428802, 1562.165993 1008.507039)

LINESTRING (1332.524986 799.428802, 1403.306870 1067.009855)

LINESTRING (872.331623 535.340482, 1105.781261 711.624141)

LINESTRING (1105.781261 711.624141, 1370.780261 817.145940)

LINESTRING (1370.780261 817.145940, 1659.106771 752.474856)

LINESTRING (1370.780261 817.145940, 1661.317092 860.208345)

LINESTRING (1370.780261 817.145940, 1601.379764 1057.718653)

LINESTRING (1105.781261 711.624141, 1288.185523 920.607962)

LINESTRING (1288.185523 920.607962, 1542.668095 994.460048)

LINESTRING (1288.185523 920.607962, 1463.505319 1096.978105)

LINESTRING (1288.185523 920.607962, 1390.377318 1242.009890)

LINESTRING (1105.781261 711.624141, 1192.484409 1013.480278)

LINESTRING (1192.484409 1013.480278, 1407.290031 1259.423590)

LINESTRING (1192.484409 1013.480278, 1243.961961 1317.852886)

LINESTRING (1192.484409 1013.480278, 1111.427557 1323.607032)

LINESTRING (872.331623 535.340482, 981.634846 815.204899)

LINESTRING (981.634846 815.204899, 1191.728128 1006.043871)

LINESTRING (1191.728128 1006.043871, 1463.913405 1065.621956)

LINESTRING (1191.728128 1006.043871, 1400.612704 1253.299568)

LINESTRING (1191.728128 1006.043871, 1292.867357 1293.828428)

LINESTRING (981.634846 815.204899, 1059.260085 1119.782074)

LINESTRING (1059.260085 1119.782074, 1301.392994 1361.971923)

LINESTRING (1059.260085 1119.782074, 1122.222966 1397.266793)

LINESTRING (1059.260085 1119.782074, 955.971429 1438.813662)

LINESTRING (981.634846 815.204899, 874.734816 1131.235887)

LINESTRING (874.734816 1131.235887, 951.277465 1423.535071)

LINESTRING (874.734816 1131.235887, 789.126537 1438.472813)

LINESTRING (874.734816 1131.235887, 673.128765 1351.968450)

LINESTRING (382.578758 193.495296, 572.019844 390.505319)

LINESTRING (572.019844 390.505319, 899.136841 442.772408)

LINESTRING (899.136841 442.772408, 1216.257596 354.543138)

LINESTRING (1216.257596 354.543138, 1409.466417 106.138573)

LINESTRING (1409.466417 106.138573, 1448.192619 -198.712426)

LINESTRING (1409.466417 106.138573, 1614.566943 -110.103502)

LINESTRING (1409.466417 106.138573, 1739.188805 12.360540)

LINESTRING (1216.257596 354.543138, 1514.484840 238.816209)

LINESTRING (1514.484840 238.816209, 1759.840236 -8.561568)

LINESTRING (1514.484840 238.816209, 1769.324058 180.494833)

LINESTRING (1514.484840 238.816209, 1770.409197 302.918173)

LINESTRING (1216.257596 354.543138, 1498.408433 447.575811)

LINESTRING (1498.408433 447.575811, 1804.487991 341.574361)

LINESTRING (1498.408433 447.575811, 1789.865824 526.589565)

LINESTRING (1498.408433 447.575811, 1723.273950 648.996881)

LINESTRING (899.136841 442.772408, 1166.878575 541.587280)

LINESTRING (1166.878575 541.587280, 1450.244398 486.058551)

LINESTRING (1450.244398 486.058551, 1699.159734 258.988381)

LINESTRING (1450.244398 486.058551, 1720.833010 404.367374)

LINESTRING (1450.244398 486.058551, 1745.987569 550.913961)

LINESTRING (1166.878575 541.587280, 1480.549232 597.429760)

LINESTRING (1480.549232 597.429760, 1770.977939 538.354061)

LINESTRING (1480.549232 597.429760, 1739.287072 642.770570)

LINESTRING (1480.549232 597.429760, 1696.696160 814.054714)

LINESTRING (1166.878575 541.587280, 1390.347524 760.664133)

LINESTRING (1390.347524 760.664133, 1700.162695 800.883740)

LINESTRING (1390.347524 760.664133, 1567.620211 999.116488)

LINESTRING (1390.347524 760.664133, 1430.140825 1054.377495)

LINESTRING (899.136841 442.772408, 1146.330615 674.614849)

LINESTRING (1146.330615 674.614849, 1432.135754 717.062126)

LINESTRING (1432.135754 717.062126, 1697.920888 660.610573)

LINESTRING (1432.135754 717.062126, 1716.551587 774.636833)

LINESTRING (1432.135754 717.062126, 1638.332609 962.426727)

LINESTRING (1146.330615 674.614849, 1334.737217 886.602219)

LINESTRING (1334.737217 886.602219, 1629.814544 978.604806)

LINESTRING (1334.737217 886.602219, 1529.953792 1096.136574)

LINESTRING (1334.737217 886.602219, 1412.453317 1173.930678)

LINESTRING (1146.330615 674.614849, 1247.078131 986.114032)

LINESTRING (1247.078131 986.114032, 1421.454293 1229.850198)

LINESTRING (1247.078131 986.114032, 1342.753140 1261.682633)

LINESTRING (1247.078131 986.114032, 1132.250696 1240.402003)

LINESTRING (572.019844 390.505319, 805.797369 586.356503)

LINESTRING (805.797369 586.356503, 1072.957320 659.620571)

LINESTRING (1072.957320 659.620571, 1353.292260 581.135899)

LINESTRING (1353.292260 581.135899, 1546.004335 393.409700)

LINESTRING (1353.292260 581.135899, 1604.676882 509.309209)

LINESTRING (1353.292260 581.135899, 1647.277981 679.150325)

LINESTRING (1072.957320 659.620571, 1389.808588 762.439158)

LINESTRING (1389.808588 762.439158, 1703.637814 652.623972)

LINESTRING (1389.808588 762.439158, 1650.589079 878.266851)

LINESTRING (1389.808588 762.439158, 1602.784694 968.175930)

LINESTRING (1072.957320 659.620571, 1300.412000 906.097977)

LINESTRING (1300.412000 906.097977, 1566.424498 996.474598)

LINESTRING (1300.412000 906.097977, 1476.734666 1143.725886)

LINESTRING (1300.412000 906.097977, 1348.944369 1163.525421)

LINESTRING (805.797369 586.356503, 988.398980 822.037747)

LINESTRING (988.398980 822.037747, 1249.312193 863.920137)

LINESTRING (1249.312193 863.920137, 1565.333362 756.190915)

LINESTRING (1249.312193 863.920137, 1548.652394 933.637097)

LINESTRING (1249.312193 863.920137, 1492.229767 1084.955892)

LINESTRING (988.398980 822.037747, 1172.612195 1003.592498)

LINESTRING (1172.612195 1003.592498, 1449.727652 1088.186948)

LINESTRING (1172.612195 1003.592498, 1351.083231 1255.357897)

LINESTRING (1172.612195 1003.592498, 1249.833847 1310.799838)

LINESTRING (988.398980 822.037747, 1081.169714 1078.918938)

LINESTRING (1081.169714 1078.918938, 1300.035910 1282.748944)

LINESTRING (1081.169714 1078.918938, 1156.423819 1368.561126)

LINESTRING (1081.169714 1078.918938, 1015.187247 1333.443577)

LINESTRING (805.797369 586.356503, 886.826738 905.963899)

LINESTRING (886.826738 905.963899, 1114.680303 1148.646421)

LINESTRING (1114.680303 1148.646421, 1435.740275 1226.718278)

LINESTRING (1114.680303 1148.646421, 1289.054382 1397.683426)

LINESTRING (1114.680303 1148.646421, 1218.618029 1415.837661)

LINESTRING (886.826738 905.963899, 961.526863 1157.521105)

LINESTRING (961.526863 1157.521105, 1202.387089 1342.667794)

LINESTRING (961.526863 1157.521105, 1042.120772 1411.274018)

LINESTRING (961.526863 1157.521105, 882.635102 1436.111278)

LINESTRING (886.826738 905.963899, 781.261327 1172.343590)

LINESTRING (781.261327 1172.343590, 839.273731 1429.423127)

LINESTRING (781.261327 1172.343590, 718.274171 1492.710471)

LINESTRING (781.261327 1172.343590, 552.542675 1405.658245)

LINESTRING (572.019844 390.505319, 611.765831 652.699814)

LINESTRING (611.765831 652.699814, 862.325586 898.296755)

LINESTRING (862.325586 898.296755, 1188.480832 939.816894)

LINESTRING (1188.480832 939.816894, 1466.743383 881.109187)

LINESTRING (1188.480832 939.816894, 1509.730102 978.084764)

LINESTRING (1188.480832 939.816894, 1404.817679 1172.055685)

LINESTRING (862.325586 898.296755, 1091.946252 1134.914313)

LINESTRING (1091.946252 1134.914313, 1407.340085 1189.385684)

LINESTRING (1091.946252 1134.914313, 1316.201339 1368.865068)

LINESTRING (1091.946252 1134.914313, 1202.762745 1426.051755)

LINESTRING (862.325586 898.296755, 921.035091 1210.055473)

LINESTRING (921.035091 1210.055473, 1124.274964 1402.292785)

LINESTRING (921.035091 1210.055473, 983.802409 1482.663639)

LINESTRING (921.035091 1210.055473, 868.131606 1539.129664)

LINESTRING (611.765831 652.699814, 696.679396 926.828115)

LINESTRING (696.679396 926.828115, 929.921700 1102.860375)

LINESTRING (929.921700 1102.860375, 1257.051839 1148.466116)

LINESTRING (929.921700 1102.860375, 1180.475646 1303.510298)

LINESTRING (929.921700 1102.860375, 991.488939 1362.898015)

LINESTRING (696.679396 926.828115, 761.749524 1195.386027)

LINESTRING (761.749524 1195.386027, 1000.357931 1430.126048)

LINESTRING (761.749524 1195.386027, 867.278918 1500.186174)

LINESTRING (761.749524 1195.386027, 662.626227 1462.973823)

LINESTRING (696.679396 926.828115, 636.399878 1247.664810)

LINESTRING (636.399878 1247.664810, 706.293186 1573.582140)

LINESTRING (636.399878 1247.664810, 598.426386 1557.196050)

LINESTRING (636.399878 1247.664810, 402.286586 1422.281801)

LINESTRING (611.765831 652.699814, 561.042930 976.155126)

LINESTRING (561.042930 976.155126, 635.453834 1272.221165)

LINESTRING (635.453834 1272.221165, 854.454694 1453.125897)

LINESTRING (635.453834 1272.221165, 726.739418 1565.638082)

LINESTRING (635.453834 1272.221165, 591.982558 1549.043771)

LINESTRING (561.042930 976.155126, 449.489147 1291.133538)

LINESTRING (449.489147 1291.133538, 489.576512 1613.505872)

LINESTRING (449.489147 1291.133538, 406.187183 1597.288121)

LINESTRING (449.489147 1291.133538, 255.546459 1475.728380)

LINESTRING (561.042930 976.155126, 339.821588 1187.556762)

LINESTRING (339.821588 1187.556762, 295.620173 1438.767407)

LINESTRING (339.821588 1187.556762, 162.544211 1429.045134)

LINESTRING (339.821588 1187.556762, 22.794733 1298.739226)

LINESTRING (80.000000 80.000000, 326.036281 256.259644)

LINESTRING (326.036281 256.259644, 647.261370 373.197621)

LINESTRING (647.261370 373.197621, 917.673915 292.008935)

LINESTRING (917.673915 292.008935, 1169.128553 94.569842)

LINESTRING (1169.128553 94.569842, 1246.706024 -210.612102)

LINESTRING (1246.706024 -210.612102, 1185.011665 -463.782040)

LINESTRING (1246.706024 -210.612102, 1314.083424 -510.034469)

LINESTRING (1246.706024 -210.612102, 1488.517253 -419.307510)

LINESTRING (1169.128553 94.569842, 1355.909099 -106.835384)

LINESTRING (1355.909099 -106.835384, 1396.115001 -371.962074)

LINESTRING (1355.909099 -106.835384, 1539.516241 -336.542619)

LINESTRING (1355.909099 -106.835384, 1652.508167 -148.560904)

LINESTRING (1169.128553 94.569842, 1458.609958 -17.670498)

LINESTRING (1458.609958 -17.670498, 1701.006108 -247.430516)

LINESTRING (1458.609958 -17.670498, 1753.379176 -130.398947)

LINESTRING (1458.609958 -17.670498, 1732.755292 99.253575)

LINESTRING (917.673915 292.008935, 1237.510222 220.954303)

LINESTRING (1237.510222 220.954303, 1423.946957 -22.527858)

LINESTRING (1423.946957 -22.527858, 1504.514269 -304.122793)

LINESTRING (1423.946957 -22.527858, 1633.515084 -269.055411)

LINESTRING (1423.946957 -22.527858, 1744.527550 -68.839087)

LINESTRING (1237.510222 220.954303, 1498.484403 148.516130)

LINESTRING (1498.484403 148.516130, 1731.114563 -86.302585)

LINESTRING (1498.484403 148.516130, 1755.087755 76.786147)

LINESTRING (1498.484403 148.516130, 1755.557853 193.341557)

LINESTRING (1237.510222 220.954303, 1526.015647 262.744402)

LINESTRING (1526.015647 262.744402, 1798.346409 214.664486)

LINESTRING (1526.015647 262.744402, 1832.079294 301.451122)

LINESTRING (1526.015647 262.744402, 1732.279556 490.504314)

LINESTRING (917.673915 292.008935, 1183.408329 354.225914)

LINESTRING (1183.408329 354.225914, 1449.369120 289.556078)

LINESTRING (1449.369120 289.556078, 1623.952120 93.550732)

LINESTRING (1449.369120 289.556078, 1704.777648 209.795824)

LINESTRING (1449.369120 289.556078, 1709.044486 367.395210)

LINESTRING (1183.408329 354.225914, 1452.724411 454.554173)

LINESTRING (1452.724411 454.554173, 1750.261440 413.218889)

LINESTRING (1452.724411 454.554173, 1753.100264 504.100452)

LINESTRING (1452.724411 454.554173, 1692.529786 627.011762)

LINESTRING (1183.408329 354.225914, 1415.560361 590.917520)

LINESTRING (1415.560361 590.917520, 1701.365047 686.772557)

LINESTRING (1415.560361 590.917520, 1640.129131 815.409694)

LINESTRING (1415.560361 590.917520, 1496.185320 870.926339)

LINESTRING (647.261370 373.197621, 912.664222 485.705745)

LINESTRING (912.664222 485.705745, 1202.217387 429.830856)

LINESTRING (1202.217387 429.830856, 1421.697657 252.264809)

LINESTRING (1421.697657 252.264809, 1528.961479 -38.131570)

LINESTRING (1421.697657 252.264809, 1641.273668 9.601690)

LINESTRING (1421.697657 252.264809, 1730.753873 204.098905)

LINESTRING (1202.217387 429.830856, 1457.669751 324.905514)

LINESTRING (1457.669751 324.905514, 1689.404993 100.713611)

LINESTRING (1457.669751 324.905514, 1731.122483 220.940067)

LINESTRING (1457.669751 324.905514, 1771.012214 368.512606)

LINESTRING (1202.217387 429.830856, 1493.878140 539.701745)

LINESTRING (1493.878140 539.701745, 1768.806706 495.016324)

LINESTRING (1493.878140 539.701745, 1813.217081 646.356829)

LINESTRING (1493.878140 539.701745, 1697.968014 731.718894)

LINESTRING (912.664222 485.705745, 1215.306501 537.265931)

LINESTRING (1215.306501 537.265931, 1509.903937 438.751776)

LINESTRING (1509.903937 438.751776, 1682.100965 248.278699)

LINESTRING (1509.903937 438.751776, 1768.030833 323.686369)

LINESTRING (1509.903937 438.751776, 1801.801217 506.967232)

LINESTRING (1215.306501 537.265931, 1502.829310 645.407494)

LINESTRING (1502.829310 645.407494, 1754.506438 573.034911)

LINESTRING (1502.829310 645.407494, 1785.786701 731.954335)

LINESTRING (1502.829310 645.407494, 1709.960652 887.940361)

LINESTRING (1215.306501 537.265931, 1459.563559 711.031289)

LINESTRING (1459.563559 711.031289, 1742.545344 815.657086)

LINESTRING (1459.563559 711.031289, 1703.540459 890.790707)

LINESTRING (1459.563559 711.031289, 1563.077993 1039.825547)

LINESTRING (912.664222 485.705745, 1085.818045 658.385596)

LINESTRING (1085.818045 658.385596, 1357.811094 750.613603)

LINESTRING (1357.811094 750.613603, 1678.119702 671.892248)

LINESTRING (1357.811094 750.613603, 1629.135669 856.301789)

LINESTRING (1357.811094 750.613603, 1563.269853 929.049017)

LINESTRING (1085.818045 658.385596, 1321.760125 900.394051)

LINESTRING (1321.760125 900.394051, 1643.870300 955.344850)

LINESTRING (1321.760125 900.394051, 1503.684943 1078.604738)

LINESTRING (1321.760125 900.394051, 1422.449349 1218.683057)

LINESTRING (1085.818045 658.385596, 1129.560644 935.301281)

LINESTRING (1129.560644 935.301281, 1313.845552 1123.462170)

LINESTRING (1129.560644 935.301281, 1171.378555 1259.782149)

LINESTRING (1129.560644 935.301281, 1059.284203 1188.759685)

LINESTRING (647.261370 373.197621, 894.640941 615.546636)

LINESTRING (894.640941 615.546636, 1196.623709 668.627051)

LINESTRING (1196.623709 668.627051, 1447.002163 588.297076)

LINESTRING (1447.002163 588.297076, 1653.584604 356.560009)

LINESTRING (1447.002163 588.297076, 1772.185098 527.599360)

LINESTRING (1447.002163 588.297076, 1774.218244 687.338042)

LINESTRING (1196.623709 668.627051, 1475.450379 759.098472)

LINESTRING (1475.450379 759.098472, 1748.185552 696.858221)

LINESTRING (1475.450379 759.098472, 1754.466038 830.284954)

LINESTRING (1475.450379 759.098472, 1699.818726 973.856121)

LINESTRING (1196.623709 668.627051, 1422.236748 858.881765)

LINESTRING (1422.236748 858.881765, 1707.407964 927.052445)

LINESTRING (1422.236748 858.881765, 1645.025315 1094.677648)

LINESTRING (1422.236748 858.881765, 1463.381419 1186.926355)

LINESTRING (894.640941 615.546636, 1128.063391 835.857597)

LINESTRING (1128.063391 835.857597, 1446.994245 942.750637)

LINESTRING (1446.994245 942.750637, 1721.119495 879.760655)

LINESTRING (1446.994245 942.750637, 1758.473676 1002.958569)

LINESTRING (1446.994245 942.750637, 1621.633880 1135.952845)

LINESTRING (1128.063391 835.857597, 1316.281596 1010.114131)

LINESTRING (1316.281596 1010.114131, 1591.674706 1101.861201)

LINESTRING (1316.281596 1010.114131, 1510.262286 1248.744377)

LINESTRING (1316.281596 1010.114131, 1375.070433 1274.596090)

LINESTRING (1128.063391 835.857597, 1191.283721 1097.048194)

LINESTRING (1191.283721 1097.048194, 1409.415698 1285.731031)

LINESTRING (1191.283721 1097.048194, 1262.577619 1416.964727)

LINESTRING (1191.283721 1097.048194, 1125.671693 1406.362511)

LINESTRING (894.640941 615.546636, 991.039178 885.040511)

LINESTRING (991.039178 885.040511, 1214.922098 1121.505471)

LINESTRING (1214.922098 1121.505471, 1475.897260 1183.233618)

LINESTRING (1214.922098 1121.505471, 1415.369852 1303.493411)

LINESTRING (1214.922098 1121.505471, 1292.363103 1404.666505)

LINESTRING (991.039178 885.040511, 1060.113880 1176.212985)

LINESTRING (1060.113880 1176.212985, 1235.262543 1390.990947)

LINESTRING (1060.113880 1176.212985, 1115.509193 1448.153599)

LINESTRING (1060.113880 1176.212985, 1021.111500 1473.116591)

LINESTRING (991.039178 885.040511, 904.731020 1175.549715)

LINESTRING (904.731020 1175.549715, 978.093665 1471.051037)

LINESTRING (904.731020 1175.549715, 831.561843 1468.761760)

LINESTRING (904.731020 1175.549715, 719.608238 1392.971089)

LINESTRING (326.036281 256.259644, 577.143410 450.946517)

LINESTRING (577.143410 450.946517, 889.542279 532.293744)

LINESTRING (889.542279 532.293744, 1167.183962 424.373025)

LINESTRING (1167.183962 424.373025, 1378.202453 232.441996)

LINESTRING (1378.202453 232.441996, 1467.270926 -58.351193)

LINESTRING (1378.202453 232.441996, 1562.447589 49.143859)

LINESTRING (1378.202453 232.441996, 1658.220105 169.866697)

LINESTRING (1167.183962 424.373025, 1492.245673 318.738267)

LINESTRING (1492.245673 318.738267, 1692.752919 105.372974)

LINESTRING (1492.245673 318.738267, 1807.980092 203.215337)

LINESTRING (1492.245673 318.738267, 1751.625653 404.490576)

LINESTRING (1167.183962 424.373025, 1491.682972 524.162201)

LINESTRING (1491.682972 524.162201, 1752.213487 453.623632)

LINESTRING (1491.682972 524.162201, 1744.794913 585.815180)

LINESTRING (1491.682972 524.162201, 1709.479604 712.084209)

LINESTRING (889.542279 532.293744, 1207.029709 603.599851)

LINESTRING (1207.029709 603.599851, 1523.112490 535.317912)

LINESTRING (1523.112490 535.317912, 1702.374735 318.004271)

LINESTRING (1523.112490 535.317912, 1797.588080 488.197784)

LINESTRING (1523.112490 535.317912, 1782.208056 599.075014)

LINESTRING (1207.029709 603.599851, 1464.235917 697.292993)

LINESTRING (1464.235917 697.292993, 1726.428766 653.427514)

LINESTRING (1464.235917 697.292993, 1722.747182 797.968688)

LINESTRING (1464.235917 697.292993, 1665.597561 923.378034)

LINESTRING (1207.029709 603.599851, 1393.070176 845.535410)

LINESTRING (1393.070176 845.535410, 1720.952927 936.922653)

LINESTRING (1393.070176 845.535410, 1621.516248 1097.580386)

LINESTRING (1393.070176 845.535410, 1463.180599 1134.384025)

LINESTRING (889.542279 532.293744, 1073.263352 765.306653)

LINESTRING (1073.263352 765.306653, 1336.089308 873.050166)

LINESTRING (1336.089308 873.050166, 1646.046957 809.499903)

LINESTRING (1336.089308 873.050166, 1624.450562 951.035887)

LINESTRING (1336.089308 873.050166, 1520.588862 1102.705412)

LINESTRING (1073.263352 765.306653, 1315.089630 999.435947)

LINESTRING (1315.089630 999.435947, 1593.216678 1054.243431)

LINESTRING (1315.089630 999.435947, 1539.364049 1234.872401)

LINESTRING (1315.089630 999.435947, 1400.203458 1270.138579)

LINESTRING (1073.263352 765.306653, 1165.464460 1083.814587)

LINESTRING (1165.464460 1083.814587, 1378.810016 1318.791337)

LINESTRING (1165.464460 1083.814587, 1211.193266 1411.199065)

LINESTRING (1165.464460 1083.814587, 1052.196091 1340.799422)

LINESTRING (577.143410 450.946517, 817.781790 644.175402)

LINESTRING (817.781790 644.175402, 1085.322081 686.320161)

LINESTRING (1085.322081 686.320161, 1344.523053 647.324703)

LINESTRING (1344.523053 647.324703, 1588.368155 407.430259)

LINESTRING (1344.523053 647.324703, 1617.660820 599.852789)

LINESTRING (1344.523053 647.324703, 1603.713672 715.071282)

LINESTRING (1085.322081 686.320161, 1352.961501 792.394843)

LINESTRING (1352.961501 792.394843, 1629.040638 745.058723)

LINESTRING (1352.961501 792.394843, 1643.352535 886.091734)

LINESTRING (1352.961501 792.394843, 1549.971556 964.731495)

LINESTRING (1085.322081 686.320161, 1309.497336 887.238875)

LINESTRING (1309.497336 887.238875, 1591.798645 1000.026438)

LINESTRING (1309.497336 887.238875, 1510.252191 1128.579090)

LINESTRING (1309.497336 887.238875, 1422.232049 1151.571054)

LINESTRING (817.781790 644.175402, 1017.448331 850.623055)

LINESTRING (1017.448331 850.623055, 1289.397232 914.625889)

LINESTRING (1289.397232 914.625889, 1600.092409 828.300921)

LINESTRING (1289.397232 914.625889, 1565.420511 960.128721)

LINESTRING (1289.397232 914.625889, 1487.006021 1102.777199)

LINESTRING (1017.448331 850.623055, 1222.518569 1050.544182)

LINESTRING (1222.518569 1050.544182, 1480.629036 1152.290288)

LINESTRING (1222.518569 1050.544182, 1440.636455 1279.587316)

LINESTRING (1222.518569 1050.544182, 1337.993898 1313.484379)

LINESTRING (1017.448331 850.623055, 1101.707313 1139.769083)

LINESTRING (1101.707313 1139.769083, 1275.843192 1382.404250)

LINESTRING (1101.707313 1139.769083, 1189.100193 1468.408455)

LINESTRING (1101.707313 1139.769083, 1012.088007 1400.821915)

LINESTRING (817.781790 644.175402, 925.843108 928.463637)

LINESTRING (925.843108 928.463637, 1170.007296 1112.665732)

LINESTRING (1170.007296 1112.665732, 1447.968977 1179.046473)

LINESTRING (1170.007296 1112.665732, 1353.321146 1317.512959)

LINESTRING (1170.007296 1112.665732, 1217.396477 1411.391391)

LINESTRING (925.843108 928.463637, 997.792456 1225.339968)

LINESTRING (997.792456 1225.339968, 1174.716229 1470.959196)

LINESTRING (997.792456 1225.339968, 1052.281206 1507.310271)

LINESTRING (997.792456 1225.339968, 951.993096 1545.613445)

LINESTRING (925.843108 928.463637, 865.007825 1187.530727)

LINESTRING (865.007825 1187.530727, 921.748609 1505.499853)

LINESTRING (865.007825 1187.530727, 816.242232 1515.401550)

LINESTRING (865.007825 1187.530727, 660.555119 1415.396850)

LINESTRING (577.143410 450.946517, 655.720534 759.280959)

LINESTRING (655.720534 759.280959, 863.444828 944.226758)

LINESTRING (863.444828 944.226758, 1116.439021 983.995997)

LINESTRING (1116.439021 983.995997, 1367.249119 891.732766)

LINESTRING (1116.439021 983.995997, 1373.141358 1059.408509)

LINESTRING (1116.439021 983.995997, 1352.083695 1228.929160)

LINESTRING (863.444828 944.226758, 1103.068131 1167.271140)

LINESTRING (1103.068131 1167.271140, 1380.361520 1218.561886)

LINESTRING (1103.068131 1167.271140, 1309.229321 1351.885333)

LINESTRING (1103.068131 1167.271140, 1205.657117 1468.567208)

LINESTRING (863.444828 944.226758, 911.141617 1262.641988)

LINESTRING (911.141617 1262.641988, 1152.318941 1511.928437)

LINESTRING (911.141617 1262.641988, 1019.587235 1539.672831)

LINESTRING (911.141617 1262.641988, 862.815262 1512.503944)

LINESTRING (655.720534 759.280959, 730.795521 1057.830751)

LINESTRING (730.795521 1057.830751, 906.771236 1232.117965)

LINESTRING (906.771236 1232.117965, 1205.849768 1284.366824)

LINESTRING (906.771236 1232.117965, 1124.722139 1451.139560)

LINESTRING (906.771236 1232.117965, 984.950565 1553.574931)

LINESTRING (730.795521 1057.830751, 792.768673 1322.521611)

LINESTRING (792.768673 1322.521611, 1001.486083 1544.937216)

LINESTRING (792.768673 1322.521611, 831.572803 1614.320078)

LINESTRING (792.768673 1322.521611, 716.911170 1647.052323)

LINESTRING (730.795521 1057.830751, 678.388351 1358.626321)

LINESTRING (678.388351 1358.626321, 769.995257 1614.837916)

LINESTRING (678.388351 1358.626321, 580.285438 1672.678753)

LINESTRING (678.388351 1358.626321, 452.421144 1589.227571)

LINESTRING (655.720534 759.280959, 599.997860 1075.617392)

LINESTRING (599.997860 1075.617392, 663.246302 1343.397596)

LINESTRING (663.246302 1343.397596, 862.206880 1523.980530)

LINESTRING (663.246302 1343.397596, 750.970681 1619.412959)

LINESTRING (663.246302 1343.397596, 586.606499 1607.142412)

LINESTRING (599.997860 1075.617392, 536.829511 1401.338924)

LINESTRING (536.829511 1401.338924, 635.789232 1658.343050)

LINESTRING (536.829511 1401.338924, 422.139600 1651.806999)

LINESTRING (536.829511 1401.338924, 361.183912 1632.268605)

LINESTRING (599.997860 1075.617392, 401.963481 1260.998611)

LINESTRING (401.963481 1260.998611, 337.789048 1585.861111)

LINESTRING (401.963481 1260.998611, 199.996810 1509.647234)

LINESTRING (401.963481 1260.998611, 92.513679 1326.421246)

LINESTRING (326.036281 256.259644, 429.611423 574.245340)

LINESTRING (429.611423 574.245340, 633.497289 815.718778)

LINESTRING (633.497289 815.718778, 926.782357 922.406142)

LINESTRING (926.782357 922.406142, 1183.922696 873.321131)

LINESTRING (1183.922696 873.321131, 1404.578731 634.813463)

LINESTRING (1183.922696 873.321131, 1445.481687 802.510590)

LINESTRING (1183.922696 873.321131, 1458.723838 924.057053)

LINESTRING (926.782357 922.406142, 1207.541562 988.822136)

LINESTRING (1207.541562 988.822136, 1508.307432 933.065865)

LINESTRING (1207.541562 988.822136, 1518.697939 1063.721207)

LINESTRING (1207.541562 988.822136, 1386.635700 1235.998684)

LINESTRING (926.782357 922.406142, 1175.984522 1111.127468)

LINESTRING (1175.984522 1111.127468, 1504.392374 1221.127281)

LINESTRING (1175.984522 1111.127468, 1419.104273 1300.413861)

LINESTRING (1175.984522 1111.127468, 1274.489469 1423.240950)

LINESTRING (633.497289 815.718778, 872.171102 1008.305001)

LINESTRING (872.171102 1008.305001, 1160.119198 1074.603122)

LINESTRING (1160.119198 1074.603122, 1470.356185 1033.219036)

LINESTRING (1160.119198 1074.603122, 1442.925705 1146.752803)

LINESTRING (1160.119198 1074.603122, 1354.187843 1311.490643)

LINESTRING (872.171102 1008.305001, 1072.347375 1216.387410)

LINESTRING (1072.347375 1216.387410, 1341.892695 1279.109543)

LINESTRING (1072.347375 1216.387410, 1265.159383 1467.204966)

LINESTRING (1072.347375 1216.387410, 1140.548908 1474.173012)

LINESTRING (872.171102 1008.305001, 923.416830 1260.646143)

LINESTRING (923.416830 1260.646143, 1146.204705 1504.020609)

LINESTRING (923.416830 1260.646143, 972.743106 1535.993031)

LINESTRING (923.416830 1260.646143, 853.326518 1588.715337)

LINESTRING (633.497289 815.718778, 730.125645 1083.220147)

LINESTRING (730.125645 1083.220147, 904.185198 1316.089741)

LINESTRING (904.185198 1316.089741, 1223.478386 1354.740051)

LINESTRING (904.185198 1316.089741, 1125.218940 1542.045304)

LINESTRING (904.185198 1316.089741, 947.681780 1596.822294)

LINESTRING (730.125645 1083.220147, 797.746821 1363.789812)

LINESTRING (797.746821 1363.789812, 1047.595796 1615.902026)

LINESTRING (797.746821 1363.789812, 909.691988 1665.305905)

LINESTRING (797.746821 1363.789812, 707.257835 1646.409049)

LINESTRING (730.125645 1083.220147, 650.125703 1363.155652)

LINESTRING (650.125703 1363.155652, 693.097297 1692.619061)

LINESTRING (650.125703 1363.155652, 595.931473 1683.419865)

LINESTRING (650.125703 1363.155652, 469.496807 1554.228580)

LINESTRING (429.611423 574.245340, 518.647426 868.564436)

LINESTRING (518.647426 868.564436, 705.216754 1099.507961)

LINESTRING (705.216754 1099.507961, 996.486561 1207.667590)

LINESTRING (996.486561 1207.667590, 1261.934307 1101.146259)

LINESTRING (996.486561 1207.667590, 1325.835623 1295.855769)

LINESTRING (996.486561 1207.667590, 1244.596950 1444.389473)

LINESTRING (705.216754 1099.507961, 954.972288 1334.673106)

LINESTRING (954.972288 1334.673106, 1206.941474 1444.955397)

LINESTRING (954.972288 1334.673106, 1194.445014 1531.816285)

LINESTRING (954.972288 1334.673106, 1070.844695 1661.530736)

LINESTRING (705.216754 1099.507961, 803.421888 1380.098741)

LINESTRING (803.421888 1380.098741, 1016.954754 1563.017795)

LINESTRING (803.421888 1380.098741, 914.225589 1681.338586)

LINESTRING (803.421888 1380.098741, 737.559332 1691.866395)

LINESTRING (518.647426 868.564436, 601.395313 1148.926896)

LINESTRING (601.395313 1148.926896, 811.653301 1390.057344)

LINESTRING (811.653301 1390.057344, 1137.761076 1450.459602)

LINESTRING (811.653301 1390.057344, 1025.652813 1632.999356)

LINESTRING (811.653301 1390.057344, 894.977031 1678.379555)

LINESTRING (601.395313 1148.926896, 710.429169 1462.620098)

LINESTRING (710.429169 1462.620098, 946.988818 1685.545199)

LINESTRING (710.429169 1462.620098, 821.744620 1718.246336)

LINESTRING (710.429169 1462.620098, 617.756068 1758.254419)

LINESTRING (601.395313 1148.926896, 520.185057 1465.397430)

LINESTRING (520.185057 1465.397430, 630.595394 1792.653348)

LINESTRING (520.185057 1465.397430, 474.083356 1777.157826)

LINESTRING (520.185057 1465.397430, 289.022433 1654.401098)

LINESTRING (518.647426 868.564436, 462.277497 1150.284199)

LINESTRING (462.277497 1150.284199, 552.263086 1474.014513)

LINESTRING (552.263086 1474.014513, 801.415967 1697.880927)

LINESTRING (552.263086 1474.014513, 601.768478 1790.367619)

LINESTRING (552.263086 1474.014513, 443.316319 1800.586627)

LINESTRING (462.277497 1150.284199, 415.680890 1448.569159)

LINESTRING (415.680890 1448.569159, 519.039720 1721.218788)

LINESTRING (415.680890 1448.569159, 310.028368 1708.720098)

LINESTRING (415.680890 1448.569159, 202.201545 1636.003615)

LINESTRING (462.277497 1150.284199, 284.166758 1342.734909)

LINESTRING (284.166758 1342.734909, 189.448348 1655.571796)

LINESTRING (284.166758 1342.734909, 65.848854 1517.153218)

LINESTRING (284.166758 1342.734909, 9.123258 1389.897928)

LINESTRING (429.611423 574.245340, 368.668534 863.780710)

LINESTRING (368.668534 863.780710, 486.004906 1193.541796)

LINESTRING (486.004906 1193.541796, 660.116802 1408.111945)

LINESTRING (660.116802 1408.111945, 988.872735 1496.966304)

LINESTRING (660.116802 1408.111945, 854.062818 1625.542205)

LINESTRING (660.116802 1408.111945, 767.981277 1725.312954)

LINESTRING (486.004906 1193.541796, 598.285359 1505.262087)

LINESTRING (598.285359 1505.262087, 824.783030 1711.634627)

LINESTRING (598.285359 1505.262087, 705.468668 1832.565322)

LINESTRING (598.285359 1505.262087, 499.193626 1804.386572)

LINESTRING (486.004906 1193.541796, 393.435893 1457.669696)

LINESTRING (393.435893 1457.669696, 491.971616 1714.729799)

LINESTRING (393.435893 1457.669696, 299.578889 1738.231214)

LINESTRING (393.435893 1457.669696, 165.402671 1645.542566)

LINESTRING (368.668534 863.780710, 316.441224 1150.599258)

LINESTRING (316.441224 1150.599258, 404.092692 1410.956516)

LINESTRING (404.092692 1410.956516, 599.094593 1596.121462)

LINESTRING (404.092692 1410.956516, 519.759955 1728.541623)

LINESTRING (404.092692 1410.956516, 291.649065 1677.762579)

LINESTRING (316.441224 1150.599258, 277.055171 1471.637917)

LINESTRING (277.055171 1471.637917, 368.408919 1765.384679)

LINESTRING (277.055171 1471.637917, 210.560193 1742.678873)

LINESTRING (277.055171 1471.637917, 54.071782 1661.248944)

LINESTRING (316.441224 1150.599258, 105.952078 1371.430301)

LINESTRING (105.952078 1371.430301, 37.967027 1624.253990)

LINESTRING (105.952078 1371.430301, -76.550935 1576.977597)

LINESTRING (105.952078 1371.430301, -145.691042 1414.505652)

LINESTRING (368.668534 863.780710, 181.811463 1075.138294)

LINESTRING (181.811463 1075.138294, 127.288634 1404.550697)

LINESTRING (127.288634 1404.550697, 231.307380 1711.395051)

LINESTRING (127.288634 1404.550697, 12.656239 1709.991246)

LINESTRING (127.288634 1404.550697, -93.606306 1580.431825)

LINESTRING (181.811463 1075.138294, -69.638427 1267.966535)

LINESTRING (-69.638427 1267.966535, -181.137140 1521.855301)

LINESTRING (-69.638427 1267.966535, -308.045491 1445.060082)

LINESTRING (-69.638427 1267.966535, -386.674826 1377.458480)

LINESTRING (181.811463 1075.138294, -87.092783 1143.842128)

LINESTRING (-87.092783 1143.842128, -331.071542 1372.332788)

LINESTRING (-87.092783 1143.842128, -349.335207 1237.846214)

LINESTRING (-87.092783 1143.842128, -361.568805 1105.329107)

LINESTRING (80.000000 80.000000, 187.797413 397.927878)

LINESTRING (187.797413 397.927878, 375.894071 598.055003)

LINESTRING (375.894071 598.055003, 668.458473 653.673683)

LINESTRING (668.458473 653.673683, 932.689617 539.348006)

LINESTRING (932.689617 539.348006, 1131.544139 331.624638)

LINESTRING (1131.544139 331.624638, 1233.735516 43.497229)

LINESTRING (1131.544139 331.624638, 1327.603509 119.226112)

LINESTRING (1131.544139 331.624638, 1442.991835 270.817627)

LINESTRING (932.689617 539.348006, 1185.629538 431.064528)

LINESTRING (1185.629538 431.064528, 1386.178137 220.837411)

LINESTRING (1185.629538 431.064528, 1514.621097 346.429765)

LINESTRING (1185.629538 431.064528, 1464.866299 534.777252)

LINESTRING (932.689617 539.348006, 1196.493584 589.692283)

LINESTRING (1196.493584 589.692283, 1462.224191 490.795827)

LINESTRING (1196.493584 589.692283, 1451.369660 633.266170)

LINESTRING (1196.493584 589.692283, 1371.986000 816.069450)

LINESTRING (668.458473 653.673683, 976.267380 750.582483)

LINESTRING (976.267380 750.582483, 1231.132410 704.928852)

LINESTRING (1231.132410 704.928852, 1452.346703 530.783242)

LINESTRING (1231.132410 704.928852, 1529.729938 590.370743)

LINESTRING (1231.132410 704.928852, 1493.653954 819.707173)

LINESTRING (976.267380 750.582483, 1230.841414 811.539110)

LINESTRING (1230.841414 811.539110, 1491.232435 727.424955)

LINESTRING (1230.841414 811.539110, 1557.381300 924.186389)

LINESTRING (1230.841414 811.539110, 1453.922604 1021.012842)

LINESTRING (976.267380 750.582483, 1208.715912 967.566734)

LINESTRING (1208.715912 967.566734, 1491.499807 1083.743683)

LINESTRING (1208.715912 967.566734, 1421.764892 1216.281370)

LINESTRING (1208.715912 967.566734, 1289.585782 1243.020974)

LINESTRING (668.458473 653.673683, 905.951572 839.647281)

LINESTRING (905.951572 839.647281, 1195.309529 897.097940)

LINESTRING (1195.309529 897.097940, 1487.193584 801.363331)

LINESTRING (1195.309529 897.097940, 1452.833409 1009.521480)

LINESTRING (1195.309529 897.097940, 1409.907376 1101.306683)

LINESTRING (905.951572 839.647281, 1088.649514 1068.057994)

LINESTRING (1088.649514 1068.057994, 1348.680277 1177.441903)

LINESTRING (1088.649514 1068.057994, 1308.556592 1316.448362)

LINESTRING (1088.649514 1068.057994, 1126.659336 1385.510535)

LINESTRING (905.951572 839.647281, 994.849237 1167.956648)

LINESTRING (994.849237 1167.956648, 1237.419354 1354.182551)

LINESTRING (994.849237 1167.956648, 1086.727416 1450.600902)

LINESTRING (994.849237 1167.956648, 922.070698 1423.872688)

LINESTRING (375.894071 598.055003, 564.722222 830.230802)

LINESTRING (564.722222 830.230802, 839.722334 939.010942)

LINESTRING (839.722334 939.010942, 1107.054238 847.572662)

LINESTRING (1107.054238 847.572662, 1359.096068 663.590074)

LINESTRING (1107.054238 847.572662, 1379.163588 788.015359)

LINESTRING (1107.054238 847.572662, 1428.025916 948.149764)

LINESTRING (839.722334 939.010942, 1137.524602 1052.650064)

LINESTRING (1137.524602 1052.650064, 1437.651920 992.199816)

LINESTRING (1137.524602 1052.650064, 1393.263754 1113.074567)

LINESTRING (1137.524602 1052.650064, 1317.405319 1255.026077)

LINESTRING (839.722334 939.010942, 1018.401243 1180.377296)

LINESTRING (1018.401243 1180.377296, 1269.370045 1283.320091)

LINESTRING (1018.401243 1180.377296, 1206.547831 1361.160708)

LINESTRING (1018.401243 1180.377296, 1094.627860 1462.686439)

LINESTRING (564.722222 830.230802, 748.182719 1032.637077)

LINESTRING (748.182719 1032.637077, 1045.777496 1087.469283)

LINESTRING (1045.777496 1087.469283, 1296.107120 983.951100)

LINESTRING (1045.777496 1087.469283, 1340.179222 1197.407321)

LINESTRING (1045.777496 1087.469283, 1219.540204 1312.794823)

LINESTRING (748.182719 1032.637077, 953.390365 1214.650538)

LINESTRING (953.390365 1214.650538, 1257.240714 1266.055234)

LINESTRING (953.390365 1214.650538, 1158.283739 1445.452698)

LINESTRING (953.390365 1214.650538, 1025.161809 1517.294695)

LINESTRING (748.182719 1032.637077, 842.843536 1347.624008)

LINESTRING (842.843536 1347.624008, 1029.337081 1542.313499)

LINESTRING (842.843536 1347.624008, 943.487533 1662.991515)

LINESTRING (842.843536 1347.624008, 728.486561 1598.497029)

LINESTRING (564.722222 830.230802, 629.886769 1096.137787)

LINESTRING (629.886769 1096.137787, 870.100182 1286.731488)

LINESTRING (870.100182 1286.731488, 1181.627309 1350.322417)

LINESTRING (870.100182 1286.731488, 1072.605836 1535.590140)

LINESTRING (870.100182 1286.731488, 964.874531 1579.459118)

LINESTRING (629.886769 1096.137787, 717.303031 1382.218298)

LINESTRING (717.303031 1382.218298, 956.781746 1570.852223)

LINESTRING (717.303031 1382.218298, 810.723810 1701.215820)

LINESTRING (717.303031 1382.218298, 657.739301 1664.315581)

LINESTRING (629.886769 1096.137787, 561.363609 1392.155196)

LINESTRING (561.363609 1392.155196, 639.063175 1679.468025)

LINESTRING (561.363609 1392.155196, 468.292618 1721.089131)

LINESTRING (561.363609 1392.155196, 320.029525 1617.993916)

LINESTRING (375.894071 598.055003, 416.385604 872.166711)

LINESTRING (416.385604 872.166711, 593.483606 1063.133297)

LINESTRING (593.483606 1063.133297, 880.295880 1137.875405)

LINESTRING (880.295880 1137.875405, 1172.014181 1088.154809)

LINESTRING (880.295880 1137.875405, 1149.248058 1207.022450)

LINESTRING (880.295880 1137.875405, 1063.140803 1327.455222)

LINESTRING (593.483606 1063.133297, 827.052139 1241.338661)

LINESTRING (827.052139 1241.338661, 1095.705893 1320.138561)

LINESTRING (827.052139 1241.338661, 1077.348736 1488.943466)

LINESTRING (827.052139 1241.338661, 927.558163 1527.644472)

LINESTRING (593.483606 1063.133297, 698.668922 1360.325267)

LINESTRING (698.668922 1360.325267, 880.655159 1576.372585)

LINESTRING (698.668922 1360.325267, 800.593149 1633.403736)

LINESTRING (698.668922 1360.325267, 609.712254 1658.301486)

LINESTRING (416.385604 872.166711, 483.416911 1155.282428)

LINESTRING (483.416911 1155.282428, 711.628459 1364.307180)

LINESTRING (711.628459 1364.307180, 977.619093 1459.465245)

LINESTRING (711.628459 1364.307180, 913.587472 1544.525558)

LINESTRING (711.628459 1364.307180, 758.123175 1675.366983)

LINESTRING (483.416911 1155.282428, 581.825016 1452.617253)

LINESTRING (581.825016 1452.617253, 819.336668 1678.374640)

LINESTRING (581.825016 1452.617253, 636.102955 1712.055511)

LINESTRING (581.825016 1452.617253, 538.624812 1772.073377)

LINESTRING (483.416911 1155.282428, 375.166895 1433.012306)

LINESTRING (375.166895 1433.012306, 419.632628 1728.825362)

LINESTRING (375.166895 1433.012306, 280.428133 1742.681472)

LINESTRING (375.166895 1433.012306, 132.918175 1669.989824)

LINESTRING (416.385604 872.166711, 309.857288 1188.635044)

LINESTRING (309.857288 1188.635044, 367.189964 1459.276037)

LINESTRING (367.189964 1459.276037, 566.647387 1690.597772)

LINESTRING (367.189964 1459.276037, 460.692889 1742.613521)

LINESTRING (367.189964 1459.276037, 271.062983 1719.696136)

LINESTRING (309.857288 1188.635044, 233.376553 1495.087585)

LINESTRING (233.376553 1495.087585, 297.852525 1811.652470)

LINESTRING (233.376553 1495.087585, 158.647268 1796.550897)

LINESTRING (233.376553 1495.087585, 33.562919 1685.997781)

LINESTRING (309.857288 1188.635044, 133.298226 1382.475641)

LINESTRING (133.298226 1382.475641, 28.276548 1704.051749)

LINESTRING (133.298226 1382.475641, -40.884917 1595.551754)

LINESTRING (133.298226 1382.475641, -143.090131 1462.414785)

LINESTRING (187.797413 397.927878, 268.373278 680.084765)

LINESTRING (268.373278 680.084765, 467.563670 924.317405)

LINESTRING (467.563670 924.317405, 734.622523 1031.027683)

LINESTRING (734.622523 1031.027683, 1000.171135 917.684609)

LINESTRING (1000.171135 917.684609, 1200.950021 670.458182)

LINESTRING (1000.171135 917.684609, 1270.375344 838.639499)

LINESTRING (1000.171135 917.684609, 1306.266401 999.130378)

LINESTRING (734.622523 1031.027683, 988.550134 1116.698744)

LINESTRING (988.550134 1116.698744, 1272.406079 1076.478188)

LINESTRING (988.550134 1116.698744, 1265.002530 1213.818983)

LINESTRING (988.550134 1116.698744, 1167.596495 1311.733325)

LINESTRING (734.622523 1031.027683, 908.243148 1213.354550)

LINESTRING (908.243148 1213.354550, 1203.193778 1253.422736)

LINESTRING (908.243148 1213.354550, 1146.413546 1454.092526)

LINESTRING (908.243148 1213.354550, 957.303664 1529.656994)

LINESTRING (467.563670 924.317405, 719.355938 1174.122827)

LINESTRING (719.355938 1174.122827, 1004.682023 1258.365414)

LINESTRING (1004.682023 1258.365414, 1290.600129 1199.218647)

LINESTRING (1004.682023 1258.365414, 1318.094981 1310.278133)

LINESTRING (1004.682023 1258.365414, 1182.452242 1506.995905)

LINESTRING (719.355938 1174.122827, 970.222455 1378.518064)

LINESTRING (970.222455 1378.518064, 1234.388151 1445.240044)

LINESTRING (970.222455 1378.518064, 1190.941145 1610.254124)

LINESTRING (970.222455 1378.518064, 1067.195788 1658.921137)

LINESTRING (719.355938 1174.122827, 834.696584 1489.124174)

LINESTRING (834.696584 1489.124174, 1082.581136 1717.373552)

LINESTRING (834.696584 1489.124174, 892.810802 1779.311821)

LINESTRING (834.696584 1489.124174, 795.659346 1800.649568)

LINESTRING (467.563670 924.317405, 578.782472 1214.329988)

LINESTRING (578.782472 1214.329988, 776.431051 1435.307861)

LINESTRING (776.431051 1435.307861, 1104.517885 1532.053726)

LINESTRING (776.431051 1435.307861, 959.983782 1629.297130)

LINESTRING (776.431051 1435.307861, 872.798696 1705.202991)

LINESTRING (578.782472 1214.329988, 625.115332 1486.337399)

LINESTRING (625.115332 1486.337399, 797.517254 1736.841483)

LINESTRING (625.115332 1486.337399, 687.574217 1767.660780)

LINESTRING (625.115332 1486.337399, 550.266969 1763.572478)

LINESTRING (578.782472 1214.329988, 536.203695 1529.950345)

LINESTRING (536.203695 1529.950345, 631.375550 1786.263227)

LINESTRING (536.203695 1529.950345, 490.846299 1821.634875)

LINESTRING (536.203695 1529.950345, 334.928246 1710.668958)

LINESTRING (268.373278 680.084765, 383.366301 948.002551)

LINESTRING (383.366301 948.002551, 562.598282 1164.844156)

LINESTRING (562.598282 1164.844156, 870.694764 1272.721111)

LINESTRING (870.694764 1272.721111, 1196.054064 1190.063074)

LINESTRING (870.694764 1272.721111, 1131.382962 1377.316955)

LINESTRING (870.694764 1272.721111, 1119.179529 1512.390148)

LINESTRING (562.598282 1164.844156, 786.639770 1365.636866)

LINESTRING (786.639770 1365.636866, 1080.129302 1470.567489)

LINESTRING (786.639770 1365.636866, 1014.516538 1610.614096)

LINESTRING (786.639770 1365.636866, 866.438397 1690.035633)

LINESTRING (562.598282 1164.844156, 669.695514 1427.442786)

LINESTRING (669.695514 1427.442786, 893.177270 1671.720487)

LINESTRING (669.695514 1427.442786, 780.723235 1732.095121)

LINESTRING (669.695514 1427.442786, 588.415434 1747.010202)

LINESTRING (383.366301 948.002551, 450.598341 1209.031348)

LINESTRING (450.598341 1209.031348, 631.812094 1391.189329)

LINESTRING (631.812094 1391.189329, 898.071477 1475.058681)

LINESTRING (631.812094 1391.189329, 841.156020 1565.701247)

LINESTRING (631.812094 1391.189329, 682.609013 1687.092993)

LINESTRING (450.598341 1209.031348, 558.382472 1498.966855)

LINESTRING (558.382472 1498.966855, 790.924341 1676.422610)

LINESTRING (558.382472 1498.966855, 606.022256 1778.433804)

LINESTRING (558.382472 1498.966855, 447.624801 1800.081900)

LINESTRING (450.598341 1209.031348, 379.652368 1464.661861)

LINESTRING (379.652368 1464.661861, 458.144218 1759.032426)

LINESTRING (379.652368 1464.661861, 319.597938 1773.894804)

LINESTRING (379.652368 1464.661861, 178.844174 1715.941267)

LINESTRING (383.366301 948.002551, 308.933683 1214.469906)

LINESTRING (308.933683 1214.469906, 400.232045 1533.079285)

LINESTRING (400.232045 1533.079285, 578.417518 1751.122959)

LINESTRING (400.232045 1533.079285, 453.348135 1786.660443)

LINESTRING (400.232045 1533.079285, 296.297559 1827.580761)

LINESTRING (308.933683 1214.469906, 243.794480 1503.822547)

LINESTRING (243.794480 1503.822547, 283.126458 1815.975130)

LINESTRING (243.794480 1503.822547, 171.979399 1808.186817)

LINESTRING (243.794480 1503.822547, 15.850854 1743.562183)

LINESTRING (308.933683 1214.469906, 100.779866 1414.914926)

LINESTRING (100.779866 1414.914926, 22.210482 1722.852223)

LINESTRING (100.779866 1414.914926, -91.039540 1606.850429)

LINESTRING (100.779866 1414.914926, -215.831834 1517.239853)

LINESTRING (268.373278 680.084765, 194.971491 988.335283)

LINESTRING (194.971491 988.335283, 238.106843 1242.233793)

LINESTRING (238.106843 1242.233793, 438.779297 1426.104127)

LINESTRING (438.779297 1426.104127, 755.975257 1506.708998)

LINESTRING (438.779297 1426.104127, 615.807947 1606.159841)

LINESTRING (438.779297 1426.104127, 537.927583 1736.278830)

LINESTRING (238.106843 1242.233793, 285.899866 1514.145017)

LINESTRING (285.899866 1514.145017, 493.335390 1728.868903)

LINESTRING (285.899866 1514.145017, 400.294586 1802.799025)

LINESTRING (285.899866 1514.145017, 176.780570 1838.448457)

LINESTRING (238.106843 1242.233793, 154.832893 1501.403352)

LINESTRING (154.832893 1501.403352, 240.799946 1778.111253)

LINESTRING (154.832893 1501.403352, 59.003656 1806.380300)

LINESTRING (154.832893 1501.403352, -75.080275 1682.238946)

LINESTRING (194.971491 988.335283, 77.432239 1278.232744)

LINESTRING (77.432239 1278.232744, 173.131567 1583.596300)

LINESTRING (173.131567 1583.596300, 401.419621 1810.905666)

LINESTRING (173.131567 1583.596300, 255.511227 1887.688214)

LINESTRING (173.131567 1583.596300, 130.712563 1883.233719)

LINESTRING (77.432239 1278.232744, -2.820885 1598.709516)

LINESTRING (-2.820885 1598.709516, 71.492658 1907.421060)

LINESTRING (-2.820885 1598.709516, -48.020116 1862.389882)

LINESTRING (-2.820885 1598.709516, -203.068980 1823.870064)

LINESTRING (77.432239 1278.232744, -131.513006 1504.522689)

LINESTRING (-131.513006 1504.522689, -229.379540 1830.009186)

LINESTRING (-131.513006 1504.522689, -325.413261 1714.911717)

LINESTRING (-131.513006 1504.522689, -403.010293 1600.473026)

LINESTRING (194.971491 988.335283, -14.189746 1161.674679)

LINESTRING (-14.189746 1161.674679, -61.898640 1449.881623)

LINESTRING (-61.898640 1449.881623, 40.009250 1748.077627)

LINESTRING (-61.898640 1449.881623, -107.716459 1705.744676)

LINESTRING (-61.898640 1449.881623, -296.412633 1654.600663)

LINESTRING (-14.189746 1161.674679, -229.790845 1408.749457)

LINESTRING (-229.790845 1408.749457, -313.579524 1700.066046)

LINESTRING (-229.790845 1408.749457, -434.814100 1629.841886)

LINESTRING (-229.790845 1408.749457, -548.323012 1473.684807)

LINESTRING (-14.189746 1161.674679, -290.624727 1204.943577)

LINESTRING (-290.624727 1204.943577, -506.259338 1453.644152)

LINESTRING (-290.624727 1204.943577, -544.295757 1266.234478)

LINESTRING (-290.624727 1204.943577, -550.038051 1096.833266)

LINESTRING (187.797413 397.927878, 130.989910 709.669359)

LINESTRING (130.989910 709.669359, 203.778745 1009.888463)

LINESTRING (203.778745 1009.888463, 445.826046 1259.820372)

LINESTRING (445.826046 1259.820372, 770.360328 1369.809084)

LINESTRING (770.360328 1369.809084, 1035.320557 1295.025832)

LINESTRING (770.360328 1369.809084, 1060.095874 1464.905716)

LINESTRING (770.360328 1369.809084, 952.009795 1586.264712)

LINESTRING (445.826046 1259.820372, 636.483871 1496.964900)

LINESTRING (636.483871 1496.964900, 887.652058 1592.531478)

LINESTRING (636.483871 1496.964900, 841.772499 1672.236480)

LINESTRING (636.483871 1496.964900, 717.563508 1802.389451)

LINESTRING (445.826046 1259.820372, 484.323711 1575.519208)

LINESTRING (484.323711 1575.519208, 685.083735 1765.015575)

LINESTRING (484.323711 1575.519208, 572.685346 1886.722557)

LINESTRING (484.323711 1575.519208, 403.269631 1854.773287)

LINESTRING (203.778745 1009.888463, 310.532215 1266.088653)

LINESTRING (310.532215 1266.088653, 509.759861 1513.288452)

LINESTRING (509.759861 1513.288452, 834.892550 1592.014405)

LINESTRING (509.759861 1513.288452, 707.962863 1742.268484)

LINESTRING (509.759861 1513.288452, 606.452716 1814.940598)

LINESTRING (310.532215 1266.088653, 380.815224 1585.392909)

LINESTRING (380.815224 1585.392909, 556.561582 1795.453008)

LINESTRING (380.815224 1585.392909, 444.506562 1893.741724)

LINESTRING (380.815224 1585.392909, 282.754842 1899.517245)

LINESTRING (310.532215 1266.088653, 270.730117 1577.017051)

LINESTRING (270.730117 1577.017051, 366.964735 1895.329250)

LINESTRING (270.730117 1577.017051, 207.458066 1900.265283)

LINESTRING (270.730117 1577.017051, 55.385469 1770.991639)

LINESTRING (203.778745 1009.888463, 124.076208 1262.873013)

LINESTRING (124.076208 1262.873013, 224.960060 1581.423514)

LINESTRING (224.960060 1581.423514, 461.075348 1810.292443)

LINESTRING (224.960060 1581.423514, 276.811103 1848.162693)

LINESTRING (224.960060 1581.423514, 131.477198 1864.383765)

LINESTRING (124.076208 1262.873013, 34.788823 1554.364879)

LINESTRING (34.788823 1554.364879, 151.542741 1810.519840)

LINESTRING (34.788823 1554.364879, -5.455023 1878.060974)

LINESTRING (34.788823 1554.364879, -174.499241 1784.601067)

LINESTRING (124.076208 1262.873013, -112.710620 1452.290589)

LINESTRING (-112.710620 1452.290589, -150.541662 1712.725018)

LINESTRING (-112.710620 1452.290589, -314.062437 1634.401960)

LINESTRING (-112.710620 1452.290589, -379.837840 1557.674457)

LINESTRING (130.989910 709.669359, 73.734358 993.663438)

LINESTRING (73.734358 993.663438, 121.523876 1277.062072)

LINESTRING (121.523876 1277.062072, 301.647297 1512.712583)

LINESTRING (301.647297 1512.712583, 596.934746 1607.185504)

LINESTRING (301.647297 1512.712583, 509.535129 1698.598152)

LINESTRING (301.647297 1512.712583, 402.802708 1795.865627)

LINESTRING (121.523876 1277.062072, 232.381332 1527.163659)

LINESTRING (232.381332 1527.163659, 475.360575 1727.449438)

LINESTRING (232.381332 1527.163659, 303.124582 1777.727502)

LINESTRING (232.381332 1527.163659, 163.320931 1830.588426)

LINESTRING (121.523876 1277.062072, 35.563034 1570.346864)

LINESTRING (35.563034 1570.346864, 115.392703 1830.092012)

LINESTRING (35.563034 1570.346864, -58.529716 1823.588752)

LINESTRING (35.563034 1570.346864, -140.255894 1756.238074)

LINESTRING (73.734358 993.663438, 26.893548 1245.762256)

LINESTRING (26.893548 1245.762256, 140.970510 1527.918663)

LINESTRING (140.970510 1527.918663, 340.833769 1702.225970)

LINESTRING (140.970510 1527.918663, 225.289227 1800.448597)

LINESTRING (140.970510 1527.918663, 24.042744 1820.467405)

LINESTRING (26.893548 1245.762256, -35.575626 1531.342772)

LINESTRING (-35.575626 1531.342772, 3.727384 1833.651417)

LINESTRING (-35.575626 1531.342772, -136.972163 1830.528570)

LINESTRING (-35.575626 1531.342772, -255.267476 1742.931493)

LINESTRING (26.893548 1245.762256, -201.970269 1461.735776)

LINESTRING (-201.970269 1461.735776, -278.211803 1759.018501)

LINESTRING (-201.970269 1461.735776, -445.995057 1713.039464)

LINESTRING (-201.970269 1461.735776, -507.193595 1578.886467)

LINESTRING (73.734358 993.663438, -141.166689 1244.932865)

LINESTRING (-141.166689 1244.932865, -205.190543 1498.346302)

LINESTRING (-205.190543 1498.346302, -162.295683 1792.980110)

LINESTRING (-205.190543 1498.346302, -252.337265 1785.022411)

LINESTRING (-205.190543 1498.346302, -452.963826 1721.999742)

LINESTRING (-141.166689 1244.932865, -384.124059 1470.686666)

LINESTRING (-384.124059 1470.686666, -450.897508 1799.536914)

LINESTRING (-384.124059 1470.686666, -578.950508 1644.189306)

LINESTRING (-384.124059 1470.686666, -646.262465 1510.580679)

LINESTRING (-141.166689 1244.932865, -449.297786 1294.250858)

LINESTRING (-449.297786 1294.250858, -627.657785 1513.177131)

LINESTRING (-449.297786 1294.250858, -759.190952 1380.218301)

LINESTRING (-449.297786 1294.250858, -716.135351 1178.571487)

LINESTRING (130.989910 709.669359, -51.056865 906.681219)

LINESTRING (-51.056865 906.681219, -120.030876 1190.222597)

LINESTRING (-120.030876 1190.222597, -20.152341 1498.691753)

LINESTRING (-20.152341 1498.691753, 195.571980 1741.530356)

LINESTRING (-20.152341 1498.691753, 46.330540 1817.269297)

LINESTRING (-20.152341 1498.691753, -114.850779 1811.687964)

LINESTRING (-120.030876 1190.222597, -186.629496 1452.853124)

LINESTRING (-186.629496 1452.853124, -116.792327 1743.777592)

LINESTRING (-186.629496 1452.853124, -259.367807 1744.851118)

LINESTRING (-186.629496 1452.853124, -432.245859 1640.548480)

LINESTRING (-120.030876 1190.222597, -328.778029 1365.383404)

LINESTRING (-328.778029 1365.383404, -367.263568 1683.923778)

LINESTRING (-328.778029 1365.383404, -519.773681 1576.128241)

LINESTRING (-328.778029 1365.383404, -637.295314 1459.090608)

LINESTRING (-51.056865 906.681219, -275.018433 1142.314577)

LINESTRING (-275.018433 1142.314577, -340.834107 1431.066210)

LINESTRING (-340.834107 1431.066210, -255.360127 1686.895857)

LINESTRING (-340.834107 1431.066210, -400.340641 1706.104088)

LINESTRING (-340.834107 1431.066210, -533.413184 1615.430180)

LINESTRING (-275.018433 1142.314577, -456.396049 1364.379591)

LINESTRING (-456.396049 1364.379591, -539.635407 1658.772538)

LINESTRING (-456.396049 1364.379591, -639.070031 1544.476224)

LINESTRING (-456.396049 1364.379591, -737.576207 1431.501443)

LINESTRING (-275.018433 1142.314577, -565.047484 1203.410196)

LINESTRING (-565.047484 1203.410196, -812.813996 1417.199691)

LINESTRING (-565.047484 1203.410196, -863.090940 1297.887784)

LINESTRING (-565.047484 1203.410196, -834.794627 1146.041833)

LINESTRING (-51.056865 906.681219, -325.273814 958.215786)

LINESTRING (-325.273814 958.215786, -530.795957 1209.196555)

LINESTRING (-530.795957 1209.196555, -570.858374 1475.679926)

LINESTRING (-530.795957 1209.196555, -747.409611 1431.570321)

LINESTRING (-530.795957 1209.196555, -802.614944 1295.177964)

LINESTRING (-325.273814 958.215786, -619.010610 1047.256988)

LINESTRING (-619.010610 1047.256988, -864.211414 1263.353606)

LINESTRING (-619.010610 1047.256988, -887.159557 1124.333712)

LINESTRING (-619.010610 1047.256988, -945.395714 965.007738)

LINESTRING (-325.273814 958.215786, -641.888497 859.041302)

LINESTRING (-641.888497 859.041302, -954.309074 961.527296)

LINESTRING (-641.888497 859.041302, -954.034456 768.005779)

LINESTRING (-641.888497 859.041302, -824.755246 608.390636)

