LINESTRING (526.809359 395.394892, 510.357259 448.262250)

LINESTRING (510.357259 448.262250, 478.772596 494.308665)

LINESTRING (478.772596 494.308665, 427.336272 510.374456)

LINESTRING (427.336272 510.374456, 364.882040 522.116520)

LINESTRING (364.882040 522.116520, 325.084613 493.306636)

LINESTRING (325.084613 493.306636, 298.598145 455.670681)

LINESTRING (298.598145 455.670681, 286.443828 397.079213)

LINESTRING (286.443828 397.079213, 294.293077 345.604565)

LINESTRING (294.293077 345.604565, 317.040162 314.823846)

LINESTRING (317.040162 314.823846, 379.634401 278.600782)

LINESTRING (379.634401 278.600782, 428.822518 291.616870)

LINESTRING (428.822518 291.616870, 479.433588 306.468815)

LINESTRING (479.433588 306.468815, 507.748826 356.494292)

LINESTRING (507.748826 356.494292, 526.809359 395.394892)

LINESTRING (639.085639 399.106177, 621.640630 511.351422)

LINESTRING (621.640630 511.351422, 554.557235 592.789430)

LINESTRING (554.557235 592.789430, 443.640806 639.731238)

LINESTRING (443.640806 639.731238, 355.582075 631.417856)

LINESTRING (355.582075 631.417856, 246.356744 584.808495)

LINESTRING (246.356744 584.808495, 183.236641 509.870522)

LINESTRING (183.236641 509.870522, 155.480804 393.526746)

LINESTRING (155.480804 393.526746, 184.925332 289.339597)

LINESTRING (184.925332 289.339597, 244.297572 215.826809)

LINESTRING (244.297572 215.826809, 353.015613 166.594589)

LINESTRING (353.015613 166.594589, 459.029392 163.503048)

LINESTRING (459.029392 163.503048, 557.654489 208.212957)

LINESTRING (557.654489 208.212957, 616.675939 287.437619)

LINESTRING (616.675939 287.437619, 639.085639 399.106177)

LINESTRING (767.335336 403.548591, 725.494348 555.961817)

LINESTRING (725.494348 555.961817, 626.227954 677.658817)

LINESTRING (626.227954 677.658817, 483.647489 748.234238)

LINESTRING (483.647489 748.234238, 319.817711 756.831638)

LINESTRING (319.817711 756.831638, 172.650899 674.445857)

LINESTRING (172.650899 674.445857, 71.386220 551.799338)

LINESTRING (71.386220 551.799338, 39.178033 409.283494)

LINESTRING (39.178033 409.283494, 69.215966 253.340946)

LINESTRING (69.215966 253.340946, 169.688264 109.260115)

LINESTRING (169.688264 109.260115, 326.569834 47.321732)

LINESTRING (326.569834 47.321732, 487.391544 43.722967)

LINESTRING (487.391544 43.722967, 618.203223 122.266656)

LINESTRING (618.203223 122.266656, 729.525375 246.515584)

LINESTRING (729.525375 246.515584, 767.335336 403.548591)

LINESTRING (871.704348 403.173107, 839.772140 606.383352)

LINESTRING (839.772140 606.383352, 695.178024 771.759527)

LINESTRING (695.178024 771.759527, 508.350277 861.038934)

LINESTRING (508.350277 861.038934, 294.071949 871.664548)

LINESTRING (294.071949 871.664548, 96.810260 768.547495)

LINESTRING (96.810260 768.547495, -35.250968 615.535169)

LINESTRING (-35.250968 615.535169, -70.473878 393.480194)

LINESTRING (-70.473878 393.480194, -35.989345 189.767788)

LINESTRING (-35.989345 189.767788, 94.352587 32.860711)

LINESTRING (94.352587 32.860711, 285.218876 -63.594707)

LINESTRING (285.218876 -63.594707, 499.662630 -60.228842)

LINESTRING (499.662630 -60.228842, 708.962372 17.259714)

LINESTRING (708.962372 17.259714, 830.826742 183.675828)

LINESTRING (830.826742 183.675828, 871.704348 403.173107)

LINESTRING (1007.913139 403.998168, 945.091867 665.193636)

LINESTRING (945.091867 665.193636, 767.160517 859.846406)

LINESTRING (767.160517 859.846406, 542.938908 988.731148)

LINESTRING (542.938908 988.731148, 274.163457 991.698835)

LINESTRING (274.163457 991.698835, 23.551436 874.205665)

LINESTRING (23.551436 874.205665, -139.936715 664.391688)

LINESTRING (-139.936715 664.391688, -200.662999 390.771607)

LINESTRING (-200.662999 390.771607, -144.896688 141.983711)

LINESTRING (-144.896688 141.983711, 22.699582 -74.121398)

LINESTRING (22.699582 -74.121398, 257.999245 -180.934065)

LINESTRING (257.999245 -180.934065, 525.832623 -185.312389)

LINESTRING (525.832623 -185.312389, 780.179475 -62.006185)

LINESTRING (780.179475 -62.006185, 946.832340 148.943741)

LINESTRING (946.832340 148.943741, 1007.913139 403.998168)

LINESTRING (1128.342681 404.811233, 1050.550360 718.970627)

LINESTRING (1050.550360 718.970627, 848.810331 954.720811)

LINESTRING (848.810331 954.720811, 554.873919 1095.259652)

LINESTRING (554.873919 1095.259652, 242.657853 1103.497279)

LINESTRING (242.657853 1103.497279, -46.948453 966.422824)

LINESTRING (-46.948453 966.422824, -257.208048 703.292641)

LINESTRING (-257.208048 703.292641, -316.366165 405.086871)

LINESTRING (-316.366165 405.086871, -242.193859 87.020031)

LINESTRING (-242.193859 87.020031, -47.130469 -172.088310)

LINESTRING (-47.130469 -172.088310, 234.601118 -300.356304)

LINESTRING (234.601118 -300.356304, 561.889403 -294.960255)

LINESTRING (561.889403 -294.960255, 853.426127 -158.366643)

LINESTRING (853.426127 -158.366643, 1055.809268 85.077435)

LINESTRING (1055.809268 85.077435, 1128.342681 404.811233)

LINESTRING (1231.477340 408.098634, 1151.454415 762.935062)

LINESTRING (1151.454415 762.935062, 916.752749 1057.871090)

LINESTRING (916.752749 1057.871090, 583.188777 1226.501974)

LINESTRING (583.188777 1226.501974, 203.410655 1221.700169)

LINESTRING (203.410655 1221.700169, -117.978085 1048.186486)

LINESTRING (-117.978085 1048.186486, -356.999503 759.986046)

LINESTRING (-356.999503 759.986046, -431.471322 406.307914)

LINESTRING (-431.471322 406.307914, -350.332398 26.663728)

LINESTRING (-350.332398 26.663728, -127.214742 -264.118527)

LINESTRING (-127.214742 -264.118527, 204.172082 -412.575822)

LINESTRING (204.172082 -412.575822, 588.144992 -413.769973)

LINESTRING (588.144992 -413.769973, 918.325000 -260.732673)

LINESTRING (918.325000 -260.732673, 1165.813765 26.934965)

LINESTRING (1165.813765 26.934965, 1231.477340 408.098634)

LINESTRING (526.809359 395.394892, 639.085639 399.106177)

LINESTRING (639.085639 399.106177, 767.335336 403.548591)

LINESTRING (767.335336 403.548591, 871.704348 403.173107)

LINESTRING (871.704348 403.173107, 1007.913139 403.998168)

LINESTRING (1007.913139 403.998168, 1128.342681 404.811233)

LINESTRING (1128.342681 404.811233, 1231.477340 408.098634)

LINESTRING (510.357259 448.262250, 621.640630 511.351422)

LINESTRING (621.640630 511.351422, 725.494348 555.961817)

LINESTRING (725.494348 555.961817, 839.772140 606.383352)

LINESTRING (839.772140 606.383352, 945.091867 665.193636)

LINESTRING (945.091867 665.193636, 1050.550360 718.970627)

LINESTRING (1050.550360 718.970627, 1151.454415 762.935062)

LINESTRING (478.772596 494.308665, 554.557235 592.789430)

LINESTRING (554.557235 592.789430, 626.227954 677.658817)

LINESTRING (626.227954 677.658817, 695.178024 771.759527)

LINESTRING (695.178024 771.759527, 767.160517 859.846406)

LINESTRING (767.160517 859.846406, 848.810331 954.720811)

LINESTRING (848.810331 954.720811, 916.752749 1057.871090)

LINESTRING (427.336272 510.374456, 443.640806 639.731238)

LINESTRING (443.640806 639.731238, 483.647489 748.234238)

LINESTRING (483.647489 748.234238, 508.350277 861.038934)

LINESTRING (508.350277 861.038934, 542.938908 988.731148)

LINESTRING (542.938908 988.731148, 554.873919 1095.259652)

LINESTRING (554.873919 1095.259652, 583.188777 1226.501974)

LINESTRING (364.882040 522.116520, 355.582075 631.417856)

LINESTRING (355.582075 631.417856, 319.817711 756.831638)

LINESTRING (319.817711 756.831638, 294.071949 871.664548)

LINESTRING (294.071949 871.664548, 274.163457 991.698835)

LINESTRING (274.163457 991.698835, 242.657853 1103.497279)

LINESTRING (242.657853 1103.497279, 203.410655 1221.700169)

LINESTRING (325.084613 493.306636, 246.356744 584.808495)

LINESTRING (246.356744 584.808495, 172.650899 674.445857)

LINESTRING (172.650899 674.445857, 96.810260 768.547495)

LINESTRING (96.810260 768.547495, 23.551436 874.205665)

LINESTRING (23.551436 874.205665, -46.948453 966.422824)

LINESTRING (-46.948453 966.422824, -117.978085 1048.186486)

LINESTRING (298.598145 455.670681, 183.236641 509.870522)

LINESTRING (183.236641 509.870522, 71.386220 551.799338)

LINESTRING (71.386220 551.799338, -35.250968 615.535169)

LINESTRING (-35.250968 615.535169, -139.936715 664.391688)

LINESTRING (-139.936715 664.391688, -257.208048 703.292641)

LINESTRING (-257.208048 703.292641, -356.999503 759.986046)

LINESTRING (286.443828 397.079213, 155.480804 393.526746)

LINESTRING (155.480804 393.526746, 39.178033 409.283494)

LINESTRING (39.178033 409.283494, -70.473878 393.480194)

LINESTRING (-70.473878 393.480194, -200.662999 390.771607)

LINESTRING (-200.662999 390.771607, -316.366165 405.086871)

LINESTRING (-316.366165 405.086871, -431.471322 406.307914)

LINESTRING (294.293077 345.604565, 184.925332 289.339597)

LINESTRING (184.925332 289.339597, 69.215966 253.340946)

LINESTRING (69.215966 253.340946, -35.989345 189.767788)

LINESTRING (-35.989345 189.767788, -144.896688 141.983711)

LINESTRING (-144.896688 141.983711, -242.193859 87.020031)

LINESTRING (-242.193859 87.020031, -350.332398 26.663728)

LINESTRING (317.040162 314.823846, 244.297572 215.826809)

LINESTRING (244.297572 215.826809, 169.688264 109.260115)

LINESTRING (169.688264 109.260115, 94.352587 32.860711)

LINESTRING (94.352587 32.860711, 22.699582 -74.121398)

LINESTRING (22.699582 -74.121398, -47.130469 -172.088310)

LINESTRING (-47.130469 -172.088310, -127.214742 -264.118527)

LINESTRING (379.634401 278.600782, 353.015613 166.594589)

LINESTRING (353.015613 166.594589, 326.569834 47.321732)

LINESTRING (326.569834 47.321732, 285.218876 -63.594707)

LINESTRING (285.218876 -63.594707, 257.999245 -180.934065)

LINESTRING (257.999245 -180.934065, 234.601118 -300.356304)

LINESTRING (234.601118 -300.356304, 204.172082 -412.575822)

LINESTRING (428.822518 291.616870, 459.029392 163.503048)

LINESTRING (459.029392 163.503048, 487.391544 43.722967)

LINESTRING (487.391544 43.722967, 499.662630 -60.228842)

LINESTRING (499.662630 -60.228842, 525.832623 -185.312389)

LINESTRING (525.832623 -185.312389, 561.889403 -294.960255)

LINESTRING (561.889403 -294.960255, 588.144992 -413.769973)

LINESTRING (479.433588 306.468815, 557.654489 208.212957)

LINESTRING (557.654489 208.212957, 618.203223 122.266656)

LINESTRING (618.203223 122.266656, 708.962372 17.259714)

LINESTRING (708.962372 17.259714, 780.179475 -62.006185)

LINESTRING (780.179475 -62.006185, 853.426127 -158.366643)

LINESTRING (853.426127 -158.366643, 918.325000 -260.732673)

LINESTRING (507.748826 356.494292, 616.675939 287.437619)

LINESTRING (616.675939 287.437619, 729.525375 246.515584)

LINESTRING (729.525375 246.515584, 830.826742 183.675828)

LINESTRING (830.826742 183.675828, 946.832340 148.943741)

LINESTRING (946.832340 148.943741, 1055.809268 85.077435)

LINESTRING (1055.809268 85.077435, 1165.813765 26.934965)

LINESTRING (400.000000 400.000000, 526.809359 395.394892)

