LINESTRING (6143.388302 1260.844149, 7052.212996 578.280242)

LINESTRING (6143.388302 1260.844149, 6404.585798 1590.595313)

LINESTRING (6143.388302 1260.844149, 6085.111579 2156.060915)

LINESTRING (6143.388302 1260.844149, 5592.558588 244.055421)

LINESTRING (6143.388302 1260.844149, 4753.862815 668.442347)

LINESTRING (6143.388302 1260.844149, 6375.349723 578.462817)

LINESTRING (7052.212996 578.280242, 6404.585798 1590.595313)

LINESTRING (7052.212996 578.280242, 8093.235389 1088.937407)

LINESTRING (7052.212996 578.280242, 6747.979542 642.694999)

LINESTRING (7052.212996 578.280242, 7300.506710 237.899303)

LINESTRING (7052.212996 578.280242, 6375.349723 578.462817)

LINESTRING (7052.212996 578.280242, 6098.012205 498.288834)

LINESTRING (7314.837739 5125.175885, 7750.588966 5373.375687)

LINESTRING (7314.837739 5125.175885, 6684.602992 6738.581885)

LINESTRING (5590.321539 8236.617706, 5467.092572 8181.443374)

LINESTRING (5590.321539 8236.617706, 5471.828730 7827.821564)

LINESTRING (5590.321539 8236.617706, 4027.194739 7532.246616)

LINESTRING (2159.502592 6822.358322, 2618.746365 6924.605988)

LINESTRING (2159.502592 6822.358322, 2791.067575 6457.375526)

LINESTRING (1703.029010 7451.446773, 1740.953847 7711.247042)

LINESTRING (1703.029010 7451.446773, 3233.865834 7826.113040)

LINESTRING (1703.029010 7451.446773, 1528.468214 7642.757194)

LINESTRING (2618.746365 6924.605988, 1559.725494 5561.803959)

LINESTRING (2618.746365 6924.605988, 3993.120039 6392.669188)

LINESTRING (2618.746365 6924.605988, 2791.067575 6457.375526)

LINESTRING (3920.427099 1379.884929, 4008.502529 1558.313071)

LINESTRING (3920.427099 1379.884929, 4365.897251 1606.429856)

LINESTRING (3920.427099 1379.884929, 4091.641378 2560.210651)

LINESTRING (474.471311 4887.126400, 1775.852801 3672.371560)

LINESTRING (474.471311 4887.126400, 405.101085 3316.157390)

LINESTRING (6404.585798 1590.595313, 5592.558588 244.055421)

LINESTRING (6404.585798 1590.595313, 6098.012205 498.288834)

LINESTRING (7086.672828 6627.738132, 6989.012810 6086.251907)

LINESTRING (7086.672828 6627.738132, 5646.849273 6106.849097)

LINESTRING (7086.672828 6627.738132, 6684.602992 6738.581885)

LINESTRING (8093.235389 1088.937407, 7026.991566 2295.647140)

LINESTRING (8093.235389 1088.937407, 7605.939194 210.930727)

LINESTRING (8093.235389 1088.937407, 7784.533754 1494.340178)

LINESTRING (8093.235389 1088.937407, 6375.349723 578.462817)

LINESTRING (1559.725494 5561.803959, 167.589002 6084.486460)

LINESTRING (1559.725494 5561.803959, 1659.590597 3947.990356)

LINESTRING (1559.725494 5561.803959, 2791.067575 6457.375526)

LINESTRING (1559.725494 5561.803959, 1225.571605 5768.222106)

LINESTRING (3993.120039 6392.669188, 5646.849273 6106.849097)

LINESTRING (3993.120039 6392.669188, 3363.039817 6591.087741)

LINESTRING (3993.120039 6392.669188, 4179.430160 5153.949997)

LINESTRING (3993.120039 6392.669188, 3965.084751 5276.690162)

LINESTRING (287.288345 5602.860013, 167.589002 6084.486460)

LINESTRING (287.288345 5602.860013, 417.805124 4196.232326)

LINESTRING (6989.012810 6086.251907, 6359.869574 5823.144816)

LINESTRING (6989.012810 6086.251907, 6098.201527 5516.105394)

LINESTRING (6989.012810 6086.251907, 7750.588966 5373.375687)

LINESTRING (6989.012810 6086.251907, 5414.098024 5629.334315)

LINESTRING (6747.979542 642.694999, 7300.506710 237.899303)

LINESTRING (6747.979542 642.694999, 5592.558588 244.055421)

LINESTRING (6747.979542 642.694999, 7900.754131 330.175159)

LINESTRING (6747.979542 642.694999, 7605.939194 210.930727)

LINESTRING (6747.979542 642.694999, 7784.533754 1494.340178)

LINESTRING (6747.979542 642.694999, 6375.349723 578.462817)

LINESTRING (7271.854668 4380.571671, 7749.441249 3268.879972)

LINESTRING (7271.854668 4380.571671, 8043.160151 5922.860157)

LINESTRING (8138.785654 7329.625161, 8199.782821 7806.342419)

LINESTRING (8138.785654 7329.625161, 6684.602992 6738.581885)

LINESTRING (6359.869574 5823.144816, 6098.201527 5516.105394)

LINESTRING (6359.869574 5823.144816, 4843.042863 5433.499706)

LINESTRING (6359.869574 5823.144816, 5646.849273 6106.849097)

LINESTRING (4008.502529 1558.313071, 4365.897251 1606.429856)

LINESTRING (4008.502529 1558.313071, 5264.626645 1430.167580)

LINESTRING (4008.502529 1558.313071, 4091.641378 2560.210651)

LINESTRING (4008.502529 1558.313071, 2756.929188 2681.708126)

LINESTRING (7789.378512 5812.312126, 6098.201527 5516.105394)

LINESTRING (7789.378512 5812.312126, 7750.588966 5373.375687)

LINESTRING (7789.378512 5812.312126, 8043.160151 5922.860157)

LINESTRING (5467.092572 8181.443374, 5471.828730 7827.821564)

LINESTRING (5467.092572 8181.443374, 4027.194739 7532.246616)

LINESTRING (167.589002 6084.486460, 1225.571605 5768.222106)

LINESTRING (7300.506710 237.899303, 7605.939194 210.930727)

LINESTRING (7300.506710 237.899303, 6098.012205 498.288834)

LINESTRING (4365.897251 1606.429856, 4753.862815 668.442347)

LINESTRING (4365.897251 1606.429856, 4091.641378 2560.210651)

LINESTRING (1659.590597 3947.990356, 1775.852801 3672.371560)

LINESTRING (6098.201527 5516.105394, 5659.170668 3987.837699)

LINESTRING (6098.201527 5516.105394, 6684.602992 6738.581885)

LINESTRING (157.493143 1982.052458, 521.218457 954.204926)

LINESTRING (7757.164277 3497.030935, 7749.441249 3268.879972)

LINESTRING (7757.164277 3497.030935, 7026.991566 2295.647140)

LINESTRING (7757.164277 3497.030935, 7470.705081 3595.272678)

LINESTRING (4843.042863 5433.499706, 5659.170668 3987.837699)

LINESTRING (4843.042863 5433.499706, 5646.849273 6106.849097)

LINESTRING (4843.042863 5433.499706, 3971.276374 4879.144944)

LINESTRING (4843.042863 5433.499706, 4179.430160 5153.949997)

LINESTRING (4843.042863 5433.499706, 3965.084751 5276.690162)

LINESTRING (5936.719220 2620.496554, 6085.111579 2156.060915)

LINESTRING (5936.719220 2620.496554, 5659.170668 3987.837699)

LINESTRING (7749.441249 3268.879972, 7470.705081 3595.272678)

LINESTRING (883.385962 8050.658606, 616.471892 8155.405399)

LINESTRING (883.385962 8050.658606, 1528.468214 7642.757194)

LINESTRING (5264.626645 1430.167580, 4753.862815 668.442347)

LINESTRING (5264.626645 1430.167580, 4091.641378 2560.210651)

LINESTRING (5592.558588 244.055421, 4753.862815 668.442347)

LINESTRING (5592.558588 244.055421, 6098.012205 498.288834)

LINESTRING (2791.067575 6457.375526, 1225.571605 5768.222106)

LINESTRING (2791.067575 6457.375526, 3363.039817 6591.087741)

LINESTRING (2791.067575 6457.375526, 1528.468214 7642.757194)

LINESTRING (521.218457 954.204926, 215.835919 1171.843397)

LINESTRING (521.218457 954.204926, 1753.036880 1652.348280)

LINESTRING (1740.953847 7711.247042, 1528.468214 7642.757194)

LINESTRING (417.805124 4196.232326, 1225.571605 5768.222106)

LINESTRING (5475.870188 5300.384570, 5646.849273 6106.849097)

LINESTRING (5475.870188 5300.384570, 3971.276374 4879.144944)

LINESTRING (5475.870188 5300.384570, 5414.098024 5629.334315)

LINESTRING (5646.849273 6106.849097, 5414.098024 5629.334315)

LINESTRING (5646.849273 6106.849097, 4179.430160 5153.949997)

LINESTRING (7900.754131 330.175159, 7605.939194 210.930727)

LINESTRING (7900.754131 330.175159, 7784.533754 1494.340178)

LINESTRING (7900.754131 330.175159, 6375.349723 578.462817)

LINESTRING (7750.588966 5373.375687, 7470.705081 3595.272678)

LINESTRING (7750.588966 5373.375687, 8043.160151 5922.860157)

LINESTRING (5471.828730 7827.821564, 4027.194739 7532.246616)

LINESTRING (7784.533754 1494.340178, 6375.349723 578.462817)

LINESTRING (1753.036880 1652.348280, 1790.462485 1228.094638)

LINESTRING (1790.462485 1228.094638, 2630.198878 2258.466492)

LINESTRING (3971.276374 4879.144944, 4369.900823 4885.325626)

LINESTRING (3971.276374 4879.144944, 2839.143535 4998.365080)

LINESTRING (3971.276374 4879.144944, 4179.430160 5153.949997)

LINESTRING (3971.276374 4879.144944, 3965.084751 5276.690162)

LINESTRING (4369.900823 4885.325626, 5414.098024 5629.334315)

LINESTRING (4369.900823 4885.325626, 4179.430160 5153.949997)

LINESTRING (4369.900823 4885.325626, 3965.084751 5276.690162)

LINESTRING (5414.098024 5629.334315, 4179.430160 5153.949997)

LINESTRING (6375.349723 578.462817, 6098.012205 498.288834)

LINESTRING (2839.143535 4998.365080, 3363.039817 6591.087741)

LINESTRING (2630.198878 2258.466492, 2756.929188 2681.708126)

LINESTRING (616.471892 8155.405399, 1528.468214 7642.757194)

LINESTRING (4091.641378 2560.210651, 2756.929188 2681.708126)

LINESTRING (6684.602992 6738.581885, 8043.160151 5922.860157)

LINESTRING (3233.865834 7826.113040, 3363.039817 6591.087741)

LINESTRING (4179.430160 5153.949997, 3965.084751 5276.690162)

