LINESTRING (60.000000 60.000000, 94.163441 44.141809)

LINESTRING (60.000000 60.000000, 93.353674 73.475233)

LINESTRING (60.000000 60.000000, 37.988609 88.123326)

LINESTRING (60.000000 60.000000, 24.693890 41.145975)

LINESTRING (60.000000 60.000000, 71.151160 27.384733)

LINESTRING (60.000000 60.000000, 31.500369 59.861979)

LINESTRING (60.000000 60.000000, 90.818287 82.736333)

LINESTRING (60.000000 60.000000, 31.322384 75.680683)

LINESTRING (60.000000 60.000000, 68.866076 86.772269)

LINESTRING (60.000000 60.000000, 89.449700 55.723320)

LINESTRING (60.000000 60.000000, 48.189227 78.105397)

LINESTRING (60.000000 60.000000, 61.919035 80.033202)

LINESTRING (94.163441 44.141809, 93.353674 73.475233)

LINESTRING (94.163441 44.141809, 37.988609 88.123326)

LINESTRING (94.163441 44.141809, 24.693890 41.145975)

LINESTRING (94.163441 44.141809, 71.151160 27.384733)

LINESTRING (94.163441 44.141809, 31.500369 59.861979)

LINESTRING (94.163441 44.141809, 90.818287 82.736333)

LINESTRING (94.163441 44.141809, 31.322384 75.680683)

LINESTRING (94.163441 44.141809, 68.866076 86.772269)

LINESTRING (94.163441 44.141809, 89.449700 55.723320)

LINESTRING (94.163441 44.141809, 48.189227 78.105397)

LINESTRING (94.163441 44.141809, 61.919035 80.033202)

LINESTRING (93.353674 73.475233, 37.988609 88.123326)

LINESTRING (93.353674 73.475233, 24.693890 41.145975)

LINESTRING (93.353674 73.475233, 31.500369 59.861979)

LINESTRING (93.353674 73.475233, 90.818287 82.736333)

LINESTRING (93.353674 73.475233, 31.322384 75.680683)

LINESTRING (93.353674 73.475233, 68.866076 86.772269)

LINESTRING (93.353674 73.475233, 89.449700 55.723320)

LINESTRING (93.353674 73.475233, 48.189227 78.105397)

LINESTRING (93.353674 73.475233, 61.919035 80.033202)

LINESTRING (37.988609 88.123326, 24.693890 41.145975)

LINESTRING (37.988609 88.123326, 71.151160 27.384733)

LINESTRING (37.988609 88.123326, 31.322384 75.680683)

LINESTRING (37.988609 88.123326, 68.866076 86.772269)

LINESTRING (37.988609 88.123326, 89.449700 55.723320)

LINESTRING (37.988609 88.123326, 48.189227 78.105397)

LINESTRING (37.988609 88.123326, 61.919035 80.033202)

LINESTRING (24.693890 41.145975, 71.151160 27.384733)

LINESTRING (24.693890 41.145975, 31.500369 59.861979)

LINESTRING (24.693890 41.145975, 90.818287 82.736333)

LINESTRING (24.693890 41.145975, 31.322384 75.680683)

LINESTRING (24.693890 41.145975, 68.866076 86.772269)

LINESTRING (24.693890 41.145975, 89.449700 55.723320)

LINESTRING (24.693890 41.145975, 48.189227 78.105397)

LINESTRING (24.693890 41.145975, 61.919035 80.033202)

LINESTRING (71.151160 27.384733, 31.500369 59.861979)

LINESTRING (71.151160 27.384733, 90.818287 82.736333)

LINESTRING (71.151160 27.384733, 31.322384 75.680683)

LINESTRING (71.151160 27.384733, 68.866076 86.772269)

LINESTRING (71.151160 27.384733, 89.449700 55.723320)

LINESTRING (71.151160 27.384733, 48.189227 78.105397)

LINESTRING (31.500369 59.861979, 90.818287 82.736333)

LINESTRING (31.500369 59.861979, 31.322384 75.680683)

LINESTRING (31.500369 59.861979, 68.866076 86.772269)

LINESTRING (31.500369 59.861979, 89.449700 55.723320)

LINESTRING (31.500369 59.861979, 48.189227 78.105397)

LINESTRING (90.818287 82.736333, 31.322384 75.680683)

LINESTRING (90.818287 82.736333, 68.866076 86.772269)

LINESTRING (90.818287 82.736333, 89.449700 55.723320)

LINESTRING (90.818287 82.736333, 48.189227 78.105397)

LINESTRING (31.322384 75.680683, 89.449700 55.723320)

LINESTRING (31.322384 75.680683, 48.189227 78.105397)

LINESTRING (31.322384 75.680683, 61.919035 80.033202)

LINESTRING (68.866076 86.772269, 89.449700 55.723320)

LINESTRING (68.866076 86.772269, 48.189227 78.105397)

LINESTRING (68.866076 86.772269, 61.919035 80.033202)

LINESTRING (89.449700 55.723320, 48.189227 78.105397)

LINESTRING (89.449700 55.723320, 61.919035 80.033202)

LINESTRING (48.189227 78.105397, 61.919035 80.033202)

LINESTRING (360.000000 60.000000, 383.197042 91.277093)

LINESTRING (360.000000 60.000000, 347.462746 72.143686)

LINESTRING (360.000000 60.000000, 376.625039 57.167780)

LINESTRING (360.000000 60.000000, 338.590380 92.883836)

LINESTRING (360.000000 60.000000, 333.354686 75.548863)

LINESTRING (360.000000 60.000000, 375.275023 59.301548)

LINESTRING (360.000000 60.000000, 344.383076 54.380658)

LINESTRING (360.000000 60.000000, 374.265648 46.633405)

LINESTRING (360.000000 60.000000, 352.815099 73.677272)

LINESTRING (360.000000 60.000000, 377.880178 89.105465)

LINESTRING (360.000000 60.000000, 341.531864 92.813500)

LINESTRING (360.000000 60.000000, 380.003858 67.775470)

LINESTRING (383.197042 91.277093, 347.462746 72.143686)

LINESTRING (383.197042 91.277093, 376.625039 57.167780)

LINESTRING (383.197042 91.277093, 338.590380 92.883836)

LINESTRING (383.197042 91.277093, 333.354686 75.548863)

LINESTRING (383.197042 91.277093, 375.275023 59.301548)

LINESTRING (383.197042 91.277093, 344.383076 54.380658)

LINESTRING (383.197042 91.277093, 374.265648 46.633405)

LINESTRING (383.197042 91.277093, 352.815099 73.677272)

LINESTRING (383.197042 91.277093, 377.880178 89.105465)

LINESTRING (383.197042 91.277093, 341.531864 92.813500)

LINESTRING (383.197042 91.277093, 380.003858 67.775470)

LINESTRING (347.462746 72.143686, 376.625039 57.167780)

LINESTRING (347.462746 72.143686, 338.590380 92.883836)

LINESTRING (347.462746 72.143686, 333.354686 75.548863)

LINESTRING (347.462746 72.143686, 375.275023 59.301548)

LINESTRING (347.462746 72.143686, 344.383076 54.380658)

LINESTRING (347.462746 72.143686, 374.265648 46.633405)

LINESTRING (347.462746 72.143686, 377.880178 89.105465)

LINESTRING (347.462746 72.143686, 341.531864 92.813500)

LINESTRING (347.462746 72.143686, 380.003858 67.775470)

LINESTRING (376.625039 57.167780, 333.354686 75.548863)

LINESTRING (376.625039 57.167780, 375.275023 59.301548)

LINESTRING (376.625039 57.167780, 344.383076 54.380658)

LINESTRING (376.625039 57.167780, 352.815099 73.677272)

LINESTRING (376.625039 57.167780, 377.880178 89.105465)

LINESTRING (376.625039 57.167780, 341.531864 92.813500)

LINESTRING (376.625039 57.167780, 380.003858 67.775470)

LINESTRING (338.590380 92.883836, 333.354686 75.548863)

LINESTRING (338.590380 92.883836, 375.275023 59.301548)

LINESTRING (338.590380 92.883836, 344.383076 54.380658)

LINESTRING (338.590380 92.883836, 374.265648 46.633405)

LINESTRING (338.590380 92.883836, 352.815099 73.677272)

LINESTRING (338.590380 92.883836, 377.880178 89.105465)

LINESTRING (338.590380 92.883836, 380.003858 67.775470)

LINESTRING (333.354686 75.548863, 375.275023 59.301548)

LINESTRING (333.354686 75.548863, 344.383076 54.380658)

LINESTRING (333.354686 75.548863, 374.265648 46.633405)

LINESTRING (333.354686 75.548863, 352.815099 73.677272)

LINESTRING (333.354686 75.548863, 377.880178 89.105465)

LINESTRING (333.354686 75.548863, 380.003858 67.775470)

LINESTRING (375.275023 59.301548, 344.383076 54.380658)

LINESTRING (375.275023 59.301548, 374.265648 46.633405)

LINESTRING (375.275023 59.301548, 352.815099 73.677272)

LINESTRING (375.275023 59.301548, 377.880178 89.105465)

LINESTRING (375.275023 59.301548, 341.531864 92.813500)

LINESTRING (375.275023 59.301548, 380.003858 67.775470)

LINESTRING (344.383076 54.380658, 374.265648 46.633405)

LINESTRING (344.383076 54.380658, 352.815099 73.677272)

LINESTRING (344.383076 54.380658, 377.880178 89.105465)

LINESTRING (344.383076 54.380658, 341.531864 92.813500)

LINESTRING (344.383076 54.380658, 380.003858 67.775470)

LINESTRING (374.265648 46.633405, 352.815099 73.677272)

LINESTRING (374.265648 46.633405, 341.531864 92.813500)

LINESTRING (374.265648 46.633405, 380.003858 67.775470)

LINESTRING (352.815099 73.677272, 377.880178 89.105465)

LINESTRING (352.815099 73.677272, 341.531864 92.813500)

LINESTRING (352.815099 73.677272, 380.003858 67.775470)

LINESTRING (377.880178 89.105465, 341.531864 92.813500)

LINESTRING (377.880178 89.105465, 380.003858 67.775470)

LINESTRING (341.531864 92.813500, 380.003858 67.775470)

LINESTRING (60.000000 360.000000, 44.717881 366.934845)

LINESTRING (60.000000 360.000000, 95.128931 357.819914)

LINESTRING (60.000000 360.000000, 91.736331 342.338331)

LINESTRING (60.000000 360.000000, 64.531303 395.439305)

LINESTRING (60.000000 360.000000, 63.427739 330.860199)

LINESTRING (60.000000 360.000000, 38.349974 344.112479)

LINESTRING (60.000000 360.000000, 85.266003 331.360687)

LINESTRING (60.000000 360.000000, 76.923178 339.571904)

LINESTRING (60.000000 360.000000, 42.079583 389.568673)

LINESTRING (60.000000 360.000000, 39.031498 375.126469)

LINESTRING (60.000000 360.000000, 38.056673 330.403052)

LINESTRING (60.000000 360.000000, 37.574236 351.896767)

LINESTRING (44.717881 366.934845, 91.736331 342.338331)

LINESTRING (44.717881 366.934845, 64.531303 395.439305)

LINESTRING (44.717881 366.934845, 63.427739 330.860199)

LINESTRING (44.717881 366.934845, 38.349974 344.112479)

LINESTRING (44.717881 366.934845, 85.266003 331.360687)

LINESTRING (44.717881 366.934845, 76.923178 339.571904)

LINESTRING (44.717881 366.934845, 42.079583 389.568673)

LINESTRING (44.717881 366.934845, 39.031498 375.126469)

LINESTRING (44.717881 366.934845, 38.056673 330.403052)

LINESTRING (44.717881 366.934845, 37.574236 351.896767)

LINESTRING (95.128931 357.819914, 91.736331 342.338331)

LINESTRING (95.128931 357.819914, 64.531303 395.439305)

LINESTRING (95.128931 357.819914, 63.427739 330.860199)

LINESTRING (95.128931 357.819914, 38.349974 344.112479)

LINESTRING (95.128931 357.819914, 85.266003 331.360687)

LINESTRING (95.128931 357.819914, 76.923178 339.571904)

LINESTRING (95.128931 357.819914, 42.079583 389.568673)

LINESTRING (95.128931 357.819914, 39.031498 375.126469)

LINESTRING (95.128931 357.819914, 38.056673 330.403052)

LINESTRING (95.128931 357.819914, 37.574236 351.896767)

LINESTRING (91.736331 342.338331, 64.531303 395.439305)

LINESTRING (91.736331 342.338331, 63.427739 330.860199)

LINESTRING (91.736331 342.338331, 38.349974 344.112479)

LINESTRING (91.736331 342.338331, 85.266003 331.360687)

LINESTRING (91.736331 342.338331, 76.923178 339.571904)

LINESTRING (91.736331 342.338331, 42.079583 389.568673)

LINESTRING (91.736331 342.338331, 39.031498 375.126469)

LINESTRING (91.736331 342.338331, 38.056673 330.403052)

LINESTRING (91.736331 342.338331, 37.574236 351.896767)

LINESTRING (64.531303 395.439305, 63.427739 330.860199)

LINESTRING (64.531303 395.439305, 85.266003 331.360687)

LINESTRING (64.531303 395.439305, 76.923178 339.571904)

LINESTRING (64.531303 395.439305, 42.079583 389.568673)

LINESTRING (64.531303 395.439305, 39.031498 375.126469)

LINESTRING (64.531303 395.439305, 38.056673 330.403052)

LINESTRING (64.531303 395.439305, 37.574236 351.896767)

LINESTRING (63.427739 330.860199, 38.349974 344.112479)

LINESTRING (63.427739 330.860199, 85.266003 331.360687)

LINESTRING (63.427739 330.860199, 42.079583 389.568673)

LINESTRING (63.427739 330.860199, 39.031498 375.126469)

LINESTRING (63.427739 330.860199, 38.056673 330.403052)

LINESTRING (63.427739 330.860199, 37.574236 351.896767)

LINESTRING (38.349974 344.112479, 85.266003 331.360687)

LINESTRING (38.349974 344.112479, 76.923178 339.571904)

LINESTRING (38.349974 344.112479, 42.079583 389.568673)

LINESTRING (38.349974 344.112479, 39.031498 375.126469)

LINESTRING (38.349974 344.112479, 38.056673 330.403052)

LINESTRING (38.349974 344.112479, 37.574236 351.896767)

LINESTRING (85.266003 331.360687, 76.923178 339.571904)

LINESTRING (85.266003 331.360687, 42.079583 389.568673)

LINESTRING (85.266003 331.360687, 39.031498 375.126469)

LINESTRING (85.266003 331.360687, 38.056673 330.403052)

LINESTRING (85.266003 331.360687, 37.574236 351.896767)

LINESTRING (76.923178 339.571904, 42.079583 389.568673)

LINESTRING (76.923178 339.571904, 39.031498 375.126469)

LINESTRING (76.923178 339.571904, 38.056673 330.403052)

LINESTRING (76.923178 339.571904, 37.574236 351.896767)

LINESTRING (42.079583 389.568673, 39.031498 375.126469)

LINESTRING (42.079583 389.568673, 38.056673 330.403052)

LINESTRING (42.079583 389.568673, 37.574236 351.896767)

LINESTRING (39.031498 375.126469, 37.574236 351.896767)

LINESTRING (360.000000 360.000000, 380.403419 389.153995)

LINESTRING (360.000000 360.000000, 386.370474 344.897928)

LINESTRING (360.000000 360.000000, 329.257733 379.163024)

LINESTRING (360.000000 360.000000, 373.081085 327.472735)

LINESTRING (360.000000 360.000000, 393.563322 358.244125)

LINESTRING (360.000000 360.000000, 372.859815 363.169036)

LINESTRING (360.000000 360.000000, 345.841330 389.963609)

LINESTRING (360.000000 360.000000, 384.353857 338.164021)

LINESTRING (360.000000 360.000000, 369.240529 390.149053)

LINESTRING (360.000000 360.000000, 329.935160 367.626812)

LINESTRING (360.000000 360.000000, 361.300189 393.915259)

LINESTRING (360.000000 360.000000, 369.019247 340.002835)

LINESTRING (380.403419 389.153995, 386.370474 344.897928)

LINESTRING (380.403419 389.153995, 329.257733 379.163024)

LINESTRING (380.403419 389.153995, 373.081085 327.472735)

LINESTRING (380.403419 389.153995, 393.563322 358.244125)

LINESTRING (380.403419 389.153995, 372.859815 363.169036)

LINESTRING (380.403419 389.153995, 345.841330 389.963609)

LINESTRING (380.403419 389.153995, 384.353857 338.164021)

LINESTRING (380.403419 389.153995, 369.240529 390.149053)

LINESTRING (380.403419 389.153995, 329.935160 367.626812)

LINESTRING (380.403419 389.153995, 361.300189 393.915259)

LINESTRING (380.403419 389.153995, 369.019247 340.002835)

LINESTRING (386.370474 344.897928, 329.257733 379.163024)

LINESTRING (386.370474 344.897928, 373.081085 327.472735)

LINESTRING (386.370474 344.897928, 393.563322 358.244125)

LINESTRING (386.370474 344.897928, 372.859815 363.169036)

LINESTRING (386.370474 344.897928, 345.841330 389.963609)

LINESTRING (386.370474 344.897928, 384.353857 338.164021)

LINESTRING (386.370474 344.897928, 369.240529 390.149053)

LINESTRING (386.370474 344.897928, 361.300189 393.915259)

LINESTRING (386.370474 344.897928, 369.019247 340.002835)

LINESTRING (329.257733 379.163024, 373.081085 327.472735)

LINESTRING (329.257733 379.163024, 393.563322 358.244125)

LINESTRING (329.257733 379.163024, 372.859815 363.169036)

LINESTRING (329.257733 379.163024, 345.841330 389.963609)

LINESTRING (329.257733 379.163024, 384.353857 338.164021)

LINESTRING (329.257733 379.163024, 369.240529 390.149053)

LINESTRING (329.257733 379.163024, 329.935160 367.626812)

LINESTRING (329.257733 379.163024, 361.300189 393.915259)

LINESTRING (329.257733 379.163024, 369.019247 340.002835)

LINESTRING (373.081085 327.472735, 393.563322 358.244125)

LINESTRING (373.081085 327.472735, 372.859815 363.169036)

LINESTRING (373.081085 327.472735, 345.841330 389.963609)

LINESTRING (373.081085 327.472735, 384.353857 338.164021)

LINESTRING (373.081085 327.472735, 369.240529 390.149053)

LINESTRING (373.081085 327.472735, 329.935160 367.626812)

LINESTRING (373.081085 327.472735, 361.300189 393.915259)

LINESTRING (373.081085 327.472735, 369.019247 340.002835)

LINESTRING (393.563322 358.244125, 372.859815 363.169036)

LINESTRING (393.563322 358.244125, 345.841330 389.963609)

LINESTRING (393.563322 358.244125, 384.353857 338.164021)

LINESTRING (393.563322 358.244125, 369.240529 390.149053)

LINESTRING (393.563322 358.244125, 329.935160 367.626812)

LINESTRING (393.563322 358.244125, 361.300189 393.915259)

LINESTRING (393.563322 358.244125, 369.019247 340.002835)

LINESTRING (372.859815 363.169036, 345.841330 389.963609)

LINESTRING (372.859815 363.169036, 384.353857 338.164021)

LINESTRING (372.859815 363.169036, 369.240529 390.149053)

LINESTRING (372.859815 363.169036, 329.935160 367.626812)

LINESTRING (372.859815 363.169036, 361.300189 393.915259)

LINESTRING (372.859815 363.169036, 369.019247 340.002835)

LINESTRING (345.841330 389.963609, 384.353857 338.164021)

LINESTRING (345.841330 389.963609, 369.240529 390.149053)

LINESTRING (345.841330 389.963609, 329.935160 367.626812)

LINESTRING (345.841330 389.963609, 361.300189 393.915259)

LINESTRING (345.841330 389.963609, 369.019247 340.002835)

LINESTRING (384.353857 338.164021, 369.240529 390.149053)

LINESTRING (384.353857 338.164021, 329.935160 367.626812)

LINESTRING (384.353857 338.164021, 361.300189 393.915259)

LINESTRING (384.353857 338.164021, 369.019247 340.002835)

LINESTRING (369.240529 390.149053, 329.935160 367.626812)

LINESTRING (369.240529 390.149053, 361.300189 393.915259)

LINESTRING (369.240529 390.149053, 369.019247 340.002835)

LINESTRING (329.935160 367.626812, 369.019247 340.002835)

LINESTRING (361.300189 393.915259, 369.019247 340.002835)

LINESTRING (37.988609 88.123326, 374.265648 46.633405)

LINESTRING (89.449700 55.723320, 377.880178 89.105465)

LINESTRING (60.000000 60.000000, 360.000000 60.000000)

LINESTRING (347.462746 72.143686, 38.056673 330.403052)

LINESTRING (333.354686 75.548863, 85.266003 331.360687)

LINESTRING (360.000000 60.000000, 60.000000 360.000000)

LINESTRING (91.736331 342.338331, 345.841330 389.963609)

LINESTRING (42.079583 389.568673, 369.240529 390.149053)

LINESTRING (60.000000 360.000000, 360.000000 360.000000)

