LINESTRING (554.573063 419.952368, 544.665591 447.898120)

LINESTRING (544.665591 447.898120, 494.609207 524.759813)

LINESTRING (494.609207 524.759813, 476.701561 523.269224)

LINESTRING (476.701561 523.269224, 385.043252 533.015182)

LINESTRING (385.043252 533.015182, 357.459808 553.910055)

LINESTRING (357.459808 553.910055, 287.011729 511.570488)

LINESTRING (287.011729 511.570488, 275.618842 448.602600)

LINESTRING (275.618842 448.602600, 250.361976 413.624580)

LINESTRING (250.361976 413.624580, 279.989071 340.963963)

LINESTRING (279.989071 340.963963, 305.340631 295.490213)

LINESTRING (305.340631 295.490213, 347.421499 242.924928)

LINESTRING (347.421499 242.924928, 394.827960 268.768327)

LINESTRING (394.827960 268.768327, 472.397496 250.051171)

LINESTRING (472.397496 250.051171, 510.681826 301.743045)

LINESTRING (510.681826 301.743045, 545.046425 328.446016)

LINESTRING (545.046425 328.446016, 554.573063 419.952368)

LINESTRING (706.434419 395.848872, 659.361129 527.547718)

LINESTRING (659.361129 527.547718, 608.960760 620.781170)

LINESTRING (608.960760 620.781170, 527.630981 684.897622)

LINESTRING (527.630981 684.897622, 399.230941 712.732475)

LINESTRING (399.230941 712.732475, 288.796607 677.445167)

LINESTRING (288.796607 677.445167, 199.812988 612.749717)

LINESTRING (199.812988 612.749717, 131.686504 500.949369)

LINESTRING (131.686504 500.949369, 84.634168 393.966593)

LINESTRING (84.634168 393.966593, 134.165793 304.259197)

LINESTRING (134.165793 304.259197, 206.206182 187.736340)

LINESTRING (206.206182 187.736340, 265.530104 113.508883)

LINESTRING (265.530104 113.508883, 393.214097 112.061110)

LINESTRING (393.214097 112.061110, 531.322109 130.117961)

LINESTRING (531.322109 130.117961, 592.767484 198.498220)

LINESTRING (592.767484 198.498220, 676.407506 277.370645)

LINESTRING (676.407506 277.370645, 706.434419 395.848872)

LINESTRING (830.253710 412.116981, 822.130310 588.279793)

LINESTRING (822.130310 588.279793, 707.103623 702.351909)

LINESTRING (707.103623 702.351909, 582.920533 827.303730)

LINESTRING (582.920533 827.303730, 384.145902 843.384045)

LINESTRING (384.145902 843.384045, 218.753425 821.864077)

LINESTRING (218.753425 821.864077, 80.405403 732.745141)

LINESTRING (80.405403 732.745141, -30.744425 553.203316)

LINESTRING (-30.744425 553.203316, -42.376418 402.289298)

LINESTRING (-42.376418 402.289298, -31.911120 241.476269)

LINESTRING (-31.911120 241.476269, 76.176416 72.226925)

LINESTRING (76.176416 72.226925, 230.311328 -2.826338)

LINESTRING (230.311328 -2.826338, 408.176266 -32.396349)

LINESTRING (408.176266 -32.396349, 579.615200 -31.049426)

LINESTRING (579.615200 -31.049426, 718.819532 94.417626)

LINESTRING (718.819532 94.417626, 799.866133 208.670143)

LINESTRING (799.866133 208.670143, 830.253710 412.116981)

LINESTRING (1002.597182 389.693729, 973.309882 647.791915)

LINESTRING (973.309882 647.791915, 841.713397 843.849803)

LINESTRING (841.713397 843.849803, 630.914885 973.580109)

LINESTRING (630.914885 973.580109, 413.630129 1008.769212)

LINESTRING (413.630129 1008.769212, 170.229849 949.669573)

LINESTRING (170.229849 949.669573, -26.124613 842.675840)

LINESTRING (-26.124613 842.675840, -149.912980 634.031562)

LINESTRING (-149.912980 634.031562, -219.066426 415.405908)

LINESTRING (-219.066426 415.405908, -173.815166 159.289349)

LINESTRING (-173.815166 159.289349, -35.972900 -5.677605)

LINESTRING (-35.972900 -5.677605, 168.702658 -135.015018)

LINESTRING (168.702658 -135.015018, 407.963840 -187.546597)

LINESTRING (407.963840 -187.546597, 611.668137 -155.458071)

LINESTRING (611.668137 -155.458071, 807.189834 -28.537958)

LINESTRING (807.189834 -28.537958, 947.136826 156.329525)

LINESTRING (947.136826 156.329525, 1002.597182 389.693729)

LINESTRING (1138.726908 391.620258, 1082.397721 706.682745)

LINESTRING (1082.397721 706.682745, 932.168201 946.864724)

LINESTRING (932.168201 946.864724, 705.318947 1083.895349)

LINESTRING (705.318947 1083.895349, 408.335009 1133.584316)

LINESTRING (408.335009 1133.584316, 116.864466 1101.612245)

LINESTRING (116.864466 1101.612245, -145.605015 944.448130)

LINESTRING (-145.605015 944.448130, -273.871785 706.752314)

LINESTRING (-273.871785 706.752314, -347.423235 410.052907)

LINESTRING (-347.423235 410.052907, -282.681337 111.745536)

LINESTRING (-282.681337 111.745536, -116.967159 -118.721387)

LINESTRING (-116.967159 -118.721387, 116.756869 -303.665584)

LINESTRING (116.756869 -303.665584, 412.596942 -347.675774)

LINESTRING (412.596942 -347.675774, 692.752435 -285.757037)

LINESTRING (692.752435 -285.757037, 936.848170 -114.070934)

LINESTRING (936.848170 -114.070934, 1074.939960 119.837894)

LINESTRING (1074.939960 119.837894, 1138.726908 391.620258)

LINESTRING (1311.522452 418.270016, 1229.992824 762.646260)

LINESTRING (1229.992824 762.646260, 1016.438445 1040.280549)

LINESTRING (1016.438445 1040.280549, 751.807415 1221.558930)

LINESTRING (751.807415 1221.558930, 418.636629 1309.919470)

LINESTRING (418.636629 1309.919470, 52.234146 1214.819869)

LINESTRING (52.234146 1214.819869, -222.682671 1025.860504)

LINESTRING (-222.682671 1025.860504, -451.043906 737.531617)

LINESTRING (-451.043906 737.531617, -486.600124 387.579775)

LINESTRING (-486.600124 387.579775, -450.063401 64.794276)

LINESTRING (-450.063401 64.794276, -233.805192 -253.004609)

LINESTRING (-233.805192 -253.004609, 39.553710 -449.719166)

LINESTRING (39.553710 -449.719166, 418.180919 -512.531937)

LINESTRING (418.180919 -512.531937, 754.330316 -434.062732)

LINESTRING (754.330316 -434.062732, 1048.213075 -236.355647)

LINESTRING (1048.213075 -236.355647, 1223.709980 74.461252)

LINESTRING (1223.709980 74.461252, 1311.522452 418.270016)

LINESTRING (1465.879504 412.608561, 1373.120886 787.208527)

LINESTRING (1373.120886 787.208527, 1150.002562 1141.439796)

LINESTRING (1150.002562 1141.439796, 790.575761 1386.815446)

LINESTRING (790.575761 1386.815446, 390.331619 1436.133347)

LINESTRING (390.331619 1436.133347, -18.543992 1383.651510)

LINESTRING (-18.543992 1383.651510, -352.509583 1159.304322)

LINESTRING (-352.509583 1159.304322, -565.618749 818.101395)

LINESTRING (-565.618749 818.101395, -655.611724 409.188608)

LINESTRING (-655.611724 409.188608, -567.394912 -9.366746)

LINESTRING (-567.394912 -9.366746, -326.139613 -353.208657)

LINESTRING (-326.139613 -353.208657, 15.227614 -584.365992)

LINESTRING (15.227614 -584.365992, 394.228618 -652.108873)

LINESTRING (394.228618 -652.108873, 819.026304 -556.736404)

LINESTRING (819.026304 -556.736404, 1146.838764 -350.419712)

LINESTRING (1146.838764 -350.419712, 1386.372820 -9.178216)

LINESTRING (1386.372820 -9.178216, 1465.879504 412.608561)

LINESTRING (1587.108209 414.965689, 1506.381527 863.933985)

LINESTRING (1506.381527 863.933985, 1243.127548 1243.605157)

LINESTRING (1243.127548 1243.605157, 868.818255 1505.493054)

LINESTRING (868.818255 1505.493054, 388.842098 1594.635771)

LINESTRING (388.842098 1594.635771, -74.018451 1513.733586)

LINESTRING (-74.018451 1513.733586, -440.001576 1246.175150)

LINESTRING (-440.001576 1246.175150, -694.198048 863.380863)

LINESTRING (-694.198048 863.380863, -785.895074 393.272635)

LINESTRING (-785.895074 393.272635, -693.634328 -75.883588)

LINESTRING (-693.634328 -75.883588, -452.268970 -455.127608)

LINESTRING (-452.268970 -455.127608, -74.042908 -722.816988)

LINESTRING (-74.042908 -722.816988, 384.696686 -806.911565)

LINESTRING (384.696686 -806.911565, 855.172793 -728.196838)

LINESTRING (855.172793 -728.196838, 1265.095048 -445.789950)

LINESTRING (1265.095048 -445.789950, 1519.841966 -39.942553)

LINESTRING (1519.841966 -39.942553, 1587.108209 414.965689)

LINESTRING (554.573063 419.952368, 706.434419 395.848872)

LINESTRING (706.434419 395.848872, 830.253710 412.116981)

LINESTRING (830.253710 412.116981, 1002.597182 389.693729)

LINESTRING (1002.597182 389.693729, 1138.726908 391.620258)

LINESTRING (1138.726908 391.620258, 1311.522452 418.270016)

LINESTRING (1311.522452 418.270016, 1465.879504 412.608561)

LINESTRING (1465.879504 412.608561, 1587.108209 414.965689)

LINESTRING (544.665591 447.898120, 659.361129 527.547718)

LINESTRING (659.361129 527.547718, 822.130310 588.279793)

LINESTRING (822.130310 588.279793, 973.309882 647.791915)

LINESTRING (973.309882 647.791915, 1082.397721 706.682745)

LINESTRING (1082.397721 706.682745, 1229.992824 762.646260)

LINESTRING (1229.992824 762.646260, 1373.120886 787.208527)

LINESTRING (1373.120886 787.208527, 1506.381527 863.933985)

LINESTRING (494.609207 524.759813, 608.960760 620.781170)

LINESTRING (608.960760 620.781170, 707.103623 702.351909)

LINESTRING (707.103623 702.351909, 841.713397 843.849803)

LINESTRING (841.713397 843.849803, 932.168201 946.864724)

LINESTRING (932.168201 946.864724, 1016.438445 1040.280549)

LINESTRING (1016.438445 1040.280549, 1150.002562 1141.439796)

LINESTRING (1150.002562 1141.439796, 1243.127548 1243.605157)

LINESTRING (476.701561 523.269224, 527.630981 684.897622)

LINESTRING (527.630981 684.897622, 582.920533 827.303730)

LINESTRING (582.920533 827.303730, 630.914885 973.580109)

LINESTRING (630.914885 973.580109, 705.318947 1083.895349)

LINESTRING (705.318947 1083.895349, 751.807415 1221.558930)

LINESTRING (751.807415 1221.558930, 790.575761 1386.815446)

LINESTRING (790.575761 1386.815446, 868.818255 1505.493054)

LINESTRING (385.043252 533.015182, 399.230941 712.732475)

LINESTRING (399.230941 712.732475, 384.145902 843.384045)

LINESTRING (384.145902 843.384045, 413.630129 1008.769212)

LINESTRING (413.630129 1008.769212, 408.335009 1133.584316)

LINESTRING (408.335009 1133.584316, 418.636629 1309.919470)

LINESTRING (418.636629 1309.919470, 390.331619 1436.133347)

LINESTRING (390.331619 1436.133347, 388.842098 1594.635771)

LINESTRING (357.459808 553.910055, 288.796607 677.445167)

LINESTRING (288.796607 677.445167, 218.753425 821.864077)

LINESTRING (218.753425 821.864077, 170.229849 949.669573)

LINESTRING (170.229849 949.669573, 116.864466 1101.612245)

LINESTRING (116.864466 1101.612245, 52.234146 1214.819869)

LINESTRING (52.234146 1214.819869, -18.543992 1383.651510)

LINESTRING (-18.543992 1383.651510, -74.018451 1513.733586)

LINESTRING (287.011729 511.570488, 199.812988 612.749717)

LINESTRING (199.812988 612.749717, 80.405403 732.745141)

LINESTRING (80.405403 732.745141, -26.124613 842.675840)

LINESTRING (-26.124613 842.675840, -145.605015 944.448130)

LINESTRING (-145.605015 944.448130, -222.682671 1025.860504)

LINESTRING (-222.682671 1025.860504, -352.509583 1159.304322)

LINESTRING (-352.509583 1159.304322, -440.001576 1246.175150)

LINESTRING (275.618842 448.602600, 131.686504 500.949369)

LINESTRING (131.686504 500.949369, -30.744425 553.203316)

LINESTRING (-30.744425 553.203316, -149.912980 634.031562)

LINESTRING (-149.912980 634.031562, -273.871785 706.752314)

LINESTRING (-273.871785 706.752314, -451.043906 737.531617)

LINESTRING (-451.043906 737.531617, -565.618749 818.101395)

LINESTRING (-565.618749 818.101395, -694.198048 863.380863)

LINESTRING (250.361976 413.624580, 84.634168 393.966593)

LINESTRING (84.634168 393.966593, -42.376418 402.289298)

LINESTRING (-42.376418 402.289298, -219.066426 415.405908)

LINESTRING (-219.066426 415.405908, -347.423235 410.052907)

LINESTRING (-347.423235 410.052907, -486.600124 387.579775)

LINESTRING (-486.600124 387.579775, -655.611724 409.188608)

LINESTRING (-655.611724 409.188608, -785.895074 393.272635)

LINESTRING (279.989071 340.963963, 134.165793 304.259197)

LINESTRING (134.165793 304.259197, -31.911120 241.476269)

LINESTRING (-31.911120 241.476269, -173.815166 159.289349)

LINESTRING (-173.815166 159.289349, -282.681337 111.745536)

LINESTRING (-282.681337 111.745536, -450.063401 64.794276)

LINESTRING (-450.063401 64.794276, -567.394912 -9.366746)

LINESTRING (-567.394912 -9.366746, -693.634328 -75.883588)

LINESTRING (305.340631 295.490213, 206.206182 187.736340)

LINESTRING (206.206182 187.736340, 76.176416 72.226925)

LINESTRING (76.176416 72.226925, -35.972900 -5.677605)

LINESTRING (-35.972900 -5.677605, -116.967159 -118.721387)

LINESTRING (-116.967159 -118.721387, -233.805192 -253.004609)

LINESTRING (-233.805192 -253.004609, -326.139613 -353.208657)

LINESTRING (-326.139613 -353.208657, -452.268970 -455.127608)

LINESTRING (347.421499 242.924928, 265.530104 113.508883)

LINESTRING (265.530104 113.508883, 230.311328 -2.826338)

LINESTRING (230.311328 -2.826338, 168.702658 -135.015018)

LINESTRING (168.702658 -135.015018, 116.756869 -303.665584)

LINESTRING (116.756869 -303.665584, 39.553710 -449.719166)

LINESTRING (39.553710 -449.719166, 15.227614 -584.365992)

LINESTRING (15.227614 -584.365992, -74.042908 -722.816988)

LINESTRING (394.827960 268.768327, 393.214097 112.061110)

LINESTRING (393.214097 112.061110, 408.176266 -32.396349)

LINESTRING (408.176266 -32.396349, 407.963840 -187.546597)

LINESTRING (407.963840 -187.546597, 412.596942 -347.675774)

LINESTRING (412.596942 -347.675774, 418.180919 -512.531937)

LINESTRING (418.180919 -512.531937, 394.228618 -652.108873)

LINESTRING (394.228618 -652.108873, 384.696686 -806.911565)

LINESTRING (472.397496 250.051171, 531.322109 130.117961)

LINESTRING (531.322109 130.117961, 579.615200 -31.049426)

LINESTRING (579.615200 -31.049426, 611.668137 -155.458071)

LINESTRING (611.668137 -155.458071, 692.752435 -285.757037)

LINESTRING (692.752435 -285.757037, 754.330316 -434.062732)

LINESTRING (754.330316 -434.062732, 819.026304 -556.736404)

LINESTRING (819.026304 -556.736404, 855.172793 -728.196838)

LINESTRING (510.681826 301.743045, 592.767484 198.498220)

LINESTRING (592.767484 198.498220, 718.819532 94.417626)

LINESTRING (718.819532 94.417626, 807.189834 -28.537958)

LINESTRING (807.189834 -28.537958, 936.848170 -114.070934)

LINESTRING (936.848170 -114.070934, 1048.213075 -236.355647)

LINESTRING (1048.213075 -236.355647, 1146.838764 -350.419712)

LINESTRING (1146.838764 -350.419712, 1265.095048 -445.789950)

LINESTRING (545.046425 328.446016, 676.407506 277.370645)

LINESTRING (676.407506 277.370645, 799.866133 208.670143)

LINESTRING (799.866133 208.670143, 947.136826 156.329525)

LINESTRING (947.136826 156.329525, 1074.939960 119.837894)

LINESTRING (1074.939960 119.837894, 1223.709980 74.461252)

LINESTRING (1223.709980 74.461252, 1386.372820 -9.178216)

LINESTRING (1386.372820 -9.178216, 1519.841966 -39.942553)

LINESTRING (400.000000 400.000000, 554.573063 419.952368)

