LINESTRING (60.000000 60.000000, 140.000000 60.000000)

LINESTRING (60.000000 60.000000, 220.000000 60.000000)

LINESTRING (60.000000 60.000000, 300.000000 60.000000)

LINESTRING (60.000000 60.000000, 60.000000 140.000000)

LINESTRING (60.000000 60.000000, 140.000000 140.000000)

LINESTRING (60.000000 60.000000, 220.000000 140.000000)

LINESTRING (60.000000 60.000000, 300.000000 140.000000)

LINESTRING (60.000000 60.000000, 60.000000 220.000000)

LINESTRING (60.000000 60.000000, 140.000000 220.000000)

LINESTRING (60.000000 60.000000, 300.000000 220.000000)

LINESTRING (60.000000 60.000000, 140.000000 300.000000)

LINESTRING (140.000000 60.000000, 220.000000 60.000000)

LINESTRING (140.000000 60.000000, 60.000000 140.000000)

LINESTRING (140.000000 60.000000, 220.000000 140.000000)

LINESTRING (140.000000 60.000000, 300.000000 140.000000)

LINESTRING (140.000000 60.000000, 220.000000 220.000000)

LINESTRING (140.000000 60.000000, 60.000000 300.000000)

LINESTRING (140.000000 60.000000, 140.000000 300.000000)

LINESTRING (140.000000 60.000000, 220.000000 300.000000)

LINESTRING (220.000000 60.000000, 300.000000 60.000000)

LINESTRING (220.000000 60.000000, 60.000000 140.000000)

LINESTRING (220.000000 60.000000, 220.000000 140.000000)

LINESTRING (220.000000 60.000000, 300.000000 140.000000)

LINESTRING (220.000000 60.000000, 220.000000 220.000000)

LINESTRING (220.000000 60.000000, 300.000000 220.000000)

LINESTRING (220.000000 60.000000, 60.000000 300.000000)

LINESTRING (300.000000 60.000000, 60.000000 140.000000)

LINESTRING (300.000000 60.000000, 140.000000 140.000000)

LINESTRING (300.000000 60.000000, 300.000000 140.000000)

LINESTRING (300.000000 60.000000, 60.000000 220.000000)

LINESTRING (300.000000 60.000000, 140.000000 220.000000)

LINESTRING (300.000000 60.000000, 220.000000 220.000000)

LINESTRING (300.000000 60.000000, 300.000000 220.000000)

LINESTRING (300.000000 60.000000, 60.000000 300.000000)

LINESTRING (300.000000 60.000000, 140.000000 300.000000)

LINESTRING (300.000000 60.000000, 220.000000 300.000000)

LINESTRING (60.000000 140.000000, 140.000000 140.000000)

LINESTRING (60.000000 140.000000, 220.000000 140.000000)

LINESTRING (60.000000 140.000000, 300.000000 140.000000)

LINESTRING (60.000000 140.000000, 140.000000 300.000000)

LINESTRING (140.000000 140.000000, 220.000000 140.000000)

LINESTRING (140.000000 140.000000, 300.000000 140.000000)

LINESTRING (140.000000 140.000000, 60.000000 220.000000)

LINESTRING (140.000000 140.000000, 140.000000 220.000000)

LINESTRING (140.000000 140.000000, 60.000000 300.000000)

LINESTRING (140.000000 140.000000, 220.000000 300.000000)

LINESTRING (220.000000 140.000000, 300.000000 140.000000)

LINESTRING (220.000000 140.000000, 60.000000 220.000000)

LINESTRING (220.000000 140.000000, 220.000000 220.000000)

LINESTRING (220.000000 140.000000, 300.000000 220.000000)

LINESTRING (220.000000 140.000000, 140.000000 300.000000)

LINESTRING (220.000000 140.000000, 220.000000 300.000000)

LINESTRING (300.000000 140.000000, 140.000000 220.000000)

LINESTRING (300.000000 140.000000, 220.000000 220.000000)

LINESTRING (300.000000 140.000000, 300.000000 220.000000)

LINESTRING (300.000000 140.000000, 60.000000 300.000000)

LINESTRING (300.000000 140.000000, 140.000000 300.000000)

LINESTRING (300.000000 140.000000, 220.000000 300.000000)

LINESTRING (60.000000 220.000000, 140.000000 220.000000)

LINESTRING (60.000000 220.000000, 220.000000 220.000000)

LINESTRING (60.000000 220.000000, 300.000000 220.000000)

LINESTRING (60.000000 220.000000, 60.000000 300.000000)

LINESTRING (60.000000 220.000000, 140.000000 300.000000)

LINESTRING (60.000000 220.000000, 220.000000 300.000000)

LINESTRING (140.000000 220.000000, 220.000000 220.000000)

LINESTRING (140.000000 220.000000, 60.000000 300.000000)

LINESTRING (140.000000 220.000000, 140.000000 300.000000)

LINESTRING (220.000000 220.000000, 300.000000 220.000000)

LINESTRING (220.000000 220.000000, 60.000000 300.000000)

LINESTRING (220.000000 220.000000, 140.000000 300.000000)

LINESTRING (300.000000 220.000000, 60.000000 300.000000)

LINESTRING (300.000000 220.000000, 220.000000 300.000000)

LINESTRING (60.000000 300.000000, 140.000000 300.000000)

LINESTRING (280.000000 180.000000, 250.710678 250.710678)

LINESTRING (280.000000 180.000000, 60.000000 60.000000)

LINESTRING (250.710678 250.710678, 180.000000 280.000000)

LINESTRING (250.710678 250.710678, 140.000000 60.000000)

LINESTRING (180.000000 280.000000, 109.289322 250.710678)

LINESTRING (180.000000 280.000000, 220.000000 60.000000)

LINESTRING (109.289322 250.710678, 80.000000 180.000000)

LINESTRING (109.289322 250.710678, 300.000000 60.000000)

LINESTRING (80.000000 180.000000, 109.289322 109.289322)

LINESTRING (80.000000 180.000000, 60.000000 140.000000)

LINESTRING (109.289322 109.289322, 180.000000 80.000000)

LINESTRING (109.289322 109.289322, 140.000000 140.000000)

LINESTRING (180.000000 80.000000, 250.710678 109.289322)

LINESTRING (180.000000 80.000000, 220.000000 140.000000)

LINESTRING (250.710678 109.289322, 280.000000 180.000000)

LINESTRING (250.710678 109.289322, 300.000000 140.000000)

