LINESTRING (50.000000 350.000000, 764.285714 350.000000)

LINESTRING (764.285714 350.000000, 1478.571429 350.000000)

LINESTRING (1478.571429 350.000000, 2192.857143 350.000000)

LINESTRING (2192.857143 350.000000, 2907.142857 350.000000)

LINESTRING (2907.142857 350.000000, 3621.428571 350.000000)

LINESTRING (3621.428571 350.000000, 4335.714286 350.000000)

LINESTRING (4335.714286 350.000000, 5050.000000 350.000000)

LINESTRING (50.000000 650.000000, 764.285714 650.000000)

LINESTRING (764.285714 650.000000, 1478.571429 650.000000)

LINESTRING (1478.571429 650.000000, 2192.857143 650.000000)

LINESTRING (2192.857143 650.000000, 2907.142857 650.000000)

LINESTRING (2907.142857 650.000000, 3621.428571 650.000000)

LINESTRING (3621.428571 650.000000, 4335.714286 650.000000)

LINESTRING (4335.714286 650.000000, 5050.000000 650.000000)

LINESTRING (50.000000 350.000000, 50.000000 650.000000)

LINESTRING (764.285714 350.000000, 764.285714 650.000000)

LINESTRING (1478.571429 350.000000, 1478.571429 650.000000)

LINESTRING (2192.857143 350.000000, 2192.857143 650.000000)

LINESTRING (2907.142857 350.000000, 2907.142857 650.000000)

LINESTRING (3621.428571 350.000000, 3621.428571 650.000000)

LINESTRING (4335.714286 350.000000, 4335.714286 650.000000)

LINESTRING (5050.000000 350.000000, 5050.000000 650.000000)

LINESTRING (764.285714 350.000000, 764.285714 -130.000000)

LINESTRING (1478.571429 350.000000, 1478.571429 -130.000000)

LINESTRING (2192.857143 350.000000, 2192.857143 830.000000)

LINESTRING (2907.142857 350.000000, 2907.142857 830.000000)

LINESTRING (4335.714286 350.000000, 4335.714286 830.000000)

