LINESTRING (60.000000 60.000000, 68.032262 53.964327)

LINESTRING (60.000000 60.000000, 36.153183 59.453487)

LINESTRING (60.000000 60.000000, 59.307675 70.987522)

LINESTRING (60.000000 60.000000, 67.005217 37.326630)

LINESTRING (60.000000 60.000000, 56.676801 65.492347)

LINESTRING (60.000000 60.000000, 40.257474 37.623598)

LINESTRING (60.000000 60.000000, 52.271310 39.103375)

LINESTRING (60.000000 60.000000, 37.221425 42.906896)

LINESTRING (68.032262 53.964327, 36.153183 59.453487)

LINESTRING (68.032262 53.964327, 59.307675 70.987522)

LINESTRING (68.032262 53.964327, 67.005217 37.326630)

LINESTRING (68.032262 53.964327, 56.676801 65.492347)

LINESTRING (68.032262 53.964327, 52.271310 39.103375)

LINESTRING (68.032262 53.964327, 37.221425 42.906896)

LINESTRING (36.153183 59.453487, 59.307675 70.987522)

LINESTRING (36.153183 59.453487, 67.005217 37.326630)

LINESTRING (36.153183 59.453487, 56.676801 65.492347)

LINESTRING (59.307675 70.987522, 67.005217 37.326630)

LINESTRING (59.307675 70.987522, 56.676801 65.492347)

LINESTRING (59.307675 70.987522, 37.221425 42.906896)

LINESTRING (67.005217 37.326630, 40.257474 37.623598)

LINESTRING (67.005217 37.326630, 52.271310 39.103375)

LINESTRING (56.676801 65.492347, 40.257474 37.623598)

LINESTRING (56.676801 65.492347, 52.271310 39.103375)

LINESTRING (56.676801 65.492347, 37.221425 42.906896)

LINESTRING (40.257474 37.623598, 52.271310 39.103375)

LINESTRING (40.257474 37.623598, 37.221425 42.906896)

LINESTRING (260.000000 60.000000, 283.545595 47.990101)

LINESTRING (260.000000 60.000000, 246.513616 64.305263)

LINESTRING (260.000000 60.000000, 270.252811 42.692551)

LINESTRING (260.000000 60.000000, 249.282602 47.032473)

LINESTRING (260.000000 60.000000, 275.654728 73.300938)

LINESTRING (260.000000 60.000000, 260.942510 36.034903)

LINESTRING (260.000000 60.000000, 268.614518 71.362207)

LINESTRING (260.000000 60.000000, 268.228444 49.059917)

LINESTRING (283.545595 47.990101, 246.513616 64.305263)

LINESTRING (283.545595 47.990101, 249.282602 47.032473)

LINESTRING (283.545595 47.990101, 275.654728 73.300938)

LINESTRING (283.545595 47.990101, 260.942510 36.034903)

LINESTRING (283.545595 47.990101, 268.614518 71.362207)

LINESTRING (283.545595 47.990101, 268.228444 49.059917)

LINESTRING (246.513616 64.305263, 270.252811 42.692551)

LINESTRING (246.513616 64.305263, 249.282602 47.032473)

LINESTRING (246.513616 64.305263, 275.654728 73.300938)

LINESTRING (246.513616 64.305263, 260.942510 36.034903)

LINESTRING (246.513616 64.305263, 268.614518 71.362207)

LINESTRING (246.513616 64.305263, 268.228444 49.059917)

LINESTRING (270.252811 42.692551, 249.282602 47.032473)

LINESTRING (270.252811 42.692551, 275.654728 73.300938)

LINESTRING (270.252811 42.692551, 260.942510 36.034903)

LINESTRING (270.252811 42.692551, 268.614518 71.362207)

LINESTRING (270.252811 42.692551, 268.228444 49.059917)

LINESTRING (249.282602 47.032473, 275.654728 73.300938)

LINESTRING (249.282602 47.032473, 268.228444 49.059917)

LINESTRING (275.654728 73.300938, 260.942510 36.034903)

LINESTRING (275.654728 73.300938, 268.228444 49.059917)

LINESTRING (260.942510 36.034903, 268.614518 71.362207)

LINESTRING (260.942510 36.034903, 268.228444 49.059917)

LINESTRING (60.000000 260.000000, 44.231709 253.396806)

LINESTRING (60.000000 260.000000, 65.830562 254.415986)

LINESTRING (60.000000 260.000000, 78.309035 270.293383)

LINESTRING (60.000000 260.000000, 47.171261 267.391511)

LINESTRING (60.000000 260.000000, 67.981905 246.853996)

LINESTRING (60.000000 260.000000, 77.266083 275.871458)

LINESTRING (60.000000 260.000000, 52.715155 278.322242)

LINESTRING (60.000000 260.000000, 58.904116 281.784127)

LINESTRING (44.231709 253.396806, 47.171261 267.391511)

LINESTRING (44.231709 253.396806, 77.266083 275.871458)

LINESTRING (44.231709 253.396806, 52.715155 278.322242)

LINESTRING (44.231709 253.396806, 58.904116 281.784127)

LINESTRING (65.830562 254.415986, 78.309035 270.293383)

LINESTRING (65.830562 254.415986, 47.171261 267.391511)

LINESTRING (65.830562 254.415986, 67.981905 246.853996)

LINESTRING (65.830562 254.415986, 52.715155 278.322242)

LINESTRING (65.830562 254.415986, 58.904116 281.784127)

LINESTRING (78.309035 270.293383, 47.171261 267.391511)

LINESTRING (78.309035 270.293383, 52.715155 278.322242)

LINESTRING (78.309035 270.293383, 58.904116 281.784127)

LINESTRING (47.171261 267.391511, 67.981905 246.853996)

LINESTRING (47.171261 267.391511, 52.715155 278.322242)

LINESTRING (47.171261 267.391511, 58.904116 281.784127)

LINESTRING (67.981905 246.853996, 77.266083 275.871458)

LINESTRING (67.981905 246.853996, 58.904116 281.784127)

LINESTRING (77.266083 275.871458, 58.904116 281.784127)

LINESTRING (52.715155 278.322242, 58.904116 281.784127)

LINESTRING (67.005217 37.326630, 283.545595 47.990101)

LINESTRING (59.307675 70.987522, 275.654728 73.300938)

LINESTRING (60.000000 60.000000, 260.000000 60.000000)

LINESTRING (268.614518 71.362207, 78.309035 270.293383)

LINESTRING (268.614518 71.362207, 78.309035 270.293383)

LINESTRING (260.000000 60.000000, 60.000000 260.000000)

