LINESTRING (80.000000 80.000000, 379.992457 77.872657)

LINESTRING (80.000000 80.000000, 244.995851 78.829961)

LINESTRING (244.995851 78.829961, 379.992457 77.872657)

LINESTRING (80.000000 80.000000, 329.984542 245.854541)

LINESTRING (80.000000 80.000000, 217.491498 171.219997)

LINESTRING (217.491498 171.219997, 329.984542 245.854541)

LINESTRING (80.000000 80.000000, 163.156567 368.244662)

LINESTRING (80.000000 80.000000, 125.736112 238.534564)

LINESTRING (125.736112 238.534564, 163.156567 368.244662)

LINESTRING (80.000000 80.000000, 4.372893 370.311110)

LINESTRING (80.000000 80.000000, 38.405091 239.671111)

LINESTRING (38.405091 239.671111, 4.372893 370.311110)

LINESTRING (80.000000 80.000000, -156.673252 264.352303)

LINESTRING (80.000000 80.000000, -50.170289 181.393767)

LINESTRING (-50.170289 181.393767, -156.673252 264.352303)

LINESTRING (80.000000 80.000000, -219.990585 77.623240)

LINESTRING (80.000000 80.000000, -84.994822 78.692782)

LINESTRING (-84.994822 78.692782, -219.990585 77.623240)

LINESTRING (80.000000 80.000000, -166.731753 -90.655917)

LINESTRING (80.000000 80.000000, -55.702464 -13.860754)

LINESTRING (-55.702464 -13.860754, -166.731753 -90.655917)

LINESTRING (80.000000 80.000000, 4.255657 -210.280544)

LINESTRING (80.000000 80.000000, 38.340611 -79.654299)

LINESTRING (38.340611 -79.654299, 4.255657 -210.280544)

LINESTRING (80.000000 80.000000, 185.105374 -200.985516)

LINESTRING (80.000000 80.000000, 137.807956 -74.542034)

LINESTRING (137.807956 -74.542034, 185.105374 -200.985516)

LINESTRING (80.000000 80.000000, 332.015504 -82.751915)

LINESTRING (80.000000 80.000000, 218.608527 -9.513553)

LINESTRING (218.608527 -9.513553, 332.015504 -82.751915)

LINESTRING (379.992457 77.872657, 329.984542 245.854541)

LINESTRING (329.984542 245.854541, 163.156567 368.244662)

LINESTRING (163.156567 368.244662, 4.372893 370.311110)

LINESTRING (4.372893 370.311110, -156.673252 264.352303)

LINESTRING (-156.673252 264.352303, -219.990585 77.623240)

LINESTRING (-219.990585 77.623240, -166.731753 -90.655917)

LINESTRING (-166.731753 -90.655917, 4.255657 -210.280544)

LINESTRING (4.255657 -210.280544, 185.105374 -200.985516)

LINESTRING (185.105374 -200.985516, 332.015504 -82.751915)

LINESTRING (332.015504 -82.751915, 379.992457 77.872657)

LINESTRING (880.000000 80.000000, 1179.819477 69.594173)

LINESTRING (880.000000 80.000000, 1044.900712 74.276795)

LINESTRING (1044.900712 74.276795, 1179.819477 69.594173)

LINESTRING (880.000000 80.000000, 1134.411266 238.980840)

LINESTRING (880.000000 80.000000, 1019.926196 167.439462)

LINESTRING (1019.926196 167.439462, 1134.411266 238.980840)

LINESTRING (880.000000 80.000000, 992.640739 358.050470)

LINESTRING (880.000000 80.000000, 941.952406 232.927759)

LINESTRING (941.952406 232.927759, 992.640739 358.050470)

LINESTRING (880.000000 80.000000, 787.418194 365.356986)

LINESTRING (880.000000 80.000000, 829.080007 236.946342)

LINESTRING (829.080007 236.946342, 787.418194 365.356986)

LINESTRING (880.000000 80.000000, 634.855886 252.928781)

LINESTRING (880.000000 80.000000, 745.170737 175.110829)

LINESTRING (745.170737 175.110829, 634.855886 252.928781)

LINESTRING (880.000000 80.000000, 580.720110 59.226285)

LINESTRING (880.000000 80.000000, 715.396060 68.574457)

LINESTRING (715.396060 68.574457, 580.720110 59.226285)

LINESTRING (880.000000 80.000000, 628.555209 -83.632261)

LINESTRING (880.000000 80.000000, 741.705365 -9.997744)

LINESTRING (741.705365 -9.997744, 628.555209 -83.632261)

LINESTRING (880.000000 80.000000, 787.609330 -205.418927)

LINESTRING (880.000000 80.000000, 829.185131 -76.980410)

LINESTRING (829.185131 -76.980410, 787.609330 -205.418927)

LINESTRING (880.000000 80.000000, 951.283492 -211.408071)

LINESTRING (880.000000 80.000000, 919.205921 -80.274439)

LINESTRING (919.205921 -80.274439, 951.283492 -211.408071)

LINESTRING (880.000000 80.000000, 1135.252505 -77.626643)

LINESTRING (880.000000 80.000000, 1020.388878 -6.694654)

LINESTRING (1020.388878 -6.694654, 1135.252505 -77.626643)

LINESTRING (1179.819477 69.594173, 1134.411266 238.980840)

LINESTRING (1134.411266 238.980840, 992.640739 358.050470)

LINESTRING (992.640739 358.050470, 787.418194 365.356986)

LINESTRING (787.418194 365.356986, 634.855886 252.928781)

LINESTRING (634.855886 252.928781, 580.720110 59.226285)

LINESTRING (580.720110 59.226285, 628.555209 -83.632261)

LINESTRING (628.555209 -83.632261, 787.609330 -205.418927)

LINESTRING (787.609330 -205.418927, 951.283492 -211.408071)

LINESTRING (951.283492 -211.408071, 1135.252505 -77.626643)

LINESTRING (1135.252505 -77.626643, 1179.819477 69.594173)

LINESTRING (1680.000000 80.000000, 1979.311148 59.681622)

LINESTRING (1680.000000 80.000000, 1844.621132 68.824892)

LINESTRING (1844.621132 68.824892, 1979.311148 59.681622)

LINESTRING (1680.000000 80.000000, 1914.042256 267.681172)

LINESTRING (1680.000000 80.000000, 1808.723241 183.224645)

LINESTRING (1808.723241 183.224645, 1914.042256 267.681172)

LINESTRING (1680.000000 80.000000, 1787.890087 359.928078)

LINESTRING (1680.000000 80.000000, 1739.339548 233.960443)

LINESTRING (1739.339548 233.960443, 1787.890087 359.928078)

LINESTRING (1680.000000 80.000000, 1576.494420 361.578754)

LINESTRING (1680.000000 80.000000, 1623.071931 234.868315)

LINESTRING (1623.071931 234.868315, 1576.494420 361.578754)

LINESTRING (1680.000000 80.000000, 1451.410210 274.285120)

LINESTRING (1680.000000 80.000000, 1554.275615 186.856816)

LINESTRING (1554.275615 186.856816, 1451.410210 274.285120)

LINESTRING (1680.000000 80.000000, 1380.930079 56.395293)

LINESTRING (1680.000000 80.000000, 1515.511543 67.017411)

LINESTRING (1515.511543 67.017411, 1380.930079 56.395293)

LINESTRING (1680.000000 80.000000, 1439.376504 -99.165658)

LINESTRING (1680.000000 80.000000, 1547.657077 -18.541112)

LINESTRING (1547.657077 -18.541112, 1439.376504 -99.165658)

LINESTRING (1680.000000 80.000000, 1580.710242 -203.092819)

LINESTRING (1680.000000 80.000000, 1625.390633 -75.701050)

LINESTRING (1625.390633 -75.701050, 1580.710242 -203.092819)

LINESTRING (1680.000000 80.000000, 1767.183667 -207.052274)

LINESTRING (1680.000000 80.000000, 1727.951017 -77.878751)

LINESTRING (1727.951017 -77.878751, 1767.183667 -207.052274)

LINESTRING (1680.000000 80.000000, 1917.665567 -103.071238)

LINESTRING (1680.000000 80.000000, 1810.716062 -20.689181)

LINESTRING (1810.716062 -20.689181, 1917.665567 -103.071238)

LINESTRING (1979.311148 59.681622, 1914.042256 267.681172)

LINESTRING (1914.042256 267.681172, 1787.890087 359.928078)

LINESTRING (1787.890087 359.928078, 1576.494420 361.578754)

LINESTRING (1576.494420 361.578754, 1451.410210 274.285120)

LINESTRING (1451.410210 274.285120, 1380.930079 56.395293)

LINESTRING (1380.930079 56.395293, 1439.376504 -99.165658)

LINESTRING (1439.376504 -99.165658, 1580.710242 -203.092819)

LINESTRING (1580.710242 -203.092819, 1767.183667 -207.052274)

LINESTRING (1767.183667 -207.052274, 1917.665567 -103.071238)

LINESTRING (1917.665567 -103.071238, 1979.311148 59.681622)

LINESTRING (80.000000 80.000000, 880.000000 80.000000)

LINESTRING (880.000000 80.000000, 1680.000000 80.000000)

