LINESTRING (60.000000 60.000000, 50.054364 67.540934)

LINESTRING (60.000000 60.000000, 77.689333 49.818071)

LINESTRING (60.000000 60.000000, 48.612916 83.733891)

LINESTRING (60.000000 60.000000, 81.956744 80.103182)

LINESTRING (60.000000 60.000000, 59.978127 73.039401)

LINESTRING (60.000000 60.000000, 39.206487 63.835727)

LINESTRING (60.000000 60.000000, 72.962924 76.939067)

LINESTRING (60.000000 60.000000, 50.150737 43.303129)

LINESTRING (60.000000 60.000000, 42.543934 37.773019)

LINESTRING (60.000000 60.000000, 38.638345 77.431812)

LINESTRING (50.054364 67.540934, 77.689333 49.818071)

LINESTRING (50.054364 67.540934, 81.956744 80.103182)

LINESTRING (50.054364 67.540934, 59.978127 73.039401)

LINESTRING (50.054364 67.540934, 39.206487 63.835727)

LINESTRING (50.054364 67.540934, 72.962924 76.939067)

LINESTRING (50.054364 67.540934, 50.150737 43.303129)

LINESTRING (50.054364 67.540934, 42.543934 37.773019)

LINESTRING (50.054364 67.540934, 38.638345 77.431812)

LINESTRING (77.689333 49.818071, 81.956744 80.103182)

LINESTRING (77.689333 49.818071, 59.978127 73.039401)

LINESTRING (77.689333 49.818071, 39.206487 63.835727)

LINESTRING (77.689333 49.818071, 72.962924 76.939067)

LINESTRING (77.689333 49.818071, 50.150737 43.303129)

LINESTRING (48.612916 83.733891, 81.956744 80.103182)

LINESTRING (48.612916 83.733891, 59.978127 73.039401)

LINESTRING (48.612916 83.733891, 39.206487 63.835727)

LINESTRING (48.612916 83.733891, 72.962924 76.939067)

LINESTRING (48.612916 83.733891, 42.543934 37.773019)

LINESTRING (48.612916 83.733891, 38.638345 77.431812)

LINESTRING (81.956744 80.103182, 38.638345 77.431812)

LINESTRING (59.978127 73.039401, 39.206487 63.835727)

LINESTRING (59.978127 73.039401, 72.962924 76.939067)

LINESTRING (39.206487 63.835727, 72.962924 76.939067)

LINESTRING (39.206487 63.835727, 42.543934 37.773019)

LINESTRING (39.206487 63.835727, 38.638345 77.431812)

LINESTRING (72.962924 76.939067, 50.150737 43.303129)

LINESTRING (72.962924 76.939067, 38.638345 77.431812)

LINESTRING (42.543934 37.773019, 38.638345 77.431812)

LINESTRING (260.000000 60.000000, 265.380698 51.969670)

LINESTRING (260.000000 60.000000, 246.979394 77.966087)

LINESTRING (260.000000 60.000000, 243.329477 74.396135)

LINESTRING (260.000000 60.000000, 247.197052 78.807069)

LINESTRING (260.000000 60.000000, 240.720709 60.886969)

LINESTRING (260.000000 60.000000, 251.869107 57.438284)

LINESTRING (260.000000 60.000000, 266.587710 83.567038)

LINESTRING (260.000000 60.000000, 268.759642 61.969430)

LINESTRING (260.000000 60.000000, 249.047646 71.458440)

LINESTRING (260.000000 60.000000, 269.436354 39.947081)

LINESTRING (265.380698 51.969670, 246.979394 77.966087)

LINESTRING (265.380698 51.969670, 243.329477 74.396135)

LINESTRING (265.380698 51.969670, 240.720709 60.886969)

LINESTRING (265.380698 51.969670, 251.869107 57.438284)

LINESTRING (246.979394 77.966087, 247.197052 78.807069)

LINESTRING (246.979394 77.966087, 240.720709 60.886969)

LINESTRING (246.979394 77.966087, 251.869107 57.438284)

LINESTRING (246.979394 77.966087, 249.047646 71.458440)

LINESTRING (246.979394 77.966087, 269.436354 39.947081)

LINESTRING (243.329477 74.396135, 247.197052 78.807069)

LINESTRING (243.329477 74.396135, 266.587710 83.567038)

LINESTRING (247.197052 78.807069, 240.720709 60.886969)

LINESTRING (247.197052 78.807069, 251.869107 57.438284)

LINESTRING (247.197052 78.807069, 266.587710 83.567038)

LINESTRING (247.197052 78.807069, 249.047646 71.458440)

LINESTRING (247.197052 78.807069, 269.436354 39.947081)

LINESTRING (240.720709 60.886969, 251.869107 57.438284)

LINESTRING (240.720709 60.886969, 268.759642 61.969430)

LINESTRING (240.720709 60.886969, 249.047646 71.458440)

LINESTRING (240.720709 60.886969, 269.436354 39.947081)

LINESTRING (251.869107 57.438284, 266.587710 83.567038)

LINESTRING (251.869107 57.438284, 269.436354 39.947081)

LINESTRING (266.587710 83.567038, 249.047646 71.458440)

LINESTRING (460.000000 60.000000, 469.911145 65.613074)

LINESTRING (460.000000 60.000000, 462.144166 43.296092)

LINESTRING (460.000000 60.000000, 451.329060 55.370113)

LINESTRING (460.000000 60.000000, 464.251683 61.356936)

LINESTRING (460.000000 60.000000, 480.845809 56.426777)

LINESTRING (460.000000 60.000000, 454.468852 62.841744)

LINESTRING (460.000000 60.000000, 442.552779 49.592652)

LINESTRING (460.000000 60.000000, 450.206625 54.104366)

LINESTRING (460.000000 60.000000, 454.510102 72.460781)

LINESTRING (460.000000 60.000000, 448.150287 59.090394)

LINESTRING (469.911145 65.613074, 462.144166 43.296092)

LINESTRING (469.911145 65.613074, 451.329060 55.370113)

LINESTRING (469.911145 65.613074, 480.845809 56.426777)

LINESTRING (469.911145 65.613074, 448.150287 59.090394)

LINESTRING (462.144166 43.296092, 480.845809 56.426777)

LINESTRING (462.144166 43.296092, 454.510102 72.460781)

LINESTRING (462.144166 43.296092, 448.150287 59.090394)

LINESTRING (451.329060 55.370113, 464.251683 61.356936)

LINESTRING (451.329060 55.370113, 480.845809 56.426777)

LINESTRING (451.329060 55.370113, 442.552779 49.592652)

LINESTRING (451.329060 55.370113, 450.206625 54.104366)

LINESTRING (451.329060 55.370113, 454.510102 72.460781)

LINESTRING (464.251683 61.356936, 480.845809 56.426777)

LINESTRING (464.251683 61.356936, 450.206625 54.104366)

LINESTRING (464.251683 61.356936, 454.510102 72.460781)

LINESTRING (464.251683 61.356936, 448.150287 59.090394)

LINESTRING (480.845809 56.426777, 454.510102 72.460781)

LINESTRING (454.468852 62.841744, 442.552779 49.592652)

LINESTRING (454.468852 62.841744, 450.206625 54.104366)

LINESTRING (442.552779 49.592652, 450.206625 54.104366)

LINESTRING (442.552779 49.592652, 454.510102 72.460781)

LINESTRING (442.552779 49.592652, 448.150287 59.090394)

LINESTRING (450.206625 54.104366, 454.510102 72.460781)

LINESTRING (450.206625 54.104366, 448.150287 59.090394)

LINESTRING (454.510102 72.460781, 448.150287 59.090394)

LINESTRING (60.000000 260.000000, 38.202399 237.279316)

LINESTRING (60.000000 260.000000, 69.026655 261.886611)

LINESTRING (60.000000 260.000000, 78.306664 241.178957)

LINESTRING (60.000000 260.000000, 47.471832 269.666121)

LINESTRING (60.000000 260.000000, 81.515297 242.753598)

LINESTRING (60.000000 260.000000, 37.878928 254.760923)

LINESTRING (60.000000 260.000000, 83.167757 275.298187)

LINESTRING (60.000000 260.000000, 36.159835 283.016966)

LINESTRING (60.000000 260.000000, 74.271424 274.583073)

LINESTRING (60.000000 260.000000, 73.259918 270.763400)

LINESTRING (38.202399 237.279316, 69.026655 261.886611)

LINESTRING (38.202399 237.279316, 47.471832 269.666121)

LINESTRING (38.202399 237.279316, 74.271424 274.583073)

LINESTRING (38.202399 237.279316, 73.259918 270.763400)

LINESTRING (69.026655 261.886611, 47.471832 269.666121)

LINESTRING (69.026655 261.886611, 37.878928 254.760923)

LINESTRING (69.026655 261.886611, 74.271424 274.583073)

LINESTRING (69.026655 261.886611, 73.259918 270.763400)

LINESTRING (78.306664 241.178957, 81.515297 242.753598)

LINESTRING (78.306664 241.178957, 37.878928 254.760923)

LINESTRING (78.306664 241.178957, 73.259918 270.763400)

LINESTRING (47.471832 269.666121, 81.515297 242.753598)

LINESTRING (47.471832 269.666121, 36.159835 283.016966)

LINESTRING (81.515297 242.753598, 37.878928 254.760923)

LINESTRING (81.515297 242.753598, 36.159835 283.016966)

LINESTRING (81.515297 242.753598, 74.271424 274.583073)

LINESTRING (37.878928 254.760923, 73.259918 270.763400)

LINESTRING (83.167757 275.298187, 74.271424 274.583073)

LINESTRING (83.167757 275.298187, 73.259918 270.763400)

LINESTRING (36.159835 283.016966, 74.271424 274.583073)

LINESTRING (36.159835 283.016966, 73.259918 270.763400)

LINESTRING (260.000000 260.000000, 262.764631 273.839798)

LINESTRING (260.000000 260.000000, 240.942096 282.123816)

LINESTRING (260.000000 260.000000, 273.271530 279.845418)

LINESTRING (260.000000 260.000000, 283.065500 251.740848)

LINESTRING (260.000000 260.000000, 266.183898 250.171947)

LINESTRING (260.000000 260.000000, 265.990663 236.786860)

LINESTRING (260.000000 260.000000, 244.451141 261.064852)

LINESTRING (260.000000 260.000000, 278.001129 261.105591)

LINESTRING (260.000000 260.000000, 267.054094 274.760306)

LINESTRING (260.000000 260.000000, 280.414418 268.243049)

LINESTRING (262.764631 273.839798, 273.271530 279.845418)

LINESTRING (262.764631 273.839798, 283.065500 251.740848)

LINESTRING (262.764631 273.839798, 266.183898 250.171947)

LINESTRING (262.764631 273.839798, 267.054094 274.760306)

LINESTRING (262.764631 273.839798, 280.414418 268.243049)

LINESTRING (240.942096 282.123816, 273.271530 279.845418)

LINESTRING (240.942096 282.123816, 266.183898 250.171947)

LINESTRING (240.942096 282.123816, 265.990663 236.786860)

LINESTRING (240.942096 282.123816, 244.451141 261.064852)

LINESTRING (240.942096 282.123816, 278.001129 261.105591)

LINESTRING (240.942096 282.123816, 267.054094 274.760306)

LINESTRING (273.271530 279.845418, 266.183898 250.171947)

LINESTRING (273.271530 279.845418, 265.990663 236.786860)

LINESTRING (273.271530 279.845418, 278.001129 261.105591)

LINESTRING (273.271530 279.845418, 280.414418 268.243049)

LINESTRING (283.065500 251.740848, 265.990663 236.786860)

LINESTRING (283.065500 251.740848, 244.451141 261.064852)

LINESTRING (283.065500 251.740848, 278.001129 261.105591)

LINESTRING (283.065500 251.740848, 280.414418 268.243049)

LINESTRING (266.183898 250.171947, 265.990663 236.786860)

LINESTRING (266.183898 250.171947, 278.001129 261.105591)

LINESTRING (266.183898 250.171947, 267.054094 274.760306)

LINESTRING (265.990663 236.786860, 244.451141 261.064852)

LINESTRING (244.451141 261.064852, 278.001129 261.105591)

LINESTRING (244.451141 261.064852, 280.414418 268.243049)

LINESTRING (278.001129 261.105591, 267.054094 274.760306)

LINESTRING (460.000000 260.000000, 438.422436 275.454673)

LINESTRING (460.000000 260.000000, 473.550778 270.036210)

LINESTRING (460.000000 260.000000, 445.757765 268.647849)

LINESTRING (460.000000 260.000000, 458.714904 246.550122)

LINESTRING (460.000000 260.000000, 457.641737 266.283909)

LINESTRING (460.000000 260.000000, 454.456054 277.365787)

LINESTRING (460.000000 260.000000, 475.591134 258.831207)

LINESTRING (460.000000 260.000000, 445.413264 246.600092)

LINESTRING (460.000000 260.000000, 470.483429 262.342284)

LINESTRING (460.000000 260.000000, 459.269147 244.142911)

LINESTRING (438.422436 275.454673, 454.456054 277.365787)

LINESTRING (438.422436 275.454673, 475.591134 258.831207)

LINESTRING (438.422436 275.454673, 459.269147 244.142911)

LINESTRING (473.550778 270.036210, 445.757765 268.647849)

LINESTRING (473.550778 270.036210, 470.483429 262.342284)

LINESTRING (473.550778 270.036210, 459.269147 244.142911)

LINESTRING (445.757765 268.647849, 445.413264 246.600092)

LINESTRING (445.757765 268.647849, 470.483429 262.342284)

LINESTRING (458.714904 246.550122, 475.591134 258.831207)

LINESTRING (458.714904 246.550122, 445.413264 246.600092)

LINESTRING (457.641737 266.283909, 454.456054 277.365787)

LINESTRING (457.641737 266.283909, 475.591134 258.831207)

LINESTRING (457.641737 266.283909, 445.413264 246.600092)

LINESTRING (454.456054 277.365787, 475.591134 258.831207)

LINESTRING (454.456054 277.365787, 445.413264 246.600092)

LINESTRING (454.456054 277.365787, 470.483429 262.342284)

LINESTRING (60.000000 460.000000, 73.060252 439.105215)

LINESTRING (60.000000 460.000000, 76.209627 452.166493)

LINESTRING (60.000000 460.000000, 61.715087 474.516260)

LINESTRING (60.000000 460.000000, 38.773857 451.496682)

LINESTRING (60.000000 460.000000, 50.959093 455.617305)

LINESTRING (60.000000 460.000000, 36.034761 442.606773)

LINESTRING (60.000000 460.000000, 81.296380 438.330377)

LINESTRING (60.000000 460.000000, 54.654408 447.257865)

LINESTRING (60.000000 460.000000, 57.130661 453.842516)

LINESTRING (60.000000 460.000000, 83.191419 465.494851)

LINESTRING (73.060252 439.105215, 76.209627 452.166493)

LINESTRING (73.060252 439.105215, 38.773857 451.496682)

LINESTRING (73.060252 439.105215, 50.959093 455.617305)

LINESTRING (73.060252 439.105215, 81.296380 438.330377)

LINESTRING (73.060252 439.105215, 54.654408 447.257865)

LINESTRING (73.060252 439.105215, 57.130661 453.842516)

LINESTRING (76.209627 452.166493, 61.715087 474.516260)

LINESTRING (76.209627 452.166493, 38.773857 451.496682)

LINESTRING (76.209627 452.166493, 50.959093 455.617305)

LINESTRING (76.209627 452.166493, 36.034761 442.606773)

LINESTRING (76.209627 452.166493, 54.654408 447.257865)

LINESTRING (76.209627 452.166493, 83.191419 465.494851)

LINESTRING (61.715087 474.516260, 50.959093 455.617305)

LINESTRING (61.715087 474.516260, 81.296380 438.330377)

LINESTRING (61.715087 474.516260, 83.191419 465.494851)

LINESTRING (38.773857 451.496682, 36.034761 442.606773)

LINESTRING (38.773857 451.496682, 81.296380 438.330377)

LINESTRING (38.773857 451.496682, 83.191419 465.494851)

LINESTRING (50.959093 455.617305, 54.654408 447.257865)

LINESTRING (50.959093 455.617305, 57.130661 453.842516)

LINESTRING (36.034761 442.606773, 54.654408 447.257865)

LINESTRING (36.034761 442.606773, 57.130661 453.842516)

LINESTRING (81.296380 438.330377, 54.654408 447.257865)

LINESTRING (54.654408 447.257865, 83.191419 465.494851)

LINESTRING (57.130661 453.842516, 83.191419 465.494851)

LINESTRING (260.000000 460.000000, 262.372287 456.735572)

LINESTRING (260.000000 460.000000, 281.013676 444.201143)

LINESTRING (260.000000 460.000000, 280.781775 454.689160)

LINESTRING (260.000000 460.000000, 259.894673 443.336946)

LINESTRING (260.000000 460.000000, 261.012615 465.864392)

LINESTRING (260.000000 460.000000, 271.315421 449.570098)

LINESTRING (260.000000 460.000000, 249.696751 457.078614)

LINESTRING (260.000000 460.000000, 249.887177 446.816843)

LINESTRING (260.000000 460.000000, 283.035454 448.929694)

LINESTRING (260.000000 460.000000, 237.490102 446.367557)

LINESTRING (262.372287 456.735572, 280.781775 454.689160)

LINESTRING (262.372287 456.735572, 259.894673 443.336946)

LINESTRING (262.372287 456.735572, 261.012615 465.864392)

LINESTRING (262.372287 456.735572, 249.696751 457.078614)

LINESTRING (262.372287 456.735572, 249.887177 446.816843)

LINESTRING (262.372287 456.735572, 237.490102 446.367557)

LINESTRING (281.013676 444.201143, 261.012615 465.864392)

LINESTRING (281.013676 444.201143, 249.887177 446.816843)

LINESTRING (281.013676 444.201143, 237.490102 446.367557)

LINESTRING (280.781775 454.689160, 261.012615 465.864392)

LINESTRING (280.781775 454.689160, 271.315421 449.570098)

LINESTRING (280.781775 454.689160, 249.696751 457.078614)

LINESTRING (259.894673 443.336946, 271.315421 449.570098)

LINESTRING (259.894673 443.336946, 283.035454 448.929694)

LINESTRING (259.894673 443.336946, 237.490102 446.367557)

LINESTRING (261.012615 465.864392, 249.696751 457.078614)

LINESTRING (261.012615 465.864392, 249.887177 446.816843)

LINESTRING (261.012615 465.864392, 237.490102 446.367557)

LINESTRING (271.315421 449.570098, 249.696751 457.078614)

LINESTRING (271.315421 449.570098, 249.887177 446.816843)

LINESTRING (271.315421 449.570098, 283.035454 448.929694)

LINESTRING (271.315421 449.570098, 237.490102 446.367557)

LINESTRING (249.696751 457.078614, 237.490102 446.367557)

LINESTRING (249.887177 446.816843, 283.035454 448.929694)

LINESTRING (249.887177 446.816843, 237.490102 446.367557)

LINESTRING (72.962924 76.939067, 240.720709 60.886969)

LINESTRING (38.638345 77.431812, 247.197052 78.807069)

LINESTRING (60.000000 60.000000, 260.000000 60.000000)

LINESTRING (268.759642 61.969430, 442.552779 49.592652)

LINESTRING (266.587710 83.567038, 469.911145 65.613074)

LINESTRING (260.000000 60.000000, 460.000000 60.000000)

LINESTRING (464.251683 61.356936, 74.271424 274.583073)

LINESTRING (450.206625 54.104366, 37.878928 254.760923)

LINESTRING (460.000000 60.000000, 60.000000 260.000000)

LINESTRING (38.202399 237.279316, 265.990663 236.786860)

LINESTRING (78.306664 241.178957, 265.990663 236.786860)

LINESTRING (60.000000 260.000000, 260.000000 260.000000)

LINESTRING (283.065500 251.740848, 459.269147 244.142911)

LINESTRING (267.054094 274.760306, 473.550778 270.036210)

LINESTRING (260.000000 260.000000, 460.000000 260.000000)

LINESTRING (445.413264 246.600092, 81.296380 438.330377)

LINESTRING (473.550778 270.036210, 54.654408 447.257865)

LINESTRING (460.000000 260.000000, 60.000000 460.000000)

LINESTRING (36.034761 442.606773, 262.372287 456.735572)

LINESTRING (76.209627 452.166493, 249.887177 446.816843)

LINESTRING (60.000000 460.000000, 260.000000 460.000000)

