LINESTRING (549.205895 398.182372, 525.967426 477.657190)

LINESTRING (525.967426 477.657190, 478.550228 529.213068)

LINESTRING (478.550228 529.213068, 401.522612 554.122546)

LINESTRING (401.522612 554.122546, 324.821505 527.639126)

LINESTRING (324.821505 527.639126, 273.915140 474.128807)

LINESTRING (273.915140 474.128807, 248.600305 396.612299)

LINESTRING (248.600305 396.612299, 272.122459 322.063756)

LINESTRING (272.122459 322.063756, 329.912647 270.089068)

LINESTRING (329.912647 270.089068, 400.322500 250.824397)

LINESTRING (400.322500 250.824397, 471.683932 275.076110)

LINESTRING (471.683932 275.076110, 527.208152 321.175019)

LINESTRING (527.208152 321.175019, 549.205895 398.182372)

LINESTRING (704.009231 399.791939, 662.521244 546.870486)

LINESTRING (662.521244 546.870486, 547.398816 662.419826)

LINESTRING (547.398816 662.419826, 398.427955 699.748521)

LINESTRING (398.427955 699.748521, 251.804608 655.805047)

LINESTRING (251.804608 655.805047, 141.033544 547.380112)

LINESTRING (141.033544 547.380112, 102.426571 399.287547)

LINESTRING (102.426571 399.287547, 138.082004 247.342426)

LINESTRING (138.082004 247.342426, 248.455147 135.648961)

LINESTRING (248.455147 135.648961, 403.434843 98.107377)

LINESTRING (403.434843 98.107377, 552.917108 142.639216)

LINESTRING (552.917108 142.639216, 660.307566 249.728129)

LINESTRING (660.307566 249.728129, 704.009231 399.791939)

LINESTRING (852.010603 395.262637, 791.033236 627.012982)

LINESTRING (791.033236 627.012982, 623.358780 787.964153)

LINESTRING (623.358780 787.964153, 399.984516 847.869988)

LINESTRING (399.984516 847.869988, 179.727201 794.126565)

LINESTRING (179.727201 794.126565, 14.429537 628.859163)

LINESTRING (14.429537 628.859163, -48.832302 402.666872)

LINESTRING (-48.832302 402.666872, 6.425372 177.769304)

LINESTRING (6.425372 177.769304, 177.280330 14.623376)

LINESTRING (177.280330 14.623376, 401.737005 -52.437900)

LINESTRING (401.737005 -52.437900, 629.500526 7.067063)

LINESTRING (629.500526 7.067063, 790.222952 176.998601)

LINESTRING (790.222952 176.998601, 852.010603 395.262637)

LINESTRING (997.981858 396.965558, 917.740143 704.323428)

LINESTRING (917.740143 704.323428, 704.823523 920.503091)

LINESTRING (704.823523 920.503091, 400.242148 996.008418)

LINESTRING (400.242148 996.008418, 98.181002 918.723819)

LINESTRING (98.181002 918.723819, -118.290962 704.922554)

LINESTRING (-118.290962 704.922554, -203.010906 404.464350)

LINESTRING (-203.010906 404.464350, -121.009966 103.887677)

LINESTRING (-121.009966 103.887677, 97.778987 -116.318443)

LINESTRING (97.778987 -116.318443, 404.656370 -202.425100)

LINESTRING (404.656370 -202.425100, 695.483864 -116.535779)

LINESTRING (695.483864 -116.535779, 922.979964 103.226308)

LINESTRING (922.979964 103.226308, 997.981858 396.965558)

LINESTRING (1151.012163 402.842440, 1053.674975 770.101150)

LINESTRING (1053.674975 770.101150, 772.240513 1046.962622)

LINESTRING (772.240513 1046.962622, 401.470144 1145.252781)

LINESTRING (401.470144 1145.252781, 26.873395 1051.015201)

LINESTRING (26.873395 1051.015201, -245.251100 779.910590)

LINESTRING (-245.251100 779.910590, -346.739649 400.288271)

LINESTRING (-346.739649 400.288271, -253.025084 27.634632)

LINESTRING (-253.025084 27.634632, 27.031183 -245.139933)

LINESTRING (27.031183 -245.139933, 398.349950 -345.795955)

LINESTRING (398.349950 -345.795955, 778.745886 -245.877496)

LINESTRING (778.745886 -245.877496, 1048.726019 29.878669)

LINESTRING (1048.726019 29.878669, 1151.012163 402.842440)

LINESTRING (1304.223709 395.585484, 1174.880164 848.235652)

LINESTRING (1174.880164 848.235652, 854.127262 1180.658776)

LINESTRING (854.127262 1180.658776, 400.472711 1303.974676)

LINESTRING (400.472711 1303.974676, -50.969965 1177.647983)

LINESTRING (-50.969965 1177.647983, -382.268464 851.207200)

LINESTRING (-382.268464 851.207200, -502.858034 396.874755)

LINESTRING (-502.858034 396.874755, -379.665663 -49.098539)

LINESTRING (-379.665663 -49.098539, -45.539245 -377.058995)

LINESTRING (-45.539245 -377.058995, 401.486377 -496.188939)

LINESTRING (401.486377 -496.188939, 847.970466 -374.682771)

LINESTRING (847.970466 -374.682771, 1181.325509 -50.605361)

LINESTRING (1181.325509 -50.605361, 1304.223709 395.585484)

LINESTRING (549.205895 398.182372, 704.009231 399.791939)

LINESTRING (704.009231 399.791939, 852.010603 395.262637)

LINESTRING (852.010603 395.262637, 997.981858 396.965558)

LINESTRING (997.981858 396.965558, 1151.012163 402.842440)

LINESTRING (1151.012163 402.842440, 1304.223709 395.585484)

LINESTRING (525.967426 477.657190, 662.521244 546.870486)

LINESTRING (662.521244 546.870486, 791.033236 627.012982)

LINESTRING (791.033236 627.012982, 917.740143 704.323428)

LINESTRING (917.740143 704.323428, 1053.674975 770.101150)

LINESTRING (1053.674975 770.101150, 1174.880164 848.235652)

LINESTRING (478.550228 529.213068, 547.398816 662.419826)

LINESTRING (547.398816 662.419826, 623.358780 787.964153)

LINESTRING (623.358780 787.964153, 704.823523 920.503091)

LINESTRING (704.823523 920.503091, 772.240513 1046.962622)

LINESTRING (772.240513 1046.962622, 854.127262 1180.658776)

LINESTRING (401.522612 554.122546, 398.427955 699.748521)

LINESTRING (398.427955 699.748521, 399.984516 847.869988)

LINESTRING (399.984516 847.869988, 400.242148 996.008418)

LINESTRING (400.242148 996.008418, 401.470144 1145.252781)

LINESTRING (401.470144 1145.252781, 400.472711 1303.974676)

LINESTRING (324.821505 527.639126, 251.804608 655.805047)

LINESTRING (251.804608 655.805047, 179.727201 794.126565)

LINESTRING (179.727201 794.126565, 98.181002 918.723819)

LINESTRING (98.181002 918.723819, 26.873395 1051.015201)

LINESTRING (26.873395 1051.015201, -50.969965 1177.647983)

LINESTRING (273.915140 474.128807, 141.033544 547.380112)

LINESTRING (141.033544 547.380112, 14.429537 628.859163)

LINESTRING (14.429537 628.859163, -118.290962 704.922554)

LINESTRING (-118.290962 704.922554, -245.251100 779.910590)

LINESTRING (-245.251100 779.910590, -382.268464 851.207200)

LINESTRING (248.600305 396.612299, 102.426571 399.287547)

LINESTRING (102.426571 399.287547, -48.832302 402.666872)

LINESTRING (-48.832302 402.666872, -203.010906 404.464350)

LINESTRING (-203.010906 404.464350, -346.739649 400.288271)

LINESTRING (-346.739649 400.288271, -502.858034 396.874755)

LINESTRING (272.122459 322.063756, 138.082004 247.342426)

LINESTRING (138.082004 247.342426, 6.425372 177.769304)

LINESTRING (6.425372 177.769304, -121.009966 103.887677)

LINESTRING (-121.009966 103.887677, -253.025084 27.634632)

LINESTRING (-253.025084 27.634632, -379.665663 -49.098539)

LINESTRING (329.912647 270.089068, 248.455147 135.648961)

LINESTRING (248.455147 135.648961, 177.280330 14.623376)

LINESTRING (177.280330 14.623376, 97.778987 -116.318443)

LINESTRING (97.778987 -116.318443, 27.031183 -245.139933)

LINESTRING (27.031183 -245.139933, -45.539245 -377.058995)

LINESTRING (400.322500 250.824397, 403.434843 98.107377)

LINESTRING (403.434843 98.107377, 401.737005 -52.437900)

LINESTRING (401.737005 -52.437900, 404.656370 -202.425100)

LINESTRING (404.656370 -202.425100, 398.349950 -345.795955)

LINESTRING (398.349950 -345.795955, 401.486377 -496.188939)

LINESTRING (471.683932 275.076110, 552.917108 142.639216)

LINESTRING (552.917108 142.639216, 629.500526 7.067063)

LINESTRING (629.500526 7.067063, 695.483864 -116.535779)

LINESTRING (695.483864 -116.535779, 778.745886 -245.877496)

LINESTRING (778.745886 -245.877496, 847.970466 -374.682771)

LINESTRING (527.208152 321.175019, 660.307566 249.728129)

LINESTRING (660.307566 249.728129, 790.222952 176.998601)

LINESTRING (790.222952 176.998601, 922.979964 103.226308)

LINESTRING (922.979964 103.226308, 1048.726019 29.878669)

LINESTRING (1048.726019 29.878669, 1181.325509 -50.605361)

LINESTRING (400.000000 400.000000, 549.205895 398.182372)

