LINESTRING (80.000000 80.000000, 156.321183 107.089180)

LINESTRING (156.321183 107.089180, 237.142852 94.967991)

LINESTRING (237.142852 94.967991, 286.105253 34.359716)

LINESTRING (286.105253 34.359716, 309.439167 -44.700151)

LINESTRING (286.105253 34.359716, 372.942532 13.282533)

LINESTRING (237.142852 94.967991, 315.399018 122.998554)

LINESTRING (315.399018 122.998554, 388.902860 107.895163)

LINESTRING (315.399018 122.998554, 378.953971 177.115809)

LINESTRING (156.321183 107.089180, 217.944814 170.962075)

LINESTRING (217.944814 170.962075, 297.443662 200.355679)

LINESTRING (297.443662 200.355679, 366.744180 171.127286)

LINESTRING (297.443662 200.355679, 360.361013 259.206518)

LINESTRING (217.944814 170.962075, 236.874987 256.848147)

LINESTRING (236.874987 256.848147, 284.145505 318.222177)

LINESTRING (236.874987 256.848147, 220.014316 328.890316)

LINESTRING (80.000000 80.000000, 100.418263 150.682009)

LINESTRING (100.418263 150.682009, 147.807013 206.491391)

LINESTRING (147.807013 206.491391, 224.625901 233.701439)

LINESTRING (224.625901 233.701439, 302.397797 203.138649)

LINESTRING (224.625901 233.701439, 279.244851 292.349907)

LINESTRING (147.807013 206.491391, 164.342500 287.503787)

LINESTRING (164.342500 287.503787, 217.684242 348.428943)

LINESTRING (164.342500 287.503787, 143.820520 371.277554)

LINESTRING (100.418263 150.682009, 79.745902 222.128895)

LINESTRING (79.745902 222.128895, 105.232302 297.527539)

LINESTRING (105.232302 297.527539, 168.393705 347.499415)

LINESTRING (105.232302 297.527539, 80.362401 381.782172)

LINESTRING (79.745902 222.128895, 24.455455 271.877563)

LINESTRING (24.455455 271.877563, 7.024545 352.765712)

LINESTRING (24.455455 271.877563, -54.239082 293.718250)

