POINT (386158.035579 6673131.241109)

POINT (386415.247389 6673977.111162)

POINT (386208.266458 6673964.638862)

POINT (386402.108021 6673695.860115)

POINT (386206.964767 6673222.919360)

POINT (386282.118689 6673315.109753)

POINT (386387.252571 6673263.613892)

POINT (386389.699881 6673294.184509)

POINT (386706.235640 6674141.352101)

POINT (386551.512836 6673510.033838)

POINT (386529.038702 6673402.754277)

POINT (386507.400748 6673777.635784)

POINT (386353.077762 6673421.952654)

POINT (386282.990777 6673252.931381)

POINT (385853.231194 6673820.564223)

POINT (386390.305756 6673424.084827)

POINT (386412.963078 6673625.515401)

POINT (386272.229082 6673497.089970)

POINT (385930.099408 6673775.285056)

POINT (386342.504122 6673430.906494)

POINT (386457.348508 6673571.081039)

POINT (386042.773826 6673679.891545)

POINT (386389.337688 6673903.159825)

POINT (386497.994752 6673554.620015)

POINT (386587.325544 6673702.844220)

POINT (386612.689206 6674027.312739)

POINT (386664.174337 6674034.488773)

POINT (386647.924752 6674074.275176)

POINT (386664.061345 6674135.514286)

POINT (386137.151143 6674149.147828)

