LINESTRING (80.000000 80.000000, 229.614942 69.259001)

LINESTRING (80.000000 80.000000, 162.288218 74.092451)

LINESTRING (162.288218 74.092451, 229.614942 69.259001)

LINESTRING (80.000000 80.000000, 205.069414 162.810879)

LINESTRING (80.000000 80.000000, 148.788178 125.545983)

LINESTRING (148.788178 125.545983, 205.069414 162.810879)

LINESTRING (80.000000 80.000000, 116.806400 225.414198)

LINESTRING (80.000000 80.000000, 100.243520 159.977809)

LINESTRING (100.243520 159.977809, 116.806400 225.414198)

LINESTRING (80.000000 80.000000, 37.500226 223.853291)

LINESTRING (80.000000 80.000000, 56.625125 159.119310)

LINESTRING (56.625125 159.119310, 37.500226 223.853291)

LINESTRING (80.000000 80.000000, -47.923814 158.329418)

LINESTRING (80.000000 80.000000, 9.641902 123.081180)

LINESTRING (9.641902 123.081180, -47.923814 158.329418)

LINESTRING (80.000000 80.000000, -69.637714 90.418955)

LINESTRING (80.000000 80.000000, -2.300743 85.730426)

LINESTRING (-2.300743 85.730426, -69.637714 90.418955)

LINESTRING (80.000000 80.000000, -38.063908 -12.525206)

LINESTRING (80.000000 80.000000, 15.064851 29.111137)

LINESTRING (15.064851 29.111137, -38.063908 -12.525206)

LINESTRING (80.000000 80.000000, 42.042147 -65.117888)

LINESTRING (80.000000 80.000000, 59.123181 0.185162)

LINESTRING (59.123181 0.185162, 42.042147 -65.117888)

LINESTRING (80.000000 80.000000, 124.957114 -63.104360)

LINESTRING (80.000000 80.000000, 104.726413 1.292602)

LINESTRING (104.726413 1.292602, 124.957114 -63.104360)

LINESTRING (80.000000 80.000000, 206.182437 -1.104825)

LINESTRING (80.000000 80.000000, 149.400340 35.392346)

LINESTRING (149.400340 35.392346, 206.182437 -1.104825)

LINESTRING (229.614942 69.259001, 205.069414 162.810879)

LINESTRING (205.069414 162.810879, 116.806400 225.414198)

LINESTRING (116.806400 225.414198, 37.500226 223.853291)

LINESTRING (37.500226 223.853291, -47.923814 158.329418)

LINESTRING (-47.923814 158.329418, -69.637714 90.418955)

LINESTRING (-69.637714 90.418955, -38.063908 -12.525206)

LINESTRING (-38.063908 -12.525206, 42.042147 -65.117888)

LINESTRING (42.042147 -65.117888, 124.957114 -63.104360)

LINESTRING (124.957114 -63.104360, 206.182437 -1.104825)

LINESTRING (206.182437 -1.104825, 229.614942 69.259001)

LINESTRING (880.000000 80.000000, 1029.649995 69.758958)

LINESTRING (880.000000 80.000000, 962.307497 74.367427)

LINESTRING (962.307497 74.367427, 1029.649995 69.758958)

LINESTRING (880.000000 80.000000, 1003.099984 165.711108)

LINESTRING (880.000000 80.000000, 947.704991 127.141109)

LINESTRING (947.704991 127.141109, 1003.099984 165.711108)

LINESTRING (880.000000 80.000000, 920.581430 224.406189)

LINESTRING (880.000000 80.000000, 902.319786 159.423404)

LINESTRING (902.319786 159.423404, 920.581430 224.406189)

LINESTRING (880.000000 80.000000, 826.333017 220.070892)

LINESTRING (880.000000 80.000000, 850.483159 157.038991)

LINESTRING (850.483159 157.038991, 826.333017 220.070892)

LINESTRING (880.000000 80.000000, 754.508812 162.170321)

LINESTRING (880.000000 80.000000, 810.979846 125.193676)

LINESTRING (810.979846 125.193676, 754.508812 162.170321)

LINESTRING (880.000000 80.000000, 730.446833 68.430639)

LINESTRING (880.000000 80.000000, 797.745758 73.636852)

LINESTRING (797.745758 73.636852, 730.446833 68.430639)

LINESTRING (880.000000 80.000000, 754.909887 -2.779609)

LINESTRING (880.000000 80.000000, 811.200438 34.471215)

LINESTRING (811.200438 34.471215, 754.909887 -2.779609)

LINESTRING (880.000000 80.000000, 831.302817 -61.875242)

LINESTRING (880.000000 80.000000, 853.216550 1.968617)

LINESTRING (853.216550 1.968617, 831.302817 -61.875242)

LINESTRING (880.000000 80.000000, 932.296628 -60.588274)

LINESTRING (880.000000 80.000000, 908.763145 2.676449)

LINESTRING (908.763145 2.676449, 932.296628 -60.588274)

LINESTRING (880.000000 80.000000, 1007.596094 1.137861)

LINESTRING (880.000000 80.000000, 950.177851 36.625824)

LINESTRING (950.177851 36.625824, 1007.596094 1.137861)

LINESTRING (1029.649995 69.758958, 1003.099984 165.711108)

LINESTRING (1003.099984 165.711108, 920.581430 224.406189)

LINESTRING (920.581430 224.406189, 826.333017 220.070892)

LINESTRING (826.333017 220.070892, 754.508812 162.170321)

LINESTRING (754.508812 162.170321, 730.446833 68.430639)

LINESTRING (730.446833 68.430639, 754.909887 -2.779609)

LINESTRING (754.909887 -2.779609, 831.302817 -61.875242)

LINESTRING (831.302817 -61.875242, 932.296628 -60.588274)

LINESTRING (932.296628 -60.588274, 1007.596094 1.137861)

LINESTRING (1007.596094 1.137861, 1029.649995 69.758958)

LINESTRING (80.000000 80.000000, 880.000000 80.000000)

