LINESTRING (552354.867464 4179601.675438, 552371.866942 4179615.674845, 552383.132755 4179635.107851, 552386.615505 4179641.498727, 552389.894887 4179648.010360, 552392.961318 4179654.764738, 552395.650480 4179661.283717, 552397.972238 4179667.400927, 552400.383474 4179674.683720, 552402.774055 4179682.443483, 552404.986495 4179690.512784, 552409.742314 4179708.628467, 552410.606602 4179711.230278, 552411.630422 4179713.677769, 552412.831248 4179715.993242, 552414.278557 4179718.332474, 552415.956848 4179720.362505, 552418.129798 4179722.173775, 552420.506813 4179723.753342, 552423.326132 4179725.036149, 552426.605442 4179726.011213, 552430.204099 4179726.633258, 552448.717204 4179728.337708, 552451.550269 4179728.843937, 552461.026159 4179730.524182)

LINESTRING (552461.026159 4179730.524182, 552460.329565 4179738.941126, 552453.742775 4179818.907854, 552450.182335 4179863.488551, 552449.390781 4179871.605319)

LINESTRING (552461.026159 4179730.524182, 552461.732622 4179721.940869, 552472.029395 4179597.472100, 552472.755825 4179588.522770)

LINESTRING (552224.403747 4178389.557823, 552145.932122 4178383.069605)

LINESTRING (552224.403747 4178389.557823, 552210.876596 4178554.348812, 552210.584651 4178555.933596, 552209.903075 4178566.181369)

LINESTRING (552224.403747 4178389.557823, 552239.847309 4178390.942730, 552286.347597 4178394.743650, 552296.050783 4178395.559681, 552306.475495 4178396.513445)

LINESTRING (552145.932122 4178383.069605, 552224.403747 4178389.557823)

LINESTRING (552145.932122 4178383.069605, 552132.147284 4178551.243142, 552131.353632 4178559.726053)

LINESTRING (552209.903075 4178566.181369, 552220.730835 4178567.448251, 552263.011148 4178571.122467, 552281.104250 4178572.790544, 552289.929343 4178574.510820)

LINESTRING (552209.903075 4178566.181369, 552203.026300 4178565.627432, 552138.476864 4178560.314775, 552131.353632 4178559.726053)

LINESTRING (552209.903075 4178566.181369, 552209.138538 4178575.618658, 552196.158622 4178736.152564, 552195.518605 4178744.015106)

LINESTRING (552209.903075 4178566.181369, 552210.584651 4178555.933596, 552210.876596 4178554.348812, 552224.403747 4178389.557823)

LINESTRING (552306.475495 4178396.513445, 552296.050783 4178395.559681, 552286.347597 4178394.743650, 552239.847309 4178390.942730, 552224.403747 4178389.557823)

LINESTRING (552131.353632 4178559.726053, 552124.635273 4178559.195375, 552098.844946 4178557.146132, 552069.779042 4178554.843276, 552059.362548 4178554.011909, 552049.034074 4178553.192206)

LINESTRING (552131.353632 4178559.726053, 552138.476864 4178560.314775, 552203.026300 4178565.627432, 552209.903075 4178566.181369)

LINESTRING (552131.353632 4178559.726053, 552132.147284 4178551.243142, 552145.932122 4178383.069605)

LINESTRING (552131.353632 4178559.726053, 552130.733780 4178568.587306, 552117.959437 4178730.287618, 552117.297276 4178737.484305)

LINESTRING (552480.496845 4178450.166959, 552479.712394 4178459.914769, 552469.690840 4178582.487784, 552469.034470 4178591.493025)

LINESTRING (552480.496845 4178450.166959, 552470.564695 4178449.349252, 552404.314276 4178444.023701, 552395.667574 4178443.325210)

LINESTRING (552469.034470 4178591.493025, 552469.690840 4178582.487784, 552479.712394 4178459.914769, 552480.496845 4178450.166959)

LINESTRING (552469.034470 4178591.493025, 552468.343077 4178600.464756, 552457.875588 4178722.557868, 552457.741811 4178724.199128, 552456.866279 4178734.423464)

LINESTRING (552469.034470 4178591.493025, 552458.495007 4178590.615987, 552427.440043 4178588.044017, 552415.086299 4178587.088925, 552395.107726 4178585.464045, 552383.838001 4178584.438223)

LINESTRING (552395.667574 4178443.325210, 552384.625922 4178442.422888, 552322.002963 4178437.420626, 552311.375759 4178436.454461)

LINESTRING (552395.667574 4178443.325210, 552404.314276 4178444.023701, 552470.564695 4178449.349252, 552480.496845 4178450.166959)

LINESTRING (552395.667574 4178443.325210, 552394.924031 4178452.196755, 552384.498645 4178576.132011, 552383.838001 4178584.438223)

LINESTRING (552395.667574 4178443.325210, 552396.306176 4178435.717867, 552400.138376 4178389.985052, 552400.329163 4178387.689529)

LINESTRING (552311.375759 4178436.454461, 552300.862794 4178435.533416)

LINESTRING (552311.375759 4178436.454461, 552322.002963 4178437.420626, 552384.625922 4178442.422888, 552395.667574 4178443.325210)

LINESTRING (552311.375759 4178436.454461, 552310.897925 4178445.116886, 552304.476749 4178524.086037, 552301.138502 4178568.424017, 552300.681328 4178576.609477)

LINESTRING (552383.838001 4178584.438223, 552383.095256 4178593.187727, 552372.434308 4178715.423935, 552372.318307 4178717.043118, 552371.398976 4178727.244992)

LINESTRING (552383.838001 4178584.438223, 552395.107726 4178585.464045, 552415.086299 4178587.088925, 552427.440043 4178588.044017, 552458.495007 4178590.615987, 552469.034470 4178591.493025)

LINESTRING (552383.838001 4178584.438223, 552384.498645 4178576.132011, 552394.924031 4178452.196755, 552395.667574 4178443.325210)

LINESTRING (552383.838001 4178584.438223, 552374.187477 4178583.688992, 552360.760196 4178582.538540, 552338.536522 4178580.699821, 552314.798358 4178578.740597, 552309.013449 4178578.271169, 552300.681328 4178576.609477)

LINESTRING (552400.329163 4178387.689529, 552400.138376 4178389.985052, 552396.306176 4178435.717867, 552395.667574 4178443.325210)

LINESTRING (552300.862794 4178435.533416, 552311.375759 4178436.454461)

LINESTRING (552300.862794 4178435.533416, 552301.758964 4178427.583746, 552306.475495 4178396.513445)

LINESTRING (552300.681328 4178576.609477, 552289.929343 4178574.510820)

LINESTRING (552300.681328 4178576.609477, 552309.013449 4178578.271169, 552314.798358 4178578.740597, 552338.536522 4178580.699821, 552360.760196 4178582.538540, 552374.187477 4178583.688992, 552383.838001 4178584.438223)

LINESTRING (552300.681328 4178576.609477, 552299.974470 4178585.270451, 552297.740733 4178612.428764, 552295.681139 4178638.523030, 552289.665235 4178710.582385, 552288.793007 4178720.318561)

LINESTRING (551931.793018 4179830.047959, 551942.691641 4179830.993186, 552017.115318 4179836.100525, 552053.521277 4179838.638261, 552061.594094 4179839.321697, 552092.415211 4179841.924180, 552102.354378 4179842.763695)

LINESTRING (551931.793018 4179830.047959, 551932.445027 4179821.630696, 551932.714793 4179817.959835, 551934.114233 4179801.358915, 551942.681615 4179701.232997, 551943.101967 4179696.031928, 551943.770142 4179687.847772)

LINESTRING (551931.793018 4179830.047959, 551920.859302 4179829.080334, 551857.401117 4179824.076155, 551847.541528 4179823.181960)

LINESTRING (552102.354378 4179842.763695, 552108.788646 4179843.481199)

LINESTRING (552102.354378 4179842.763695, 552102.897748 4179836.231966, 552113.369361 4179711.098205, 552114.131538 4179702.004835)

LINESTRING (552102.354378 4179842.763695, 552092.415211 4179841.924180, 552061.594094 4179839.321697, 552053.521277 4179838.638261, 552017.115318 4179836.100525, 551942.691641 4179830.993186, 551931.793018 4179830.047959)

LINESTRING (551943.770142 4179687.847772, 551944.399799 4179680.184855, 551944.724170 4179676.236955, 551954.275904 4179559.729441, 551954.628667 4179555.471052, 551955.353628 4179546.665917)

LINESTRING (551943.770142 4179687.847772, 551955.470413 4179688.809161, 551969.503618 4179689.973901, 552018.936791 4179694.069323, 552028.717739 4179694.885556)

LINESTRING (551943.770142 4179687.847772, 551943.101967 4179696.031928, 551942.681615 4179701.232997, 551934.114233 4179801.358915, 551932.714793 4179817.959835, 551932.445027 4179821.630696, 551931.793018 4179830.047959)

LINESTRING (551943.770142 4179687.847772, 551933.284678 4179687.005008, 551867.181318 4179682.250392, 551857.628933 4179681.502361)

LINESTRING (551847.541528 4179823.181960, 551836.625758 4179822.159084, 551771.237298 4179817.343143, 551761.245784 4179816.414937)

LINESTRING (551847.541528 4179823.181960, 551857.401117 4179824.076155, 551920.859302 4179829.080334, 551931.793018 4179830.047959)

LINESTRING (551847.541528 4179823.181960, 551848.543323 4179815.155231, 551857.564687 4179690.311662, 551857.628933 4179681.502361)

LINESTRING (551955.353628 4179546.665917, 551956.010077 4179538.947694, 551956.209809 4179536.607835, 551958.340167 4179511.667831, 551961.863218 4179471.214221, 551966.423508 4179417.142071, 551966.751948 4179413.948683, 551967.403036 4179405.686756)

LINESTRING (551955.353628 4179546.665917, 551954.628667 4179555.471052, 551954.275904 4179559.729441, 551944.724170 4179676.236955, 551944.399799 4179680.184855, 551943.770142 4179687.847772)

LINESTRING (551955.353628 4179546.665917, 551945.361102 4179545.848440, 551881.499417 4179541.629340, 551868.873233 4179540.795375)

LINESTRING (551955.353628 4179546.665917, 551965.795018 4179547.541713, 552031.216355 4179553.058376, 552040.874154 4179553.873843)

LINESTRING (552028.717739 4179694.885556, 552029.401863 4179686.978890, 552040.132467 4179562.523532, 552040.874154 4179553.873843)

LINESTRING (552028.717739 4179694.885556, 552018.936791 4179694.069323, 551969.503618 4179689.973901, 551955.470413 4179688.809161, 551943.770142 4179687.847772)

LINESTRING (552028.717739 4179694.885556, 552034.088038 4179695.329994, 552104.192342 4179701.143118, 552114.131538 4179702.004835)

LINESTRING (551857.628933 4179681.502361, 551857.687663 4179673.569557, 551868.188066 4179548.890665, 551868.873233 4179540.795375)

LINESTRING (551857.628933 4179681.502361, 551857.564687 4179690.311662, 551848.543323 4179815.155231, 551847.541528 4179823.181960)

LINESTRING (551857.628933 4179681.502361, 551848.596010 4179680.790895, 551783.431793 4179675.155233, 551773.650942 4179674.317101)

LINESTRING (551857.628933 4179681.502361, 551867.181318 4179682.250392, 551933.284678 4179687.005008, 551943.770142 4179687.847772)

LINESTRING (551967.403036 4179405.686756, 551956.961745 4179404.766580, 551892.658826 4179399.102236, 551882.877726 4179398.252884)

LINESTRING (551967.403036 4179405.686756, 551976.700572 4179406.388920, 552042.302554 4179411.374213, 552052.550957 4179412.149040)

LINESTRING (551967.403036 4179405.686756, 551968.013504 4179398.278915, 551968.283296 4179394.608057, 551975.228477 4179307.386973, 551976.756171 4179297.011367, 551979.170444 4179287.129547, 551983.398506 4179275.983204, 551985.629736 4179271.381615, 551988.486820 4179262.523363)

LINESTRING (551967.403036 4179405.686756, 551966.751948 4179413.948683, 551966.423508 4179417.142071, 551961.863218 4179471.214221, 551958.340167 4179511.667831, 551956.209809 4179536.607835, 551956.010077 4179538.947694, 551955.353628 4179546.665917)

LINESTRING (551868.873233 4179540.795375, 551869.967130 4179530.738782, 551877.149343 4179464.456023, 551882.180516 4179406.858481, 551882.877726 4179398.252884)

LINESTRING (551868.873233 4179540.795375, 551868.188066 4179548.890665, 551857.687663 4179673.569557, 551857.628933 4179681.502361)

LINESTRING (551868.873233 4179540.795375, 551860.245822 4179540.008785, 551794.747876 4179534.038092, 551784.860951 4179533.232570)

LINESTRING (551868.873233 4179540.795375, 551881.499417 4179541.629340, 551945.361102 4179545.848440, 551955.353628 4179546.665917)

LINESTRING (552040.874154 4179553.873843, 552041.446365 4179546.953959, 552044.737646 4179506.998202, 552051.835533 4179420.821083, 552052.550957 4179412.149040)

LINESTRING (552040.874154 4179553.873843, 552040.132467 4179562.523532, 552029.401863 4179686.978890, 552028.717739 4179694.885556)

LINESTRING (552040.874154 4179553.873843, 552031.216355 4179553.058376, 551965.795018 4179547.541713, 551955.353628 4179546.665917)

LINESTRING (552040.874154 4179553.873843, 552050.505597 4179554.678060, 552115.539623 4179560.137471, 552126.113035 4179561.025401)

LINESTRING (551882.877726 4179398.252884, 551872.304363 4179397.320888, 551817.147136 4179392.680001)

LINESTRING (551882.877726 4179398.252884, 551892.658826 4179399.102236, 551956.961745 4179404.766580, 551967.403036 4179405.686756)

LINESTRING (551882.877726 4179398.252884, 551883.479660 4179390.789507, 551889.853898 4179300.369314, 551892.888318 4179264.727993, 551893.645072 4179263.456794, 551900.918611 4179255.469569)

LINESTRING (551882.877726 4179398.252884, 551882.180516 4179406.858481, 551877.149343 4179464.456023, 551869.967130 4179530.738782, 551868.873233 4179540.795375)

LINESTRING (552052.550957 4179412.149040, 552042.302554 4179411.374213, 551976.700572 4179406.388920, 551967.403036 4179405.686756)

LINESTRING (552052.550957 4179412.149040, 552064.401001 4179413.167000, 552127.014061 4179418.577901, 552137.543473 4179419.487755)

LINESTRING (552052.550957 4179412.149040, 552053.268485 4179403.144150, 552063.261512 4179277.019904, 552068.005211 4179269.327512)

LINESTRING (552052.550957 4179412.149040, 552051.835533 4179420.821083, 552044.737646 4179506.998202, 552041.446365 4179546.953959, 552040.874154 4179553.873843)

LINESTRING (551988.486820 4179262.523363, 551990.538688 4179255.635003, 551990.906296 4179251.820524, 552003.553902 4179098.551599, 552004.021999 4179092.773880, 552004.363192 4179088.959236, 552004.642725 4179085.144202)

LINESTRING (551988.486820 4179262.523363, 551985.629736 4179271.381615, 551983.398506 4179275.983204, 551979.170444 4179287.129547, 551976.756171 4179297.011367, 551975.228477 4179307.386973, 551968.283296 4179394.608057, 551968.013504 4179398.278915, 551967.403036 4179405.686756)

LINESTRING (551988.486820 4179262.523363, 551999.016514 4179263.421942, 552068.005211 4179269.327512)

LINESTRING (551988.486820 4179262.523363, 551974.628918 4179261.381900, 551910.401649 4179256.117347, 551909.916693 4179256.191959, 551900.918611 4179255.469569)

LINESTRING (552004.642725 4179085.144202, 551999.809075 4179084.747559, 551994.860911 4179084.350196, 551990.872543 4179084.014366, 551929.355362 4179079.021979, 551922.408601 4179078.456732)

LINESTRING (552004.642725 4179085.144202, 552008.780771 4179085.492078, 552015.797780 4179086.091127, 552023.184613 4179086.714707, 552080.799943 4179091.605473, 552087.790518 4179092.204416)

LINESTRING (552004.642725 4179085.144202, 552004.943855 4179082.094884, 552005.234017 4179077.991439, 552005.491243 4179074.919653, 552005.645751 4179074.166144, 552006.264323 4179065.482396, 552017.300700 4178931.697870, 552018.579182 4178916.161370, 552019.213152 4178907.832772)

LINESTRING (552004.642725 4179085.144202, 552004.363192 4179088.959236, 552004.021999 4179092.773880, 552003.553902 4179098.551599, 551990.906296 4179251.820524, 551990.538688 4179255.635003, 551988.486820 4179262.523363)

LINESTRING (552068.005211 4179269.327512, 552150.909937 4179275.521424)

LINESTRING (552068.005211 4179269.327512, 552063.261512 4179277.019904, 552053.268485 4179403.144150, 552052.550957 4179412.149040)

LINESTRING (552068.005211 4179269.327512, 552072.756255 4179261.868171, 552073.797293 4179260.221543, 552087.018118 4179101.519622, 552087.790518 4179092.204416)

LINESTRING (552068.005211 4179269.327512, 551999.016514 4179263.421942, 551988.486820 4179262.523363)

LINESTRING (551900.918611 4179255.469569, 551908.010194 4179248.402117, 551908.506611 4179246.507941, 551911.491915 4179213.085387, 551921.778163 4179086.241688, 551922.408601 4179078.456732)

LINESTRING (551900.918611 4179255.469569, 551893.645072 4179263.456794, 551892.888318 4179264.727993, 551889.853898 4179300.369314, 551883.479660 4179390.789507, 551882.877726 4179398.252884)

LINESTRING (551900.918611 4179255.469569, 551909.916693 4179256.191959, 551910.401649 4179256.117347, 551974.628918 4179261.381900, 551988.486820 4179262.523363)

LINESTRING (551900.918611 4179255.469569, 551893.875244 4179254.881545, 551889.832078 4179254.867183, 551835.838091 4179250.000509, 551828.891469 4179249.435340)

LINESTRING (551922.408601 4179078.456732, 551915.717291 4179077.893101, 551851.128380 4179072.471423, 551843.996697 4179071.893984)

LINESTRING (551922.408601 4179078.456732, 551929.355362 4179079.021979, 551990.872543 4179084.014366, 551994.860911 4179084.350196, 551999.809075 4179084.747559, 552004.642725 4179085.144202)

LINESTRING (551922.408601 4179078.456732, 551923.027995 4179071.026758, 551936.587509 4178908.476738, 551937.169103 4178901.457055)

LINESTRING (551922.408601 4179078.456732, 551921.778163 4179086.241688, 551911.491915 4179213.085387, 551908.506611 4179246.507941, 551908.010194 4179248.402117, 551900.918611 4179255.469569)

LINESTRING (552087.790518 4179092.204416, 552080.799943 4179091.605473, 552023.184613 4179086.714707, 552015.797780 4179086.091127, 552008.780771 4179085.492078, 552004.642725 4179085.144202)

LINESTRING (552087.790518 4179092.204416, 552097.052814 4179092.961964, 552159.934029 4179098.141764, 552166.775057 4179098.706542)

LINESTRING (552087.790518 4179092.204416, 552088.456628 4179084.375314, 552102.166197 4178922.292461, 552102.742980 4178914.662514)

LINESTRING (552087.790518 4179092.204416, 552087.018118 4179101.519622, 552073.797293 4179260.221543, 552072.756255 4179261.868171, 552068.005211 4179269.327512)

LINESTRING (552019.213152 4178907.832772, 552019.732034 4178900.990224, 552021.187851 4178882.481293, 552026.224762 4178818.592849, 552033.859484 4178761.844016, 552036.276143 4178739.058358, 552036.749056 4178731.128179)

LINESTRING (552019.213152 4178907.832772, 552018.579182 4178916.161370, 552017.300700 4178931.697870, 552006.264323 4179065.482396, 552005.645751 4179074.166144, 552005.491243 4179074.919653, 552005.234017 4179077.991439, 552004.943855 4179082.094884, 552004.642725 4179085.144202)

LINESTRING (552019.213152 4178907.832772, 552009.641981 4178907.128844, 551945.163918 4178902.084393, 551937.169103 4178901.457055)

LINESTRING (552019.213152 4178907.832772, 552030.122709 4178908.633923, 552095.435277 4178914.039365, 552102.742980 4178914.662514)

LINESTRING (552036.749056 4178731.128179, 552023.480470 4178729.990370, 551959.706449 4178724.839320, 551951.834859 4178724.201652)

LINESTRING (552036.749056 4178731.128179, 552044.665519 4178731.633067, 552109.857492 4178736.827026, 552117.297276 4178737.484305)

LINESTRING (552036.749056 4178731.128179, 552037.202530 4178723.486355, 552037.471947 4178719.882072, 552038.338167 4178708.259630, 552038.492070 4178706.207965, 552038.385586 4178682.607516, 552046.861141 4178580.617244, 552047.099164 4178577.800532, 552048.333276 4178562.330335, 552049.034074 4178553.192206)

LINESTRING (552036.749056 4178731.128179, 552036.276143 4178739.058358, 552033.859484 4178761.844016, 552026.224762 4178818.592849, 552021.187851 4178882.481293, 552019.732034 4178900.990224, 552019.213152 4178907.832772)

LINESTRING (551937.169103 4178901.457055, 551937.836339 4178893.428236, 551951.253034 4178731.254617, 551951.834859 4178724.201652)

LINESTRING (551937.169103 4178901.457055, 551936.587509 4178908.476738, 551923.027995 4179071.026758, 551922.408601 4179078.456732)

LINESTRING (551937.169103 4178901.457055, 551931.481301 4178900.988499, 551865.895747 4178895.538260, 551858.482237 4178894.925752)

LINESTRING (551937.169103 4178901.457055, 551945.163918 4178902.084393, 552009.641981 4178907.128844, 552019.213152 4178907.832772)

LINESTRING (552102.742980 4178914.662514, 552103.288358 4178907.820136, 552113.199139 4178786.533072, 552116.579036 4178745.191023, 552117.297276 4178737.484305)

LINESTRING (552102.742980 4178914.662514, 552102.166197 4178922.292461, 552088.456628 4179084.375314, 552087.790518 4179092.204416)

LINESTRING (552102.742980 4178914.662514, 552095.435277 4178914.039365, 552030.122709 4178908.633923, 552019.213152 4178907.832772)

LINESTRING (552102.742980 4178914.662514, 552109.575495 4178915.204997, 552173.197724 4178920.433940, 552181.051425 4178921.082805)

LINESTRING (551951.834859 4178724.201652, 551944.615139 4178723.568100, 551881.143260 4178717.986845, 551872.928594 4178717.269427)

LINESTRING (551951.834859 4178724.201652, 551959.706449 4178724.839320, 552023.480470 4178729.990370, 552036.749056 4178731.128179)

LINESTRING (551951.834859 4178724.201652, 551952.464856 4178716.494366, 551965.545893 4178555.938608, 551966.230659 4178546.534084)

LINESTRING (551951.834859 4178724.201652, 551951.253034 4178731.254617, 551937.836339 4178893.428236, 551937.169103 4178901.457055)

LINESTRING (552117.297276 4178737.484305, 552109.857492 4178736.827026, 552044.665519 4178731.633067, 552036.749056 4178731.128179)

LINESTRING (552117.297276 4178737.484305, 552124.041566 4178738.070621, 552189.152762 4178743.486605, 552195.518605 4178744.015106)

LINESTRING (552117.297276 4178737.484305, 552117.959437 4178730.287618, 552130.733780 4178568.587306, 552131.353632 4178559.726053)

LINESTRING (552117.297276 4178737.484305, 552116.579036 4178745.191023, 552113.199139 4178786.533072, 552103.288358 4178907.820136, 552102.742980 4178914.662514)

LINESTRING (552049.034074 4178553.192206, 552038.054064 4178552.312927, 552023.957051 4178551.180988, 551972.816898 4178547.063801, 551966.230659 4178546.534084)

LINESTRING (552049.034074 4178553.192206, 552059.362548 4178554.011909, 552069.779042 4178554.843276, 552098.844946 4178557.146132, 552124.635273 4178559.195375, 552131.353632 4178559.726053)

LINESTRING (552049.034074 4178553.192206, 552048.333276 4178562.330335, 552047.099164 4178577.800532, 552046.861141 4178580.617244, 552038.385586 4178682.607516, 552038.492070 4178706.207965, 552038.338167 4178708.259630, 552037.471947 4178719.882072, 552037.202530 4178723.486355, 552036.749056 4178731.128179)

LINESTRING (551966.230659 4178546.534084, 551965.545893 4178555.938608, 551952.464856 4178716.494366, 551951.834859 4178724.201652)

LINESTRING (551966.230659 4178546.534084, 551959.415520 4178545.980740, 551895.314936 4178540.695012, 551887.593064 4178540.036160)

LINESTRING (551966.230659 4178546.534084, 551972.816898 4178547.063801, 552023.957051 4178551.180988, 552038.054064 4178552.312927, 552049.034074 4178553.192206)

LINESTRING (552449.390781 4179871.605319, 552440.234798 4179870.892417, 552396.437684 4179867.174239, 552374.394631 4179865.181175, 552364.128777 4179864.472399)

LINESTRING (552472.755825 4179588.522770, 552463.255305 4179587.918608, 552397.818332 4179583.552324, 552387.085297 4179582.840555)

LINESTRING (552472.755825 4179588.522770, 552472.029395 4179597.472100, 552461.732622 4179721.940869, 552461.026159 4179730.524182)

LINESTRING (552290.505736 4179716.603016, 552299.010109 4179717.311612, 552350.819948 4179721.612736, 552355.709086 4179722.919764, 552358.745369 4179726.101234, 552360.491100 4179729.995702, 552366.739545 4179750.262249, 552369.616176 4179761.930659, 552370.615443 4179772.399935, 552370.782955 4179783.463074, 552370.241537 4179793.811604, 552369.386068 4179803.681039, 552365.028698 4179854.536674, 552364.937793 4179856.366831, 552364.128777 4179864.472399)

LINESTRING (552290.505736 4179716.603016, 552279.377845 4179715.678067, 552215.577483 4179710.347205, 552202.591720 4179709.310730)

LINESTRING (552290.505736 4179716.603016, 552291.164954 4179708.496493, 552299.734824 4179603.122798, 552300.397649 4179594.450437, 552300.948146 4179584.046487, 552298.739242 4179576.787201, 552291.941870 4179573.570793, 552227.424069 4179568.690217, 552218.866337 4179568.036836)

LINESTRING (552290.505736 4179716.603016, 552289.712224 4179726.439563, 552279.675160 4179850.688276, 552279.060203 4179857.374877)

LINESTRING (552364.128777 4179864.472399, 552354.823682 4179863.658786, 552294.554412 4179858.671494, 552288.550417 4179858.167387, 552279.060203 4179857.374877)

LINESTRING (552364.128777 4179864.472399, 552364.937793 4179856.366831, 552365.028698 4179854.536674, 552369.386068 4179803.681039, 552370.241537 4179793.811604, 552370.782955 4179783.463074, 552370.615443 4179772.399935, 552369.616176 4179761.930659, 552366.739545 4179750.262249, 552360.491100 4179729.995702, 552358.745369 4179726.101234, 552355.709086 4179722.919764, 552350.819948 4179721.612736, 552299.010109 4179717.311612, 552290.505736 4179716.603016)

LINESTRING (552364.128777 4179864.472399, 552374.394631 4179865.181175, 552396.437684 4179867.174239, 552440.234798 4179870.892417, 552449.390781 4179871.605319)

LINESTRING (552202.591720 4179709.310730, 552201.928231 4179718.105144, 552200.317246 4179737.423048, 552199.916035 4179742.357940, 552194.144750 4179812.177747, 552193.696625 4179817.567252, 552191.663411 4179842.363593, 552191.006266 4179850.159467)

LINESTRING (552202.591720 4179709.310730, 552215.577483 4179710.347205, 552279.377845 4179715.678067, 552290.505736 4179716.603016)

LINESTRING (552202.591720 4179709.310730, 552187.854285 4179708.085655, 552126.025408 4179702.989882, 552114.131538 4179702.004835)

LINESTRING (552202.591720 4179709.310730, 552198.208428 4179700.451060, 552199.865868 4179677.971274, 552205.727488 4179600.862408, 552207.856271 4179576.288591, 552208.653373 4179567.262023)

LINESTRING (552218.866337 4179568.036836, 552208.653373 4179567.262023)

LINESTRING (552218.866337 4179568.036836, 552227.424069 4179568.690217, 552291.941870 4179573.570793, 552298.739242 4179576.787201, 552300.948146 4179584.046487, 552300.397649 4179594.450437, 552299.734824 4179603.122798, 552291.164954 4179708.496493, 552290.505736 4179716.603016)

LINESTRING (552218.866337 4179568.036836, 552218.104457 4179577.063626, 552210.481103 4179677.794427, 552208.587736 4179701.360061, 552202.591720 4179709.310730)

LINESTRING (552279.060203 4179857.374877, 552268.390509 4179856.452846, 552231.934364 4179853.514408, 552217.100234 4179852.299758, 552204.000475 4179851.218173, 552191.006266 4179850.159467)

LINESTRING (552279.060203 4179857.374877, 552288.550417 4179858.167387, 552294.554412 4179858.671494, 552354.823682 4179863.658786, 552364.128777 4179864.472399)

LINESTRING (552279.060203 4179857.374877, 552279.675160 4179850.688276, 552289.712224 4179726.439563, 552290.505736 4179716.603016)

LINESTRING (552191.006266 4179850.159467, 552176.356949 4179848.968253, 552154.382933 4179847.187028, 552108.788646 4179843.481199)

LINESTRING (552191.006266 4179850.159467, 552204.000475 4179851.218173, 552217.100234 4179852.299758, 552231.934364 4179853.514408, 552268.390509 4179856.452846, 552279.060203 4179857.374877)

LINESTRING (552191.006266 4179850.159467, 552191.663411 4179842.363593, 552193.696625 4179817.567252, 552194.144750 4179812.177747, 552199.916035 4179742.357940, 552200.317246 4179737.423048, 552201.928231 4179718.105144, 552202.591720 4179709.310730)

LINESTRING (552114.131538 4179702.004835, 552113.369361 4179711.098205, 552102.897748 4179836.231966, 552102.354378 4179842.763695)

LINESTRING (552114.131538 4179702.004835, 552114.911683 4179692.856102, 552125.332798 4179570.185226, 552126.113035 4179561.025401)

LINESTRING (552114.131538 4179702.004835, 552104.192342 4179701.143118, 552034.088038 4179695.329994, 552028.717739 4179694.885556)

LINESTRING (552114.131538 4179702.004835, 552126.025408 4179702.989882, 552187.854285 4179708.085655, 552202.591720 4179709.310730)

LINESTRING (552208.653373 4179567.262023, 552218.866337 4179568.036836)

LINESTRING (552208.653373 4179567.262023, 552209.282931 4179559.654599, 552211.420941 4179533.627352, 552219.580882 4179434.420035, 552220.295639 4179425.881144)

LINESTRING (552208.653373 4179567.262023, 552199.681795 4179566.583849, 552137.497007 4179561.885187, 552126.113035 4179561.025401)

LINESTRING (552126.113035 4179561.025401, 552126.791752 4179552.597228, 552129.056642 4179524.573603, 552136.779075 4179428.925061, 552137.543473 4179419.487755)

LINESTRING (552126.113035 4179561.025401, 552125.332798 4179570.185226, 552114.911683 4179692.856102, 552114.131538 4179702.004835)

LINESTRING (552126.113035 4179561.025401, 552115.539623 4179560.137471, 552050.505597 4179554.678060, 552040.874154 4179553.873843)

LINESTRING (552126.113035 4179561.025401, 552137.497007 4179561.885187, 552199.681795 4179566.583849, 552208.653373 4179567.262023)

LINESTRING (551773.650942 4179674.317101, 551774.244303 4179666.798185, 551784.192646 4179541.461115, 551784.860951 4179533.232570)

LINESTRING (551773.650942 4179674.317101, 551772.952887 4179683.078038, 551770.158586 4179718.454635, 551762.619204 4179802.498903, 551762.026462 4179808.519954, 551761.245784 4179816.414937)

LINESTRING (551773.650942 4179674.317101, 551763.007877 4179673.318230, 551723.991956 4179669.678066, 551721.799937 4179669.475686, 551710.768959 4179668.529925)

LINESTRING (551773.650942 4179674.317101, 551783.431793 4179675.155233, 551848.596010 4179680.790895, 551857.628933 4179681.502361)

LINESTRING (551784.860951 4179533.232570, 551785.576017 4179524.571600, 551797.663615 4179399.481013, 551798.412123 4179391.108735)

LINESTRING (551784.860951 4179533.232570, 551784.192646 4179541.461115, 551774.244303 4179666.798185, 551773.650942 4179674.317101)

LINESTRING (551784.860951 4179533.232570, 551775.229671 4179532.395379, 551734.942129 4179529.157713, 551733.392722 4179529.014842, 551727.933871 4179528.625524, 551722.351983 4179528.191056)

LINESTRING (551784.860951 4179533.232570, 551794.747876 4179534.038092, 551860.245822 4179540.008785, 551868.873233 4179540.795375)

LINESTRING (551761.245784 4179816.414937, 551762.026462 4179808.519954, 551762.619204 4179802.498903, 551770.158586 4179718.454635, 551772.952887 4179683.078038, 551773.650942 4179674.317101)

LINESTRING (551761.245784 4179816.414937, 551751.676907 4179815.511588, 551713.628227 4179812.243681, 551709.775070 4179810.067003, 551699.662069 4179804.633399)

LINESTRING (551761.245784 4179816.414937, 551771.237298 4179817.343143, 551836.625758 4179822.159084, 551847.541528 4179823.181960)

LINESTRING (551710.768959 4179668.529925, 551716.490120 4179597.633299)

LINESTRING (551710.768959 4179668.529925, 551702.556172 4179770.145033, 551700.588242 4179794.597922, 551699.662069 4179804.633399)

LINESTRING (551710.768959 4179668.529925, 551721.799937 4179669.475686, 551723.991956 4179669.678066, 551763.007877 4179673.318230, 551773.650942 4179674.317101)

LINESTRING (552398.663169 4179442.369282, 552397.956684 4179450.963691, 552387.864978 4179573.813890, 552387.085297 4179582.840555)

LINESTRING (552398.663169 4179442.369282, 552386.443111 4179441.370679, 552329.938530 4179436.751071)

LINESTRING (552387.085297 4179582.840555, 552385.018616 4179608.646315)

LINESTRING (552387.085297 4179582.840555, 552387.864978 4179573.813890, 552397.956684 4179450.963691, 552398.663169 4179442.369282)

LINESTRING (552387.085297 4179582.840555, 552397.818332 4179583.552324, 552463.255305 4179587.918608, 552472.755825 4179588.522770)

LINESTRING (552329.938530 4179436.751071, 552386.443111 4179441.370679, 552398.663169 4179442.369282)

LINESTRING (552220.295639 4179425.881144, 552230.683748 4179426.845698)

LINESTRING (552220.295639 4179425.881144, 552220.888576 4179418.495397, 552222.701574 4179396.504805, 552231.309496 4179291.974587, 552232.126722 4179282.559815)

LINESTRING (552220.295639 4179425.881144, 552211.411991 4179425.203517, 552149.094787 4179420.381899, 552137.543473 4179419.487755)

LINESTRING (552230.683748 4179426.845698, 552220.295639 4179425.881144)

LINESTRING (552230.683748 4179426.845698, 552229.926557 4179435.129127, 552228.402123 4179453.282556, 552224.809228 4179496.209894, 552221.448362 4179535.887768, 552219.407120 4179560.539804, 552218.866337 4179568.036836)

LINESTRING (552232.126722 4179282.559815, 552242.603729 4179283.425087)

LINESTRING (552232.126722 4179282.559815, 552232.750041 4179274.552924, 552246.037017 4179112.844784, 552246.629712 4179105.503422)

LINESTRING (552232.126722 4179282.559815, 552223.146660 4179281.781709, 552150.909937 4179275.521424)

LINESTRING (552137.543473 4179419.487755, 552127.014061 4179418.577901, 552064.401001 4179413.167000, 552052.550957 4179412.149040)

LINESTRING (552137.543473 4179419.487755, 552149.094787 4179420.381899, 552211.411991 4179425.203517, 552220.295639 4179425.881144)

LINESTRING (552137.543473 4179419.487755, 552138.235229 4179410.393945, 552147.842613 4179284.167481, 552150.909937 4179275.521424)

LINESTRING (552137.543473 4179419.487755, 552136.779075 4179428.925061, 552129.056642 4179524.573603, 552126.791752 4179552.597228, 552126.113035 4179561.025401)

LINESTRING (552150.909937 4179275.521424, 552068.005211 4179269.327512)

LINESTRING (552150.909937 4179275.521424, 552151.853788 4179269.746720, 552152.470846 4179265.501107, 552165.995304 4179107.777598, 552166.775057 4179098.706542)

LINESTRING (552150.909937 4179275.521424, 552147.842613 4179284.167481, 552138.235229 4179410.393945, 552137.543473 4179419.487755)

LINESTRING (552150.909937 4179275.521424, 552223.146660 4179281.781709, 552232.126722 4179282.559815)

LINESTRING (551817.147136 4179392.680001, 551823.663048 4179313.233951, 551828.105733 4179258.118049, 551828.891469 4179249.435340)

LINESTRING (551817.147136 4179392.680001, 551806.784811 4179391.804894, 551798.412123 4179391.108735)

LINESTRING (551817.147136 4179392.680001, 551872.304363 4179397.320888, 551882.877726 4179398.252884)

LINESTRING (551734.080913 4179385.711742, 551731.293256 4179420.045415)

LINESTRING (551734.080913 4179385.711742, 551734.644136 4179378.780691, 551735.188280 4179372.082522, 551736.381682 4179357.377594)

LINESTRING (551734.080913 4179385.711742, 551744.470165 4179386.509259, 551747.780640 4179386.763048, 551798.412123 4179391.108735)

LINESTRING (551731.293256 4179420.045415, 551734.080913 4179385.711742)

LINESTRING (551731.293256 4179420.045415, 551730.673775 4179427.519785, 551722.351983 4179528.191056)

LINESTRING (551731.293256 4179420.045415, 551727.182421 4179419.597988, 551721.213241 4179419.105615, 551717.489136 4179418.793764, 551642.953503 4179412.656633, 551636.279927 4179412.115525)

LINESTRING (551736.381682 4179357.377594, 551742.032004 4179293.614870, 551745.188739 4179251.017497, 551746.502480 4179242.404669)

LINESTRING (551736.381682 4179357.377594, 551735.188280 4179372.082522, 551734.644136 4179378.780691, 551734.080913 4179385.711742)

LINESTRING (551798.412123 4179391.108735, 551797.663615 4179399.481013, 551785.576017 4179524.571600, 551784.860951 4179533.232570)

LINESTRING (551798.412123 4179391.108735, 551747.780640 4179386.763048, 551744.470165 4179386.509259, 551734.080913 4179385.711742)

LINESTRING (551798.412123 4179391.108735, 551806.784811 4179391.804894, 551817.147136 4179392.680001)

LINESTRING (551722.351983 4179528.191056, 551730.673775 4179427.519785, 551731.293256 4179420.045415)

LINESTRING (551722.351983 4179528.191056, 551718.043137 4179580.356502, 551717.252180 4179589.893532, 551716.490120 4179597.633299)

LINESTRING (551722.351983 4179528.191056, 551727.933871 4179528.625524, 551733.392722 4179529.014842, 551734.942129 4179529.157713, 551775.229671 4179532.395379, 551784.860951 4179533.232570)

LINESTRING (551636.279927 4179412.115525, 551636.862490 4179404.896111, 551640.212067 4179363.764493, 551641.366591 4179349.614077)

LINESTRING (551636.279927 4179412.115525, 551629.359926 4179411.539593, 551590.568952 4179408.345306, 551550.782333 4179405.189356, 551540.314926 4179404.214068)

LINESTRING (551636.279927 4179412.115525, 551642.953503 4179412.656633, 551717.489136 4179418.793764, 551721.213241 4179419.105615, 551727.182421 4179419.597988, 551731.293256 4179420.045415)

LINESTRING (551641.366591 4179349.614077, 551642.527193 4179337.305526)

LINESTRING (551641.366591 4179349.614077, 551651.623908 4179350.388459, 551726.326694 4179356.648757, 551736.381682 4179357.377594)

LINESTRING (551641.366591 4179349.614077, 551640.212067 4179363.764493, 551636.862490 4179404.896111, 551636.279927 4179412.115525)

LINESTRING (551540.314926 4179404.214068, 551539.611764 4179412.420219, 551538.242341 4179428.566463, 551534.765401 4179469.020506, 551533.519032 4179485.211903, 551529.464181 4179530.755097, 551527.241356 4179556.604429, 551527.020939 4179559.454553, 551525.778136 4179573.671005, 551525.030611 4179581.932358)

LINESTRING (551540.314926 4179404.214068, 551540.937565 4179396.207130, 551543.294408 4179365.842843, 551552.144767 4179252.159931, 551553.454869 4179235.647175, 551554.108189 4179226.963617)

LINESTRING (551540.314926 4179404.214068, 551550.782333 4179405.189356, 551590.568952 4179408.345306, 551629.359926 4179411.539593, 551636.279927 4179412.115525)

LINESTRING (551540.314926 4179404.214068, 551533.121438 4179403.703079, 551528.014622 4179403.349382, 551466.482405 4179398.293746, 551462.344430 4179397.957235, 551451.004564 4179397.043186, 551444.110757 4179396.500859)

LINESTRING (551525.030611 4179581.932358, 551535.789850 4179582.687548, 551581.711271 4179586.458797, 551608.362017 4179588.456389, 551616.505992 4179589.073259)

LINESTRING (551525.030611 4179581.932358, 551513.998457 4179581.153285, 551436.281444 4179574.066104, 551430.365419 4179573.540985)

LINESTRING (551525.030611 4179581.932358, 551524.254929 4179590.470919, 551522.845262 4179607.426877, 551522.212180 4179614.290934, 551519.782505 4179643.645105, 551517.499043 4179673.566054, 551512.744075 4179733.906073, 551511.457899 4179750.840618, 551510.721290 4179758.769182)

LINESTRING (551525.030611 4179581.932358, 551525.778136 4179573.671005, 551527.020939 4179559.454553, 551527.241356 4179556.604429, 551529.464181 4179530.755097, 551533.519032 4179485.211903, 551534.765401 4179469.020506, 551538.242341 4179428.566463, 551539.611764 4179412.420219, 551540.314926 4179404.214068)

LINESTRING (551554.108189 4179226.963617, 551553.454869 4179235.647175, 551552.144767 4179252.159931, 551543.294408 4179365.842843, 551540.937565 4179396.207130, 551540.314926 4179404.214068)

LINESTRING (551554.108189 4179226.963617, 551554.764350 4179219.234274, 551555.746376 4179207.290744, 551568.290260 4179058.048252, 551568.952901 4179049.287088)

LINESTRING (551554.108189 4179226.963617, 551565.254909 4179227.810024, 551566.258385 4179227.927256, 551642.108067 4179234.094088, 551650.992444 4179234.693434)

LINESTRING (551554.108189 4179226.963617, 551549.150800 4179226.644129, 551544.483883 4179226.359748, 551465.572517 4179219.564454, 551458.793281 4179218.989548)

LINESTRING (551444.110757 4179396.500859, 551443.615823 4179403.820690, 551442.664418 4179415.120896, 551441.180081 4179434.184509, 551439.628205 4179454.190804, 551433.966805 4179527.173864, 551431.106395 4179564.902343, 551430.365419 4179573.540985)

LINESTRING (551444.110757 4179396.500859, 551451.004564 4179397.043186, 551462.344430 4179397.957235, 551466.482405 4179398.293746, 551528.014622 4179403.349382, 551533.121438 4179403.703079, 551540.314926 4179404.214068)

LINESTRING (551444.110757 4179396.500859, 551444.849544 4179388.217257, 551445.758920 4179376.595025, 551447.750372 4179352.497299, 551458.112458 4179227.861561, 551458.793281 4179218.989548)

LINESTRING (551444.110757 4179396.500859, 551436.345825 4179395.808863, 551429.144417 4179395.153676, 551406.413204 4179393.103456, 551396.421002 4179392.197888, 551382.862183 4179391.148045, 551369.312238 4179390.087185, 551358.922963 4179389.290141, 551348.278521 4179388.447139)

LINESTRING (551430.365419 4179573.540985, 551423.198430 4179573.041350, 551344.262433 4179566.480009, 551333.759287 4179565.615711)

LINESTRING (551430.365419 4179573.540985, 551436.281444 4179574.066104, 551513.998457 4179581.153285, 551525.030611 4179581.932358)

LINESTRING (551430.365419 4179573.540985, 551429.672861 4179582.890031, 551416.756224 4179742.959524, 551416.047583 4179750.655268)

LINESTRING (551430.365419 4179573.540985, 551431.106395 4179564.902343, 551433.966805 4179527.173864, 551439.628205 4179454.190804, 551441.180081 4179434.184509, 551442.664418 4179415.120896, 551443.615823 4179403.820690, 551444.110757 4179396.500859)

LINESTRING (551458.793281 4179218.989548, 551458.112458 4179227.861561, 551447.750372 4179352.497299, 551445.758920 4179376.595025, 551444.849544 4179388.217257, 551444.110757 4179396.500859)

LINESTRING (551458.793281 4179218.989548, 551465.572517 4179219.564454, 551544.483883 4179226.359748, 551549.150800 4179226.644129, 551554.108189 4179226.963617)

LINESTRING (551458.793281 4179218.989548, 551459.484588 4179211.260419, 551472.689796 4179050.349653, 551473.406850 4179041.322535)

LINESTRING (551458.793281 4179218.989548, 551450.455490 4179218.316154, 551404.311130 4179214.644141, 551373.354461 4179212.187672, 551362.797876 4179211.345203)

LINESTRING (551348.278521 4179388.447139, 551339.007417 4179387.734754, 551260.184649 4179381.086193, 551251.979686 4179380.325062)

LINESTRING (551348.278521 4179388.447139, 551348.987813 4179380.640445, 551351.118642 4179355.334178, 551359.947811 4179247.453830, 551362.146001 4179219.829066, 551362.797876 4179211.345203)

LINESTRING (551348.278521 4179388.447139, 551358.922963 4179389.290141, 551369.312238 4179390.087185, 551382.862183 4179391.148045, 551396.421002 4179392.197888, 551406.413204 4179393.103456, 551429.144417 4179395.153676, 551436.345825 4179395.808863, 551444.110757 4179396.500859)

LINESTRING (551348.278521 4179388.447139, 551347.583666 4179396.764307, 551345.244033 4179425.897165, 551344.655337 4179432.728222, 551341.157201 4179475.323597, 551336.594092 4179531.925748, 551335.916114 4179540.365073, 551335.732140 4179541.617700, 551334.479920 4179557.398558, 551333.759287 4179565.615711)

LINESTRING (551251.979686 4179380.325062, 551242.251154 4179379.510084, 551166.701026 4179373.515202, 551156.012162 4179372.727650)

LINESTRING (551251.979686 4179380.325062, 551260.184649 4179381.086193, 551339.007417 4179387.734754, 551348.278521 4179388.447139)

LINESTRING (551251.979686 4179380.325062, 551252.737415 4179371.797466, 551258.719242 4179296.619442, 551259.394281 4179287.225898, 551263.066196 4179246.373553, 551265.164896 4179214.864786)

LINESTRING (551251.979686 4179380.325062, 551251.213679 4179390.184045, 551238.261335 4179546.603132)

LINESTRING (551362.797876 4179211.345203, 551363.446848 4179203.327325, 551366.086927 4179171.233900, 551372.017162 4179098.862758, 551374.494507 4179070.274448, 551375.065214 4179063.509857, 551376.751164 4179041.762432, 551377.375739 4179033.422641)

LINESTRING (551362.797876 4179211.345203, 551373.354461 4179212.187672, 551404.311130 4179214.644141, 551450.455490 4179218.316154, 551458.793281 4179218.989548)

LINESTRING (551362.797876 4179211.345203, 551362.146001 4179219.829066, 551359.947811 4179247.453830, 551351.118642 4179355.334178, 551348.987813 4179380.640445, 551348.278521 4179388.447139)

LINESTRING (551362.797876 4179211.345203, 551350.436715 4179210.302883, 551341.280544 4179209.491357, 551274.466014 4179203.705271, 551266.102045 4179202.987521)

LINESTRING (551333.759287 4179565.615711, 551344.262433 4179566.480009, 551423.198430 4179573.041350, 551430.365419 4179573.540985)

LINESTRING (551333.759287 4179565.615711, 551322.233979 4179564.811633, 551287.828644 4179561.879076, 551286.921819 4179561.806861, 551245.498844 4179558.431377, 551237.311122 4179557.759127)

LINESTRING (551333.759287 4179565.615711, 551334.479920 4179557.398558, 551335.732140 4179541.617700, 551335.916114 4179540.365073, 551336.594092 4179531.925748, 551341.157201 4179475.323597, 551344.655337 4179432.728222, 551345.244033 4179425.897165, 551347.583666 4179396.764307, 551348.278521 4179388.447139)

LINESTRING (551333.759287 4179565.615711, 551333.059966 4179574.654052, 551330.690402 4179604.363691, 551322.571383 4179702.983935, 551319.984789 4179735.022250, 551319.211887 4179743.150318)

LINESTRING (551156.012162 4179372.727650, 551155.359614 4179381.355763, 551144.840532 4179507.921445, 551143.250303 4179527.128685, 551142.087432 4179541.345680, 551141.355772 4179549.951114)

LINESTRING (551156.012162 4179372.727650, 551156.813695 4179364.222510, 551163.256708 4179284.143161, 551164.281720 4179272.277526, 551168.244657 4179222.783697, 551169.910199 4179204.231561, 551170.577092 4179194.715914)

LINESTRING (551156.012162 4179372.727650, 551166.701026 4179373.515202, 551242.251154 4179379.510084, 551251.979686 4179380.325062)

LINESTRING (551156.012162 4179372.727650, 551144.425394 4179371.845776, 551092.215717 4179367.671856, 551088.156921 4179367.347120)

LINESTRING (551265.164896 4179214.864786, 551263.066196 4179246.373553, 551259.394281 4179287.225898, 551258.719242 4179296.619442, 551252.737415 4179371.797466, 551251.979686 4179380.325062)

LINESTRING (551238.261335 4179546.603132, 551251.213679 4179390.184045, 551251.979686 4179380.325062)

LINESTRING (551141.355772 4179549.951114, 551129.356852 4179548.811508, 551109.689870 4179547.003019, 551078.904351 4179544.127074, 551075.673471 4179543.829665)

LINESTRING (551141.355772 4179549.951114, 551142.087432 4179541.345680, 551143.250303 4179527.128685, 551144.840532 4179507.921445, 551155.359614 4179381.355763, 551156.012162 4179372.727650)

LINESTRING (551141.355772 4179549.951114, 551140.602779 4179559.155565, 551139.459048 4179573.128582, 551133.427605 4179646.564429)

LINESTRING (551141.355772 4179549.951114, 551152.440224 4179550.829870, 551228.559745 4179557.072286, 551237.311122 4179557.759127)

LINESTRING (551170.577092 4179194.715914, 551181.387577 4179195.814905, 551234.705425 4179200.440074, 551252.173564 4179201.835742, 551257.658730 4179202.280381, 551266.102045 4179202.987521)

LINESTRING (551170.577092 4179194.715914, 551158.347946 4179193.685798, 551105.873713 4179189.377024, 551103.100327 4179189.149016)

LINESTRING (551170.577092 4179194.715914, 551171.260078 4179186.864665, 551172.616153 4179169.919431, 551174.426182 4179147.961930, 551184.429258 4179026.596842, 551185.107800 4179018.046563)

LINESTRING (551170.577092 4179194.715914, 551169.910199 4179204.231561, 551168.244657 4179222.783697, 551164.281720 4179272.277526, 551163.256708 4179284.143161, 551156.813695 4179364.222510, 551156.012162 4179372.727650)

LINESTRING (551088.156921 4179367.347120, 551088.307581 4179374.304823, 551076.336592 4179534.902037, 551076.202068 4179536.709741, 551075.673471 4179543.829665)

LINESTRING (551088.156921 4179367.347120, 551084.952535 4179367.027683, 551031.798852 4179361.661095, 551029.941386 4179361.472068)

LINESTRING (551088.156921 4179367.347120, 551092.215717 4179367.671856, 551144.425394 4179371.845776, 551156.012162 4179372.727650)

LINESTRING (551075.673471 4179543.829665, 551074.893508 4179553.133811, 551067.980078 4179635.373919, 551067.734154 4179638.101846, 551067.495457 4179641.085010)

LINESTRING (551075.673471 4179543.829665, 551071.165820 4179543.457773, 551017.849090 4179539.000061, 551015.366352 4179538.796071)

LINESTRING (551075.673471 4179543.829665, 551078.904351 4179544.127074, 551109.689870 4179547.003019, 551129.356852 4179548.811508, 551141.355772 4179549.951114)

LINESTRING (551029.941386 4179361.472068, 551030.560440 4179353.964367, 551037.876314 4179265.025184, 551043.613908 4179194.838429, 551043.766388 4179192.975359, 551044.471819 4179184.325378)

LINESTRING (551029.941386 4179361.472068, 551031.798852 4179361.661095, 551084.952535 4179367.027683, 551088.156921 4179367.347120)

LINESTRING (551044.471819 4179184.325378, 551049.032519 4179184.697580, 551099.516967 4179188.849415, 551103.100327 4179189.149016)

LINESTRING (551044.471819 4179184.325378, 551045.227284 4179176.130615, 551047.192435 4179154.673342, 551058.761389 4179017.706717, 551059.036843 4179014.479685, 551059.645277 4179007.271498)

LINESTRING (551648.225695 4179774.519840, 551646.378141 4179764.333829, 551612.661290 4179599.589751, 551612.087129 4179597.034227, 551616.505992 4179589.073259)

LINESTRING (551648.225695 4179774.519840, 551656.044627 4179779.184515, 551690.270259 4179799.370762, 551699.662069 4179804.633399)

LINESTRING (551648.225695 4179774.519840, 551639.520977 4179769.239377, 551604.570426 4179766.313160, 551543.859337 4179761.384088, 551521.532868 4179759.569066, 551510.721290 4179758.769182)

LINESTRING (551616.505992 4179589.073259, 551608.362017 4179588.456389, 551581.711271 4179586.458797, 551535.789850 4179582.687548, 551525.030611 4179581.932358)

LINESTRING (551616.505992 4179589.073259, 551625.592088 4179589.751515, 551628.330234 4179589.957290, 551686.262521 4179594.336957, 551706.498334 4179596.705162, 551716.490120 4179597.633299)

LINESTRING (551699.662069 4179804.633399, 551690.270259 4179799.370762, 551656.044627 4179779.184515, 551648.225695 4179774.519840)

LINESTRING (551699.662069 4179804.633399, 551700.588242 4179794.597922, 551702.556172 4179770.145033, 551710.768959 4179668.529925)

LINESTRING (551699.662069 4179804.633399, 551709.775070 4179810.067003, 551713.628227 4179812.243681, 551751.676907 4179815.511588, 551761.245784 4179816.414937)

LINESTRING (551510.721290 4179758.769182, 551504.435052 4179758.308265, 551499.698388 4179757.956896, 551481.863262 4179756.281006, 551434.438394 4179752.212434, 551422.491750 4179751.216960, 551416.047583 4179750.655268)

LINESTRING (551510.721290 4179758.769182, 551510.030316 4179767.851947, 551508.511398 4179783.975078, 551504.672346 4179833.081253, 551501.449872 4179870.918419)

LINESTRING (551510.721290 4179758.769182, 551511.457899 4179750.840618, 551512.744075 4179733.906073, 551517.499043 4179673.566054, 551519.782505 4179643.645105, 551522.212180 4179614.290934, 551522.845262 4179607.426877, 551524.254929 4179590.470919, 551525.030611 4179581.932358)

LINESTRING (551510.721290 4179758.769182, 551521.532868 4179759.569066, 551543.859337 4179761.384088, 551604.570426 4179766.313160, 551639.520977 4179769.239377, 551648.225695 4179774.519840)

LINESTRING (551716.490120 4179597.633299, 551710.768959 4179668.529925)

LINESTRING (551716.490120 4179597.633299, 551706.498334 4179596.705162, 551686.262521 4179594.336957, 551628.330234 4179589.957290, 551625.592088 4179589.751515, 551616.505992 4179589.073259)

LINESTRING (551716.490120 4179597.633299, 551717.252180 4179589.893532, 551718.043137 4179580.356502, 551722.351983 4179528.191056)

LINESTRING (551642.527193 4179337.305526, 551641.366591 4179349.614077)

LINESTRING (551664.936021 4179057.765876, 551665.610609 4179049.925705, 551679.416418 4178888.031520, 551680.100952 4178880.013889)

LINESTRING (551664.936021 4179057.765876, 551664.371241 4179064.952111, 551651.829130 4179224.879306, 551651.675886 4179226.842220, 551650.992444 4179234.693434)

LINESTRING (551664.936021 4179057.765876, 551658.473775 4179057.192795, 551579.826304 4179050.209468, 551568.952901 4179049.287088)

LINESTRING (551664.936021 4179057.765876, 551672.199996 4179058.321798, 551751.003482 4179064.286218, 551757.351482 4179064.814274, 551761.322251 4179065.149879)

LINESTRING (551680.100952 4178880.013889, 551680.747817 4178872.384358, 551688.934627 4178766.541876, 551690.411301 4178747.400600, 551693.836710 4178711.107075, 551694.638430 4178702.668559)

LINESTRING (551680.100952 4178880.013889, 551679.416418 4178888.031520, 551665.610609 4179049.925705, 551664.936021 4179057.765876)

LINESTRING (551680.100952 4178880.013889, 551673.083886 4178879.392938, 551594.246058 4178872.996363, 551584.402298 4178872.202460)

LINESTRING (551680.100952 4178880.013889, 551686.387784 4178880.486027, 551756.877591 4178886.365059, 551765.567776 4178887.085351, 551771.326205 4178887.532045, 551775.851948 4178887.882237)

LINESTRING (551650.992444 4179234.693434, 551656.768113 4179235.162350, 551660.642047 4179235.475111, 551735.417732 4179241.514023, 551746.502480 4179242.404669)

LINESTRING (551650.992444 4179234.693434, 551642.108067 4179234.094088, 551566.258385 4179227.927256, 551565.254909 4179227.810024, 551554.108189 4179226.963617)

LINESTRING (551650.992444 4179234.693434, 551651.675886 4179226.842220, 551651.829130 4179224.879306, 551664.371241 4179064.952111, 551664.936021 4179057.765876)

LINESTRING (551568.952901 4179049.287088, 551568.290260 4179058.048252, 551555.746376 4179207.290744, 551554.764350 4179219.234274, 551554.108189 4179226.963617)

LINESTRING (551568.952901 4179049.287088, 551569.642863 4179041.790962, 551582.728064 4178891.986046, 551583.712233 4178881.118785, 551584.402298 4178872.202460)

LINESTRING (551568.952901 4179049.287088, 551564.154308 4179048.913110, 551557.656330 4179048.417552, 551480.573677 4179041.922062, 551473.406850 4179041.322535)

LINESTRING (551568.952901 4179049.287088, 551579.826304 4179050.209468, 551658.473775 4179057.192795, 551664.936021 4179057.765876)

LINESTRING (551761.322251 4179065.149879, 551757.351482 4179064.814274, 551751.003482 4179064.286218, 551672.199996 4179058.321798, 551664.936021 4179057.765876)

LINESTRING (551761.322251 4179065.149879, 551771.579566 4179065.979881, 551836.847465 4179071.305346, 551843.996697 4179071.893984)

LINESTRING (551761.322251 4179065.149879, 551761.922001 4179058.019346, 551769.266958 4178969.946335, 551775.176130 4178895.899917, 551775.851948 4178887.882237)

LINESTRING (551761.322251 4179065.149879, 551760.663239 4179073.300811, 551755.786475 4179133.074042, 551747.496432 4179235.620563, 551746.502480 4179242.404669)

LINESTRING (551694.638430 4178702.668559, 551695.316825 4178694.229270, 551708.110321 4178535.180353, 551708.248027 4178534.293590, 551708.799388 4178525.043549)

LINESTRING (551694.638430 4178702.668559, 551693.836710 4178711.107075, 551690.411301 4178747.400600, 551688.934627 4178766.541876, 551680.747817 4178872.384358, 551680.100952 4178880.013889)

LINESTRING (551694.638430 4178702.668559, 551685.658112 4178701.824478, 551637.155595 4178697.259894, 551609.313644 4178695.110562, 551598.245557 4178694.253505)

LINESTRING (551694.638430 4178702.668559, 551702.932683 4178703.341917, 551779.544490 4178709.547997, 551790.400497 4178710.503823)

LINESTRING (551584.402298 4178872.202460, 551583.712233 4178881.118785, 551582.728064 4178891.986046, 551569.642863 4179041.790962, 551568.952901 4179049.287088)

LINESTRING (551584.402298 4178872.202460, 551585.004058 4178864.727976, 551586.241437 4178848.592019, 551597.512949 4178702.925463, 551598.245557 4178694.253505)

LINESTRING (551584.402298 4178872.202460, 551578.185857 4178871.741936, 551572.374417 4178871.317236, 551523.641389 4178867.140198, 551495.114143 4178864.787243, 551487.753229 4178864.208683)

LINESTRING (551584.402298 4178872.202460, 551594.246058 4178872.996363, 551673.083886 4178879.392938, 551680.100952 4178880.013889)

LINESTRING (551775.851948 4178887.882237, 551771.326205 4178887.532045, 551765.567776 4178887.085351, 551756.877591 4178886.365059, 551686.387784 4178880.486027, 551680.100952 4178880.013889)

LINESTRING (551775.851948 4178887.882237, 551780.447952 4178888.266159, 551785.986088 4178888.722574, 551852.415925 4178894.410489, 551858.482237 4178894.925752)

LINESTRING (551775.851948 4178887.882237, 551776.368537 4178881.372522, 551781.376351 4178824.618075, 551789.682587 4178719.608578, 551790.400497 4178710.503823)

LINESTRING (551775.851948 4178887.882237, 551775.176130 4178895.899917, 551769.266958 4178969.946335, 551761.922001 4179058.019346, 551761.322251 4179065.149879)

LINESTRING (551708.799388 4178525.043549, 551700.936470 4178524.395083, 551700.100008 4178524.323265, 551664.386587 4178521.392103, 551639.371337 4178519.338064, 551623.424972 4178518.084274, 551612.868003 4178517.163830)

LINESTRING (551708.799388 4178525.043549, 551715.658535 4178525.608057, 551718.978027 4178525.884075, 551755.281354 4178528.863559, 551775.109361 4178530.652368, 551795.034263 4178532.441834, 551807.167147 4178533.516654)

LINESTRING (551708.799388 4178525.043549, 551708.248027 4178534.293590, 551708.110321 4178535.180353, 551695.316825 4178694.229270, 551694.638430 4178702.668559)

LINESTRING (551598.245557 4178694.253505, 551597.512949 4178702.925463, 551586.241437 4178848.592019, 551585.004058 4178864.727976, 551584.402298 4178872.202460)

LINESTRING (551598.245557 4178694.253505, 551598.864471 4178686.856798, 551610.990316 4178539.875294, 551612.141607 4178526.246351, 551612.868003 4178517.163830)

LINESTRING (551598.245557 4178694.253505, 551593.015045 4178693.887906, 551587.387567 4178693.608589, 551511.244736 4178687.029990, 551509.272262 4178686.895616, 551502.377863 4178686.353247)

LINESTRING (551598.245557 4178694.253505, 551609.313644 4178695.110562, 551637.155595 4178697.259894, 551685.658112 4178701.824478, 551694.638430 4178702.668559)

LINESTRING (551790.400497 4178710.503823, 551779.544490 4178709.547997, 551702.932683 4178703.341917, 551694.638430 4178702.668559)

LINESTRING (551790.400497 4178710.503823, 551800.939654 4178711.413292, 551865.629302 4178716.679825, 551872.928594 4178717.269427)

LINESTRING (551790.400497 4178710.503823, 551790.993783 4178703.007108, 551797.708509 4178618.580564, 551806.318602 4178542.376488, 551807.167147 4178533.516654)

LINESTRING (551790.400497 4178710.503823, 551789.682587 4178719.608578, 551781.376351 4178824.618075, 551776.368537 4178881.372522, 551775.851948 4178887.882237)

LINESTRING (551612.868003 4178517.163830, 551612.141607 4178526.246351, 551610.990316 4178539.875294, 551598.864471 4178686.856798, 551598.245557 4178694.253505)

LINESTRING (551612.868003 4178517.163830, 551623.424972 4178518.084274, 551639.371337 4178519.338064, 551664.386587 4178521.392103, 551700.100008 4178524.323265, 551700.936470 4178524.395083, 551708.799388 4178525.043549)

LINESTRING (551612.868003 4178517.163830, 551607.417354 4178516.763560, 551601.244554 4178516.325487, 551589.208663 4178515.229386, 551524.271047 4178509.896931, 551517.218142 4178509.320277)

LINESTRING (551807.167147 4178533.516654, 551806.318602 4178542.376488, 551797.708509 4178618.580564, 551790.993783 4178703.007108, 551790.400497 4178710.503823)

LINESTRING (551807.167147 4178533.516654, 551795.034263 4178532.441834, 551775.109361 4178530.652368, 551755.281354 4178528.863559, 551718.978027 4178525.884075, 551715.658535 4178525.608057, 551708.799388 4178525.043549)

LINESTRING (551807.167147 4178533.516654, 551815.470023 4178534.245654, 551833.872791 4178535.726073, 551878.514844 4178539.324399, 551887.593064 4178540.036160)

LINESTRING (551007.194747 4179635.130590, 551007.375217 4179633.012500, 551014.454420 4179549.508510, 551014.634893 4179547.390420, 551015.366352 4179538.796071)

LINESTRING (551015.366352 4179538.796071, 551015.994809 4179531.188567, 551029.036305 4179372.495215, 551029.340912 4179368.824549, 551029.941386 4179361.472068)

LINESTRING (551015.366352 4179538.796071, 551017.849090 4179539.000061, 551071.165820 4179543.457773, 551075.673471 4179543.829665)

LINESTRING (551103.100327 4179189.149016, 551102.368754 4179197.743354, 551087.930071 4179357.049253, 551087.964002 4179358.680476, 551088.156921 4179367.347120)

LINESTRING (551103.100327 4179189.149016, 551099.516967 4179188.849415, 551049.032519 4179184.697580, 551044.471819 4179184.325378)

LINESTRING (551103.100327 4179189.149016, 551105.873713 4179189.377024, 551158.347946 4179193.685798, 551170.577092 4179194.715914)

LINESTRING (551059.645277 4179007.271498, 551000.795851 4179002.346967, 550995.433863 4179001.903264, 550991.031617 4179001.532073)

LINESTRING (551059.645277 4179007.271498, 551080.283484 4179008.930529, 551088.401431 4179009.579990)

LINESTRING (550991.031617 4179001.532073, 550995.433863 4179001.903264, 551000.795851 4179002.346967, 551059.645277 4179007.271498)

LINESTRING (550991.031617 4179001.532073, 550991.564855 4178995.077898, 550994.745104 4178956.607923, 550998.428698 4178912.249452)

LINESTRING (550991.031617 4179001.532073, 550990.287542 4179009.316382, 550983.544848 4179089.671337)

LINESTRING (551088.401431 4179009.579990, 551080.283484 4179008.930529, 551059.645277 4179007.271498)

LINESTRING (551088.401431 4179009.579990, 551099.926639 4179010.527966, 551117.597387 4179011.991169)

LINESTRING (551047.254770 4179720.546397, 551049.843079 4179720.762147, 551095.684497 4179724.552393, 551114.444662 4179726.222087, 551127.264119 4179727.100480)

LINESTRING (551127.264119 4179727.100480, 551114.444662 4179726.222087, 551095.684497 4179724.552393, 551049.843079 4179720.762147, 551047.254770 4179720.546397)

LINESTRING (551127.264119 4179727.100480, 551127.794958 4179718.205317, 551128.895101 4179702.734156, 551130.341108 4179684.047495, 551133.427605 4179646.564429)

LINESTRING (551127.264119 4179727.100480, 551137.949977 4179728.298511, 551157.998157 4179729.643438, 551164.671569 4179730.173066, 551208.912807 4179733.476908, 551217.583140 4179734.418421)

LINESTRING (552246.629712 4179105.503422, 552257.308979 4179106.458753)

LINESTRING (552246.629712 4179105.503422, 552237.887081 4179104.760095, 552175.473657 4179099.449515, 552166.775057 4179098.706542)

LINESTRING (552246.629712 4179105.503422, 552247.239815 4179098.195456, 552249.245619 4179072.211776, 552249.260758 4179071.213291, 552251.709544 4179039.274220, 552254.151979 4179011.118623, 552254.888143 4179001.991822)

LINESTRING (552257.308979 4179106.458753, 552246.629712 4179105.503422)

LINESTRING (552257.308979 4179106.458753, 552256.690411 4179113.711188, 552255.042641 4179133.239646, 552245.125938 4179251.009371, 552243.251514 4179275.729021, 552242.603729 4179283.425087)

LINESTRING (552166.775057 4179098.706542, 552159.934029 4179098.141764, 552097.052814 4179092.961964, 552087.790518 4179092.204416)

LINESTRING (552166.775057 4179098.706542, 552175.473657 4179099.449515, 552237.887081 4179104.760095, 552246.629712 4179105.503422)

LINESTRING (552166.775057 4179098.706542, 552167.511119 4179089.579733, 552180.334641 4178929.943445, 552181.051425 4178921.082805)

LINESTRING (552166.775057 4179098.706542, 552165.995304 4179107.777598, 552152.470846 4179265.501107, 552151.853788 4179269.746720, 552150.909937 4179275.521424)

LINESTRING (552254.888143 4179001.991822, 552266.184791 4179002.851219)

LINESTRING (552254.888143 4179001.991822, 552255.613038 4178993.253286, 552260.319580 4178934.511089, 552260.821324 4178927.624062)

LINESTRING (552181.051425 4178921.082805, 552181.729674 4178912.743402, 552194.792775 4178752.908972, 552195.518605 4178744.015106)

LINESTRING (552181.051425 4178921.082805, 552180.334641 4178929.943445, 552167.511119 4179089.579733, 552166.775057 4179098.706542)

LINESTRING (552181.051425 4178921.082805, 552173.197724 4178920.433940, 552109.575495 4178915.204997, 552102.742980 4178914.662514)

LINESTRING (552181.051425 4178921.082805, 552191.352860 4178921.924701, 552254.094534 4178927.082124, 552260.821324 4178927.624062)

LINESTRING (551843.996697 4179071.893984, 551836.847465 4179071.305346, 551771.579566 4179065.979881, 551761.322251 4179065.149879)

LINESTRING (551843.996697 4179071.893984, 551851.128380 4179072.471423, 551915.717291 4179077.893101, 551922.408601 4179078.456732)

LINESTRING (551843.996697 4179071.893984, 551844.695159 4179064.486693, 551857.880579 4178902.344745, 551858.482237 4178894.925752)

LINESTRING (551843.996697 4179071.893984, 551843.250843 4179079.833554, 551829.673090 4179241.407230, 551828.891469 4179249.435340)

LINESTRING (551858.482237 4178894.925752, 551859.140937 4178886.841398, 551872.222055 4178725.952625, 551872.928594 4178717.269427)

LINESTRING (551858.482237 4178894.925752, 551857.880579 4178902.344745, 551844.695159 4179064.486693, 551843.996697 4179071.893984)

LINESTRING (551858.482237 4178894.925752, 551852.415925 4178894.410489, 551785.986088 4178888.722574, 551780.447952 4178888.266159, 551775.851948 4178887.882237)

LINESTRING (551858.482237 4178894.925752, 551865.895747 4178895.538260, 551931.481301 4178900.988499, 551937.169103 4178901.457055)

LINESTRING (551828.891469 4179249.435340, 551829.673090 4179241.407230, 551843.250843 4179079.833554, 551843.996697 4179071.893984)

LINESTRING (551828.891469 4179249.435340, 551828.105733 4179258.118049, 551823.663048 4179313.233951, 551817.147136 4179392.680001)

LINESTRING (551828.891469 4179249.435340, 551835.838091 4179250.000509, 551889.832078 4179254.867183, 551893.875244 4179254.881545, 551900.918611 4179255.469569)

LINESTRING (551828.891469 4179249.435340, 551821.909543 4179248.881050, 551811.106961 4179247.947696, 551757.094089 4179243.270041, 551746.502480 4179242.404669)

LINESTRING (551746.502480 4179242.404669, 551745.188739 4179251.017497, 551742.032004 4179293.614870, 551736.381682 4179357.377594)

LINESTRING (551746.502480 4179242.404669, 551757.094089 4179243.270041, 551811.106961 4179247.947696, 551821.909543 4179248.881050, 551828.891469 4179249.435340)

LINESTRING (551746.502480 4179242.404669, 551735.417732 4179241.514023, 551660.642047 4179235.475111, 551656.768113 4179235.162350, 551650.992444 4179234.693434)

LINESTRING (551746.502480 4179242.404669, 551747.496432 4179235.620563, 551755.786475 4179133.074042, 551760.663239 4179073.300811, 551761.322251 4179065.149879)

LINESTRING (551473.406850 4179041.322535, 551480.573677 4179041.922062, 551557.656330 4179048.417552, 551564.154308 4179048.913110, 551568.952901 4179049.287088)

LINESTRING (551473.406850 4179041.322535, 551472.689796 4179050.349653, 551459.484588 4179211.260419, 551458.793281 4179218.989548)

LINESTRING (551473.406850 4179041.322535, 551464.892913 4179040.614744, 551388.267005 4179034.311593, 551377.375739 4179033.422641)

LINESTRING (551473.406850 4179041.322535, 551474.091798 4179033.205033, 551487.199629 4178872.449052, 551487.753229 4178864.208683)

LINESTRING (551377.375739 4179033.422641, 551378.032160 4179025.626719, 551379.958356 4179002.083351, 551382.047797 4178976.377414, 551388.609694 4178897.397425, 551391.224068 4178865.215098, 551391.868360 4178856.542572)

LINESTRING (551377.375739 4179033.422641, 551366.000474 4179032.453020, 551289.126129 4179026.415532, 551280.691166 4179025.752805)

LINESTRING (551377.375739 4179033.422641, 551376.751164 4179041.762432, 551375.065214 4179063.509857, 551374.494507 4179070.274448, 551372.017162 4179098.862758, 551366.086927 4179171.233900, 551363.446848 4179203.327325, 551362.797876 4179211.345203)

LINESTRING (551377.375739 4179033.422641, 551388.267005 4179034.311593, 551464.892913 4179040.614744, 551473.406850 4179041.322535)

LINESTRING (551487.753229 4178864.208683, 551481.097234 4178863.601248, 551402.618986 4178857.419567, 551391.868360 4178856.542572)

LINESTRING (551487.753229 4178864.208683, 551495.114143 4178864.787243, 551523.641389 4178867.140198, 551572.374417 4178871.317236, 551578.185857 4178871.741936, 551584.402298 4178872.202460)

LINESTRING (551487.753229 4178864.208683, 551488.358713 4178856.123974, 551501.600345 4178696.589372, 551501.718878 4178694.537478, 551502.377863 4178686.353247)

LINESTRING (551487.753229 4178864.208683, 551487.199629 4178872.449052, 551474.091798 4179033.205033, 551473.406850 4179041.322535)

LINESTRING (551391.868360 4178856.542572, 551402.618986 4178857.419567, 551481.097234 4178863.601248, 551487.753229 4178864.208683)

LINESTRING (551391.868360 4178856.542572, 551392.683989 4178848.647788, 551394.649504 4178824.461145, 551403.407173 4178716.902232, 551405.726818 4178686.792903, 551406.408952 4178679.119196)

LINESTRING (551391.868360 4178856.542572, 551380.227686 4178855.715520, 551336.522373 4178851.892697, 551304.165985 4178849.061649, 551295.545785 4178848.408852)

LINESTRING (551391.868360 4178856.542572, 551391.224068 4178865.215098, 551388.609694 4178897.397425, 551382.047797 4178976.377414, 551379.958356 4179002.083351, 551378.032160 4179025.626719, 551377.375739 4179033.422641)

LINESTRING (551280.691166 4179025.752805, 551271.912938 4179025.043570, 551249.425935 4179023.217227, 551196.227442 4179019.047632, 551185.107800 4179018.046563)

LINESTRING (551280.691166 4179025.752805, 551289.126129 4179026.415532, 551366.000474 4179032.453020, 551377.375739 4179033.422641)

LINESTRING (551280.691166 4179025.752805, 551281.355063 4179018.156639, 551283.984966 4178989.069971, 551286.462540 4178958.983777, 551291.198284 4178901.517289, 551294.687943 4178858.855305)

LINESTRING (551185.107800 4179018.046563, 551184.429258 4179026.596842, 551174.426182 4179147.961930, 551172.616153 4179169.919431, 551171.260078 4179186.864665, 551170.577092 4179194.715914)

LINESTRING (551185.107800 4179018.046563, 551185.774847 4179009.928931, 551186.894068 4178997.087500, 551194.974799 4178898.777677, 551196.733111 4178876.653438, 551197.707480 4178865.863745, 551198.997712 4178849.606022, 551199.696998 4178840.556586)

LINESTRING (551185.107800 4179018.046563, 551173.354478 4179016.952812, 551117.597387 4179011.991169)

LINESTRING (551185.107800 4179018.046563, 551196.227442 4179019.047632, 551249.425935 4179023.217227, 551271.912938 4179025.043570, 551280.691166 4179025.752805)

LINESTRING (551294.687943 4178858.855305, 551291.198284 4178901.517289, 551286.462540 4178958.983777, 551283.984966 4178989.069971, 551281.355063 4179018.156639, 551280.691166 4179025.752805)

LINESTRING (551199.696998 4178840.556586, 551198.997712 4178849.606022, 551197.707480 4178865.863745, 551196.733111 4178876.653438, 551194.974799 4178898.777677, 551186.894068 4178997.087500, 551185.774847 4179009.928931, 551185.107800 4179018.046563)

LINESTRING (551199.696998 4178840.556586, 551200.443695 4178832.383975, 551203.183168 4178798.382748, 551213.712613 4178671.817313, 551214.374277 4178663.155983)

LINESTRING (551199.696998 4178840.556586, 551187.405184 4178839.603714, 551109.247302 4178832.838771, 551102.564694 4178832.253668)

LINESTRING (551199.696998 4178840.556586, 551209.822573 4178841.373969, 551261.541759 4178845.623194, 551277.628476 4178846.877168, 551286.996332 4178847.712123, 551295.545785 4178848.408852)

LINESTRING (551117.597387 4179011.991169, 551116.978167 4179019.509955, 551103.834035 4179180.210736, 551103.720352 4179181.497088, 551103.100327 4179189.149016)

LINESTRING (551117.597387 4179011.991169, 551099.926639 4179010.527966, 551088.401431 4179009.579990)

LINESTRING (551117.597387 4179011.991169, 551173.354478 4179016.952812, 551185.107800 4179018.046563)

LINESTRING (550998.428698 4178912.249452, 550994.745104 4178956.607923, 550991.564855 4178995.077898, 550991.031617 4179001.532073)

LINESTRING (550998.428698 4178912.249452, 551004.986882 4178833.280299, 551005.767983 4178823.787544)

LINESTRING (550983.544848 4179089.671337, 550990.287542 4179009.316382, 550991.031617 4179001.532073)

LINESTRING (552242.603729 4179283.425087, 552232.126722 4179282.559815)

LINESTRING (552242.603729 4179283.425087, 552242.062718 4179292.342318, 552233.317838 4179393.443196, 552231.243360 4179419.160167, 552230.683748 4179426.845698)

LINESTRING (552266.184791 4179002.851219, 552254.888143 4179001.991822)

LINESTRING (552266.184791 4179002.851219, 552265.263700 4179011.965751, 552261.908331 4179043.777021, 552260.673140 4179063.529999, 552259.149308 4179082.959383, 552257.929940 4179098.829092, 552257.308979 4179106.458753)

LINESTRING (552266.184791 4179002.851219, 552274.497940 4179003.270085, 552283.075140 4179003.723921, 552291.553965 4179004.410144, 552349.320691 4179009.115119, 552357.764553 4179009.756806, 552387.726574 4179012.177356, 552425.418994 4179015.224139, 552434.373258 4179015.946819)

LINESTRING (552260.821324 4178927.624062, 552271.624567 4178928.513622)

LINESTRING (552260.821324 4178927.624062, 552254.094534 4178927.082124, 552191.352860 4178921.924701, 552181.051425 4178921.082805)

LINESTRING (552260.821324 4178927.624062, 552261.499513 4178919.306855, 552269.847859 4178818.336697, 552271.737323 4178795.436798, 552274.262734 4178765.328962, 552275.491976 4178750.690908)

LINESTRING (552271.624567 4178928.513622, 552260.821324 4178927.624062)

LINESTRING (552271.624567 4178928.513622, 552271.096598 4178935.367196, 552266.832388 4178993.801524, 552266.184791 4179002.851219)

LINESTRING (552275.491976 4178750.690908, 552267.109788 4178750.005319, 552204.569869 4178744.771432, 552195.518605 4178744.015106)

LINESTRING (552275.491976 4178750.690908, 552277.429536 4178728.545800, 552278.227337 4178719.430490)

LINESTRING (552195.518605 4178744.015106, 552189.152762 4178743.486605, 552124.041566 4178738.070621, 552117.297276 4178737.484305)

LINESTRING (552195.518605 4178744.015106, 552204.569869 4178744.771432, 552267.109788 4178750.005319, 552275.491976 4178750.690908)

LINESTRING (552195.518605 4178744.015106, 552196.158622 4178736.152564, 552209.138538 4178575.618658, 552209.903075 4178566.181369)

LINESTRING (552195.518605 4178744.015106, 552194.792775 4178752.908972, 552181.729674 4178912.743402, 552181.051425 4178921.082805)

LINESTRING (552278.227337 4178719.430490, 552288.793007 4178720.318561)

LINESTRING (552278.227337 4178719.430490, 552278.707464 4178711.788846, 552286.618705 4178614.510706, 552289.252021 4178582.683788, 552289.929343 4178574.510820)

LINESTRING (552288.793007 4178720.318561, 552278.227337 4178719.430490)

LINESTRING (552288.793007 4178720.318561, 552288.076940 4178729.046052, 552286.233083 4178751.691042, 552285.584102 4178759.564617, 552280.669988 4178819.048860, 552272.312138 4178920.107712, 552271.624567 4178928.513622)

LINESTRING (552288.793007 4178720.318561, 552297.060636 4178721.014540, 552304.394996 4178721.626938, 552339.305741 4178724.555795, 552362.215499 4178726.498739, 552371.398976 4178727.244992)

LINESTRING (552371.398976 4178727.244992, 552372.318307 4178717.043118, 552372.434308 4178715.423935, 552383.095256 4178593.187727, 552383.838001 4178584.438223)

LINESTRING (552371.398976 4178727.244992, 552362.215499 4178726.498739, 552339.305741 4178724.555795, 552304.394996 4178721.626938, 552297.060636 4178721.014540, 552288.793007 4178720.318561)

LINESTRING (552371.398976 4178727.244992, 552397.751509 4178729.454007, 552406.917151 4178730.233472, 552413.793637 4178730.809771, 552421.348136 4178731.434768, 552444.504513 4178733.379510, 552456.866279 4178734.423464)

LINESTRING (552108.788646 4179843.481199, 552102.354378 4179842.763695)

LINESTRING (552108.788646 4179843.481199, 552154.382933 4179847.187028, 552176.356949 4179848.968253, 552191.006266 4179850.159467)

LINESTRING (552289.929343 4178574.510820, 552300.681328 4178576.609477)

LINESTRING (552289.929343 4178574.510820, 552281.104250 4178572.790544, 552263.011148 4178571.122467, 552220.730835 4178567.448251, 552209.903075 4178566.181369)

LINESTRING (552289.929343 4178574.510820, 552290.279740 4178566.491113, 552292.092975 4178543.124739, 552297.495466 4178474.734067, 552299.979107 4178444.293125, 552300.862794 4178435.533416)

LINESTRING (552456.866279 4178734.423464, 552457.741811 4178724.199128, 552457.875588 4178722.557868, 552468.343077 4178600.464756, 552469.034470 4178591.493025)

LINESTRING (552456.866279 4178734.423464, 552444.504513 4178733.379510, 552421.348136 4178731.434768, 552413.793637 4178730.809771, 552406.917151 4178730.233472, 552397.751509 4178729.454007, 552371.398976 4178727.244992)

LINESTRING (552385.018616 4179608.646315, 552387.085297 4179582.840555)

LINESTRING (552427.126310 4179101.346006, 552430.414650 4179062.167053, 552433.137989 4179030.107722, 552433.622596 4179024.552035, 552434.373258 4179015.946819)

LINESTRING (552434.373258 4179015.946819, 552425.418994 4179015.224139, 552387.726574 4179012.177356, 552357.764553 4179009.756806, 552349.320691 4179009.115119, 552291.553965 4179004.410144, 552283.075140 4179003.723921, 552274.497940 4179003.270085, 552266.184791 4179002.851219)

LINESTRING (552434.373258 4179015.946819, 552433.622596 4179024.552035, 552433.137989 4179030.107722, 552430.414650 4179062.167053, 552427.126310 4179101.346006)

LINESTRING (551416.047583 4179750.655268, 551416.756224 4179742.959524, 551429.672861 4179582.890031, 551430.365419 4179573.540985)

LINESTRING (551416.047583 4179750.655268, 551422.491750 4179751.216960, 551434.438394 4179752.212434, 551481.863262 4179756.281006, 551499.698388 4179757.956896, 551504.435052 4179758.308265, 551510.721290 4179758.769182)

LINESTRING (551416.047583 4179750.655268, 551408.634470 4179750.098630, 551350.809552 4179745.610614, 551329.873558 4179743.982303, 551319.211887 4179743.150318)

LINESTRING (551501.449872 4179870.918419, 551504.672346 4179833.081253, 551508.511398 4179783.975078, 551510.030316 4179767.851947, 551510.721290 4179758.769182)

LINESTRING (551319.211887 4179743.150318, 551308.330499 4179742.239312, 551225.728166 4179734.846292, 551217.583140 4179734.418421)

LINESTRING (551319.211887 4179743.150318, 551329.873558 4179743.982303, 551350.809552 4179745.610614, 551408.634470 4179750.098630, 551416.047583 4179750.655268)

LINESTRING (551319.211887 4179743.150318, 551319.984789 4179735.022250, 551322.571383 4179702.983935, 551330.690402 4179604.363691, 551333.059966 4179574.654052, 551333.759287 4179565.615711)

LINESTRING (551217.583140 4179734.418421, 551223.404086 4179726.133103, 551226.901625 4179682.106371, 551229.045796 4179656.001287, 551229.455395 4179649.624017, 551236.534081 4179566.563989, 551237.311122 4179557.759127)

LINESTRING (551217.583140 4179734.418421, 551208.912807 4179733.476908, 551164.671569 4179730.173066, 551157.998157 4179729.643438, 551137.949977 4179728.298511, 551127.264119 4179727.100480)

LINESTRING (551217.583140 4179734.418421, 551225.728166 4179734.846292, 551308.330499 4179742.239312, 551319.211887 4179743.150318)

LINESTRING (551237.311122 4179557.759127, 551236.534081 4179566.563989, 551229.455395 4179649.624017, 551229.045796 4179656.001287, 551226.901625 4179682.106371, 551223.404086 4179726.133103, 551217.583140 4179734.418421)

LINESTRING (551237.311122 4179557.759127, 551245.498844 4179558.431377, 551286.921819 4179561.806861, 551287.828644 4179561.879076, 551322.233979 4179564.811633, 551333.759287 4179565.615711)

LINESTRING (551237.311122 4179557.759127, 551228.559745 4179557.072286, 551152.440224 4179550.829870, 551141.355772 4179549.951114)

LINESTRING (551133.427605 4179646.564429, 551130.341108 4179684.047495, 551128.895101 4179702.734156, 551127.794958 4179718.205317, 551127.264119 4179727.100480)

LINESTRING (551133.427605 4179646.564429, 551139.459048 4179573.128582, 551140.602779 4179559.155565, 551141.355772 4179549.951114)

LINESTRING (551133.427605 4179646.564429, 551122.651700 4179645.665420, 551067.495457 4179641.085010)

LINESTRING (551502.377863 4178686.353247, 551494.153776 4178685.724911, 551493.475822 4178685.665199, 551417.001799 4178679.906458, 551406.408952 4178679.119196)

LINESTRING (551502.377863 4178686.353247, 551509.272262 4178686.895616, 551511.244736 4178687.029990, 551587.387567 4178693.608589, 551593.015045 4178693.887906, 551598.245557 4178694.253505)

LINESTRING (551502.377863 4178686.353247, 551502.977201 4178679.255986, 551503.068684 4178677.303781, 551506.742555 4178633.544596, 551507.860789 4178620.947298, 551516.309148 4178519.444623, 551516.477699 4178517.847950, 551517.218142 4178509.320277)

LINESTRING (551502.377863 4178686.353247, 551501.718878 4178694.537478, 551501.600345 4178696.589372, 551488.358713 4178856.123974, 551487.753229 4178864.208683)

LINESTRING (551517.218142 4178509.320277, 551524.271047 4178509.896931, 551589.208663 4178515.229386, 551601.244554 4178516.325487, 551607.417354 4178516.763560, 551612.868003 4178517.163830)

LINESTRING (551517.218142 4178509.320277, 551509.073578 4178508.625854, 551435.216076 4178502.594844, 551432.521680 4178502.378317, 551420.969363 4178501.429719)

LINESTRING (551517.218142 4178509.320277, 551516.477699 4178517.847950, 551516.309148 4178519.444623, 551507.860789 4178620.947298, 551506.742555 4178633.544596, 551503.068684 4178677.303781, 551502.977201 4178679.255986, 551502.377863 4178686.353247)

LINESTRING (551887.593064 4178540.036160, 551878.514844 4178539.324399, 551833.872791 4178535.726073, 551815.470023 4178534.245654, 551807.167147 4178533.516654)

LINESTRING (551887.593064 4178540.036160, 551895.314936 4178540.695012, 551959.415520 4178545.980740, 551966.230659 4178546.534084)

LINESTRING (551887.593064 4178540.036160, 551886.918383 4178549.252132, 551873.557820 4178709.673085, 551872.928594 4178717.269427)

LINESTRING (551034.960136 4178469.772618, 551047.207164 4178470.935787, 551053.970521 4178471.332720, 551074.442558 4178473.012875, 551086.118209 4178473.972846, 551105.056933 4178475.721242, 551122.199444 4178477.314303, 551124.004596 4178477.447546, 551132.625126 4178478.111254)

LINESTRING (551034.960136 4178469.772618, 551034.421069 4178477.158756, 551034.353978 4178478.034870, 551033.650919 4178486.296523, 551032.247020 4178503.884991, 551023.091126 4178619.607870, 551020.931073 4178638.389956, 551020.001541 4178646.239683)

LINESTRING (551132.625126 4178478.111254, 551131.967804 4178486.084705, 551128.330908 4178529.877530, 551125.111858 4178568.802109, 551121.945760 4178609.136123, 551118.580650 4178644.631351, 551118.318240 4178648.590750, 551117.876831 4178654.424148)

LINESTRING (551132.625126 4178478.111254, 551124.004596 4178477.447546, 551122.199444 4178477.314303, 551105.056933 4178475.721242, 551086.118209 4178473.972846, 551074.442558 4178473.012875, 551053.970521 4178471.332720, 551047.207164 4178470.935787, 551034.960136 4178469.772618)

LINESTRING (551132.625126 4178478.111254, 551138.287241 4178478.512522, 551141.466025 4178478.754148, 551178.685550 4178481.792246)

LINESTRING (551020.001541 4178646.239683, 551032.011561 4178647.223841, 551054.622682 4178649.094722, 551108.737984 4178653.557523, 551109.662461 4178653.640922, 551117.876831 4178654.424148)

LINESTRING (551020.001541 4178646.239683, 551020.931073 4178638.389956, 551023.091126 4178619.607870, 551032.247020 4178503.884991, 551033.650919 4178486.296523, 551034.353978 4178478.034870, 551034.421069 4178477.158756, 551034.960136 4178469.772618)

LINESTRING (551020.001541 4178646.239683, 551019.338913 4178655.089640, 551009.585215 4178776.356511, 551006.302202 4178817.178043, 551005.767983 4178823.787544)

LINESTRING (551117.876831 4178654.424148, 551117.037916 4178663.273005, 551112.511106 4178711.376405, 551111.846865 4178719.050244, 551108.144505 4178766.326613, 551103.163474 4178825.189664, 551102.564694 4178832.253668)

LINESTRING (551117.876831 4178654.424148, 551109.662461 4178653.640922, 551108.737984 4178653.557523, 551054.622682 4178649.094722, 551032.011561 4178647.223841, 551020.001541 4178646.239683)

LINESTRING (551117.876831 4178654.424148, 551123.204285 4178654.790046, 551126.427116 4178655.020845, 551203.140189 4178662.065424, 551214.374277 4178663.155983)

LINESTRING (551005.767983 4178823.787544, 551010.276100 4178824.148301, 551015.030730 4178824.532776, 551093.417648 4178831.320433, 551102.564694 4178832.253668)

LINESTRING (551005.767983 4178823.787544, 551006.302202 4178817.178043, 551009.585215 4178776.356511, 551019.338913 4178655.089640, 551020.001541 4178646.239683)

LINESTRING (551005.767983 4178823.787544, 551004.986882 4178833.280299, 550998.428698 4178912.249452)

LINESTRING (551102.564694 4178832.253668, 551093.417648 4178831.320433, 551015.030730 4178824.532776, 551010.276100 4178824.148301, 551005.767983 4178823.787544)

LINESTRING (551102.564694 4178832.253668, 551109.247302 4178832.838771, 551187.405184 4178839.603714, 551199.696998 4178840.556586)

LINESTRING (551102.564694 4178832.253668, 551102.048773 4178838.741229, 551101.988422 4178839.950244, 551099.430639 4178871.711372, 551093.630482 4178944.782460, 551092.504661 4178958.711200, 551089.155158 4179000.253499, 551089.088408 4179001.074139, 551088.401431 4179009.579990)

LINESTRING (551067.495457 4179641.085010, 551007.194747 4179635.130590)

LINESTRING (551872.928594 4178717.269427, 551873.557820 4178709.673085, 551886.918383 4178549.252132, 551887.593064 4178540.036160)

LINESTRING (551872.928594 4178717.269427, 551872.222055 4178725.952625, 551859.140937 4178886.841398, 551858.482237 4178894.925752)

LINESTRING (551872.928594 4178717.269427, 551865.629302 4178716.679825, 551800.939654 4178711.413292, 551790.400497 4178710.503823)

LINESTRING (551872.928594 4178717.269427, 551881.143260 4178717.986845, 551944.615139 4178723.568100, 551951.834859 4178724.201652)

LINESTRING (551420.969363 4178501.429719, 551408.641687 4178500.498492, 551406.484933 4178500.240946, 551371.598984 4178497.382787, 551357.642822 4178496.241774, 551333.235069 4178494.225736, 551324.808511 4178493.540835)

LINESTRING (551420.969363 4178501.429719, 551432.521680 4178502.378317, 551435.216076 4178502.594844, 551509.073578 4178508.625854, 551517.218142 4178509.320277)

LINESTRING (551420.969363 4178501.429719, 551420.186654 4178511.099953, 551417.828481 4178540.310311, 551412.105472 4178610.419218, 551411.768019 4178615.088243, 551410.801327 4178626.011103, 551408.644532 4178652.604228, 551407.009800 4178671.766746, 551406.408952 4178679.119196)

LINESTRING (551324.808511 4178493.540835, 551315.792143 4178492.785699, 551278.898445 4178489.782293, 551265.752371 4178488.701950, 551256.304476 4178487.922005, 551239.988841 4178486.533520, 551228.876397 4178485.676688)

LINESTRING (551324.808511 4178493.540835, 551333.235069 4178494.225736, 551357.642822 4178496.241774, 551371.598984 4178497.382787, 551406.484933 4178500.240946, 551408.641687 4178500.498492, 551420.969363 4178501.429719)

LINESTRING (551324.808511 4178493.540835, 551324.094901 4178502.035403, 551320.720432 4178543.133634, 551320.324095 4178548.778682, 551315.799553 4178603.394947, 551310.971347 4178661.515449, 551310.844674 4178663.467436, 551310.170815 4178671.241060)

LINESTRING (551406.408952 4178679.119196, 551417.001799 4178679.906458, 551493.475822 4178685.665199, 551494.153776 4178685.724911, 551502.377863 4178686.353247)

LINESTRING (551406.408952 4178679.119196, 551407.009800 4178671.766746, 551408.644532 4178652.604228, 551410.801327 4178626.011103, 551411.768019 4178615.088243, 551412.105472 4178610.419218, 551417.828481 4178540.310311, 551420.186654 4178511.099953, 551420.969363 4178501.429719)

LINESTRING (551406.408952 4178679.119196, 551394.442299 4178678.256809, 551319.688415 4178672.110267, 551318.262100 4178671.979338, 551310.170815 4178671.241060)

LINESTRING (551406.408952 4178679.119196, 551405.726818 4178686.792903, 551403.407173 4178716.902232, 551394.649504 4178824.461145, 551392.683989 4178848.647788, 551391.868360 4178856.542572)

LINESTRING (551228.876397 4178485.676688, 551228.231292 4178494.504548, 551225.664428 4178524.800992, 551225.511897 4178526.664057, 551215.067526 4178655.082900, 551214.374277 4178663.155983)

LINESTRING (551228.876397 4178485.676688, 551239.988841 4178486.533520, 551256.304476 4178487.922005, 551265.752371 4178488.701950, 551278.898445 4178489.782293, 551315.792143 4178492.785699, 551324.808511 4178493.540835)

LINESTRING (551228.876397 4178485.676688, 551217.147645 4178484.760566, 551212.436804 4178484.387344, 551182.040312 4178482.068266, 551178.685550 4178481.792246)

LINESTRING (551310.170815 4178671.241060, 551301.498403 4178670.454791, 551301.058224 4178670.407670, 551273.058723 4178668.069876, 551225.054216 4178664.109969, 551214.374277 4178663.155983)

LINESTRING (551310.170815 4178671.241060, 551318.262100 4178671.979338, 551319.688415 4178672.110267, 551394.442299 4178678.256809, 551406.408952 4178679.119196)

LINESTRING (551310.170815 4178671.241060, 551310.844674 4178663.467436, 551310.971347 4178661.515449, 551315.799553 4178603.394947, 551320.324095 4178548.778682, 551320.720432 4178543.133634, 551324.094901 4178502.035403, 551324.808511 4178493.540835)

LINESTRING (551310.170815 4178671.241060, 551309.530605 4178679.270085, 551309.370560 4178680.922291, 551296.256720 4178840.335883, 551295.545785 4178848.408852)

LINESTRING (551214.374277 4178663.155983, 551215.067526 4178655.082900, 551225.511897 4178526.664057, 551225.664428 4178524.800992, 551228.231292 4178494.504548, 551228.876397 4178485.676688)

LINESTRING (551214.374277 4178663.155983, 551213.712613 4178671.817313, 551203.183168 4178798.382748, 551200.443695 4178832.383975, 551199.696998 4178840.556586)

LINESTRING (551214.374277 4178663.155983, 551203.140189 4178662.065424, 551126.427116 4178655.020845, 551123.204285 4178654.790046, 551117.876831 4178654.424148)

LINESTRING (551214.374277 4178663.155983, 551225.054216 4178664.109969, 551273.058723 4178668.069876, 551301.058224 4178670.407670, 551301.498403 4178670.454791, 551310.170815 4178671.241060)

LINESTRING (551178.685550 4178481.792246, 551141.466025 4178478.754148, 551138.287241 4178478.512522, 551132.625126 4178478.111254)

LINESTRING (551178.685550 4178481.792246, 551182.040312 4178482.068266, 551212.436804 4178484.387344, 551217.147645 4178484.760566, 551228.876397 4178485.676688)

LINESTRING (551295.545785 4178848.408852, 551286.996332 4178847.712123, 551277.628476 4178846.877168, 551261.541759 4178845.623194, 551209.822573 4178841.373969, 551199.696998 4178840.556586)

LINESTRING (551295.545785 4178848.408852, 551304.165985 4178849.061649, 551336.522373 4178851.892697, 551380.227686 4178855.715520, 551391.868360 4178856.542572)

LINESTRING (551295.545785 4178848.408852, 551296.256720 4178840.335883, 551309.370560 4178680.922291, 551309.530605 4178679.270085, 551310.170815 4178671.241060)

LINESTRING (551266.102045 4179202.987521, 551257.658730 4179202.280381, 551252.173564 4179201.835742, 551234.705425 4179200.440074, 551181.387577 4179195.814905, 551170.577092 4179194.715914)

LINESTRING (551266.102045 4179202.987521, 551274.466014 4179203.705271, 551341.280544 4179209.491357, 551350.436715 4179210.302883, 551362.797876 4179211.345203)

LINESTRING (551266.102045 4179202.987521, 551266.765642 4179195.435732, 551279.836918 4179037.042529)

LINESTRING (551279.836918 4179037.042529, 551266.765642 4179195.435732, 551266.102045 4179202.987521)

