LINESTRING (80.000000 80.000000, 229.999729 79.714850)

LINESTRING (80.000000 80.000000, 162.499851 79.843168)

LINESTRING (162.499851 79.843168, 229.999729 79.714850)

LINESTRING (80.000000 80.000000, 200.661428 169.111278)

LINESTRING (80.000000 80.000000, 146.363785 129.011203)

LINESTRING (146.363785 129.011203, 200.661428 169.111278)

LINESTRING (80.000000 80.000000, 134.327967 219.815850)

LINESTRING (80.000000 80.000000, 109.880382 156.898718)

LINESTRING (109.880382 156.898718, 134.327967 219.815850)

LINESTRING (80.000000 80.000000, 31.913913 222.083525)

LINESTRING (80.000000 80.000000, 53.552652 158.145939)

LINESTRING (53.552652 158.145939, 31.913913 222.083525)

LINESTRING (80.000000 80.000000, -47.524890 158.977227)

LINESTRING (80.000000 80.000000, 9.861310 123.437475)

LINESTRING (9.861310 123.437475, -47.524890 158.977227)

LINESTRING (80.000000 80.000000, -69.810617 72.464821)

LINESTRING (80.000000 80.000000, -2.395840 75.855651)

LINESTRING (-2.395840 75.855651, -69.810617 72.464821)

LINESTRING (80.000000 80.000000, -38.328789 -12.186212)

LINESTRING (80.000000 80.000000, 14.919166 29.297584)

LINESTRING (14.919166 29.297584, -38.328789 -12.186212)

LINESTRING (80.000000 80.000000, 24.865498 -59.499773)

LINESTRING (80.000000 80.000000, 49.676024 3.275125)

LINESTRING (49.676024 3.275125, 24.865498 -59.499773)

LINESTRING (80.000000 80.000000, 124.859369 -63.135031)

LINESTRING (80.000000 80.000000, 104.672653 1.275733)

LINESTRING (104.672653 1.275733, 124.859369 -63.135031)

LINESTRING (80.000000 80.000000, 201.581286 -7.852097)

LINESTRING (80.000000 80.000000, 146.869707 31.681347)

LINESTRING (146.869707 31.681347, 201.581286 -7.852097)

LINESTRING (229.999729 79.714850, 200.661428 169.111278)

LINESTRING (200.661428 169.111278, 134.327967 219.815850)

LINESTRING (134.327967 219.815850, 31.913913 222.083525)

LINESTRING (31.913913 222.083525, -47.524890 158.977227)

LINESTRING (-47.524890 158.977227, -69.810617 72.464821)

LINESTRING (-69.810617 72.464821, -38.328789 -12.186212)

LINESTRING (-38.328789 -12.186212, 24.865498 -59.499773)

LINESTRING (24.865498 -59.499773, 124.859369 -63.135031)

LINESTRING (124.859369 -63.135031, 201.581286 -7.852097)

LINESTRING (201.581286 -7.852097, 229.999729 79.714850)

LINESTRING (280.000000 80.000000, 429.966383 83.175545)

LINESTRING (280.000000 80.000000, 362.481510 81.746550)

LINESTRING (362.481510 81.746550, 429.966383 83.175545)

LINESTRING (280.000000 80.000000, 396.773892 174.148065)

LINESTRING (280.000000 80.000000, 344.225641 131.781436)

LINESTRING (344.225641 131.781436, 396.773892 174.148065)

LINESTRING (280.000000 80.000000, 335.925406 219.184586)

LINESTRING (280.000000 80.000000, 310.758973 156.551522)

LINESTRING (310.758973 156.551522, 335.925406 219.184586)

LINESTRING (280.000000 80.000000, 236.660330 223.602483)

LINESTRING (280.000000 80.000000, 256.163182 158.981365)

LINESTRING (256.163182 158.981365, 236.660330 223.602483)

LINESTRING (280.000000 80.000000, 152.475427 158.977739)

LINESTRING (280.000000 80.000000, 209.861485 123.437757)

LINESTRING (209.861485 123.437757, 152.475427 158.977739)

LINESTRING (280.000000 80.000000, 130.128795 73.785355)

LINESTRING (280.000000 80.000000, 197.570837 76.581945)

LINESTRING (197.570837 76.581945, 130.128795 73.785355)

LINESTRING (280.000000 80.000000, 164.510013 -15.718665)

LINESTRING (280.000000 80.000000, 216.480507 27.354734)

LINESTRING (216.480507 27.354734, 164.510013 -15.718665)

LINESTRING (280.000000 80.000000, 243.540397 -65.501537)

LINESTRING (280.000000 80.000000, 259.947219 -0.025846)

LINESTRING (259.947219 -0.025846, 243.540397 -65.501537)

LINESTRING (280.000000 80.000000, 315.724012 -65.683887)

LINESTRING (280.000000 80.000000, 299.648207 -0.126138)

LINESTRING (299.648207 -0.126138, 315.724012 -65.683887)

LINESTRING (280.000000 80.000000, 404.580782 -3.544173)

LINESTRING (280.000000 80.000000, 348.519430 34.050705)

LINESTRING (348.519430 34.050705, 404.580782 -3.544173)

LINESTRING (429.966383 83.175545, 396.773892 174.148065)

LINESTRING (396.773892 174.148065, 335.925406 219.184586)

LINESTRING (335.925406 219.184586, 236.660330 223.602483)

LINESTRING (236.660330 223.602483, 152.475427 158.977739)

LINESTRING (152.475427 158.977739, 130.128795 73.785355)

LINESTRING (130.128795 73.785355, 164.510013 -15.718665)

LINESTRING (164.510013 -15.718665, 243.540397 -65.501537)

LINESTRING (243.540397 -65.501537, 315.724012 -65.683887)

LINESTRING (315.724012 -65.683887, 404.580782 -3.544173)

LINESTRING (404.580782 -3.544173, 429.966383 83.175545)

LINESTRING (80.000000 80.000000, 280.000000 80.000000)

