LINESTRING (60.000000 60.000000, 75.744343 62.333135)

LINESTRING (60.000000 60.000000, 42.407772 51.974473)

LINESTRING (60.000000 60.000000, 80.078915 72.058353)

LINESTRING (60.000000 60.000000, 65.132671 55.872217)

LINESTRING (60.000000 60.000000, 74.083426 63.963480)

LINESTRING (60.000000 60.000000, 80.893588 46.972119)

LINESTRING (60.000000 60.000000, 71.977745 38.004532)

LINESTRING (60.000000 60.000000, 67.849296 48.763632)

LINESTRING (75.744343 62.333135, 42.407772 51.974473)

LINESTRING (75.744343 62.333135, 74.083426 63.963480)

LINESTRING (75.744343 62.333135, 80.893588 46.972119)

LINESTRING (75.744343 62.333135, 71.977745 38.004532)

LINESTRING (75.744343 62.333135, 67.849296 48.763632)

LINESTRING (42.407772 51.974473, 80.078915 72.058353)

LINESTRING (42.407772 51.974473, 74.083426 63.963480)

LINESTRING (42.407772 51.974473, 67.849296 48.763632)

LINESTRING (80.078915 72.058353, 80.893588 46.972119)

LINESTRING (65.132671 55.872217, 67.849296 48.763632)

LINESTRING (74.083426 63.963480, 67.849296 48.763632)

LINESTRING (80.893588 46.972119, 71.977745 38.004532)

LINESTRING (80.893588 46.972119, 67.849296 48.763632)

LINESTRING (260.000000 60.000000, 276.082811 47.839666)

LINESTRING (260.000000 60.000000, 273.157874 50.902430)

LINESTRING (260.000000 60.000000, 246.929094 77.315584)

LINESTRING (260.000000 60.000000, 241.443149 55.355782)

LINESTRING (260.000000 60.000000, 283.208472 81.218193)

LINESTRING (260.000000 60.000000, 243.444785 57.844599)

LINESTRING (260.000000 60.000000, 275.217885 45.707582)

LINESTRING (260.000000 60.000000, 243.226241 52.219780)

LINESTRING (276.082811 47.839666, 243.226241 52.219780)

LINESTRING (273.157874 50.902430, 243.444785 57.844599)

LINESTRING (246.929094 77.315584, 283.208472 81.218193)

LINESTRING (246.929094 77.315584, 243.444785 57.844599)

LINESTRING (241.443149 55.355782, 283.208472 81.218193)

LINESTRING (241.443149 55.355782, 243.444785 57.844599)

LINESTRING (283.208472 81.218193, 275.217885 45.707582)

LINESTRING (243.444785 57.844599, 275.217885 45.707582)

LINESTRING (243.444785 57.844599, 243.226241 52.219780)

LINESTRING (460.000000 60.000000, 456.969123 40.350207)

LINESTRING (460.000000 60.000000, 445.627318 76.053382)

LINESTRING (460.000000 60.000000, 444.275142 48.070613)

LINESTRING (460.000000 60.000000, 458.778559 58.761782)

LINESTRING (460.000000 60.000000, 472.774387 81.274813)

LINESTRING (460.000000 60.000000, 464.239592 77.127435)

LINESTRING (460.000000 60.000000, 482.561870 54.154804)

LINESTRING (460.000000 60.000000, 458.733277 69.934495)

LINESTRING (456.969123 40.350207, 444.275142 48.070613)

LINESTRING (456.969123 40.350207, 458.778559 58.761782)

LINESTRING (456.969123 40.350207, 464.239592 77.127435)

LINESTRING (456.969123 40.350207, 458.733277 69.934495)

LINESTRING (445.627318 76.053382, 458.778559 58.761782)

LINESTRING (445.627318 76.053382, 472.774387 81.274813)

LINESTRING (445.627318 76.053382, 458.733277 69.934495)

LINESTRING (444.275142 48.070613, 458.778559 58.761782)

LINESTRING (444.275142 48.070613, 472.774387 81.274813)

LINESTRING (458.778559 58.761782, 472.774387 81.274813)

LINESTRING (458.778559 58.761782, 464.239592 77.127435)

LINESTRING (458.778559 58.761782, 482.561870 54.154804)

LINESTRING (458.778559 58.761782, 458.733277 69.934495)

LINESTRING (472.774387 81.274813, 482.561870 54.154804)

LINESTRING (464.239592 77.127435, 482.561870 54.154804)

LINESTRING (60.000000 260.000000, 50.687548 243.533677)

LINESTRING (60.000000 260.000000, 44.510148 244.629679)

LINESTRING (60.000000 260.000000, 64.669983 270.698109)

LINESTRING (60.000000 260.000000, 76.288463 273.553638)

LINESTRING (60.000000 260.000000, 65.908266 258.867200)

LINESTRING (60.000000 260.000000, 74.832236 245.446021)

LINESTRING (60.000000 260.000000, 56.677386 266.060108)

LINESTRING (60.000000 260.000000, 83.482972 283.307281)

LINESTRING (50.687548 243.533677, 44.510148 244.629679)

LINESTRING (50.687548 243.533677, 64.669983 270.698109)

LINESTRING (50.687548 243.533677, 56.677386 266.060108)

LINESTRING (50.687548 243.533677, 83.482972 283.307281)

LINESTRING (44.510148 244.629679, 74.832236 245.446021)

LINESTRING (64.669983 270.698109, 76.288463 273.553638)

LINESTRING (64.669983 270.698109, 65.908266 258.867200)

LINESTRING (64.669983 270.698109, 56.677386 266.060108)

LINESTRING (64.669983 270.698109, 83.482972 283.307281)

LINESTRING (65.908266 258.867200, 83.482972 283.307281)

LINESTRING (56.677386 266.060108, 83.482972 283.307281)

LINESTRING (260.000000 260.000000, 240.129890 278.597586)

LINESTRING (260.000000 260.000000, 239.300950 263.519457)

LINESTRING (260.000000 260.000000, 269.044178 252.540581)

LINESTRING (260.000000 260.000000, 280.621207 250.724756)

LINESTRING (260.000000 260.000000, 247.331472 263.912500)

LINESTRING (260.000000 260.000000, 262.624564 242.124665)

LINESTRING (260.000000 260.000000, 283.137300 259.118223)

LINESTRING (260.000000 260.000000, 261.625417 242.607787)

LINESTRING (240.129890 278.597586, 262.624564 242.124665)

LINESTRING (240.129890 278.597586, 283.137300 259.118223)

LINESTRING (240.129890 278.597586, 261.625417 242.607787)

LINESTRING (239.300950 263.519457, 269.044178 252.540581)

LINESTRING (239.300950 263.519457, 280.621207 250.724756)

LINESTRING (239.300950 263.519457, 247.331472 263.912500)

LINESTRING (239.300950 263.519457, 262.624564 242.124665)

LINESTRING (239.300950 263.519457, 283.137300 259.118223)

LINESTRING (239.300950 263.519457, 261.625417 242.607787)

LINESTRING (269.044178 252.540581, 280.621207 250.724756)

LINESTRING (269.044178 252.540581, 262.624564 242.124665)

LINESTRING (269.044178 252.540581, 283.137300 259.118223)

LINESTRING (280.621207 250.724756, 262.624564 242.124665)

LINESTRING (247.331472 263.912500, 283.137300 259.118223)

LINESTRING (262.624564 242.124665, 283.137300 259.118223)

LINESTRING (460.000000 260.000000, 474.057340 277.593092)

LINESTRING (460.000000 260.000000, 444.922958 270.329243)

LINESTRING (460.000000 260.000000, 466.351668 246.322634)

LINESTRING (460.000000 260.000000, 483.706735 242.163835)

LINESTRING (460.000000 260.000000, 448.804446 255.943223)

LINESTRING (460.000000 260.000000, 437.959115 249.887727)

LINESTRING (460.000000 260.000000, 437.938137 257.393640)

LINESTRING (460.000000 260.000000, 481.498832 252.909418)

LINESTRING (474.057340 277.593092, 483.706735 242.163835)

LINESTRING (474.057340 277.593092, 448.804446 255.943223)

LINESTRING (474.057340 277.593092, 437.959115 249.887727)

LINESTRING (474.057340 277.593092, 481.498832 252.909418)

LINESTRING (444.922958 270.329243, 466.351668 246.322634)

LINESTRING (444.922958 270.329243, 483.706735 242.163835)

LINESTRING (444.922958 270.329243, 437.938137 257.393640)

LINESTRING (466.351668 246.322634, 448.804446 255.943223)

LINESTRING (466.351668 246.322634, 437.938137 257.393640)

LINESTRING (448.804446 255.943223, 437.959115 249.887727)

LINESTRING (60.000000 460.000000, 72.591109 466.444529)

LINESTRING (60.000000 460.000000, 57.182629 447.874867)

LINESTRING (60.000000 460.000000, 68.447587 466.455090)

LINESTRING (60.000000 460.000000, 78.210585 474.755432)

LINESTRING (60.000000 460.000000, 45.415149 464.537697)

LINESTRING (60.000000 460.000000, 64.860210 439.620131)

LINESTRING (60.000000 460.000000, 74.521932 439.127273)

LINESTRING (60.000000 460.000000, 56.314915 453.628031)

LINESTRING (72.591109 466.444529, 57.182629 447.874867)

LINESTRING (72.591109 466.444529, 78.210585 474.755432)

LINESTRING (72.591109 466.444529, 64.860210 439.620131)

LINESTRING (72.591109 466.444529, 74.521932 439.127273)

LINESTRING (72.591109 466.444529, 56.314915 453.628031)

LINESTRING (57.182629 447.874867, 78.210585 474.755432)

LINESTRING (57.182629 447.874867, 45.415149 464.537697)

LINESTRING (57.182629 447.874867, 64.860210 439.620131)

LINESTRING (57.182629 447.874867, 74.521932 439.127273)

LINESTRING (68.447587 466.455090, 78.210585 474.755432)

LINESTRING (78.210585 474.755432, 45.415149 464.537697)

LINESTRING (78.210585 474.755432, 64.860210 439.620131)

LINESTRING (78.210585 474.755432, 74.521932 439.127273)

LINESTRING (45.415149 464.537697, 64.860210 439.620131)

LINESTRING (64.860210 439.620131, 74.521932 439.127273)

LINESTRING (64.860210 439.620131, 56.314915 453.628031)

LINESTRING (260.000000 460.000000, 271.150692 450.513305)

LINESTRING (260.000000 460.000000, 265.607291 440.928100)

LINESTRING (260.000000 460.000000, 239.039444 457.017334)

LINESTRING (260.000000 460.000000, 237.260042 463.474135)

LINESTRING (260.000000 460.000000, 252.656821 437.939354)

LINESTRING (260.000000 460.000000, 276.008642 458.277734)

LINESTRING (260.000000 460.000000, 278.201434 466.353410)

LINESTRING (260.000000 460.000000, 242.096889 458.073416)

LINESTRING (271.150692 450.513305, 265.607291 440.928100)

LINESTRING (271.150692 450.513305, 252.656821 437.939354)

LINESTRING (271.150692 450.513305, 276.008642 458.277734)

LINESTRING (265.607291 440.928100, 239.039444 457.017334)

LINESTRING (239.039444 457.017334, 237.260042 463.474135)

LINESTRING (239.039444 457.017334, 276.008642 458.277734)

LINESTRING (239.039444 457.017334, 242.096889 458.073416)

LINESTRING (237.260042 463.474135, 252.656821 437.939354)

LINESTRING (237.260042 463.474135, 278.201434 466.353410)

LINESTRING (237.260042 463.474135, 242.096889 458.073416)

LINESTRING (75.744343 62.333135, 243.444785 57.844599)

LINESTRING (75.744343 62.333135, 241.443149 55.355782)

LINESTRING (60.000000 60.000000, 260.000000 60.000000)

LINESTRING (276.082811 47.839666, 444.275142 48.070613)

LINESTRING (241.443149 55.355782, 458.733277 69.934495)

LINESTRING (260.000000 60.000000, 460.000000 60.000000)

LINESTRING (444.275142 48.070613, 56.677386 266.060108)

LINESTRING (458.733277 69.934495, 50.687548 243.533677)

LINESTRING (460.000000 60.000000, 60.000000 260.000000)

LINESTRING (65.908266 258.867200, 240.129890 278.597586)

LINESTRING (74.832236 245.446021, 239.300950 263.519457)

LINESTRING (60.000000 260.000000, 260.000000 260.000000)

LINESTRING (247.331472 263.912500, 466.351668 246.322634)

LINESTRING (240.129890 278.597586, 437.959115 249.887727)

LINESTRING (260.000000 260.000000, 460.000000 260.000000)

LINESTRING (466.351668 246.322634, 64.860210 439.620131)

LINESTRING (481.498832 252.909418, 56.314915 453.628031)

LINESTRING (460.000000 260.000000, 60.000000 460.000000)

LINESTRING (64.860210 439.620131, 278.201434 466.353410)

LINESTRING (57.182629 447.874867, 252.656821 437.939354)

LINESTRING (60.000000 460.000000, 260.000000 460.000000)

