LINESTRING (145.902586 104.695441, 119.503392 130.386795)

LINESTRING (145.902586 104.695441, 154.309916 102.273470)

LINESTRING (145.902586 104.695441, 153.811156 164.310290)

LINESTRING (145.902586 104.695441, 179.432739 168.300922)

LINESTRING (145.902586 104.695441, 113.026632 123.473061)

LINESTRING (145.902586 104.695441, 135.225867 137.062380)

LINESTRING (145.902586 104.695441, 157.504404 171.495891)

LINESTRING (145.902586 104.695441, 172.051860 160.448825)

LINESTRING (145.902586 104.695441, 125.329268 174.576536)

LINESTRING (145.902586 104.695441, 117.145514 140.407787)

LINESTRING (145.902586 104.695441, 154.934055 153.314025)

LINESTRING (145.902586 104.695441, 132.707725 173.308089)

LINESTRING (145.902586 104.695441, 179.531402 176.314386)

LINESTRING (145.902586 104.695441, 122.904836 175.813628)

LINESTRING (145.902586 104.695441, 123.914904 174.811800)

LINESTRING (145.902586 104.695441, 170.918691 154.746996)

LINESTRING (145.902586 104.695441, 153.918763 172.481026)

LINESTRING (145.902586 104.695441, 152.732185 167.492092)

LINESTRING (145.902586 104.695441, 120.748399 106.481840)

LINESTRING (145.902586 104.695441, 173.863947 151.114244)

LINESTRING (145.902586 104.695441, 166.241448 110.677680)

LINESTRING (145.902586 104.695441, 110.076299 155.892360)

LINESTRING (145.902586 104.695441, 159.872443 103.502914)

LINESTRING (145.902586 104.695441, 101.941868 106.192883)

LINESTRING (145.902586 104.695441, 116.686691 107.600848)

LINESTRING (157.530643 177.888126, 154.309916 102.273470)

LINESTRING (157.530643 177.888126, 136.436241 137.579715)

LINESTRING (157.530643 177.888126, 113.026632 123.473061)

LINESTRING (157.530643 177.888126, 150.759045 129.202265)

LINESTRING (157.530643 177.888126, 157.504404 171.495891)

LINESTRING (157.530643 177.888126, 172.051860 160.448825)

LINESTRING (157.530643 177.888126, 146.543038 145.597916)

LINESTRING (157.530643 177.888126, 174.194740 106.642331)

LINESTRING (157.530643 177.888126, 117.145514 140.407787)

LINESTRING (157.530643 177.888126, 154.934055 153.314025)

LINESTRING (157.530643 177.888126, 132.707725 173.308089)

LINESTRING (157.530643 177.888126, 122.904836 175.813628)

LINESTRING (157.530643 177.888126, 123.914904 174.811800)

LINESTRING (157.530643 177.888126, 119.416731 137.777162)

LINESTRING (157.530643 177.888126, 123.760171 171.410583)

LINESTRING (157.530643 177.888126, 152.732185 167.492092)

LINESTRING (157.530643 177.888126, 120.748399 106.481840)

LINESTRING (157.530643 177.888126, 166.241448 110.677680)

LINESTRING (157.530643 177.888126, 156.825628 163.554475)

LINESTRING (157.530643 177.888126, 116.686691 107.600848)

LINESTRING (157.530643 177.888126, 149.400986 133.153238)

LINESTRING (119.503392 130.386795, 154.309916 102.273470)

LINESTRING (119.503392 130.386795, 136.436241 137.579715)

LINESTRING (119.503392 130.386795, 153.811156 164.310290)

LINESTRING (119.503392 130.386795, 174.086256 179.535898)

LINESTRING (119.503392 130.386795, 179.432739 168.300922)

LINESTRING (119.503392 130.386795, 113.026632 123.473061)

LINESTRING (119.503392 130.386795, 150.759045 129.202265)

LINESTRING (119.503392 130.386795, 157.504404 171.495891)

LINESTRING (119.503392 130.386795, 172.051860 160.448825)

LINESTRING (119.503392 130.386795, 125.329268 174.576536)

LINESTRING (119.503392 130.386795, 174.194740 106.642331)

LINESTRING (119.503392 130.386795, 154.934055 153.314025)

LINESTRING (119.503392 130.386795, 123.914904 174.811800)

LINESTRING (119.503392 130.386795, 170.918691 154.746996)

LINESTRING (119.503392 130.386795, 153.918763 172.481026)

LINESTRING (119.503392 130.386795, 120.748399 106.481840)

LINESTRING (119.503392 130.386795, 152.385367 165.152174)

LINESTRING (119.503392 130.386795, 159.872443 103.502914)

LINESTRING (119.503392 130.386795, 152.045016 168.311398)

LINESTRING (119.503392 130.386795, 116.686691 107.600848)

LINESTRING (119.503392 130.386795, 171.553914 137.956673)

LINESTRING (154.309916 102.273470, 136.436241 137.579715)

LINESTRING (154.309916 102.273470, 113.026632 123.473061)

LINESTRING (154.309916 102.273470, 135.225867 137.062380)

LINESTRING (154.309916 102.273470, 150.759045 129.202265)

LINESTRING (154.309916 102.273470, 172.051860 160.448825)

LINESTRING (154.309916 102.273470, 146.543038 145.597916)

LINESTRING (154.309916 102.273470, 174.194740 106.642331)

LINESTRING (154.309916 102.273470, 154.934055 153.314025)

LINESTRING (154.309916 102.273470, 132.707725 173.308089)

LINESTRING (154.309916 102.273470, 179.531402 176.314386)

LINESTRING (154.309916 102.273470, 122.904836 175.813628)

LINESTRING (154.309916 102.273470, 123.914904 174.811800)

LINESTRING (154.309916 102.273470, 170.918691 154.746996)

LINESTRING (154.309916 102.273470, 123.760171 171.410583)

LINESTRING (154.309916 102.273470, 153.918763 172.481026)

LINESTRING (154.309916 102.273470, 173.863947 151.114244)

LINESTRING (154.309916 102.273470, 166.241448 110.677680)

LINESTRING (154.309916 102.273470, 110.076299 155.892360)

LINESTRING (154.309916 102.273470, 156.825628 163.554475)

LINESTRING (154.309916 102.273470, 159.872443 103.502914)

LINESTRING (154.309916 102.273470, 152.045016 168.311398)

LINESTRING (136.436241 137.579715, 174.086256 179.535898)

LINESTRING (136.436241 137.579715, 179.432739 168.300922)

LINESTRING (136.436241 137.579715, 135.225867 137.062380)

LINESTRING (136.436241 137.579715, 150.759045 129.202265)

LINESTRING (136.436241 137.579715, 157.504404 171.495891)

LINESTRING (136.436241 137.579715, 154.934055 153.314025)

LINESTRING (136.436241 137.579715, 179.531402 176.314386)

LINESTRING (136.436241 137.579715, 170.918691 154.746996)

LINESTRING (136.436241 137.579715, 152.732185 167.492092)

LINESTRING (136.436241 137.579715, 173.863947 151.114244)

LINESTRING (136.436241 137.579715, 166.241448 110.677680)

LINESTRING (136.436241 137.579715, 156.825628 163.554475)

LINESTRING (136.436241 137.579715, 152.045016 168.311398)

LINESTRING (136.436241 137.579715, 116.686691 107.600848)

LINESTRING (153.811156 164.310290, 174.086256 179.535898)

LINESTRING (153.811156 164.310290, 179.432739 168.300922)

LINESTRING (153.811156 164.310290, 150.759045 129.202265)

LINESTRING (153.811156 164.310290, 157.504404 171.495891)

LINESTRING (153.811156 164.310290, 172.051860 160.448825)

LINESTRING (153.811156 164.310290, 146.543038 145.597916)

LINESTRING (153.811156 164.310290, 132.707725 173.308089)

LINESTRING (153.811156 164.310290, 122.904836 175.813628)

LINESTRING (153.811156 164.310290, 123.914904 174.811800)

LINESTRING (153.811156 164.310290, 153.918763 172.481026)

LINESTRING (153.811156 164.310290, 152.732185 167.492092)

LINESTRING (153.811156 164.310290, 120.748399 106.481840)

LINESTRING (153.811156 164.310290, 166.241448 110.677680)

LINESTRING (153.811156 164.310290, 110.076299 155.892360)

LINESTRING (153.811156 164.310290, 156.825628 163.554475)

LINESTRING (153.811156 164.310290, 174.668203 175.450010)

LINESTRING (153.811156 164.310290, 101.941868 106.192883)

LINESTRING (153.811156 164.310290, 152.045016 168.311398)

LINESTRING (174.086256 179.535898, 179.432739 168.300922)

LINESTRING (174.086256 179.535898, 135.225867 137.062380)

LINESTRING (174.086256 179.535898, 157.504404 171.495891)

LINESTRING (174.086256 179.535898, 172.051860 160.448825)

LINESTRING (174.086256 179.535898, 146.543038 145.597916)

LINESTRING (174.086256 179.535898, 125.329268 174.576536)

LINESTRING (174.086256 179.535898, 132.707725 173.308089)

LINESTRING (174.086256 179.535898, 179.531402 176.314386)

LINESTRING (174.086256 179.535898, 123.914904 174.811800)

LINESTRING (174.086256 179.535898, 170.918691 154.746996)

LINESTRING (174.086256 179.535898, 119.416731 137.777162)

LINESTRING (174.086256 179.535898, 153.918763 172.481026)

LINESTRING (174.086256 179.535898, 152.732185 167.492092)

LINESTRING (174.086256 179.535898, 173.863947 151.114244)

LINESTRING (174.086256 179.535898, 166.241448 110.677680)

LINESTRING (174.086256 179.535898, 110.076299 155.892360)

LINESTRING (174.086256 179.535898, 156.825628 163.554475)

LINESTRING (174.086256 179.535898, 174.668203 175.450010)

LINESTRING (174.086256 179.535898, 101.941868 106.192883)

LINESTRING (174.086256 179.535898, 116.686691 107.600848)

LINESTRING (179.432739 168.300922, 150.759045 129.202265)

LINESTRING (179.432739 168.300922, 157.504404 171.495891)

LINESTRING (179.432739 168.300922, 125.329268 174.576536)

LINESTRING (179.432739 168.300922, 117.145514 140.407787)

LINESTRING (179.432739 168.300922, 154.934055 153.314025)

LINESTRING (179.432739 168.300922, 132.707725 173.308089)

LINESTRING (179.432739 168.300922, 119.416731 137.777162)

LINESTRING (179.432739 168.300922, 153.918763 172.481026)

LINESTRING (179.432739 168.300922, 152.732185 167.492092)

LINESTRING (179.432739 168.300922, 120.748399 106.481840)

LINESTRING (179.432739 168.300922, 173.863947 151.114244)

LINESTRING (179.432739 168.300922, 110.076299 155.892360)

LINESTRING (179.432739 168.300922, 156.825628 163.554475)

LINESTRING (179.432739 168.300922, 159.872443 103.502914)

LINESTRING (179.432739 168.300922, 101.941868 106.192883)

LINESTRING (179.432739 168.300922, 116.686691 107.600848)

LINESTRING (179.432739 168.300922, 171.553914 137.956673)

LINESTRING (113.026632 123.473061, 150.759045 129.202265)

LINESTRING (113.026632 123.473061, 157.504404 171.495891)

LINESTRING (113.026632 123.473061, 172.051860 160.448825)

LINESTRING (113.026632 123.473061, 125.329268 174.576536)

LINESTRING (113.026632 123.473061, 174.194740 106.642331)

LINESTRING (113.026632 123.473061, 154.934055 153.314025)

LINESTRING (113.026632 123.473061, 132.707725 173.308089)

LINESTRING (113.026632 123.473061, 122.904836 175.813628)

LINESTRING (113.026632 123.473061, 170.918691 154.746996)

LINESTRING (113.026632 123.473061, 119.416731 137.777162)

LINESTRING (113.026632 123.473061, 123.760171 171.410583)

LINESTRING (113.026632 123.473061, 152.385367 165.152174)

LINESTRING (113.026632 123.473061, 166.241448 110.677680)

LINESTRING (113.026632 123.473061, 159.872443 103.502914)

LINESTRING (113.026632 123.473061, 101.941868 106.192883)

LINESTRING (113.026632 123.473061, 116.686691 107.600848)

LINESTRING (113.026632 123.473061, 171.553914 137.956673)

LINESTRING (113.026632 123.473061, 149.400986 133.153238)

LINESTRING (135.225867 137.062380, 150.759045 129.202265)

LINESTRING (135.225867 137.062380, 157.504404 171.495891)

LINESTRING (135.225867 137.062380, 172.051860 160.448825)

LINESTRING (135.225867 137.062380, 146.543038 145.597916)

LINESTRING (135.225867 137.062380, 125.329268 174.576536)

LINESTRING (135.225867 137.062380, 117.145514 140.407787)

LINESTRING (135.225867 137.062380, 154.934055 153.314025)

LINESTRING (135.225867 137.062380, 122.904836 175.813628)

LINESTRING (135.225867 137.062380, 123.914904 174.811800)

LINESTRING (135.225867 137.062380, 119.416731 137.777162)

LINESTRING (135.225867 137.062380, 153.918763 172.481026)

LINESTRING (135.225867 137.062380, 166.241448 110.677680)

LINESTRING (135.225867 137.062380, 156.825628 163.554475)

LINESTRING (135.225867 137.062380, 101.941868 106.192883)

LINESTRING (135.225867 137.062380, 152.045016 168.311398)

LINESTRING (150.759045 129.202265, 157.504404 171.495891)

LINESTRING (150.759045 129.202265, 172.051860 160.448825)

LINESTRING (150.759045 129.202265, 146.543038 145.597916)

LINESTRING (150.759045 129.202265, 174.194740 106.642331)

LINESTRING (150.759045 129.202265, 154.934055 153.314025)

LINESTRING (150.759045 129.202265, 132.707725 173.308089)

LINESTRING (150.759045 129.202265, 122.904836 175.813628)

LINESTRING (150.759045 129.202265, 123.760171 171.410583)

LINESTRING (150.759045 129.202265, 152.732185 167.492092)

LINESTRING (150.759045 129.202265, 120.748399 106.481840)

LINESTRING (150.759045 129.202265, 173.863947 151.114244)

LINESTRING (150.759045 129.202265, 152.385367 165.152174)

LINESTRING (150.759045 129.202265, 166.241448 110.677680)

LINESTRING (150.759045 129.202265, 156.825628 163.554475)

LINESTRING (150.759045 129.202265, 116.686691 107.600848)

LINESTRING (150.759045 129.202265, 171.553914 137.956673)

LINESTRING (150.759045 129.202265, 149.400986 133.153238)

LINESTRING (157.504404 171.495891, 172.051860 160.448825)

LINESTRING (157.504404 171.495891, 125.329268 174.576536)

LINESTRING (157.504404 171.495891, 117.145514 140.407787)

LINESTRING (157.504404 171.495891, 154.934055 153.314025)

LINESTRING (157.504404 171.495891, 179.531402 176.314386)

LINESTRING (157.504404 171.495891, 122.904836 175.813628)

LINESTRING (157.504404 171.495891, 170.918691 154.746996)

LINESTRING (157.504404 171.495891, 119.416731 137.777162)

LINESTRING (157.504404 171.495891, 123.760171 171.410583)

LINESTRING (157.504404 171.495891, 153.918763 172.481026)

LINESTRING (157.504404 171.495891, 152.732185 167.492092)

LINESTRING (157.504404 171.495891, 120.748399 106.481840)

LINESTRING (157.504404 171.495891, 173.863947 151.114244)

LINESTRING (157.504404 171.495891, 152.385367 165.152174)

LINESTRING (157.504404 171.495891, 166.241448 110.677680)

LINESTRING (157.504404 171.495891, 110.076299 155.892360)

LINESTRING (157.504404 171.495891, 156.825628 163.554475)

LINESTRING (157.504404 171.495891, 159.872443 103.502914)

LINESTRING (157.504404 171.495891, 116.686691 107.600848)

LINESTRING (172.051860 160.448825, 125.329268 174.576536)

LINESTRING (172.051860 160.448825, 174.194740 106.642331)

LINESTRING (172.051860 160.448825, 117.145514 140.407787)

LINESTRING (172.051860 160.448825, 179.531402 176.314386)

LINESTRING (172.051860 160.448825, 122.904836 175.813628)

LINESTRING (172.051860 160.448825, 119.416731 137.777162)

LINESTRING (172.051860 160.448825, 123.760171 171.410583)

LINESTRING (172.051860 160.448825, 153.918763 172.481026)

LINESTRING (172.051860 160.448825, 152.732185 167.492092)

LINESTRING (172.051860 160.448825, 152.385367 165.152174)

LINESTRING (172.051860 160.448825, 110.076299 155.892360)

LINESTRING (172.051860 160.448825, 156.825628 163.554475)

LINESTRING (172.051860 160.448825, 174.668203 175.450010)

LINESTRING (172.051860 160.448825, 101.941868 106.192883)

LINESTRING (172.051860 160.448825, 152.045016 168.311398)

LINESTRING (172.051860 160.448825, 171.553914 137.956673)

LINESTRING (172.051860 160.448825, 149.400986 133.153238)

LINESTRING (146.543038 145.597916, 125.329268 174.576536)

LINESTRING (146.543038 145.597916, 174.194740 106.642331)

LINESTRING (146.543038 145.597916, 117.145514 140.407787)

LINESTRING (146.543038 145.597916, 132.707725 173.308089)

LINESTRING (146.543038 145.597916, 179.531402 176.314386)

LINESTRING (146.543038 145.597916, 123.914904 174.811800)

LINESTRING (146.543038 145.597916, 170.918691 154.746996)

LINESTRING (146.543038 145.597916, 119.416731 137.777162)

LINESTRING (146.543038 145.597916, 123.760171 171.410583)

LINESTRING (146.543038 145.597916, 120.748399 106.481840)

LINESTRING (146.543038 145.597916, 173.863947 151.114244)

LINESTRING (146.543038 145.597916, 152.385367 165.152174)

LINESTRING (146.543038 145.597916, 166.241448 110.677680)

LINESTRING (146.543038 145.597916, 110.076299 155.892360)

LINESTRING (146.543038 145.597916, 159.872443 103.502914)

LINESTRING (146.543038 145.597916, 101.941868 106.192883)

LINESTRING (146.543038 145.597916, 171.553914 137.956673)

LINESTRING (125.329268 174.576536, 174.194740 106.642331)

LINESTRING (125.329268 174.576536, 117.145514 140.407787)

LINESTRING (125.329268 174.576536, 154.934055 153.314025)

LINESTRING (125.329268 174.576536, 132.707725 173.308089)

LINESTRING (125.329268 174.576536, 179.531402 176.314386)

LINESTRING (125.329268 174.576536, 123.914904 174.811800)

LINESTRING (125.329268 174.576536, 170.918691 154.746996)

LINESTRING (125.329268 174.576536, 119.416731 137.777162)

LINESTRING (125.329268 174.576536, 152.732185 167.492092)

LINESTRING (125.329268 174.576536, 173.863947 151.114244)

LINESTRING (125.329268 174.576536, 166.241448 110.677680)

LINESTRING (125.329268 174.576536, 156.825628 163.554475)

LINESTRING (125.329268 174.576536, 101.941868 106.192883)

LINESTRING (125.329268 174.576536, 116.686691 107.600848)

LINESTRING (125.329268 174.576536, 171.553914 137.956673)

LINESTRING (125.329268 174.576536, 149.400986 133.153238)

LINESTRING (174.194740 106.642331, 117.145514 140.407787)

LINESTRING (174.194740 106.642331, 132.707725 173.308089)

LINESTRING (174.194740 106.642331, 123.914904 174.811800)

LINESTRING (174.194740 106.642331, 119.416731 137.777162)

LINESTRING (174.194740 106.642331, 153.918763 172.481026)

LINESTRING (174.194740 106.642331, 152.732185 167.492092)

LINESTRING (174.194740 106.642331, 120.748399 106.481840)

LINESTRING (174.194740 106.642331, 173.863947 151.114244)

LINESTRING (174.194740 106.642331, 152.385367 165.152174)

LINESTRING (174.194740 106.642331, 166.241448 110.677680)

LINESTRING (174.194740 106.642331, 110.076299 155.892360)

LINESTRING (174.194740 106.642331, 156.825628 163.554475)

LINESTRING (174.194740 106.642331, 159.872443 103.502914)

LINESTRING (174.194740 106.642331, 101.941868 106.192883)

LINESTRING (174.194740 106.642331, 152.045016 168.311398)

LINESTRING (174.194740 106.642331, 116.686691 107.600848)

LINESTRING (174.194740 106.642331, 171.553914 137.956673)

LINESTRING (174.194740 106.642331, 149.400986 133.153238)

LINESTRING (117.145514 140.407787, 154.934055 153.314025)

LINESTRING (117.145514 140.407787, 132.707725 173.308089)

LINESTRING (117.145514 140.407787, 122.904836 175.813628)

LINESTRING (117.145514 140.407787, 123.914904 174.811800)

LINESTRING (117.145514 140.407787, 119.416731 137.777162)

LINESTRING (117.145514 140.407787, 153.918763 172.481026)

LINESTRING (117.145514 140.407787, 166.241448 110.677680)

LINESTRING (117.145514 140.407787, 110.076299 155.892360)

LINESTRING (117.145514 140.407787, 156.825628 163.554475)

LINESTRING (117.145514 140.407787, 159.872443 103.502914)

LINESTRING (117.145514 140.407787, 174.668203 175.450010)

LINESTRING (117.145514 140.407787, 116.686691 107.600848)

LINESTRING (117.145514 140.407787, 171.553914 137.956673)

LINESTRING (117.145514 140.407787, 149.400986 133.153238)

LINESTRING (154.934055 153.314025, 132.707725 173.308089)

LINESTRING (154.934055 153.314025, 179.531402 176.314386)

LINESTRING (154.934055 153.314025, 122.904836 175.813628)

LINESTRING (154.934055 153.314025, 123.914904 174.811800)

LINESTRING (154.934055 153.314025, 170.918691 154.746996)

LINESTRING (154.934055 153.314025, 119.416731 137.777162)

LINESTRING (154.934055 153.314025, 123.760171 171.410583)

LINESTRING (154.934055 153.314025, 152.732185 167.492092)

LINESTRING (154.934055 153.314025, 173.863947 151.114244)

LINESTRING (154.934055 153.314025, 110.076299 155.892360)

LINESTRING (154.934055 153.314025, 156.825628 163.554475)

LINESTRING (154.934055 153.314025, 159.872443 103.502914)

LINESTRING (154.934055 153.314025, 174.668203 175.450010)

LINESTRING (154.934055 153.314025, 101.941868 106.192883)

LINESTRING (154.934055 153.314025, 152.045016 168.311398)

LINESTRING (154.934055 153.314025, 116.686691 107.600848)

LINESTRING (132.707725 173.308089, 122.904836 175.813628)

LINESTRING (132.707725 173.308089, 123.914904 174.811800)

LINESTRING (132.707725 173.308089, 119.416731 137.777162)

LINESTRING (132.707725 173.308089, 153.918763 172.481026)

LINESTRING (132.707725 173.308089, 152.732185 167.492092)

LINESTRING (132.707725 173.308089, 173.863947 151.114244)

LINESTRING (132.707725 173.308089, 152.385367 165.152174)

LINESTRING (132.707725 173.308089, 110.076299 155.892360)

LINESTRING (132.707725 173.308089, 101.941868 106.192883)

LINESTRING (132.707725 173.308089, 116.686691 107.600848)

LINESTRING (179.531402 176.314386, 122.904836 175.813628)

LINESTRING (179.531402 176.314386, 119.416731 137.777162)

LINESTRING (179.531402 176.314386, 123.760171 171.410583)

LINESTRING (179.531402 176.314386, 153.918763 172.481026)

LINESTRING (179.531402 176.314386, 152.732185 167.492092)

LINESTRING (179.531402 176.314386, 173.863947 151.114244)

LINESTRING (179.531402 176.314386, 152.385367 165.152174)

LINESTRING (179.531402 176.314386, 159.872443 103.502914)

LINESTRING (179.531402 176.314386, 174.668203 175.450010)

LINESTRING (179.531402 176.314386, 101.941868 106.192883)

LINESTRING (179.531402 176.314386, 116.686691 107.600848)

LINESTRING (179.531402 176.314386, 171.553914 137.956673)

LINESTRING (179.531402 176.314386, 149.400986 133.153238)

LINESTRING (122.904836 175.813628, 170.918691 154.746996)

LINESTRING (122.904836 175.813628, 119.416731 137.777162)

LINESTRING (122.904836 175.813628, 123.760171 171.410583)

LINESTRING (122.904836 175.813628, 153.918763 172.481026)

LINESTRING (122.904836 175.813628, 152.732185 167.492092)

LINESTRING (122.904836 175.813628, 120.748399 106.481840)

LINESTRING (122.904836 175.813628, 173.863947 151.114244)

LINESTRING (122.904836 175.813628, 152.385367 165.152174)

LINESTRING (122.904836 175.813628, 174.668203 175.450010)

LINESTRING (122.904836 175.813628, 152.045016 168.311398)

LINESTRING (122.904836 175.813628, 116.686691 107.600848)

LINESTRING (122.904836 175.813628, 171.553914 137.956673)

LINESTRING (122.904836 175.813628, 149.400986 133.153238)

LINESTRING (123.914904 174.811800, 170.918691 154.746996)

LINESTRING (123.914904 174.811800, 119.416731 137.777162)

LINESTRING (123.914904 174.811800, 123.760171 171.410583)

LINESTRING (123.914904 174.811800, 152.732185 167.492092)

LINESTRING (123.914904 174.811800, 173.863947 151.114244)

LINESTRING (123.914904 174.811800, 166.241448 110.677680)

LINESTRING (123.914904 174.811800, 110.076299 155.892360)

LINESTRING (123.914904 174.811800, 174.668203 175.450010)

LINESTRING (123.914904 174.811800, 101.941868 106.192883)

LINESTRING (123.914904 174.811800, 152.045016 168.311398)

LINESTRING (123.914904 174.811800, 116.686691 107.600848)

LINESTRING (123.914904 174.811800, 171.553914 137.956673)

LINESTRING (123.914904 174.811800, 149.400986 133.153238)

LINESTRING (170.918691 154.746996, 119.416731 137.777162)

LINESTRING (170.918691 154.746996, 123.760171 171.410583)

LINESTRING (170.918691 154.746996, 120.748399 106.481840)

LINESTRING (170.918691 154.746996, 173.863947 151.114244)

LINESTRING (170.918691 154.746996, 166.241448 110.677680)

LINESTRING (170.918691 154.746996, 110.076299 155.892360)

LINESTRING (170.918691 154.746996, 159.872443 103.502914)

LINESTRING (170.918691 154.746996, 101.941868 106.192883)

LINESTRING (170.918691 154.746996, 116.686691 107.600848)

LINESTRING (119.416731 137.777162, 153.918763 172.481026)

LINESTRING (119.416731 137.777162, 173.863947 151.114244)

LINESTRING (119.416731 137.777162, 152.385367 165.152174)

LINESTRING (119.416731 137.777162, 110.076299 155.892360)

LINESTRING (119.416731 137.777162, 174.668203 175.450010)

LINESTRING (119.416731 137.777162, 171.553914 137.956673)

LINESTRING (119.416731 137.777162, 149.400986 133.153238)

LINESTRING (123.760171 171.410583, 153.918763 172.481026)

LINESTRING (123.760171 171.410583, 120.748399 106.481840)

LINESTRING (123.760171 171.410583, 173.863947 151.114244)

LINESTRING (123.760171 171.410583, 152.385367 165.152174)

LINESTRING (123.760171 171.410583, 110.076299 155.892360)

LINESTRING (123.760171 171.410583, 156.825628 163.554475)

LINESTRING (123.760171 171.410583, 159.872443 103.502914)

LINESTRING (123.760171 171.410583, 174.668203 175.450010)

LINESTRING (123.760171 171.410583, 116.686691 107.600848)

LINESTRING (153.918763 172.481026, 120.748399 106.481840)

LINESTRING (153.918763 172.481026, 166.241448 110.677680)

LINESTRING (153.918763 172.481026, 110.076299 155.892360)

LINESTRING (153.918763 172.481026, 174.668203 175.450010)

LINESTRING (153.918763 172.481026, 101.941868 106.192883)

LINESTRING (153.918763 172.481026, 171.553914 137.956673)

LINESTRING (152.732185 167.492092, 120.748399 106.481840)

LINESTRING (152.732185 167.492092, 173.863947 151.114244)

LINESTRING (152.732185 167.492092, 166.241448 110.677680)

LINESTRING (152.732185 167.492092, 159.872443 103.502914)

LINESTRING (152.732185 167.492092, 101.941868 106.192883)

LINESTRING (152.732185 167.492092, 116.686691 107.600848)

LINESTRING (152.732185 167.492092, 171.553914 137.956673)

LINESTRING (152.732185 167.492092, 149.400986 133.153238)

LINESTRING (120.748399 106.481840, 173.863947 151.114244)

LINESTRING (120.748399 106.481840, 152.385367 165.152174)

LINESTRING (120.748399 106.481840, 159.872443 103.502914)

LINESTRING (120.748399 106.481840, 149.400986 133.153238)

LINESTRING (173.863947 151.114244, 152.385367 165.152174)

LINESTRING (173.863947 151.114244, 110.076299 155.892360)

LINESTRING (173.863947 151.114244, 159.872443 103.502914)

LINESTRING (173.863947 151.114244, 101.941868 106.192883)

LINESTRING (173.863947 151.114244, 152.045016 168.311398)

LINESTRING (173.863947 151.114244, 116.686691 107.600848)

LINESTRING (152.385367 165.152174, 166.241448 110.677680)

LINESTRING (152.385367 165.152174, 110.076299 155.892360)

LINESTRING (152.385367 165.152174, 156.825628 163.554475)

LINESTRING (152.385367 165.152174, 159.872443 103.502914)

LINESTRING (152.385367 165.152174, 174.668203 175.450010)

LINESTRING (152.385367 165.152174, 116.686691 107.600848)

LINESTRING (152.385367 165.152174, 171.553914 137.956673)

LINESTRING (166.241448 110.677680, 156.825628 163.554475)

LINESTRING (166.241448 110.677680, 159.872443 103.502914)

LINESTRING (166.241448 110.677680, 174.668203 175.450010)

LINESTRING (166.241448 110.677680, 101.941868 106.192883)

LINESTRING (166.241448 110.677680, 152.045016 168.311398)

LINESTRING (166.241448 110.677680, 116.686691 107.600848)

LINESTRING (166.241448 110.677680, 171.553914 137.956673)

LINESTRING (110.076299 155.892360, 156.825628 163.554475)

LINESTRING (110.076299 155.892360, 159.872443 103.502914)

LINESTRING (110.076299 155.892360, 101.941868 106.192883)

LINESTRING (110.076299 155.892360, 152.045016 168.311398)

LINESTRING (110.076299 155.892360, 149.400986 133.153238)

LINESTRING (156.825628 163.554475, 101.941868 106.192883)

LINESTRING (156.825628 163.554475, 152.045016 168.311398)

LINESTRING (156.825628 163.554475, 149.400986 133.153238)

LINESTRING (159.872443 103.502914, 152.045016 168.311398)

LINESTRING (159.872443 103.502914, 116.686691 107.600848)

LINESTRING (159.872443 103.502914, 171.553914 137.956673)

LINESTRING (174.668203 175.450010, 101.941868 106.192883)

LINESTRING (174.668203 175.450010, 116.686691 107.600848)

LINESTRING (174.668203 175.450010, 149.400986 133.153238)

LINESTRING (152.045016 168.311398, 116.686691 107.600848)

LINESTRING (152.045016 168.311398, 171.553914 137.956673)

LINESTRING (116.686691 107.600848, 171.553914 137.956673)

LINESTRING (116.686691 107.600848, 149.400986 133.153238)

LINESTRING (504.247936 145.503228, 513.305512 106.568718)

LINESTRING (504.247936 145.503228, 472.922123 172.489901)

LINESTRING (504.247936 145.503228, 510.467223 144.990599)

LINESTRING (504.247936 145.503228, 470.120491 164.136157)

LINESTRING (504.247936 145.503228, 455.920037 176.255775)

LINESTRING (504.247936 145.503228, 484.453090 132.836177)

LINESTRING (504.247936 145.503228, 500.577400 119.082597)

LINESTRING (504.247936 145.503228, 452.919379 123.893963)

LINESTRING (504.247936 145.503228, 521.110705 109.682680)

LINESTRING (504.247936 145.503228, 520.819938 172.481036)

LINESTRING (504.247936 145.503228, 518.686659 147.997170)

LINESTRING (504.247936 145.503228, 466.896797 165.448236)

LINESTRING (504.247936 145.503228, 475.475913 108.770885)

LINESTRING (504.247936 145.503228, 518.494291 136.352205)

LINESTRING (504.247936 145.503228, 450.363148 102.802760)

LINESTRING (504.247936 145.503228, 528.555247 170.692035)

LINESTRING (504.247936 145.503228, 513.598734 114.235805)

LINESTRING (504.247936 145.503228, 465.415841 171.581844)

LINESTRING (504.247936 145.503228, 456.948746 151.594561)

LINESTRING (504.247936 145.503228, 509.683200 109.043015)

LINESTRING (504.247936 145.503228, 498.405798 125.148417)

LINESTRING (504.247936 145.503228, 526.861551 176.913528)

LINESTRING (504.247936 145.503228, 509.251330 110.507522)

LINESTRING (504.247936 145.503228, 502.454525 173.673701)

LINESTRING (513.305512 106.568718, 510.467223 144.990599)

LINESTRING (513.305512 106.568718, 470.120491 164.136157)

LINESTRING (513.305512 106.568718, 455.920037 176.255775)

LINESTRING (513.305512 106.568718, 484.453090 132.836177)

LINESTRING (513.305512 106.568718, 520.819938 172.481036)

LINESTRING (513.305512 106.568718, 466.896797 165.448236)

LINESTRING (513.305512 106.568718, 507.466155 147.813899)

LINESTRING (513.305512 106.568718, 462.079924 160.511297)

LINESTRING (513.305512 106.568718, 450.363148 102.802760)

LINESTRING (513.305512 106.568718, 528.555247 170.692035)

LINESTRING (513.305512 106.568718, 513.598734 114.235805)

LINESTRING (513.305512 106.568718, 467.957065 132.387593)

LINESTRING (513.305512 106.568718, 496.359828 115.395016)

LINESTRING (513.305512 106.568718, 480.055579 105.562162)

LINESTRING (513.305512 106.568718, 456.948746 151.594561)

LINESTRING (513.305512 106.568718, 509.683200 109.043015)

LINESTRING (513.305512 106.568718, 526.861551 176.913528)

LINESTRING (513.305512 106.568718, 498.466728 167.653469)

LINESTRING (513.305512 106.568718, 519.631178 139.782054)

LINESTRING (513.305512 106.568718, 457.080239 131.791678)

LINESTRING (472.922123 172.489901, 510.467223 144.990599)

LINESTRING (472.922123 172.489901, 455.920037 176.255775)

LINESTRING (472.922123 172.489901, 507.466155 147.813899)

LINESTRING (472.922123 172.489901, 462.880317 119.745515)

LINESTRING (472.922123 172.489901, 471.167674 165.119614)

LINESTRING (472.922123 172.489901, 462.079924 160.511297)

LINESTRING (472.922123 172.489901, 518.494291 136.352205)

LINESTRING (472.922123 172.489901, 467.957065 132.387593)

LINESTRING (472.922123 172.489901, 465.415841 171.581844)

LINESTRING (472.922123 172.489901, 480.055579 105.562162)

LINESTRING (472.922123 172.489901, 456.948746 151.594561)

LINESTRING (472.922123 172.489901, 509.683200 109.043015)

LINESTRING (472.922123 172.489901, 513.976208 119.719150)

LINESTRING (472.922123 172.489901, 498.405798 125.148417)

LINESTRING (472.922123 172.489901, 509.251330 110.507522)

LINESTRING (472.922123 172.489901, 502.454525 173.673701)

LINESTRING (472.922123 172.489901, 519.631178 139.782054)

LINESTRING (472.922123 172.489901, 457.080239 131.791678)

LINESTRING (510.467223 144.990599, 470.120491 164.136157)

LINESTRING (510.467223 144.990599, 455.920037 176.255775)

LINESTRING (510.467223 144.990599, 468.710875 107.538400)

LINESTRING (510.467223 144.990599, 500.577400 119.082597)

LINESTRING (510.467223 144.990599, 521.110705 109.682680)

LINESTRING (510.467223 144.990599, 520.819938 172.481036)

LINESTRING (510.467223 144.990599, 510.787342 178.772771)

LINESTRING (510.467223 144.990599, 518.494291 136.352205)

LINESTRING (510.467223 144.990599, 513.598734 114.235805)

LINESTRING (510.467223 144.990599, 467.957065 132.387593)

LINESTRING (510.467223 144.990599, 465.415841 171.581844)

LINESTRING (510.467223 144.990599, 496.359828 115.395016)

LINESTRING (510.467223 144.990599, 511.329458 137.667462)

LINESTRING (510.467223 144.990599, 456.948746 151.594561)

LINESTRING (510.467223 144.990599, 513.976208 119.719150)

LINESTRING (510.467223 144.990599, 498.405798 125.148417)

LINESTRING (510.467223 144.990599, 502.454525 173.673701)

LINESTRING (510.467223 144.990599, 519.631178 139.782054)

LINESTRING (510.467223 144.990599, 457.080239 131.791678)

LINESTRING (470.120491 164.136157, 484.453090 132.836177)

LINESTRING (470.120491 164.136157, 452.919379 123.893963)

LINESTRING (470.120491 164.136157, 521.110705 109.682680)

LINESTRING (470.120491 164.136157, 520.819938 172.481036)

LINESTRING (470.120491 164.136157, 510.787342 178.772771)

LINESTRING (470.120491 164.136157, 507.985432 176.142382)

LINESTRING (470.120491 164.136157, 475.475913 108.770885)

LINESTRING (470.120491 164.136157, 471.167674 165.119614)

LINESTRING (470.120491 164.136157, 462.079924 160.511297)

LINESTRING (470.120491 164.136157, 518.494291 136.352205)

LINESTRING (470.120491 164.136157, 450.363148 102.802760)

LINESTRING (470.120491 164.136157, 467.957065 132.387593)

LINESTRING (470.120491 164.136157, 465.415841 171.581844)

LINESTRING (470.120491 164.136157, 511.329458 137.667462)

LINESTRING (470.120491 164.136157, 456.948746 151.594561)

LINESTRING (470.120491 164.136157, 509.683200 109.043015)

LINESTRING (470.120491 164.136157, 513.976208 119.719150)

LINESTRING (470.120491 164.136157, 498.405798 125.148417)

LINESTRING (470.120491 164.136157, 498.466728 167.653469)

LINESTRING (470.120491 164.136157, 509.251330 110.507522)

LINESTRING (470.120491 164.136157, 502.454525 173.673701)

LINESTRING (470.120491 164.136157, 457.080239 131.791678)

LINESTRING (455.920037 176.255775, 484.453090 132.836177)

LINESTRING (455.920037 176.255775, 521.110705 109.682680)

LINESTRING (455.920037 176.255775, 520.819938 172.481036)

LINESTRING (455.920037 176.255775, 466.896797 165.448236)

LINESTRING (455.920037 176.255775, 462.880317 119.745515)

LINESTRING (455.920037 176.255775, 462.079924 160.511297)

LINESTRING (455.920037 176.255775, 518.494291 136.352205)

LINESTRING (455.920037 176.255775, 450.363148 102.802760)

LINESTRING (455.920037 176.255775, 528.555247 170.692035)

LINESTRING (455.920037 176.255775, 513.598734 114.235805)

LINESTRING (455.920037 176.255775, 467.957065 132.387593)

LINESTRING (455.920037 176.255775, 496.359828 115.395016)

LINESTRING (455.920037 176.255775, 511.329458 137.667462)

LINESTRING (455.920037 176.255775, 456.948746 151.594561)

LINESTRING (455.920037 176.255775, 509.683200 109.043015)

LINESTRING (455.920037 176.255775, 513.976208 119.719150)

LINESTRING (455.920037 176.255775, 498.405798 125.148417)

LINESTRING (455.920037 176.255775, 509.251330 110.507522)

LINESTRING (455.920037 176.255775, 519.631178 139.782054)

LINESTRING (468.710875 107.538400, 500.577400 119.082597)

LINESTRING (468.710875 107.538400, 521.110705 109.682680)

LINESTRING (468.710875 107.538400, 507.466155 147.813899)

LINESTRING (468.710875 107.538400, 462.880317 119.745515)

LINESTRING (468.710875 107.538400, 510.787342 178.772771)

LINESTRING (468.710875 107.538400, 475.475913 108.770885)

LINESTRING (468.710875 107.538400, 471.167674 165.119614)

LINESTRING (468.710875 107.538400, 462.079924 160.511297)

LINESTRING (468.710875 107.538400, 450.363148 102.802760)

LINESTRING (468.710875 107.538400, 528.555247 170.692035)

LINESTRING (468.710875 107.538400, 513.598734 114.235805)

LINESTRING (468.710875 107.538400, 465.415841 171.581844)

LINESTRING (468.710875 107.538400, 496.359828 115.395016)

LINESTRING (468.710875 107.538400, 511.329458 137.667462)

LINESTRING (468.710875 107.538400, 509.683200 109.043015)

LINESTRING (468.710875 107.538400, 513.976208 119.719150)

LINESTRING (468.710875 107.538400, 498.405798 125.148417)

LINESTRING (468.710875 107.538400, 526.861551 176.913528)

LINESTRING (468.710875 107.538400, 498.466728 167.653469)

LINESTRING (468.710875 107.538400, 509.251330 110.507522)

LINESTRING (468.710875 107.538400, 502.454525 173.673701)

LINESTRING (468.710875 107.538400, 519.631178 139.782054)

LINESTRING (468.710875 107.538400, 457.080239 131.791678)

LINESTRING (484.453090 132.836177, 500.577400 119.082597)

LINESTRING (484.453090 132.836177, 452.919379 123.893963)

LINESTRING (484.453090 132.836177, 518.686659 147.997170)

LINESTRING (484.453090 132.836177, 466.896797 165.448236)

LINESTRING (484.453090 132.836177, 462.880317 119.745515)

LINESTRING (484.453090 132.836177, 510.787342 178.772771)

LINESTRING (484.453090 132.836177, 507.985432 176.142382)

LINESTRING (484.453090 132.836177, 518.494291 136.352205)

LINESTRING (484.453090 132.836177, 450.363148 102.802760)

LINESTRING (484.453090 132.836177, 467.957065 132.387593)

LINESTRING (484.453090 132.836177, 496.359828 115.395016)

LINESTRING (484.453090 132.836177, 480.055579 105.562162)

LINESTRING (484.453090 132.836177, 456.948746 151.594561)

LINESTRING (484.453090 132.836177, 509.683200 109.043015)

LINESTRING (484.453090 132.836177, 513.976208 119.719150)

LINESTRING (484.453090 132.836177, 502.454525 173.673701)

LINESTRING (484.453090 132.836177, 519.631178 139.782054)

LINESTRING (484.453090 132.836177, 457.080239 131.791678)

LINESTRING (500.577400 119.082597, 452.919379 123.893963)

LINESTRING (500.577400 119.082597, 520.819938 172.481036)

LINESTRING (500.577400 119.082597, 466.896797 165.448236)

LINESTRING (500.577400 119.082597, 462.880317 119.745515)

LINESTRING (500.577400 119.082597, 475.475913 108.770885)

LINESTRING (500.577400 119.082597, 462.079924 160.511297)

LINESTRING (500.577400 119.082597, 518.494291 136.352205)

LINESTRING (500.577400 119.082597, 450.363148 102.802760)

LINESTRING (500.577400 119.082597, 513.598734 114.235805)

LINESTRING (500.577400 119.082597, 467.957065 132.387593)

LINESTRING (500.577400 119.082597, 496.359828 115.395016)

LINESTRING (500.577400 119.082597, 480.055579 105.562162)

LINESTRING (500.577400 119.082597, 456.948746 151.594561)

LINESTRING (500.577400 119.082597, 509.683200 109.043015)

LINESTRING (500.577400 119.082597, 513.976208 119.719150)

LINESTRING (500.577400 119.082597, 498.405798 125.148417)

LINESTRING (500.577400 119.082597, 509.251330 110.507522)

LINESTRING (500.577400 119.082597, 502.454525 173.673701)

LINESTRING (500.577400 119.082597, 519.631178 139.782054)

LINESTRING (452.919379 123.893963, 521.110705 109.682680)

LINESTRING (452.919379 123.893963, 520.819938 172.481036)

LINESTRING (452.919379 123.893963, 471.167674 165.119614)

LINESTRING (452.919379 123.893963, 518.494291 136.352205)

LINESTRING (452.919379 123.893963, 450.363148 102.802760)

LINESTRING (452.919379 123.893963, 528.555247 170.692035)

LINESTRING (452.919379 123.893963, 496.359828 115.395016)

LINESTRING (452.919379 123.893963, 511.329458 137.667462)

LINESTRING (452.919379 123.893963, 480.055579 105.562162)

LINESTRING (452.919379 123.893963, 456.948746 151.594561)

LINESTRING (452.919379 123.893963, 513.976208 119.719150)

LINESTRING (452.919379 123.893963, 498.466728 167.653469)

LINESTRING (452.919379 123.893963, 502.454525 173.673701)

LINESTRING (452.919379 123.893963, 519.631178 139.782054)

LINESTRING (452.919379 123.893963, 457.080239 131.791678)

LINESTRING (521.110705 109.682680, 520.819938 172.481036)

LINESTRING (521.110705 109.682680, 518.686659 147.997170)

LINESTRING (521.110705 109.682680, 466.896797 165.448236)

LINESTRING (521.110705 109.682680, 507.466155 147.813899)

LINESTRING (521.110705 109.682680, 510.787342 178.772771)

LINESTRING (521.110705 109.682680, 475.475913 108.770885)

LINESTRING (521.110705 109.682680, 471.167674 165.119614)

LINESTRING (521.110705 109.682680, 462.079924 160.511297)

LINESTRING (521.110705 109.682680, 518.494291 136.352205)

LINESTRING (521.110705 109.682680, 450.363148 102.802760)

LINESTRING (521.110705 109.682680, 528.555247 170.692035)

LINESTRING (521.110705 109.682680, 513.598734 114.235805)

LINESTRING (521.110705 109.682680, 467.957065 132.387593)

LINESTRING (521.110705 109.682680, 465.415841 171.581844)

LINESTRING (521.110705 109.682680, 511.329458 137.667462)

LINESTRING (521.110705 109.682680, 480.055579 105.562162)

LINESTRING (521.110705 109.682680, 509.683200 109.043015)

LINESTRING (521.110705 109.682680, 513.976208 119.719150)

LINESTRING (521.110705 109.682680, 498.405798 125.148417)

LINESTRING (521.110705 109.682680, 526.861551 176.913528)

LINESTRING (521.110705 109.682680, 498.466728 167.653469)

LINESTRING (521.110705 109.682680, 509.251330 110.507522)

LINESTRING (521.110705 109.682680, 519.631178 139.782054)

LINESTRING (521.110705 109.682680, 457.080239 131.791678)

LINESTRING (520.819938 172.481036, 518.686659 147.997170)

LINESTRING (520.819938 172.481036, 466.896797 165.448236)

LINESTRING (520.819938 172.481036, 462.880317 119.745515)

LINESTRING (520.819938 172.481036, 510.787342 178.772771)

LINESTRING (520.819938 172.481036, 507.985432 176.142382)

LINESTRING (520.819938 172.481036, 475.475913 108.770885)

LINESTRING (520.819938 172.481036, 471.167674 165.119614)

LINESTRING (520.819938 172.481036, 518.494291 136.352205)

LINESTRING (520.819938 172.481036, 450.363148 102.802760)

LINESTRING (520.819938 172.481036, 465.415841 171.581844)

LINESTRING (520.819938 172.481036, 496.359828 115.395016)

LINESTRING (520.819938 172.481036, 480.055579 105.562162)

LINESTRING (520.819938 172.481036, 456.948746 151.594561)

LINESTRING (520.819938 172.481036, 498.405798 125.148417)

LINESTRING (520.819938 172.481036, 509.251330 110.507522)

LINESTRING (520.819938 172.481036, 502.454525 173.673701)

LINESTRING (520.819938 172.481036, 519.631178 139.782054)

LINESTRING (520.819938 172.481036, 457.080239 131.791678)

LINESTRING (518.686659 147.997170, 466.896797 165.448236)

LINESTRING (518.686659 147.997170, 507.466155 147.813899)

LINESTRING (518.686659 147.997170, 471.167674 165.119614)

LINESTRING (518.686659 147.997170, 462.079924 160.511297)

LINESTRING (518.686659 147.997170, 518.494291 136.352205)

LINESTRING (518.686659 147.997170, 450.363148 102.802760)

LINESTRING (518.686659 147.997170, 513.598734 114.235805)

LINESTRING (518.686659 147.997170, 467.957065 132.387593)

LINESTRING (518.686659 147.997170, 465.415841 171.581844)

LINESTRING (518.686659 147.997170, 456.948746 151.594561)

LINESTRING (518.686659 147.997170, 509.683200 109.043015)

LINESTRING (518.686659 147.997170, 513.976208 119.719150)

LINESTRING (518.686659 147.997170, 526.861551 176.913528)

LINESTRING (518.686659 147.997170, 498.466728 167.653469)

LINESTRING (518.686659 147.997170, 509.251330 110.507522)

LINESTRING (518.686659 147.997170, 502.454525 173.673701)

LINESTRING (518.686659 147.997170, 519.631178 139.782054)

LINESTRING (466.896797 165.448236, 462.880317 119.745515)

LINESTRING (466.896797 165.448236, 510.787342 178.772771)

LINESTRING (466.896797 165.448236, 507.985432 176.142382)

LINESTRING (466.896797 165.448236, 471.167674 165.119614)

LINESTRING (466.896797 165.448236, 518.494291 136.352205)

LINESTRING (466.896797 165.448236, 450.363148 102.802760)

LINESTRING (466.896797 165.448236, 528.555247 170.692035)

LINESTRING (466.896797 165.448236, 513.598734 114.235805)

LINESTRING (466.896797 165.448236, 467.957065 132.387593)

LINESTRING (466.896797 165.448236, 496.359828 115.395016)

LINESTRING (466.896797 165.448236, 511.329458 137.667462)

LINESTRING (466.896797 165.448236, 456.948746 151.594561)

LINESTRING (466.896797 165.448236, 509.683200 109.043015)

LINESTRING (466.896797 165.448236, 513.976208 119.719150)

LINESTRING (466.896797 165.448236, 498.466728 167.653469)

LINESTRING (466.896797 165.448236, 509.251330 110.507522)

LINESTRING (466.896797 165.448236, 502.454525 173.673701)

LINESTRING (466.896797 165.448236, 519.631178 139.782054)

LINESTRING (466.896797 165.448236, 457.080239 131.791678)

LINESTRING (507.466155 147.813899, 507.985432 176.142382)

LINESTRING (507.466155 147.813899, 475.475913 108.770885)

LINESTRING (507.466155 147.813899, 471.167674 165.119614)

LINESTRING (507.466155 147.813899, 518.494291 136.352205)

LINESTRING (507.466155 147.813899, 450.363148 102.802760)

LINESTRING (507.466155 147.813899, 513.598734 114.235805)

LINESTRING (507.466155 147.813899, 465.415841 171.581844)

LINESTRING (507.466155 147.813899, 496.359828 115.395016)

LINESTRING (507.466155 147.813899, 480.055579 105.562162)

LINESTRING (507.466155 147.813899, 456.948746 151.594561)

LINESTRING (507.466155 147.813899, 509.683200 109.043015)

LINESTRING (507.466155 147.813899, 513.976208 119.719150)

LINESTRING (507.466155 147.813899, 509.251330 110.507522)

LINESTRING (507.466155 147.813899, 502.454525 173.673701)

LINESTRING (507.466155 147.813899, 519.631178 139.782054)

LINESTRING (462.880317 119.745515, 510.787342 178.772771)

LINESTRING (462.880317 119.745515, 507.985432 176.142382)

LINESTRING (462.880317 119.745515, 475.475913 108.770885)

LINESTRING (462.880317 119.745515, 471.167674 165.119614)

LINESTRING (462.880317 119.745515, 462.079924 160.511297)

LINESTRING (462.880317 119.745515, 518.494291 136.352205)

LINESTRING (462.880317 119.745515, 528.555247 170.692035)

LINESTRING (462.880317 119.745515, 496.359828 115.395016)

LINESTRING (462.880317 119.745515, 511.329458 137.667462)

LINESTRING (462.880317 119.745515, 480.055579 105.562162)

LINESTRING (462.880317 119.745515, 509.683200 109.043015)

LINESTRING (462.880317 119.745515, 513.976208 119.719150)

LINESTRING (462.880317 119.745515, 498.466728 167.653469)

LINESTRING (462.880317 119.745515, 519.631178 139.782054)

LINESTRING (510.787342 178.772771, 475.475913 108.770885)

LINESTRING (510.787342 178.772771, 471.167674 165.119614)

LINESTRING (510.787342 178.772771, 518.494291 136.352205)

LINESTRING (510.787342 178.772771, 450.363148 102.802760)

LINESTRING (510.787342 178.772771, 467.957065 132.387593)

LINESTRING (510.787342 178.772771, 465.415841 171.581844)

LINESTRING (510.787342 178.772771, 496.359828 115.395016)

LINESTRING (510.787342 178.772771, 480.055579 105.562162)

LINESTRING (510.787342 178.772771, 456.948746 151.594561)

LINESTRING (510.787342 178.772771, 509.683200 109.043015)

LINESTRING (510.787342 178.772771, 513.976208 119.719150)

LINESTRING (510.787342 178.772771, 498.405798 125.148417)

LINESTRING (510.787342 178.772771, 498.466728 167.653469)

LINESTRING (510.787342 178.772771, 502.454525 173.673701)

LINESTRING (510.787342 178.772771, 519.631178 139.782054)

LINESTRING (510.787342 178.772771, 457.080239 131.791678)

LINESTRING (507.985432 176.142382, 471.167674 165.119614)

LINESTRING (507.985432 176.142382, 450.363148 102.802760)

LINESTRING (507.985432 176.142382, 513.598734 114.235805)

LINESTRING (507.985432 176.142382, 465.415841 171.581844)

LINESTRING (507.985432 176.142382, 496.359828 115.395016)

LINESTRING (507.985432 176.142382, 511.329458 137.667462)

LINESTRING (507.985432 176.142382, 480.055579 105.562162)

LINESTRING (507.985432 176.142382, 498.405798 125.148417)

LINESTRING (507.985432 176.142382, 526.861551 176.913528)

LINESTRING (507.985432 176.142382, 502.454525 173.673701)

LINESTRING (507.985432 176.142382, 519.631178 139.782054)

LINESTRING (507.985432 176.142382, 457.080239 131.791678)

LINESTRING (475.475913 108.770885, 471.167674 165.119614)

LINESTRING (475.475913 108.770885, 462.079924 160.511297)

LINESTRING (475.475913 108.770885, 450.363148 102.802760)

LINESTRING (475.475913 108.770885, 467.957065 132.387593)

LINESTRING (475.475913 108.770885, 465.415841 171.581844)

LINESTRING (475.475913 108.770885, 511.329458 137.667462)

LINESTRING (475.475913 108.770885, 509.683200 109.043015)

LINESTRING (475.475913 108.770885, 498.405798 125.148417)

LINESTRING (475.475913 108.770885, 498.466728 167.653469)

LINESTRING (475.475913 108.770885, 519.631178 139.782054)

LINESTRING (475.475913 108.770885, 457.080239 131.791678)

LINESTRING (471.167674 165.119614, 462.079924 160.511297)

LINESTRING (471.167674 165.119614, 518.494291 136.352205)

LINESTRING (471.167674 165.119614, 450.363148 102.802760)

LINESTRING (471.167674 165.119614, 528.555247 170.692035)

LINESTRING (471.167674 165.119614, 465.415841 171.581844)

LINESTRING (471.167674 165.119614, 456.948746 151.594561)

LINESTRING (471.167674 165.119614, 513.976208 119.719150)

LINESTRING (471.167674 165.119614, 498.466728 167.653469)

LINESTRING (471.167674 165.119614, 509.251330 110.507522)

LINESTRING (471.167674 165.119614, 502.454525 173.673701)

LINESTRING (471.167674 165.119614, 457.080239 131.791678)

LINESTRING (462.079924 160.511297, 450.363148 102.802760)

LINESTRING (462.079924 160.511297, 528.555247 170.692035)

LINESTRING (462.079924 160.511297, 496.359828 115.395016)

LINESTRING (462.079924 160.511297, 511.329458 137.667462)

LINESTRING (462.079924 160.511297, 456.948746 151.594561)

LINESTRING (462.079924 160.511297, 509.251330 110.507522)

LINESTRING (462.079924 160.511297, 519.631178 139.782054)

LINESTRING (462.079924 160.511297, 457.080239 131.791678)

LINESTRING (518.494291 136.352205, 513.598734 114.235805)

LINESTRING (518.494291 136.352205, 465.415841 171.581844)

LINESTRING (518.494291 136.352205, 496.359828 115.395016)

LINESTRING (518.494291 136.352205, 511.329458 137.667462)

LINESTRING (518.494291 136.352205, 456.948746 151.594561)

LINESTRING (518.494291 136.352205, 509.683200 109.043015)

LINESTRING (518.494291 136.352205, 513.976208 119.719150)

LINESTRING (518.494291 136.352205, 498.466728 167.653469)

LINESTRING (518.494291 136.352205, 502.454525 173.673701)

LINESTRING (518.494291 136.352205, 519.631178 139.782054)

LINESTRING (518.494291 136.352205, 457.080239 131.791678)

LINESTRING (450.363148 102.802760, 528.555247 170.692035)

LINESTRING (450.363148 102.802760, 513.598734 114.235805)

LINESTRING (450.363148 102.802760, 465.415841 171.581844)

LINESTRING (450.363148 102.802760, 496.359828 115.395016)

LINESTRING (450.363148 102.802760, 511.329458 137.667462)

LINESTRING (450.363148 102.802760, 480.055579 105.562162)

LINESTRING (450.363148 102.802760, 456.948746 151.594561)

LINESTRING (450.363148 102.802760, 509.683200 109.043015)

LINESTRING (450.363148 102.802760, 498.466728 167.653469)

LINESTRING (450.363148 102.802760, 509.251330 110.507522)

LINESTRING (450.363148 102.802760, 457.080239 131.791678)

LINESTRING (528.555247 170.692035, 513.598734 114.235805)

LINESTRING (528.555247 170.692035, 511.329458 137.667462)

LINESTRING (528.555247 170.692035, 480.055579 105.562162)

LINESTRING (528.555247 170.692035, 509.683200 109.043015)

LINESTRING (528.555247 170.692035, 513.976208 119.719150)

LINESTRING (528.555247 170.692035, 526.861551 176.913528)

LINESTRING (528.555247 170.692035, 498.466728 167.653469)

LINESTRING (528.555247 170.692035, 502.454525 173.673701)

LINESTRING (528.555247 170.692035, 519.631178 139.782054)

LINESTRING (513.598734 114.235805, 456.948746 151.594561)

LINESTRING (513.598734 114.235805, 509.683200 109.043015)

LINESTRING (513.598734 114.235805, 513.976208 119.719150)

LINESTRING (513.598734 114.235805, 498.466728 167.653469)

LINESTRING (513.598734 114.235805, 509.251330 110.507522)

LINESTRING (513.598734 114.235805, 502.454525 173.673701)

LINESTRING (513.598734 114.235805, 457.080239 131.791678)

LINESTRING (467.957065 132.387593, 496.359828 115.395016)

LINESTRING (467.957065 132.387593, 511.329458 137.667462)

LINESTRING (467.957065 132.387593, 456.948746 151.594561)

LINESTRING (467.957065 132.387593, 509.683200 109.043015)

LINESTRING (467.957065 132.387593, 513.976208 119.719150)

LINESTRING (467.957065 132.387593, 498.405798 125.148417)

LINESTRING (467.957065 132.387593, 498.466728 167.653469)

LINESTRING (467.957065 132.387593, 502.454525 173.673701)

LINESTRING (467.957065 132.387593, 457.080239 131.791678)

LINESTRING (465.415841 171.581844, 480.055579 105.562162)

LINESTRING (465.415841 171.581844, 456.948746 151.594561)

LINESTRING (465.415841 171.581844, 509.683200 109.043015)

LINESTRING (465.415841 171.581844, 513.976208 119.719150)

LINESTRING (465.415841 171.581844, 498.466728 167.653469)

LINESTRING (465.415841 171.581844, 509.251330 110.507522)

LINESTRING (465.415841 171.581844, 502.454525 173.673701)

LINESTRING (496.359828 115.395016, 480.055579 105.562162)

LINESTRING (496.359828 115.395016, 509.683200 109.043015)

LINESTRING (496.359828 115.395016, 526.861551 176.913528)

LINESTRING (496.359828 115.395016, 509.251330 110.507522)

LINESTRING (496.359828 115.395016, 519.631178 139.782054)

LINESTRING (496.359828 115.395016, 457.080239 131.791678)

LINESTRING (511.329458 137.667462, 480.055579 105.562162)

LINESTRING (511.329458 137.667462, 509.683200 109.043015)

LINESTRING (511.329458 137.667462, 498.405798 125.148417)

LINESTRING (511.329458 137.667462, 526.861551 176.913528)

LINESTRING (511.329458 137.667462, 509.251330 110.507522)

LINESTRING (511.329458 137.667462, 519.631178 139.782054)

LINESTRING (480.055579 105.562162, 456.948746 151.594561)

LINESTRING (480.055579 105.562162, 526.861551 176.913528)

LINESTRING (480.055579 105.562162, 509.251330 110.507522)

LINESTRING (480.055579 105.562162, 519.631178 139.782054)

LINESTRING (480.055579 105.562162, 457.080239 131.791678)

LINESTRING (456.948746 151.594561, 513.976208 119.719150)

LINESTRING (456.948746 151.594561, 498.405798 125.148417)

LINESTRING (456.948746 151.594561, 526.861551 176.913528)

LINESTRING (456.948746 151.594561, 509.251330 110.507522)

LINESTRING (456.948746 151.594561, 502.454525 173.673701)

LINESTRING (456.948746 151.594561, 519.631178 139.782054)

LINESTRING (456.948746 151.594561, 457.080239 131.791678)

LINESTRING (509.683200 109.043015, 513.976208 119.719150)

LINESTRING (509.683200 109.043015, 509.251330 110.507522)

LINESTRING (509.683200 109.043015, 502.454525 173.673701)

LINESTRING (509.683200 109.043015, 457.080239 131.791678)

LINESTRING (513.976208 119.719150, 526.861551 176.913528)

LINESTRING (513.976208 119.719150, 498.466728 167.653469)

LINESTRING (513.976208 119.719150, 502.454525 173.673701)

LINESTRING (513.976208 119.719150, 457.080239 131.791678)

LINESTRING (498.405798 125.148417, 526.861551 176.913528)

LINESTRING (498.405798 125.148417, 509.251330 110.507522)

LINESTRING (498.405798 125.148417, 502.454525 173.673701)

LINESTRING (526.861551 176.913528, 509.251330 110.507522)

LINESTRING (526.861551 176.913528, 519.631178 139.782054)

LINESTRING (526.861551 176.913528, 457.080239 131.791678)

LINESTRING (498.466728 167.653469, 502.454525 173.673701)

LINESTRING (498.466728 167.653469, 519.631178 139.782054)

LINESTRING (498.466728 167.653469, 457.080239 131.791678)

LINESTRING (509.251330 110.507522, 519.631178 139.782054)

LINESTRING (509.251330 110.507522, 457.080239 131.791678)

LINESTRING (502.454525 173.673701, 519.631178 139.782054)

LINESTRING (519.631178 139.782054, 457.080239 131.791678)

LINESTRING (831.350852 110.034371, 822.137980 160.645708)

LINESTRING (831.350852 110.034371, 871.514733 158.218212)

LINESTRING (831.350852 110.034371, 811.486726 122.958358)

LINESTRING (831.350852 110.034371, 856.488525 105.555709)

LINESTRING (831.350852 110.034371, 854.725474 161.695535)

LINESTRING (831.350852 110.034371, 835.945340 123.836471)

LINESTRING (831.350852 110.034371, 819.648715 107.468185)

LINESTRING (831.350852 110.034371, 839.571333 131.138843)

LINESTRING (831.350852 110.034371, 806.163455 137.955606)

LINESTRING (831.350852 110.034371, 821.253837 146.966299)

LINESTRING (831.350852 110.034371, 810.616039 130.571212)

LINESTRING (831.350852 110.034371, 800.491295 179.326721)

LINESTRING (831.350852 110.034371, 808.448905 100.142897)

LINESTRING (831.350852 110.034371, 804.029653 176.113191)

LINESTRING (831.350852 110.034371, 878.755152 108.748357)

LINESTRING (831.350852 110.034371, 846.753087 119.478583)

LINESTRING (831.350852 110.034371, 842.942978 124.552355)

LINESTRING (831.350852 110.034371, 876.242341 151.234456)

LINESTRING (831.350852 110.034371, 828.874447 142.457517)

LINESTRING (831.350852 110.034371, 821.336835 133.763643)

LINESTRING (831.350852 110.034371, 808.637977 161.051480)

LINESTRING (831.350852 110.034371, 802.509377 152.125035)

LINESTRING (831.350852 110.034371, 805.927833 119.243592)

LINESTRING (831.350852 110.034371, 822.654388 108.626868)

LINESTRING (831.350852 110.034371, 838.887036 147.875658)

LINESTRING (831.350852 110.034371, 810.048387 121.588240)

LINESTRING (817.154987 106.160678, 822.137980 160.645708)

LINESTRING (817.154987 106.160678, 833.279878 104.443999)

LINESTRING (817.154987 106.160678, 807.312600 134.368661)

LINESTRING (817.154987 106.160678, 856.488525 105.555709)

LINESTRING (817.154987 106.160678, 810.210811 125.988147)

LINESTRING (817.154987 106.160678, 819.648715 107.468185)

LINESTRING (817.154987 106.160678, 803.572545 150.072682)

LINESTRING (817.154987 106.160678, 839.571333 131.138843)

LINESTRING (817.154987 106.160678, 805.181586 105.998857)

LINESTRING (817.154987 106.160678, 810.545828 116.184738)

LINESTRING (817.154987 106.160678, 821.253837 146.966299)

LINESTRING (817.154987 106.160678, 810.616039 130.571212)

LINESTRING (817.154987 106.160678, 800.491295 179.326721)

LINESTRING (817.154987 106.160678, 867.218816 105.070465)

LINESTRING (817.154987 106.160678, 804.029653 176.113191)

LINESTRING (817.154987 106.160678, 878.755152 108.748357)

LINESTRING (817.154987 106.160678, 876.672585 110.575581)

LINESTRING (817.154987 106.160678, 821.336835 133.763643)

LINESTRING (817.154987 106.160678, 802.509377 152.125035)

LINESTRING (817.154987 106.160678, 805.927833 119.243592)

LINESTRING (817.154987 106.160678, 822.654388 108.626868)

LINESTRING (817.154987 106.160678, 810.048387 121.588240)

LINESTRING (869.080271 162.523106, 822.137980 160.645708)

LINESTRING (869.080271 162.523106, 833.279878 104.443999)

LINESTRING (869.080271 162.523106, 871.514733 158.218212)

LINESTRING (869.080271 162.523106, 821.536450 115.876856)

LINESTRING (869.080271 162.523106, 856.488525 105.555709)

LINESTRING (869.080271 162.523106, 810.210811 125.988147)

LINESTRING (869.080271 162.523106, 815.182856 163.403621)

LINESTRING (869.080271 162.523106, 854.725474 161.695535)

LINESTRING (869.080271 162.523106, 835.945340 123.836471)

LINESTRING (869.080271 162.523106, 819.648715 107.468185)

LINESTRING (869.080271 162.523106, 803.572545 150.072682)

LINESTRING (869.080271 162.523106, 805.181586 105.998857)

LINESTRING (869.080271 162.523106, 810.545828 116.184738)

LINESTRING (869.080271 162.523106, 810.616039 130.571212)

LINESTRING (869.080271 162.523106, 804.029653 176.113191)

LINESTRING (869.080271 162.523106, 878.755152 108.748357)

LINESTRING (869.080271 162.523106, 876.672585 110.575581)

LINESTRING (869.080271 162.523106, 821.336835 133.763643)

LINESTRING (869.080271 162.523106, 808.637977 161.051480)

LINESTRING (869.080271 162.523106, 802.509377 152.125035)

LINESTRING (869.080271 162.523106, 805.927833 119.243592)

LINESTRING (869.080271 162.523106, 822.654388 108.626868)

LINESTRING (869.080271 162.523106, 838.887036 147.875658)

LINESTRING (869.080271 162.523106, 810.048387 121.588240)

LINESTRING (822.137980 160.645708, 833.279878 104.443999)

LINESTRING (822.137980 160.645708, 811.486726 122.958358)

LINESTRING (822.137980 160.645708, 821.536450 115.876856)

LINESTRING (822.137980 160.645708, 807.312600 134.368661)

LINESTRING (822.137980 160.645708, 856.488525 105.555709)

LINESTRING (822.137980 160.645708, 810.210811 125.988147)

LINESTRING (822.137980 160.645708, 815.182856 163.403621)

LINESTRING (822.137980 160.645708, 878.337539 125.928152)

LINESTRING (822.137980 160.645708, 803.572545 150.072682)

LINESTRING (822.137980 160.645708, 805.181586 105.998857)

LINESTRING (822.137980 160.645708, 821.253837 146.966299)

LINESTRING (822.137980 160.645708, 810.616039 130.571212)

LINESTRING (822.137980 160.645708, 800.491295 179.326721)

LINESTRING (822.137980 160.645708, 808.448905 100.142897)

LINESTRING (822.137980 160.645708, 867.218816 105.070465)

LINESTRING (822.137980 160.645708, 842.942978 124.552355)

LINESTRING (822.137980 160.645708, 876.242341 151.234456)

LINESTRING (822.137980 160.645708, 828.874447 142.457517)

LINESTRING (822.137980 160.645708, 821.336835 133.763643)

LINESTRING (822.137980 160.645708, 808.637977 161.051480)

LINESTRING (822.137980 160.645708, 802.509377 152.125035)

LINESTRING (822.137980 160.645708, 822.654388 108.626868)

LINESTRING (822.137980 160.645708, 810.048387 121.588240)

LINESTRING (833.279878 104.443999, 811.486726 122.958358)

LINESTRING (833.279878 104.443999, 821.536450 115.876856)

LINESTRING (833.279878 104.443999, 856.488525 105.555709)

LINESTRING (833.279878 104.443999, 810.210811 125.988147)

LINESTRING (833.279878 104.443999, 854.725474 161.695535)

LINESTRING (833.279878 104.443999, 878.337539 125.928152)

LINESTRING (833.279878 104.443999, 819.648715 107.468185)

LINESTRING (833.279878 104.443999, 810.545828 116.184738)

LINESTRING (833.279878 104.443999, 806.163455 137.955606)

LINESTRING (833.279878 104.443999, 810.616039 130.571212)

LINESTRING (833.279878 104.443999, 800.491295 179.326721)

LINESTRING (833.279878 104.443999, 808.448905 100.142897)

LINESTRING (833.279878 104.443999, 867.218816 105.070465)

LINESTRING (833.279878 104.443999, 804.029653 176.113191)

LINESTRING (833.279878 104.443999, 876.672585 110.575581)

LINESTRING (833.279878 104.443999, 846.753087 119.478583)

LINESTRING (833.279878 104.443999, 828.874447 142.457517)

LINESTRING (833.279878 104.443999, 802.509377 152.125035)

LINESTRING (833.279878 104.443999, 805.927833 119.243592)

LINESTRING (833.279878 104.443999, 822.654388 108.626868)

LINESTRING (833.279878 104.443999, 810.048387 121.588240)

LINESTRING (871.514733 158.218212, 856.488525 105.555709)

LINESTRING (871.514733 158.218212, 810.210811 125.988147)

LINESTRING (871.514733 158.218212, 815.182856 163.403621)

LINESTRING (871.514733 158.218212, 854.725474 161.695535)

LINESTRING (871.514733 158.218212, 835.945340 123.836471)

LINESTRING (871.514733 158.218212, 878.337539 125.928152)

LINESTRING (871.514733 158.218212, 803.572545 150.072682)

LINESTRING (871.514733 158.218212, 839.571333 131.138843)

LINESTRING (871.514733 158.218212, 806.163455 137.955606)

LINESTRING (871.514733 158.218212, 821.253837 146.966299)

LINESTRING (871.514733 158.218212, 800.491295 179.326721)

LINESTRING (871.514733 158.218212, 808.448905 100.142897)

LINESTRING (871.514733 158.218212, 804.029653 176.113191)

LINESTRING (871.514733 158.218212, 878.755152 108.748357)

LINESTRING (871.514733 158.218212, 876.672585 110.575581)

LINESTRING (871.514733 158.218212, 846.753087 119.478583)

LINESTRING (871.514733 158.218212, 842.942978 124.552355)

LINESTRING (871.514733 158.218212, 876.242341 151.234456)

LINESTRING (871.514733 158.218212, 821.336835 133.763643)

LINESTRING (871.514733 158.218212, 808.637977 161.051480)

LINESTRING (871.514733 158.218212, 805.927833 119.243592)

LINESTRING (871.514733 158.218212, 822.654388 108.626868)

LINESTRING (871.514733 158.218212, 838.887036 147.875658)

LINESTRING (871.514733 158.218212, 810.048387 121.588240)

LINESTRING (811.486726 122.958358, 821.536450 115.876856)

LINESTRING (811.486726 122.958358, 807.312600 134.368661)

LINESTRING (811.486726 122.958358, 856.488525 105.555709)

LINESTRING (811.486726 122.958358, 810.210811 125.988147)

LINESTRING (811.486726 122.958358, 815.182856 163.403621)

LINESTRING (811.486726 122.958358, 835.945340 123.836471)

LINESTRING (811.486726 122.958358, 878.337539 125.928152)

LINESTRING (811.486726 122.958358, 839.571333 131.138843)

LINESTRING (811.486726 122.958358, 805.181586 105.998857)

LINESTRING (811.486726 122.958358, 806.163455 137.955606)

LINESTRING (811.486726 122.958358, 810.616039 130.571212)

LINESTRING (811.486726 122.958358, 800.491295 179.326721)

LINESTRING (811.486726 122.958358, 808.448905 100.142897)

LINESTRING (811.486726 122.958358, 867.218816 105.070465)

LINESTRING (811.486726 122.958358, 804.029653 176.113191)

LINESTRING (811.486726 122.958358, 878.755152 108.748357)

LINESTRING (811.486726 122.958358, 876.672585 110.575581)

LINESTRING (811.486726 122.958358, 846.753087 119.478583)

LINESTRING (811.486726 122.958358, 842.942978 124.552355)

LINESTRING (811.486726 122.958358, 828.874447 142.457517)

LINESTRING (811.486726 122.958358, 808.637977 161.051480)

LINESTRING (811.486726 122.958358, 802.509377 152.125035)

LINESTRING (811.486726 122.958358, 822.654388 108.626868)

LINESTRING (811.486726 122.958358, 810.048387 121.588240)

LINESTRING (821.536450 115.876856, 807.312600 134.368661)

LINESTRING (821.536450 115.876856, 856.488525 105.555709)

LINESTRING (821.536450 115.876856, 810.210811 125.988147)

LINESTRING (821.536450 115.876856, 815.182856 163.403621)

LINESTRING (821.536450 115.876856, 835.945340 123.836471)

LINESTRING (821.536450 115.876856, 878.337539 125.928152)

LINESTRING (821.536450 115.876856, 819.648715 107.468185)

LINESTRING (821.536450 115.876856, 803.572545 150.072682)

LINESTRING (821.536450 115.876856, 805.181586 105.998857)

LINESTRING (821.536450 115.876856, 810.545828 116.184738)

LINESTRING (821.536450 115.876856, 800.491295 179.326721)

LINESTRING (821.536450 115.876856, 808.448905 100.142897)

LINESTRING (821.536450 115.876856, 804.029653 176.113191)

LINESTRING (821.536450 115.876856, 842.942978 124.552355)

LINESTRING (821.536450 115.876856, 876.242341 151.234456)

LINESTRING (821.536450 115.876856, 821.336835 133.763643)

LINESTRING (821.536450 115.876856, 838.887036 147.875658)

LINESTRING (821.536450 115.876856, 810.048387 121.588240)

LINESTRING (807.312600 134.368661, 856.488525 105.555709)

LINESTRING (807.312600 134.368661, 810.210811 125.988147)

LINESTRING (807.312600 134.368661, 854.725474 161.695535)

LINESTRING (807.312600 134.368661, 839.571333 131.138843)

LINESTRING (807.312600 134.368661, 805.181586 105.998857)

LINESTRING (807.312600 134.368661, 821.253837 146.966299)

LINESTRING (807.312600 134.368661, 810.616039 130.571212)

LINESTRING (807.312600 134.368661, 867.218816 105.070465)

LINESTRING (807.312600 134.368661, 878.755152 108.748357)

LINESTRING (807.312600 134.368661, 876.672585 110.575581)

LINESTRING (807.312600 134.368661, 842.942978 124.552355)

LINESTRING (807.312600 134.368661, 876.242341 151.234456)

LINESTRING (807.312600 134.368661, 808.637977 161.051480)

LINESTRING (807.312600 134.368661, 802.509377 152.125035)

LINESTRING (807.312600 134.368661, 822.654388 108.626868)

LINESTRING (807.312600 134.368661, 810.048387 121.588240)

LINESTRING (856.488525 105.555709, 835.945340 123.836471)

LINESTRING (856.488525 105.555709, 819.648715 107.468185)

LINESTRING (856.488525 105.555709, 803.572545 150.072682)

LINESTRING (856.488525 105.555709, 839.571333 131.138843)

LINESTRING (856.488525 105.555709, 805.181586 105.998857)

LINESTRING (856.488525 105.555709, 810.545828 116.184738)

LINESTRING (856.488525 105.555709, 806.163455 137.955606)

LINESTRING (856.488525 105.555709, 821.253837 146.966299)

LINESTRING (856.488525 105.555709, 800.491295 179.326721)

LINESTRING (856.488525 105.555709, 867.218816 105.070465)

LINESTRING (856.488525 105.555709, 846.753087 119.478583)

LINESTRING (856.488525 105.555709, 876.242341 151.234456)

LINESTRING (856.488525 105.555709, 828.874447 142.457517)

LINESTRING (856.488525 105.555709, 821.336835 133.763643)

LINESTRING (856.488525 105.555709, 808.637977 161.051480)

LINESTRING (856.488525 105.555709, 822.654388 108.626868)

LINESTRING (810.210811 125.988147, 815.182856 163.403621)

LINESTRING (810.210811 125.988147, 854.725474 161.695535)

LINESTRING (810.210811 125.988147, 803.572545 150.072682)

LINESTRING (810.210811 125.988147, 805.181586 105.998857)

LINESTRING (810.210811 125.988147, 810.545828 116.184738)

LINESTRING (810.210811 125.988147, 806.163455 137.955606)

LINESTRING (810.210811 125.988147, 821.253837 146.966299)

LINESTRING (810.210811 125.988147, 810.616039 130.571212)

LINESTRING (810.210811 125.988147, 800.491295 179.326721)

LINESTRING (810.210811 125.988147, 808.448905 100.142897)

LINESTRING (810.210811 125.988147, 867.218816 105.070465)

LINESTRING (810.210811 125.988147, 804.029653 176.113191)

LINESTRING (810.210811 125.988147, 876.672585 110.575581)

LINESTRING (810.210811 125.988147, 842.942978 124.552355)

LINESTRING (810.210811 125.988147, 876.242341 151.234456)

LINESTRING (810.210811 125.988147, 828.874447 142.457517)

LINESTRING (810.210811 125.988147, 821.336835 133.763643)

LINESTRING (810.210811 125.988147, 808.637977 161.051480)

LINESTRING (810.210811 125.988147, 802.509377 152.125035)

LINESTRING (810.210811 125.988147, 805.927833 119.243592)

LINESTRING (810.210811 125.988147, 822.654388 108.626868)

LINESTRING (810.210811 125.988147, 838.887036 147.875658)

LINESTRING (815.182856 163.403621, 854.725474 161.695535)

LINESTRING (815.182856 163.403621, 835.945340 123.836471)

LINESTRING (815.182856 163.403621, 878.337539 125.928152)

LINESTRING (815.182856 163.403621, 819.648715 107.468185)

LINESTRING (815.182856 163.403621, 803.572545 150.072682)

LINESTRING (815.182856 163.403621, 810.545828 116.184738)

LINESTRING (815.182856 163.403621, 810.616039 130.571212)

LINESTRING (815.182856 163.403621, 800.491295 179.326721)

LINESTRING (815.182856 163.403621, 808.448905 100.142897)

LINESTRING (815.182856 163.403621, 867.218816 105.070465)

LINESTRING (815.182856 163.403621, 804.029653 176.113191)

LINESTRING (815.182856 163.403621, 878.755152 108.748357)

LINESTRING (815.182856 163.403621, 876.672585 110.575581)

LINESTRING (815.182856 163.403621, 846.753087 119.478583)

LINESTRING (815.182856 163.403621, 842.942978 124.552355)

LINESTRING (815.182856 163.403621, 828.874447 142.457517)

LINESTRING (815.182856 163.403621, 808.637977 161.051480)

LINESTRING (815.182856 163.403621, 802.509377 152.125035)

LINESTRING (815.182856 163.403621, 805.927833 119.243592)

LINESTRING (815.182856 163.403621, 838.887036 147.875658)

LINESTRING (815.182856 163.403621, 810.048387 121.588240)

LINESTRING (854.725474 161.695535, 878.337539 125.928152)

LINESTRING (854.725474 161.695535, 805.181586 105.998857)

LINESTRING (854.725474 161.695535, 806.163455 137.955606)

LINESTRING (854.725474 161.695535, 810.616039 130.571212)

LINESTRING (854.725474 161.695535, 867.218816 105.070465)

LINESTRING (854.725474 161.695535, 878.755152 108.748357)

LINESTRING (854.725474 161.695535, 842.942978 124.552355)

LINESTRING (854.725474 161.695535, 876.242341 151.234456)

LINESTRING (854.725474 161.695535, 828.874447 142.457517)

LINESTRING (854.725474 161.695535, 821.336835 133.763643)

LINESTRING (854.725474 161.695535, 808.637977 161.051480)

LINESTRING (854.725474 161.695535, 802.509377 152.125035)

LINESTRING (854.725474 161.695535, 805.927833 119.243592)

LINESTRING (854.725474 161.695535, 822.654388 108.626868)

LINESTRING (854.725474 161.695535, 838.887036 147.875658)

LINESTRING (835.945340 123.836471, 878.337539 125.928152)

LINESTRING (835.945340 123.836471, 819.648715 107.468185)

LINESTRING (835.945340 123.836471, 803.572545 150.072682)

LINESTRING (835.945340 123.836471, 805.181586 105.998857)

LINESTRING (835.945340 123.836471, 806.163455 137.955606)

LINESTRING (835.945340 123.836471, 821.253837 146.966299)

LINESTRING (835.945340 123.836471, 810.616039 130.571212)

LINESTRING (835.945340 123.836471, 800.491295 179.326721)

LINESTRING (835.945340 123.836471, 808.448905 100.142897)

LINESTRING (835.945340 123.836471, 867.218816 105.070465)

LINESTRING (835.945340 123.836471, 804.029653 176.113191)

LINESTRING (835.945340 123.836471, 878.755152 108.748357)

LINESTRING (835.945340 123.836471, 846.753087 119.478583)

LINESTRING (835.945340 123.836471, 842.942978 124.552355)

LINESTRING (835.945340 123.836471, 876.242341 151.234456)

LINESTRING (835.945340 123.836471, 828.874447 142.457517)

LINESTRING (835.945340 123.836471, 821.336835 133.763643)

LINESTRING (835.945340 123.836471, 808.637977 161.051480)

LINESTRING (835.945340 123.836471, 802.509377 152.125035)

LINESTRING (835.945340 123.836471, 805.927833 119.243592)

LINESTRING (835.945340 123.836471, 822.654388 108.626868)

LINESTRING (835.945340 123.836471, 838.887036 147.875658)

LINESTRING (835.945340 123.836471, 810.048387 121.588240)

LINESTRING (878.337539 125.928152, 803.572545 150.072682)

LINESTRING (878.337539 125.928152, 839.571333 131.138843)

LINESTRING (878.337539 125.928152, 806.163455 137.955606)

LINESTRING (878.337539 125.928152, 821.253837 146.966299)

LINESTRING (878.337539 125.928152, 810.616039 130.571212)

LINESTRING (878.337539 125.928152, 800.491295 179.326721)

LINESTRING (878.337539 125.928152, 808.448905 100.142897)

LINESTRING (878.337539 125.928152, 867.218816 105.070465)

LINESTRING (878.337539 125.928152, 804.029653 176.113191)

LINESTRING (878.337539 125.928152, 876.672585 110.575581)

LINESTRING (878.337539 125.928152, 846.753087 119.478583)

LINESTRING (878.337539 125.928152, 842.942978 124.552355)

LINESTRING (878.337539 125.928152, 821.336835 133.763643)

LINESTRING (878.337539 125.928152, 808.637977 161.051480)

LINESTRING (878.337539 125.928152, 802.509377 152.125035)

LINESTRING (878.337539 125.928152, 822.654388 108.626868)

LINESTRING (878.337539 125.928152, 838.887036 147.875658)

LINESTRING (878.337539 125.928152, 810.048387 121.588240)

LINESTRING (819.648715 107.468185, 803.572545 150.072682)

LINESTRING (819.648715 107.468185, 805.181586 105.998857)

LINESTRING (819.648715 107.468185, 810.545828 116.184738)

LINESTRING (819.648715 107.468185, 806.163455 137.955606)

LINESTRING (819.648715 107.468185, 821.253837 146.966299)

LINESTRING (819.648715 107.468185, 810.616039 130.571212)

LINESTRING (819.648715 107.468185, 800.491295 179.326721)

LINESTRING (819.648715 107.468185, 867.218816 105.070465)

LINESTRING (819.648715 107.468185, 878.755152 108.748357)

LINESTRING (819.648715 107.468185, 846.753087 119.478583)

LINESTRING (819.648715 107.468185, 821.336835 133.763643)

LINESTRING (819.648715 107.468185, 808.637977 161.051480)

LINESTRING (819.648715 107.468185, 802.509377 152.125035)

LINESTRING (819.648715 107.468185, 805.927833 119.243592)

LINESTRING (819.648715 107.468185, 838.887036 147.875658)

LINESTRING (803.572545 150.072682, 805.181586 105.998857)

LINESTRING (803.572545 150.072682, 806.163455 137.955606)

LINESTRING (803.572545 150.072682, 821.253837 146.966299)

LINESTRING (803.572545 150.072682, 800.491295 179.326721)

LINESTRING (803.572545 150.072682, 808.448905 100.142897)

LINESTRING (803.572545 150.072682, 867.218816 105.070465)

LINESTRING (803.572545 150.072682, 846.753087 119.478583)

LINESTRING (803.572545 150.072682, 842.942978 124.552355)

LINESTRING (803.572545 150.072682, 828.874447 142.457517)

LINESTRING (803.572545 150.072682, 821.336835 133.763643)

LINESTRING (803.572545 150.072682, 808.637977 161.051480)

LINESTRING (803.572545 150.072682, 805.927833 119.243592)

LINESTRING (803.572545 150.072682, 822.654388 108.626868)

LINESTRING (803.572545 150.072682, 810.048387 121.588240)

LINESTRING (839.571333 131.138843, 810.545828 116.184738)

LINESTRING (839.571333 131.138843, 806.163455 137.955606)

LINESTRING (839.571333 131.138843, 808.448905 100.142897)

LINESTRING (839.571333 131.138843, 867.218816 105.070465)

LINESTRING (839.571333 131.138843, 878.755152 108.748357)

LINESTRING (839.571333 131.138843, 876.672585 110.575581)

LINESTRING (839.571333 131.138843, 846.753087 119.478583)

LINESTRING (839.571333 131.138843, 842.942978 124.552355)

LINESTRING (839.571333 131.138843, 876.242341 151.234456)

LINESTRING (839.571333 131.138843, 828.874447 142.457517)

LINESTRING (839.571333 131.138843, 808.637977 161.051480)

LINESTRING (839.571333 131.138843, 802.509377 152.125035)

LINESTRING (839.571333 131.138843, 838.887036 147.875658)

LINESTRING (805.181586 105.998857, 810.616039 130.571212)

LINESTRING (805.181586 105.998857, 800.491295 179.326721)

LINESTRING (805.181586 105.998857, 808.448905 100.142897)

LINESTRING (805.181586 105.998857, 867.218816 105.070465)

LINESTRING (805.181586 105.998857, 804.029653 176.113191)

LINESTRING (805.181586 105.998857, 878.755152 108.748357)

LINESTRING (805.181586 105.998857, 846.753087 119.478583)

LINESTRING (805.181586 105.998857, 842.942978 124.552355)

LINESTRING (805.181586 105.998857, 828.874447 142.457517)

LINESTRING (805.181586 105.998857, 821.336835 133.763643)

LINESTRING (805.181586 105.998857, 808.637977 161.051480)

LINESTRING (805.181586 105.998857, 838.887036 147.875658)

LINESTRING (810.545828 116.184738, 821.253837 146.966299)

LINESTRING (810.545828 116.184738, 810.616039 130.571212)

LINESTRING (810.545828 116.184738, 800.491295 179.326721)

LINESTRING (810.545828 116.184738, 808.448905 100.142897)

LINESTRING (810.545828 116.184738, 804.029653 176.113191)

LINESTRING (810.545828 116.184738, 878.755152 108.748357)

LINESTRING (810.545828 116.184738, 828.874447 142.457517)

LINESTRING (810.545828 116.184738, 805.927833 119.243592)

LINESTRING (810.545828 116.184738, 822.654388 108.626868)

LINESTRING (810.545828 116.184738, 838.887036 147.875658)

LINESTRING (810.545828 116.184738, 810.048387 121.588240)

LINESTRING (806.163455 137.955606, 821.253837 146.966299)

LINESTRING (806.163455 137.955606, 810.616039 130.571212)

LINESTRING (806.163455 137.955606, 808.448905 100.142897)

LINESTRING (806.163455 137.955606, 867.218816 105.070465)

LINESTRING (806.163455 137.955606, 804.029653 176.113191)

LINESTRING (806.163455 137.955606, 878.755152 108.748357)

LINESTRING (806.163455 137.955606, 876.672585 110.575581)

LINESTRING (806.163455 137.955606, 846.753087 119.478583)

LINESTRING (806.163455 137.955606, 842.942978 124.552355)

LINESTRING (806.163455 137.955606, 876.242341 151.234456)

LINESTRING (806.163455 137.955606, 821.336835 133.763643)

LINESTRING (806.163455 137.955606, 805.927833 119.243592)

LINESTRING (806.163455 137.955606, 810.048387 121.588240)

LINESTRING (821.253837 146.966299, 810.616039 130.571212)

LINESTRING (821.253837 146.966299, 800.491295 179.326721)

LINESTRING (821.253837 146.966299, 808.448905 100.142897)

LINESTRING (821.253837 146.966299, 876.672585 110.575581)

LINESTRING (821.253837 146.966299, 846.753087 119.478583)

LINESTRING (821.253837 146.966299, 842.942978 124.552355)

LINESTRING (821.253837 146.966299, 876.242341 151.234456)

LINESTRING (821.253837 146.966299, 828.874447 142.457517)

LINESTRING (821.253837 146.966299, 808.637977 161.051480)

LINESTRING (821.253837 146.966299, 802.509377 152.125035)

LINESTRING (821.253837 146.966299, 805.927833 119.243592)

LINESTRING (821.253837 146.966299, 822.654388 108.626868)

LINESTRING (821.253837 146.966299, 838.887036 147.875658)

LINESTRING (810.616039 130.571212, 800.491295 179.326721)

LINESTRING (810.616039 130.571212, 867.218816 105.070465)

LINESTRING (810.616039 130.571212, 804.029653 176.113191)

LINESTRING (810.616039 130.571212, 878.755152 108.748357)

LINESTRING (810.616039 130.571212, 876.672585 110.575581)

LINESTRING (810.616039 130.571212, 846.753087 119.478583)

LINESTRING (810.616039 130.571212, 842.942978 124.552355)

LINESTRING (810.616039 130.571212, 808.637977 161.051480)

LINESTRING (810.616039 130.571212, 838.887036 147.875658)

LINESTRING (800.491295 179.326721, 808.448905 100.142897)

LINESTRING (800.491295 179.326721, 878.755152 108.748357)

LINESTRING (800.491295 179.326721, 876.672585 110.575581)

LINESTRING (800.491295 179.326721, 846.753087 119.478583)

LINESTRING (800.491295 179.326721, 828.874447 142.457517)

LINESTRING (800.491295 179.326721, 821.336835 133.763643)

LINESTRING (800.491295 179.326721, 808.637977 161.051480)

LINESTRING (800.491295 179.326721, 802.509377 152.125035)

LINESTRING (800.491295 179.326721, 805.927833 119.243592)

LINESTRING (800.491295 179.326721, 822.654388 108.626868)

LINESTRING (800.491295 179.326721, 838.887036 147.875658)

LINESTRING (800.491295 179.326721, 810.048387 121.588240)

LINESTRING (808.448905 100.142897, 867.218816 105.070465)

LINESTRING (808.448905 100.142897, 804.029653 176.113191)

LINESTRING (808.448905 100.142897, 846.753087 119.478583)

LINESTRING (808.448905 100.142897, 842.942978 124.552355)

LINESTRING (808.448905 100.142897, 828.874447 142.457517)

LINESTRING (808.448905 100.142897, 808.637977 161.051480)

LINESTRING (808.448905 100.142897, 805.927833 119.243592)

LINESTRING (808.448905 100.142897, 838.887036 147.875658)

LINESTRING (808.448905 100.142897, 810.048387 121.588240)

LINESTRING (867.218816 105.070465, 876.672585 110.575581)

LINESTRING (867.218816 105.070465, 846.753087 119.478583)

LINESTRING (867.218816 105.070465, 876.242341 151.234456)

LINESTRING (867.218816 105.070465, 828.874447 142.457517)

LINESTRING (867.218816 105.070465, 808.637977 161.051480)

LINESTRING (867.218816 105.070465, 805.927833 119.243592)

LINESTRING (867.218816 105.070465, 822.654388 108.626868)

LINESTRING (867.218816 105.070465, 838.887036 147.875658)

LINESTRING (804.029653 176.113191, 876.672585 110.575581)

LINESTRING (804.029653 176.113191, 846.753087 119.478583)

LINESTRING (804.029653 176.113191, 842.942978 124.552355)

LINESTRING (804.029653 176.113191, 876.242341 151.234456)

LINESTRING (804.029653 176.113191, 828.874447 142.457517)

LINESTRING (804.029653 176.113191, 802.509377 152.125035)

LINESTRING (804.029653 176.113191, 805.927833 119.243592)

LINESTRING (878.755152 108.748357, 846.753087 119.478583)

LINESTRING (878.755152 108.748357, 876.242341 151.234456)

LINESTRING (878.755152 108.748357, 821.336835 133.763643)

LINESTRING (878.755152 108.748357, 805.927833 119.243592)

LINESTRING (878.755152 108.748357, 822.654388 108.626868)

LINESTRING (878.755152 108.748357, 810.048387 121.588240)

LINESTRING (876.672585 110.575581, 846.753087 119.478583)

LINESTRING (876.672585 110.575581, 842.942978 124.552355)

LINESTRING (876.672585 110.575581, 876.242341 151.234456)

LINESTRING (876.672585 110.575581, 808.637977 161.051480)

LINESTRING (876.672585 110.575581, 802.509377 152.125035)

LINESTRING (876.672585 110.575581, 805.927833 119.243592)

LINESTRING (876.672585 110.575581, 822.654388 108.626868)

LINESTRING (876.672585 110.575581, 838.887036 147.875658)

LINESTRING (846.753087 119.478583, 842.942978 124.552355)

LINESTRING (846.753087 119.478583, 876.242341 151.234456)

LINESTRING (846.753087 119.478583, 802.509377 152.125035)

LINESTRING (846.753087 119.478583, 805.927833 119.243592)

LINESTRING (846.753087 119.478583, 838.887036 147.875658)

LINESTRING (846.753087 119.478583, 810.048387 121.588240)

LINESTRING (842.942978 124.552355, 876.242341 151.234456)

LINESTRING (842.942978 124.552355, 828.874447 142.457517)

LINESTRING (842.942978 124.552355, 821.336835 133.763643)

LINESTRING (842.942978 124.552355, 805.927833 119.243592)

LINESTRING (842.942978 124.552355, 810.048387 121.588240)

LINESTRING (876.242341 151.234456, 828.874447 142.457517)

LINESTRING (876.242341 151.234456, 821.336835 133.763643)

LINESTRING (876.242341 151.234456, 808.637977 161.051480)

LINESTRING (876.242341 151.234456, 802.509377 152.125035)

LINESTRING (876.242341 151.234456, 805.927833 119.243592)

LINESTRING (876.242341 151.234456, 838.887036 147.875658)

LINESTRING (876.242341 151.234456, 810.048387 121.588240)

LINESTRING (828.874447 142.457517, 821.336835 133.763643)

LINESTRING (828.874447 142.457517, 808.637977 161.051480)

LINESTRING (828.874447 142.457517, 805.927833 119.243592)

LINESTRING (828.874447 142.457517, 838.887036 147.875658)

LINESTRING (821.336835 133.763643, 808.637977 161.051480)

LINESTRING (821.336835 133.763643, 802.509377 152.125035)

LINESTRING (821.336835 133.763643, 822.654388 108.626868)

LINESTRING (821.336835 133.763643, 838.887036 147.875658)

LINESTRING (808.637977 161.051480, 802.509377 152.125035)

LINESTRING (808.637977 161.051480, 805.927833 119.243592)

LINESTRING (808.637977 161.051480, 822.654388 108.626868)

LINESTRING (802.509377 152.125035, 805.927833 119.243592)

LINESTRING (802.509377 152.125035, 822.654388 108.626868)

LINESTRING (802.509377 152.125035, 810.048387 121.588240)

LINESTRING (805.927833 119.243592, 822.654388 108.626868)

LINESTRING (805.927833 119.243592, 838.887036 147.875658)

LINESTRING (146.543038 145.597916, 466.896797 165.448236)

LINESTRING (174.668203 175.450010, 452.919379 123.893963)

LINESTRING (145.902586 104.695441, 504.247936 145.503228)

LINESTRING (471.167674 165.119614, 828.874447 142.457517)

LINESTRING (468.710875 107.538400, 800.491295 179.326721)

LINESTRING (504.247936 145.503228, 831.350852 110.034371)

