POINT (387251.257919 6676391.685572)

POINT (387300.550190 6676360.322299)

POINT (387639.387721 6676685.512977)

POINT (387419.911612 6676238.618742)

POINT (387333.097128 6675701.314004)

POINT (387393.192720 6675699.987456)

POINT (387143.971311 6676051.141407)

POINT (386843.346571 6676072.041343)

POINT (387103.937840 6675974.111330)

POINT (387809.195937 6676431.039740)

POINT (387929.142170 6676270.431478)

POINT (387790.616852 6676356.019377)

POINT (387396.345354 6675755.733615)

POINT (387384.220290 6675748.551142)

POINT (387627.431506 6676038.753246)

