LINESTRING (80.000000 80.000000, 188.271138 112.516175)

LINESTRING (188.271138 112.516175, 306.820932 75.564597)

LINESTRING (306.820932 75.564597, 387.338844 -7.413307)

LINESTRING (387.338844 -7.413307, 422.121858 -120.610611)

LINESTRING (387.338844 -7.413307, 473.986179 -88.452438)

LINESTRING (387.338844 -7.413307, 497.330183 -37.222535)

LINESTRING (306.820932 75.564597, 419.798712 45.524061)

LINESTRING (419.798712 45.524061, 505.910265 -42.814381)

LINESTRING (419.798712 45.524061, 526.191115 18.531119)

LINESTRING (419.798712 45.524061, 534.525442 79.759391)

LINESTRING (306.820932 75.564597, 423.346316 113.413508)

LINESTRING (423.346316 113.413508, 537.471341 90.004418)

LINESTRING (423.346316 113.413508, 534.205824 138.777726)

LINESTRING (423.346316 113.413508, 509.555304 207.366206)

LINESTRING (188.271138 112.516175, 311.427555 141.482577)

LINESTRING (311.427555 141.482577, 435.345991 108.780868)

LINESTRING (435.345991 108.780868, 526.695267 15.212392)

LINESTRING (435.345991 108.780868, 553.090544 74.504721)

LINESTRING (435.345991 108.780868, 550.728573 138.184456)

LINESTRING (311.427555 141.482577, 435.761759 180.320977)

LINESTRING (435.761759 180.320977, 555.096381 145.574552)

LINESTRING (435.761759 180.320977, 549.381880 218.658990)

LINESTRING (435.761759 180.320977, 521.357309 258.057770)

LINESTRING (311.427555 141.482577, 404.552876 220.715598)

LINESTRING (404.552876 220.715598, 521.866258 248.109266)

LINESTRING (404.552876 220.715598, 490.191343 310.579494)

LINESTRING (404.552876 220.715598, 434.230333 326.821490)

LINESTRING (188.271138 112.516175, 267.546979 203.045845)

LINESTRING (267.546979 203.045845, 380.248116 237.099260)

LINESTRING (380.248116 237.099260, 487.414282 209.927867)

LINESTRING (380.248116 237.099260, 503.184165 265.682293)

LINESTRING (380.248116 237.099260, 466.895692 323.731663)

LINESTRING (267.546979 203.045845, 344.605316 295.616811)

LINESTRING (344.605316 295.616811, 450.664006 330.120766)

LINESTRING (344.605316 295.616811, 423.819449 376.914693)

LINESTRING (344.605316 295.616811, 384.980919 419.949979)

LINESTRING (267.546979 203.045845, 303.585212 312.183238)

LINESTRING (303.585212 312.183238, 388.782852 393.654974)

LINESTRING (303.585212 312.183238, 339.520603 423.108636)

LINESTRING (303.585212 312.183238, 269.323745 425.938471)

LINESTRING (80.000000 80.000000, 170.357802 170.540643)

LINESTRING (170.357802 170.540643, 277.081173 209.767063)

LINESTRING (277.081173 209.767063, 388.879305 173.911008)

LINESTRING (388.879305 173.911008, 480.641035 79.762431)

LINESTRING (388.879305 173.911008, 514.276684 142.875647)

LINESTRING (388.879305 173.911008, 499.647291 209.685871)

LINESTRING (277.081173 209.767063, 396.953997 249.267751)

LINESTRING (396.953997 249.267751, 509.098209 226.021214)

LINESTRING (396.953997 249.267751, 506.952393 271.299445)

LINESTRING (396.953997 249.267751, 488.554105 343.823662)

LINESTRING (277.081173 209.767063, 359.455192 302.422027)

LINESTRING (359.455192 302.422027, 477.089292 340.570055)

LINESTRING (359.455192 302.422027, 451.391405 382.963191)

LINESTRING (359.455192 302.422027, 395.943742 413.479301)

LINESTRING (170.357802 170.540643, 259.407425 248.541537)

LINESTRING (259.407425 248.541537, 366.875079 280.628142)

LINESTRING (366.875079 280.628142, 476.762994 259.201402)

LINESTRING (366.875079 280.628142, 485.836097 305.869315)

LINESTRING (366.875079 280.628142, 453.921608 363.880602)

LINESTRING (259.407425 248.541537, 350.089141 335.925945)

LINESTRING (350.089141 335.925945, 472.045401 358.927249)

LINESTRING (350.089141 335.925945, 433.115107 419.794052)

LINESTRING (350.089141 335.925945, 389.860414 455.152906)

LINESTRING (259.407425 248.541537, 282.840696 359.971668)

LINESTRING (282.840696 359.971668, 366.379295 437.546758)

LINESTRING (282.840696 359.971668, 321.781143 481.320526)

LINESTRING (282.840696 359.971668, 243.804050 474.570462)

LINESTRING (170.357802 170.540643, 198.557473 288.973454)

LINESTRING (198.557473 288.973454, 286.147088 369.321817)

LINESTRING (286.147088 369.321817, 410.427297 402.693497)

LINESTRING (286.147088 369.321817, 370.986199 459.765467)

LINESTRING (286.147088 369.321817, 320.356108 493.089401)

LINESTRING (198.557473 288.973454, 237.509917 411.942368)

LINESTRING (237.509917 411.942368, 320.511269 488.219531)

LINESTRING (237.509917 411.942368, 272.444728 522.099470)

LINESTRING (237.509917 411.942368, 213.180183 523.286736)

LINESTRING (198.557473 288.973454, 165.369410 397.591849)

LINESTRING (165.369410 397.591849, 190.109872 509.916005)

LINESTRING (165.369410 397.591849, 137.038867 522.138026)

LINESTRING (165.369410 397.591849, 86.997960 481.040382)

LINESTRING (80.000000 80.000000, 117.008733 196.350945)

LINESTRING (117.008733 196.350945, 206.543703 273.778188)

LINESTRING (206.543703 273.778188, 323.736629 314.238014)

LINESTRING (323.736629 314.238014, 430.580835 276.300769)

LINESTRING (323.736629 314.238014, 444.768769 338.334383)

LINESTRING (323.736629 314.238014, 405.757377 395.035885)

LINESTRING (206.543703 273.778188, 287.676327 354.824666)

LINESTRING (287.676327 354.824666, 399.790800 395.470170)

LINESTRING (287.676327 354.824666, 375.439719 445.735460)

LINESTRING (287.676327 354.824666, 309.554607 466.682182)

LINESTRING (206.543703 273.778188, 236.355925 388.026234)

LINESTRING (236.355925 388.026234, 330.656208 469.455870)

LINESTRING (236.355925 388.026234, 267.112083 506.281040)

LINESTRING (236.355925 388.026234, 210.453980 498.620623)

LINESTRING (117.008733 196.350945, 158.006186 312.663904)

LINESTRING (158.006186 312.663904, 236.439966 404.257132)

LINESTRING (236.439966 404.257132, 353.529608 428.303674)

LINESTRING (236.439966 404.257132, 312.615844 489.443972)

LINESTRING (236.439966 404.257132, 272.017211 513.065432)

LINESTRING (158.006186 312.663904, 195.224758 425.802311)

LINESTRING (195.224758 425.802311, 279.116602 509.170796)

LINESTRING (195.224758 425.802311, 227.105828 538.728357)

LINESTRING (195.224758 425.802311, 170.925669 549.532301)

LINESTRING (158.006186 312.663904, 126.311248 433.825538)

LINESTRING (126.311248 433.825538, 152.724279 541.848865)

LINESTRING (126.311248 433.825538, 96.932358 540.076369)

LINESTRING (126.311248 433.825538, 32.695249 526.244518)

LINESTRING (117.008733 196.350945, 95.128559 308.127412)

LINESTRING (95.128559 308.127412, 119.499325 423.302629)

LINESTRING (119.499325 423.302629, 198.199576 501.820966)

LINESTRING (119.499325 423.302629, 153.123833 540.717661)

LINESTRING (119.499325 423.302629, 82.499191 543.036581)

LINESTRING (95.128559 308.127412, 66.791294 426.895290)

LINESTRING (66.791294 426.895290, 103.262138 540.507218)

LINESTRING (66.791294 426.895290, 30.911308 540.885199)

LINESTRING (66.791294 426.895290, -26.862058 504.003378)

LINESTRING (95.128559 308.127412, 9.014191 394.599883)

LINESTRING (9.014191 394.599883, -23.981356 506.524342)

LINESTRING (9.014191 394.599883, -79.171514 471.254547)

LINESTRING (9.014191 394.599883, -100.290371 431.612136)

