LINESTRING (555.102112 4870.537757, 2043.832046 4761.397038)

LINESTRING (555.102112 4870.537757, 85.798526 3899.924715)

LINESTRING (2884.281794 4105.305825, 3198.148476 2848.089593)

LINESTRING (2884.281794 4105.305825, 2043.832046 4761.397038)

LINESTRING (238.300376 2856.725356, 670.735219 2980.748528)

LINESTRING (2659.659976 4739.618440, 2043.832046 4761.397038)

LINESTRING (2824.951114 1467.646809, 1947.609834 1649.704921)

LINESTRING (2824.951114 1467.646809, 2689.773945 1944.393176)

LINESTRING (2824.951114 1467.646809, 2178.519457 2403.038392)

LINESTRING (2824.951114 1467.646809, 2169.391608 1169.085928)

LINESTRING (2824.951114 1467.646809, 2557.044984 1741.004190)

LINESTRING (1459.207064 1042.538069, 807.454817 2119.075588)

LINESTRING (1459.207064 1042.538069, 2178.519457 2403.038392)

LINESTRING (1459.207064 1042.538069, 781.476663 138.924351)

LINESTRING (1459.207064 1042.538069, 2514.192352 2245.331801)

LINESTRING (819.116980 1600.128894, 1947.609834 1649.704921)

LINESTRING (819.116980 1600.128894, 807.454817 2119.075588)

LINESTRING (819.116980 1600.128894, 2178.519457 2403.038392)

LINESTRING (819.116980 1600.128894, 954.288309 2132.631861)

LINESTRING (819.116980 1600.128894, 2169.391608 1169.085928)

LINESTRING (819.116980 1600.128894, 788.909050 530.655280)

LINESTRING (819.116980 1600.128894, 2557.044984 1741.004190)

LINESTRING (1118.406003 269.826060, 1947.609834 1649.704921)

LINESTRING (1118.406003 269.826060, 788.909050 530.655280)

LINESTRING (1118.406003 269.826060, 781.476663 138.924351)

LINESTRING (670.735219 2980.748528, 912.684882 4125.445136)

LINESTRING (670.735219 2980.748528, 85.798526 3899.924715)

LINESTRING (670.735219 2980.748528, 1151.318960 2907.212865)

LINESTRING (670.735219 2980.748528, 1022.792076 2566.285436)

LINESTRING (1947.609834 1649.704921, 2178.519457 2403.038392)

LINESTRING (1947.609834 1649.704921, 954.288309 2132.631861)

LINESTRING (1947.609834 1649.704921, 2169.391608 1169.085928)

LINESTRING (1947.609834 1649.704921, 1022.792076 2566.285436)

LINESTRING (3198.148476 2848.089593, 2557.044984 1741.004190)

LINESTRING (3198.148476 2848.089593, 2785.428630 3322.417143)

LINESTRING (2689.773945 1944.393176, 2178.519457 2403.038392)

LINESTRING (2689.773945 1944.393176, 2169.391608 1169.085928)

LINESTRING (2689.773945 1944.393176, 2514.192352 2245.331801)

LINESTRING (2689.773945 1944.393176, 2557.044984 1741.004190)

LINESTRING (807.454817 2119.075588, 954.288309 2132.631861)

LINESTRING (807.454817 2119.075588, 1151.318960 2907.212865)

LINESTRING (807.454817 2119.075588, 1022.792076 2566.285436)

LINESTRING (807.454817 2119.075588, 2557.044984 1741.004190)

LINESTRING (2178.519457 2403.038392, 1151.318960 2907.212865)

LINESTRING (2178.519457 2403.038392, 2514.192352 2245.331801)

LINESTRING (954.288309 2132.631861, 1151.318960 2907.212865)

LINESTRING (954.288309 2132.631861, 1022.792076 2566.285436)

LINESTRING (2169.391608 1169.085928, 2514.192352 2245.331801)

LINESTRING (788.909050 530.655280, 781.476663 138.924351)

LINESTRING (2043.832046 4761.397038, 912.684882 4125.445136)

LINESTRING (85.798526 3899.924715, 1151.318960 2907.212865)

LINESTRING (1151.318960 2907.212865, 1022.792076 2566.285436)

LINESTRING (1151.318960 2907.212865, 2514.192352 2245.331801)

LINESTRING (1022.792076 2566.285436, 2557.044984 1741.004190)

LINESTRING (2514.192352 2245.331801, 2557.044984 1741.004190)

LINESTRING (2514.192352 2245.331801, 2785.428630 3322.417143)

