LINESTRING (327448.865010 6819816.405007, 327447.515065 6819820.700671)

LINESTRING (327448.865010 6819816.405007, 327500.089398 6819823.062572, 327516.979893 6819816.744780)

LINESTRING (327448.865010 6819816.405007, 327436.800257 6819812.452922, 327424.788199 6819807.951559, 327412.995984 6819802.613676, 327400.766455 6819795.780222, 327390.279982 6819789.551835, 327366.217572 6819773.243464, 327333.346823 6819749.585904)

LINESTRING (327447.515065 6819820.700671, 327448.865010 6819816.405007)

LINESTRING (327447.515065 6819820.700671, 327445.450717 6819827.263279, 327443.989628 6819831.899184, 327441.167772 6819839.325091, 327437.269499 6819845.923127, 327433.405747 6819851.069031, 327423.751743 6819863.933546, 327419.923082 6819869.033094, 327414.614755 6819879.037263, 327397.522390 6819911.216595, 327395.949746 6819914.251457)

LINESTRING (327447.515065 6819820.700671, 327495.810115 6819834.343129, 327504.487450 6819836.712152)

LINESTRING (327516.979893 6819816.744780, 327522.783447 6819818.520343)

LINESTRING (327516.979893 6819816.744780, 327500.089398 6819823.062572, 327448.865010 6819816.405007)

LINESTRING (327516.979893 6819816.744780, 327521.811419 6819808.627723, 327528.107368 6819796.153572)

LINESTRING (327333.346823 6819749.585904, 327339.366564 6819738.542073, 327347.229813 6819723.791628, 327370.355050 6819676.952780, 327376.753151 6819665.678223, 327379.539925 6819660.764356)

LINESTRING (327333.346823 6819749.585904, 327324.641417 6819743.336013, 327306.985943 6819731.283594)

LINESTRING (327333.346823 6819749.585904, 327366.217572 6819773.243464, 327390.279982 6819789.551835, 327400.766455 6819795.780222, 327412.995984 6819802.613676, 327424.788199 6819807.951559, 327436.800257 6819812.452922, 327448.865010 6819816.405007)

LINESTRING (326339.644214 6819497.048807, 326274.467510 6819514.960643)

LINESTRING (326339.644214 6819497.048807, 326348.688207 6819495.614383, 326358.410107 6819494.715084, 326376.896725 6819493.946299, 326385.107277 6819493.881388, 326393.987685 6819494.084231, 326405.186020 6819494.639748)

LINESTRING (326339.644214 6819497.048807, 326336.630518 6819485.886127, 326335.798285 6819469.682755, 326335.720867 6819468.135765, 326333.818268 6819431.077190, 326332.413663 6819403.756326)

LINESTRING (326274.467510 6819514.960643, 326205.257745 6819535.028260)

LINESTRING (326274.467510 6819514.960643, 326339.644214 6819497.048807)

LINESTRING (326274.467510 6819514.960643, 326272.749146 6819505.049721, 326270.883477 6819486.119911, 326270.732054 6819484.587783, 326267.976279 6819456.620487, 326263.500328 6819411.244652)

LINESTRING (326405.186020 6819494.639748, 326393.987685 6819494.084231, 326385.107277 6819493.881388, 326376.896725 6819493.946299, 326358.410107 6819494.715084, 326348.688207 6819495.614383, 326339.644214 6819497.048807)

LINESTRING (326405.186020 6819494.639748, 326415.403522 6819495.646026, 326430.956122 6819497.679726, 326437.075002 6819498.478251)

LINESTRING (326405.186020 6819494.639748, 326405.288520 6819484.526124, 326404.132489 6819400.815099)

LINESTRING (326332.413663 6819403.756326, 326263.500328 6819411.244652)

LINESTRING (326332.413663 6819403.756326, 326375.477010 6819401.992039, 326404.132489 6819400.815099)

LINESTRING (326332.413663 6819403.756326, 326333.818268 6819431.077190, 326335.720867 6819468.135765, 326335.798285 6819469.682755, 326336.630518 6819485.886127, 326339.644214 6819497.048807)

LINESTRING (326205.257745 6819535.028260, 326274.467510 6819514.960643)

LINESTRING (326205.257745 6819535.028260, 326204.244454 6819525.026260, 326200.645369 6819491.634129, 326195.931593 6819447.921518, 326192.751687 6819418.424617)

LINESTRING (326192.751687 6819418.424617, 326123.535252 6819426.142921)

LINESTRING (326192.751687 6819418.424617, 326195.931593 6819447.921518, 326200.645369 6819491.634129, 326204.244454 6819525.026260, 326205.257745 6819535.028260)

LINESTRING (326192.751687 6819418.424617, 326213.302217 6819416.335471, 326263.500328 6819411.244652)

LINESTRING (326473.549441 6819398.804937, 326431.845809 6819400.009078, 326404.132489 6819400.815099)

LINESTRING (326473.549441 6819398.804937, 326497.353256 6819398.373445, 326503.997191 6819398.141695, 326509.565138 6819397.952591, 326576.003380 6819395.613632)

LINESTRING (326473.549441 6819398.804937, 326474.499938 6819417.066479, 326474.775483 6819422.363559, 326475.732660 6819440.758656, 326478.478107 6819493.529125, 326478.683452 6819503.292622)

LINESTRING (326404.132489 6819400.815099, 326375.477010 6819401.992039, 326332.413663 6819403.756326)

LINESTRING (326404.132489 6819400.815099, 326431.845809 6819400.009078, 326473.549441 6819398.804937)

LINESTRING (326404.132489 6819400.815099, 326405.288520 6819484.526124, 326405.186020 6819494.639748)

LINESTRING (326576.003380 6819395.613632, 326509.565138 6819397.952591, 326503.997191 6819398.141695, 326497.353256 6819398.373445, 326473.549441 6819398.804937)

LINESTRING (326576.003380 6819395.613632, 326648.499261 6819382.161992, 326669.350837 6819378.509676)

LINESTRING (326576.003380 6819395.613632, 326587.184456 6819488.418690, 326589.017543 6819496.371459)

LINESTRING (326478.683452 6819503.292622, 326437.075002 6819498.478251)

LINESTRING (326478.683452 6819503.292622, 326478.478107 6819493.529125, 326475.732660 6819440.758656, 326474.775483 6819422.363559, 326474.499938 6819417.066479, 326473.549441 6819398.804937)

LINESTRING (326478.683452 6819503.292622, 326500.430920 6819505.619359, 326510.171659 6819506.058413, 326519.853113 6819506.165740, 326530.248341 6819505.925011, 326548.361972 6819504.316671, 326589.017543 6819496.371459)

LINESTRING (326123.535252 6819426.142921, 326192.751687 6819418.424617)

LINESTRING (326123.535252 6819426.142921, 326126.518652 6819451.599529, 326126.609809 6819452.353660, 326129.303241 6819475.325554, 326129.833093 6819479.828886, 326136.017322 6819532.527546)

LINESTRING (326136.017322 6819532.527546, 326129.833093 6819479.828886, 326129.303241 6819475.325554, 326126.609809 6819452.353660, 326126.518652 6819451.599529, 326123.535252 6819426.142921)

LINESTRING (326263.500328 6819411.244652, 326332.413663 6819403.756326)

LINESTRING (326263.500328 6819411.244652, 326267.976279 6819456.620487, 326270.732054 6819484.587783, 326270.883477 6819486.119911, 326272.749146 6819505.049721, 326274.467510 6819514.960643)

LINESTRING (326263.500328 6819411.244652, 326213.302217 6819416.335471, 326192.751687 6819418.424617)

LINESTRING (326799.723824 6819415.312705, 326762.709247 6819378.612143, 326747.660429 6819363.687530)

LINESTRING (326747.660429 6819363.687530, 326737.123111 6819365.686358, 326729.546661 6819367.124568, 326704.410503 6819371.871888, 326678.112028 6819376.855960, 326669.350837 6819378.509676)

LINESTRING (326747.660429 6819363.687530, 326787.911771 6819348.568565, 326807.751572 6819341.107211, 326824.296521 6819334.892638, 326834.793138 6819332.717598)

LINESTRING (326747.660429 6819363.687530, 326736.646942 6819344.924252, 326731.029833 6819335.364040, 326728.717501 6819331.596782, 326723.105496 6819322.460299, 326717.302820 6819306.940262, 326710.001054 6819271.981121)

LINESTRING (326747.660429 6819363.687530, 326762.709247 6819378.612143, 326799.723824 6819415.312705)

LINESTRING (326834.793138 6819332.717598, 326860.818652 6819264.911118)

LINESTRING (326834.793138 6819332.717598, 326824.296521 6819334.892638, 326807.751572 6819341.107211, 326787.911771 6819348.568565, 326747.660429 6819363.687530)

LINESTRING (326834.793138 6819332.717598, 326884.962886 6819347.151191, 326890.226957 6819348.573338)

LINESTRING (326860.818652 6819264.911118, 326834.793138 6819332.717598)

LINESTRING (326860.818652 6819264.911118, 326772.579438 6819269.046650, 326710.001054 6819271.981121)

LINESTRING (326890.226957 6819348.573338, 326884.962886 6819347.151191, 326834.793138 6819332.717598)

LINESTRING (326890.226957 6819348.573338, 326897.251624 6819350.409745, 326899.224427 6819351.226230, 326925.328302 6819364.272395, 327008.334223 6819405.744126, 327036.281323 6819419.703331, 327042.503309 6819423.108554, 327063.660541 6819434.695190, 327074.712760 6819441.318474, 327080.214065 6819444.614628, 327097.884272 6819455.203715, 327114.861392 6819465.381129, 327166.057883 6819496.213025)

LINESTRING (326890.226957 6819348.573338, 326883.849564 6819364.634241, 326880.811695 6819378.843830, 326878.782252 6819388.339416, 326876.349970 6819420.571121, 326875.941231 6819440.942212, 326876.462617 6819455.565581)

LINESTRING (327166.057883 6819496.213025, 327114.861392 6819465.381129, 327097.884272 6819455.203715, 327080.214065 6819444.614628, 327074.712760 6819441.318474, 327063.660541 6819434.695190, 327042.503309 6819423.108554, 327036.281323 6819419.703331, 327008.334223 6819405.744126, 326925.328302 6819364.272395, 326899.224427 6819351.226230, 326897.251624 6819350.409745, 326890.226957 6819348.573338)

LINESTRING (327166.057883 6819496.213025, 327176.563474 6819502.584906, 327206.856650 6819522.319506, 327222.273330 6819533.969744, 327225.068407 6819536.084315, 327242.018527 6819550.023591, 327279.296053 6819580.679738, 327285.149658 6819585.487178, 327312.160713 6819607.394252, 327335.489412 6819626.304974, 327343.035767 6819632.422908, 327353.034429 6819640.527533, 327357.805789 6819644.395949, 327369.266307 6819653.030368, 327379.539925 6819660.764356)

LINESTRING (327166.057883 6819496.213025, 327168.498349 6819492.599298, 327174.998448 6819482.948214, 327198.480913 6819448.753740, 327227.668211 6819410.894825, 327233.915026 6819402.796164)

LINESTRING (327166.057883 6819496.213025, 327163.346685 6819499.962967, 327150.003075 6819518.367422, 327145.598604 6819524.444307, 327142.619931 6819528.609248, 327128.547973 6819548.243896, 327121.935229 6819558.413923)

LINESTRING (326876.462617 6819455.565581, 326837.813552 6819452.718652, 326801.954446 6819451.451109, 326793.528534 6819452.440671, 326770.677002 6819456.113998, 326720.996215 6819467.274667, 326679.859881 6819476.503075, 326631.476459 6819487.343645, 326615.289671 6819490.986303, 326589.017543 6819496.371459)

LINESTRING (326876.462617 6819455.565581, 326892.399030 6819456.633828, 326909.381726 6819458.776834, 326932.977753 6819462.219042, 326934.741170 6819462.476969, 326944.966120 6819465.135686, 326958.872983 6819469.708380, 326963.480016 6819471.230329, 326984.306769 6819479.720114, 326998.151995 6819485.735303, 327010.746204 6819492.136466, 327019.324111 6819496.874629, 327035.848761 6819506.003128, 327045.894629 6819511.605385, 327052.514736 6819515.292015, 327066.968608 6819523.352357, 327068.972440 6819524.580198, 327078.357173 6819530.304745, 327105.042628 6819546.603350, 327113.798938 6819552.035740, 327121.935229 6819558.413923)

LINESTRING (326876.462617 6819455.565581, 326876.650343 6819465.854295, 326875.515125 6819474.658161, 326872.046241 6819485.787576, 326871.011080 6819489.108275, 326856.372045 6819536.074040, 326852.852518 6819547.362211)

LINESTRING (326876.462617 6819455.565581, 326875.941231 6819440.942212, 326876.349970 6819420.571121, 326878.782252 6819388.339416, 326880.811695 6819378.843830, 326883.849564 6819364.634241, 326890.226957 6819348.573338)

LINESTRING (327533.168025 6819765.911862, 327523.987265 6819759.752068, 327518.720353 6819756.320890, 327493.135065 6819739.641085, 327458.210734 6819715.560097, 327427.845476 6819694.633279, 327386.778431 6819666.060909, 327379.539925 6819660.764356)

LINESTRING (327533.168025 6819765.911862, 327532.141820 6819780.266215, 327528.107368 6819796.153572)

LINESTRING (327533.168025 6819765.911862, 327539.442155 6819740.541272, 327540.699394 6819734.699432, 327540.920524 6819730.236777, 327540.065782 6819726.675532, 327536.948554 6819718.072179, 327533.547670 6819711.814752, 327530.535546 6819707.903299, 327518.053084 6819691.687759, 327484.730564 6819649.809451, 327483.085276 6819647.737936, 327445.794072 6819600.869225, 327436.751855 6819588.599818, 327428.504188 6819574.494629)

LINESTRING (327379.539925 6819660.764356, 327369.266307 6819653.030368, 327357.805789 6819644.395949, 327353.034429 6819640.527533, 327343.035767 6819632.422908, 327335.489412 6819626.304974, 327312.160713 6819607.394252, 327285.149658 6819585.487178, 327279.296053 6819580.679738, 327242.018527 6819550.023591, 327225.068407 6819536.084315, 327222.273330 6819533.969744, 327206.856650 6819522.319506, 327176.563474 6819502.584906, 327166.057883 6819496.213025)

LINESTRING (327379.539925 6819660.764356, 327386.778431 6819666.060909, 327427.845476 6819694.633279, 327458.210734 6819715.560097, 327493.135065 6819739.641085, 327518.720353 6819756.320890, 327523.987265 6819759.752068, 327533.168025 6819765.911862)

LINESTRING (327379.539925 6819660.764356, 327383.972820 6819653.860742, 327402.522879 6819619.522557)

LINESTRING (327379.539925 6819660.764356, 327376.753151 6819665.678223, 327370.355050 6819676.952780, 327347.229813 6819723.791628, 327339.366564 6819738.542073, 327333.346823 6819749.585904)

LINESTRING (327528.107368 6819796.153572, 327532.141820 6819780.266215, 327533.168025 6819765.911862)

LINESTRING (327528.107368 6819796.153572, 327525.134367 6819807.413781, 327522.783447 6819818.520343)

LINESTRING (327428.504188 6819574.494629, 327423.430925 6819579.042406, 327417.579060 6819584.030569, 327414.076030 6819588.924236, 327412.133152 6819595.034531, 327407.759219 6819608.383957, 327402.522879 6819619.522557)

LINESTRING (327428.504188 6819574.494629, 327413.989600 6819538.041120, 327411.314977 6819531.156343, 327382.212988 6819456.267135, 327378.265369 6819446.109733, 327351.335643 6819376.825079, 327341.765918 6819355.042803, 327335.548627 6819343.681823, 327327.746069 6819332.533612, 327319.697801 6819322.669550, 327309.877142 6819312.904856, 327302.122104 6819305.503111)

LINESTRING (327428.504188 6819574.494629, 327436.751855 6819588.599818, 327445.794072 6819600.869225, 327483.085276 6819647.737936, 327484.730564 6819649.809451, 327518.053084 6819691.687759, 327530.535546 6819707.903299, 327533.547670 6819711.814752, 327536.948554 6819718.072179, 327540.065782 6819726.675532, 327540.920524 6819730.236777, 327540.699394 6819734.699432, 327539.442155 6819740.541272, 327533.168025 6819765.911862)

LINESTRING (326437.075002 6819498.478251, 326478.683452 6819503.292622)

LINESTRING (326437.075002 6819498.478251, 326430.956122 6819497.679726, 326415.403522 6819495.646026, 326405.186020 6819494.639748)

LINESTRING (326437.075002 6819498.478251, 326435.238826 6819507.864099, 326431.894357 6819526.574771, 326430.998487 6819531.071333, 326421.292071 6819566.847314, 326419.881853 6819572.050204, 326416.579662 6819582.000323, 326411.639583 6819589.187273, 326406.294055 6819594.776709, 326399.427418 6819600.364151, 326391.832475 6819605.474811, 326381.779007 6819612.114315, 326370.095176 6819616.994476, 326351.156096 6819625.239055, 326335.567110 6819633.025988, 326332.047350 6819635.210459, 326325.021576 6819640.493621, 326319.206118 6819647.032782, 326306.144966 6819667.680438, 326304.798116 6819670.626442, 326302.090125 6819676.552639, 326299.671902 6819682.296973, 326297.733981 6819689.746649, 326295.832225 6819699.091259)

LINESTRING (326589.017543 6819496.371459, 326548.361972 6819504.316671, 326530.248341 6819505.925011, 326519.853113 6819506.165740, 326510.171659 6819506.058413, 326500.430920 6819505.619359, 326478.683452 6819503.292622)

LINESTRING (326589.017543 6819496.371459, 326615.289671 6819490.986303, 326631.476459 6819487.343645, 326679.859881 6819476.503075, 326720.996215 6819467.274667, 326770.677002 6819456.113998, 326793.528534 6819452.440671, 326801.954446 6819451.451109, 326837.813552 6819452.718652, 326876.462617 6819455.565581)

LINESTRING (326589.017543 6819496.371459, 326587.184456 6819488.418690, 326576.003380 6819395.613632)

LINESTRING (326669.350837 6819378.509676, 326648.499261 6819382.161992, 326576.003380 6819395.613632)

LINESTRING (326669.350837 6819378.509676, 326678.112028 6819376.855960, 326704.410503 6819371.871888, 326729.546661 6819367.124568, 326737.123111 6819365.686358, 326747.660429 6819363.687530)

LINESTRING (327121.935229 6819558.413923, 327128.547973 6819548.243896, 327142.619931 6819528.609248, 327145.598604 6819524.444307, 327150.003075 6819518.367422, 327163.346685 6819499.962967, 327166.057883 6819496.213025)

LINESTRING (327121.935229 6819558.413923, 327113.798938 6819552.035740, 327105.042628 6819546.603350, 327078.357173 6819530.304745, 327068.972440 6819524.580198, 327066.968608 6819523.352357, 327052.514736 6819515.292015, 327045.894629 6819511.605385, 327035.848761 6819506.003128, 327019.324111 6819496.874629, 327010.746204 6819492.136466, 326998.151995 6819485.735303, 326984.306769 6819479.720114, 326963.480016 6819471.230329, 326958.872983 6819469.708380, 326944.966120 6819465.135686, 326934.741170 6819462.476969, 326932.977753 6819462.219042, 326909.381726 6819458.776834, 326892.399030 6819456.633828, 326876.462617 6819455.565581)

LINESTRING (327121.935229 6819558.413923, 327143.235841 6819575.471984, 327152.012261 6819584.417955, 327167.463081 6819600.183225, 327171.044561 6819603.943309, 327192.991097 6819627.016631, 327206.450937 6819641.174165, 327228.760242 6819664.039948, 327244.485976 6819679.981501, 327250.634543 6819686.213458, 327264.264884 6819699.302774, 327278.599000 6819710.772796, 327281.073302 6819712.557498, 327306.985943 6819731.283594)

LINESTRING (326852.852518 6819547.362211, 326878.181729 6819553.462201, 326885.819336 6819555.290295, 326902.332518 6819559.264122, 326918.456803 6819563.145851, 326955.847731 6819572.148146)

LINESTRING (326852.852518 6819547.362211, 326856.372045 6819536.074040, 326871.011080 6819489.108275, 326872.046241 6819485.787576, 326875.515125 6819474.658161, 326876.650343 6819465.854295, 326876.462617 6819455.565581)

LINESTRING (326852.852518 6819547.362211, 326845.069364 6819571.816635, 326843.152801 6819575.761502, 326842.247249 6819577.614155, 326804.271343 6819617.633528, 326795.341466 6819631.612936, 326786.550385 6819651.364875, 326785.077873 6819655.008686, 326775.498204 6819678.738522)

LINESTRING (326775.498204 6819678.738522, 326785.077873 6819655.008686, 326786.550385 6819651.364875, 326795.341466 6819631.612936, 326804.271343 6819617.633528, 326842.247249 6819577.614155, 326843.152801 6819575.761502, 326845.069364 6819571.816635, 326852.852518 6819547.362211)

LINESTRING (326955.847731 6819572.148146, 326993.310020 6819593.397836, 327018.014038 6819607.418087, 327019.573649 6819608.299855, 327028.141407 6819613.161256, 327048.797421 6819624.884292)

LINESTRING (326955.847731 6819572.148146, 326918.456803 6819563.145851, 326902.332518 6819559.264122, 326885.819336 6819555.290295, 326878.181729 6819553.462201, 326852.852518 6819547.362211)

LINESTRING (326955.847731 6819572.148146, 326937.628897 6819611.124997, 326928.798995 6819630.008197, 326927.183801 6819633.469382, 326915.797919 6819657.813242, 326912.764759 6819664.301817, 326900.974679 6819689.525005, 326898.983181 6819693.785982, 326889.029985 6819715.068361, 326895.166520 6819714.092787, 326919.671213 6819710.214984, 326944.943407 6819706.209821, 326958.637889 6819704.188001, 326991.611167 6819699.330545, 327033.241431 6819693.205080, 327034.269188 6819693.053435, 327051.718114 6819690.443184, 327063.165531 6819688.734610, 327081.006763 6819686.071485, 327082.755183 6819685.281455, 327086.753649 6819683.486730, 327087.823885 6819683.009427, 327098.262847 6819674.020982, 327104.904883 6819668.301128, 327114.922014 6819678.479406, 327118.828658 6819682.446378, 327124.303713 6819688.008783, 327130.402922 6819694.209529, 327132.055621 6819695.890020, 327158.177428 6819722.436953, 327163.466710 6819727.807837, 327173.944416 6819738.454237, 327189.424806 6819754.184616, 327192.412805 6819757.282528, 327211.660058 6819777.288244, 327215.560275 6819781.344887, 327228.942868 6819795.249702)

LINESTRING (327402.522879 6819619.522557, 327407.759219 6819608.383957, 327412.133152 6819595.034531, 327414.076030 6819588.924236, 327417.579060 6819584.030569, 327423.430925 6819579.042406, 327428.504188 6819574.494629)

LINESTRING (327402.522879 6819619.522557, 327383.972820 6819653.860742, 327379.539925 6819660.764356)

LINESTRING (327402.522879 6819619.522557, 327398.186345 6819612.486156, 327388.643396 6819598.200026, 327358.359290 6819551.686493, 327352.354140 6819542.222811, 327349.273870 6819537.377690, 327307.823049 6819474.439030, 327282.560715 6819436.322884, 327252.803300 6819415.668371, 327245.069313 6819410.296304, 327233.915026 6819402.796164)

LINESTRING (327302.122104 6819305.503111, 327297.949272 6819310.776085, 327289.924446 6819320.904428, 327282.894919 6819331.083672, 327264.300509 6819358.005186, 327263.514166 6819359.148879)

LINESTRING (327302.122104 6819305.503111, 327309.877142 6819312.904856, 327319.697801 6819322.669550, 327327.746069 6819332.533612, 327335.548627 6819343.681823, 327341.765918 6819355.042803, 327351.335643 6819376.825079, 327378.265369 6819446.109733, 327382.212988 6819456.267135, 327411.314977 6819531.156343, 327413.989600 6819538.041120, 327428.504188 6819574.494629)

LINESTRING (327306.985943 6819731.283594, 327301.663968 6819738.331987, 327283.641447 6819755.574192, 327270.682493 6819764.542471, 327267.004409 6819767.090876, 327242.412085 6819786.244690, 327231.669888 6819793.429192, 327228.942868 6819795.249702)

LINESTRING (327306.985943 6819731.283594, 327281.073302 6819712.557498, 327278.599000 6819710.772796, 327264.264884 6819699.302774, 327250.634543 6819686.213458, 327244.485976 6819679.981501, 327228.760242 6819664.039948, 327206.450937 6819641.174165, 327192.991097 6819627.016631, 327171.044561 6819603.943309, 327167.463081 6819600.183225, 327152.012261 6819584.417955, 327143.235841 6819575.471984, 327121.935229 6819558.413923)

LINESTRING (327306.985943 6819731.283594, 327324.641417 6819743.336013, 327333.346823 6819749.585904)

LINESTRING (327228.942868 6819795.249702, 327217.713274 6819803.897787, 327211.101833 6819810.229551, 327188.731979 6819831.671892, 327181.683514 6819835.548603, 327176.514952 6819838.383336, 327171.040203 6819841.177543, 327148.469905 6819831.914562, 327139.735939 6819824.773976, 327133.486900 6819818.346392, 327124.842035 6819809.460886, 327108.407346 6819792.573368, 327100.189666 6819784.124073, 327092.056461 6819776.406957, 327085.093719 6819771.510073, 327083.740924 6819771.242774, 327078.075105 6819770.097016, 327070.755850 6819770.361372, 327022.258854 6819777.353145, 327011.943168 6819778.849251, 326947.932409 6819788.077144, 326932.638029 6819791.718519)

LINESTRING (327228.942868 6819795.249702, 327231.669888 6819793.429192, 327242.412085 6819786.244690, 327267.004409 6819767.090876, 327270.682493 6819764.542471, 327283.641447 6819755.574192, 327301.663968 6819738.331987, 327306.985943 6819731.283594)

LINESTRING (327228.942868 6819795.249702, 327238.128441 6819804.711013, 327248.603716 6819811.887868, 327254.034855 6819815.611716, 327304.624016 6819850.770984, 327357.484141 6819887.513805, 327393.097271 6819912.262357, 327395.949746 6819914.251457)

LINESTRING (327228.942868 6819795.249702, 327215.560275 6819781.344887, 327211.660058 6819777.288244, 327192.412805 6819757.282528, 327189.424806 6819754.184616, 327173.944416 6819738.454237, 327163.466710 6819727.807837, 327158.177428 6819722.436953, 327132.055621 6819695.890020, 327130.402922 6819694.209529, 327124.303713 6819688.008783, 327118.828658 6819682.446378, 327114.922014 6819678.479406, 327104.904883 6819668.301128, 327098.262847 6819674.020982, 327087.823885 6819683.009427, 327086.753649 6819683.486730, 327082.755183 6819685.281455, 327081.006763 6819686.071485, 327063.165531 6819688.734610, 327051.718114 6819690.443184, 327034.269188 6819693.053435, 327033.241431 6819693.205080, 326991.611167 6819699.330545, 326958.637889 6819704.188001, 326944.943407 6819706.209821, 326919.671213 6819710.214984, 326895.166520 6819714.092787, 326889.029985 6819715.068361, 326898.983181 6819693.785982, 326900.974679 6819689.525005, 326912.764759 6819664.301817, 326915.797919 6819657.813242, 326927.183801 6819633.469382, 326928.798995 6819630.008197, 326937.628897 6819611.124997, 326955.847731 6819572.148146)

LINESTRING (327233.915026 6819402.796164, 327244.202896 6819390.747559, 327263.514166 6819359.148879)

LINESTRING (327233.915026 6819402.796164, 327227.668211 6819410.894825, 327198.480913 6819448.753740, 327174.998448 6819482.948214, 327168.498349 6819492.599298, 327166.057883 6819496.213025)

LINESTRING (327233.915026 6819402.796164, 327245.069313 6819410.296304, 327252.803300 6819415.668371, 327282.560715 6819436.322884, 327307.823049 6819474.439030, 327349.273870 6819537.377690, 327352.354140 6819542.222811, 327358.359290 6819551.686493, 327388.643396 6819598.200026, 327398.186345 6819612.486156, 327402.522879 6819619.522557)

LINESTRING (327263.514166 6819359.148879, 327264.300509 6819358.005186, 327282.894919 6819331.083672, 327289.924446 6819320.904428, 327297.949272 6819310.776085, 327302.122104 6819305.503111)

LINESTRING (327263.514166 6819359.148879, 327244.202896 6819390.747559, 327233.915026 6819402.796164)

LINESTRING (327263.514166 6819359.148879, 327259.746268 6819356.792609, 327244.922730 6819347.634146, 327234.642112 6819341.284311)

LINESTRING (326710.001054 6819271.981121, 326772.579438 6819269.046650, 326860.818652 6819264.911118)

LINESTRING (326710.001054 6819271.981121, 326717.302820 6819306.940262, 326723.105496 6819322.460299, 326728.717501 6819331.596782, 326731.029833 6819335.364040, 326736.646942 6819344.924252, 326747.660429 6819363.687530)

LINESTRING (327048.797421 6819624.884292, 327028.141407 6819613.161256, 327019.573649 6819608.299855, 327018.014038 6819607.418087, 326993.310020 6819593.397836, 326955.847731 6819572.148146)

LINESTRING (327557.572284 6819980.342447, 327540.087688 6819973.189581, 327522.777780 6819966.117371, 327501.246164 6819957.313804, 327496.480049 6819955.363982, 327481.261045 6819949.136362, 327461.668496 6819941.129176, 327442.756735 6819933.400635, 327437.462034 6819931.231723, 327425.336627 6819926.267423, 327395.949746 6819914.251457)

LINESTRING (327557.572284 6819980.342447, 327552.834866 6819990.563473, 327537.557071 6820023.510982, 327532.323326 6820031.581090)

LINESTRING (327557.572284 6819980.342447, 327558.845008 6819977.713068, 327575.067155 6819944.216684, 327588.167606 6819917.156937, 327589.125902 6819915.179148, 327595.499342 6819903.727717, 327596.444857 6819902.029493)

LINESTRING (327395.949746 6819914.251457, 327393.097271 6819912.262357, 327357.484141 6819887.513805, 327304.624016 6819850.770984, 327254.034855 6819815.611716, 327248.603716 6819811.887868, 327238.128441 6819804.711013, 327228.942868 6819795.249702)

LINESTRING (327395.949746 6819914.251457, 327425.336627 6819926.267423, 327437.462034 6819931.231723, 327442.756735 6819933.400635, 327461.668496 6819941.129176, 327481.261045 6819949.136362, 327496.480049 6819955.363982, 327501.246164 6819957.313804, 327522.777780 6819966.117371, 327540.087688 6819973.189581, 327557.572284 6819980.342447)

LINESTRING (327395.949746 6819914.251457, 327397.522390 6819911.216595, 327414.614755 6819879.037263, 327419.923082 6819869.033094, 327423.751743 6819863.933546, 327433.405747 6819851.069031, 327437.269499 6819845.923127, 327441.167772 6819839.325091, 327443.989628 6819831.899184, 327445.450717 6819827.263279, 327447.515065 6819820.700671)

LINESTRING (327395.949746 6819914.251457, 327381.163380 6819943.649632, 327369.945823 6819965.941762, 327364.361504 6819977.041999, 327361.555051 6819982.626304)

LINESTRING (327532.323326 6820031.581090, 327537.557071 6820023.510982, 327552.834866 6819990.563473, 327557.572284 6819980.342447)

LINESTRING (327596.444857 6819902.029493, 327595.499342 6819903.727717, 327589.125902 6819915.179148, 327588.167606 6819917.156937, 327575.067155 6819944.216684, 327558.845008 6819977.713068, 327557.572284 6819980.342447)

LINESTRING (326932.638029 6819791.718519, 326947.932409 6819788.077144, 327011.943168 6819778.849251, 327022.258854 6819777.353145, 327070.755850 6819770.361372, 327078.075105 6819770.097016, 327083.740924 6819771.242774, 327085.093719 6819771.510073, 327092.056461 6819776.406957, 327100.189666 6819784.124073, 327108.407346 6819792.573368, 327124.842035 6819809.460886, 327133.486900 6819818.346392, 327139.735939 6819824.773976, 327148.469905 6819831.914562, 327171.040203 6819841.177543, 327176.514952 6819838.383336, 327181.683514 6819835.548603, 327188.731979 6819831.671892, 327211.101833 6819810.229551, 327217.713274 6819803.897787, 327228.942868 6819795.249702)

LINESTRING (327234.642112 6819341.284311, 327244.922730 6819347.634146, 327259.746268 6819356.792609, 327263.514166 6819359.148879)

LINESTRING (326295.832225 6819699.091259, 326297.733981 6819689.746649, 326299.671902 6819682.296973, 326302.090125 6819676.552639, 326304.798116 6819670.626442, 326306.144966 6819667.680438, 326319.206118 6819647.032782, 326325.021576 6819640.493621, 326332.047350 6819635.210459, 326335.567110 6819633.025988, 326351.156096 6819625.239055, 326370.095176 6819616.994476, 326381.779007 6819612.114315, 326391.832475 6819605.474811, 326399.427418 6819600.364151, 326406.294055 6819594.776709, 326411.639583 6819589.187273, 326416.579662 6819582.000323, 326419.881853 6819572.050204, 326421.292071 6819566.847314, 326430.998487 6819531.071333, 326431.894357 6819526.574771, 326435.238826 6819507.864099, 326437.075002 6819498.478251)

LINESTRING (327361.555051 6819982.626304, 327364.361504 6819977.041999, 327369.945823 6819965.941762, 327381.163380 6819943.649632, 327395.949746 6819914.251457)

LINESTRING (327526.995540 6819819.627500, 327522.783447 6819818.520343)

LINESTRING (327522.783447 6819818.520343, 327526.995540 6819819.627500)

LINESTRING (327522.783447 6819818.520343, 327516.979893 6819816.744780)

LINESTRING (327522.783447 6819818.520343, 327516.547664 6819840.039892)

LINESTRING (327516.547664 6819840.039892, 327599.807035 6819863.158645)

LINESTRING (327516.547664 6819840.039892, 327508.896698 6819837.921056, 327504.487450 6819836.712152)

LINESTRING (327599.807035 6819863.158645, 327516.547664 6819840.039892)

LINESTRING (327504.487450 6819836.712152, 327516.979893 6819816.744780)

LINESTRING (327504.487450 6819836.712152, 327495.810115 6819834.343129, 327447.515065 6819820.700671)

LINESTRING (327504.487450 6819836.712152, 327508.896698 6819837.921056, 327516.547664 6819840.039892)

