POINT (387212.346670 6674039.567010)

POINT (387229.632633 6674071.051464)

POINT (387999.339725 6673664.867747)

POINT (387857.205424 6673255.129246)

POINT (387214.166410 6674326.806251)

POINT (387292.459617 6674279.026819)

POINT (387308.841696 6674492.433557)

POINT (387203.766521 6674614.143621)

POINT (387208.787758 6674608.728837)

POINT (387242.378551 6674608.496113)

POINT (387231.306458 6674675.590560)

POINT (387186.772445 6674640.844991)

POINT (387216.955813 6674763.034983)

POINT (387266.856534 6674654.502737)

POINT (387257.359720 6674698.714269)

POINT (387313.487521 6674717.557585)

POINT (387298.422333 6674832.661037)

POINT (387262.925906 6674776.551637)

POINT (387264.128664 6674833.784226)

POINT (387186.808646 6674870.245798)

POINT (387225.133810 6674904.168493)

POINT (387205.502357 6674964.963011)

POINT (387213.551179 6674951.587133)

POINT (387272.859473 6674959.421560)

POINT (387295.556765 6674898.332430)

POINT (387272.859473 6674959.421560)

POINT (387150.866520 6674123.059131)

POINT (387188.707639 6674079.444741)

POINT (387153.259674 6674193.483073)

POINT (387168.939246 6673870.923527)

POINT (387524.936644 6674761.513143)

POINT (387372.248004 6674023.310040)

POINT (387583.897818 6674872.312401)

POINT (387591.200772 6674940.267562)

POINT (387227.575361 6674348.124108)

POINT (387285.510112 6674419.879495)

POINT (388795.988388 6673754.172413)

POINT (387265.700254 6674502.398868)

POINT (387277.509487 6674026.371095)

POINT (387193.365111 6674018.621493)

