LINESTRING (681789.917490 7466310.548357, 681733.414691 7466282.577219)

LINESTRING (681733.414691 7466282.577219, 681789.917490 7466310.548357)

LINESTRING (681733.414691 7466282.577219, 681739.671018 7466272.135558, 681744.538796 7466264.822729, 681748.173497 7466258.211403, 681750.948712 7466252.651488)

LINESTRING (681733.414691 7466282.577219, 681657.897665 7466247.635854, 681589.598379 7466215.608683)

LINESTRING (681589.598379 7466215.608683, 681564.281925 7466276.704667, 681562.003736 7466281.793408, 681562.261655 7466286.176063, 681565.128963 7466289.973579, 681652.845541 7466335.987744)

LINESTRING (681589.598379 7466215.608683, 681657.897665 7466247.635854, 681733.414691 7466282.577219)

LINESTRING (681652.845541 7466335.987744, 681646.350902 7466339.421660, 681639.786578 7466341.328040, 681631.404137 7466341.362442, 681593.324979 7466335.197591, 681559.909343 7466325.199938, 681451.425250 7466297.908220, 681430.044784 7466290.423665)

LINESTRING (681652.845541 7466335.987744, 681714.490076 7466295.009845, 681733.414691 7466282.577219)

LINESTRING (681750.948712 7466252.651488, 681748.173497 7466258.211403, 681744.538796 7466264.822729, 681739.671018 7466272.135558, 681733.414691 7466282.577219)

LINESTRING (681388.443639 7466255.837545, 681375.322747 7466251.753417, 681348.215512 7466250.118777)

LINESTRING (681388.443639 7466255.837545, 681395.124401 7466261.915046, 681404.162314 7466269.470439, 681422.992784 7466285.901158)

LINESTRING (681348.215512 7466250.118777, 681375.322747 7466251.753417, 681388.443639 7466255.837545)

LINESTRING (681422.992784 7466285.901158, 681430.044784 7466290.423665)

LINESTRING (681422.992784 7466285.901158, 681404.162314 7466269.470439, 681395.124401 7466261.915046, 681388.443639 7466255.837545)

LINESTRING (681430.044784 7466290.423665, 681422.992784 7466285.901158)

LINESTRING (681430.044784 7466290.423665, 681451.425250 7466297.908220, 681559.909343 7466325.199938, 681593.324979 7466335.197591, 681631.404137 7466341.362442, 681639.786578 7466341.328040, 681646.350902 7466339.421660, 681652.845541 7466335.987744)

LINESTRING (681436.287999 7466416.328312, 681430.044784 7466290.423665)

LINESTRING (681436.287999 7466416.328312, 681447.436388 7466419.339667)

LINESTRING (681447.436388 7466419.339667, 681434.043839 7466468.652070)

LINESTRING (681447.436388 7466419.339667, 681436.287999 7466416.328312)

LINESTRING (681447.436388 7466419.339667, 681476.536808 7466427.141197, 681488.981989 7466430.480265, 681510.948933 7466436.373957, 681530.723382 7466441.684849, 681543.940554 7466445.225019, 681549.149242 7466446.624303, 681560.575345 7466449.687615)

LINESTRING (681730.988292 7466690.482128, 681736.234081 7466681.315217, 681740.299400 7466676.371069, 681745.577443 7466671.589524, 681751.407355 7466667.476919, 681757.418609 7466664.790823, 681764.363059 7466662.913051, 681776.284472 7466663.633396)

LINESTRING (681730.988292 7466690.482128, 681670.351378 7466666.957254, 681609.438082 7466640.057556, 681556.272042 7466616.586368)

LINESTRING (681776.284472 7466663.633396, 681779.824395 7466637.209764)

LINESTRING (681776.284472 7466663.633396, 681764.363059 7466662.913051, 681757.418609 7466664.790823, 681751.407355 7466667.476919, 681745.577443 7466671.589524, 681740.299400 7466676.371069, 681736.234081 7466681.315217, 681730.988292 7466690.482128)

LINESTRING (681556.272042 7466616.586368, 681536.042187 7466630.596009)

LINESTRING (681556.272042 7466616.586368, 681550.250427 7466614.144718, 681522.081098 7466602.743761)

LINESTRING (681556.272042 7466616.586368, 681609.438082 7466640.057556, 681670.351378 7466666.957254, 681730.988292 7466690.482128)

LINESTRING (681779.824395 7466637.209764, 681785.946360 7466568.724834, 681789.120151 7466533.201826, 681789.799242 7466516.315113, 681789.866513 7466499.745871)

LINESTRING (681536.042187 7466630.596009, 681483.949826 7466681.071424)

LINESTRING (681536.042187 7466630.596009, 681556.272042 7466616.586368)

LINESTRING (681536.042187 7466630.596009, 681525.710759 7466628.128641)

LINESTRING (681522.081098 7466602.743761, 681512.286782 7466598.863385)

LINESTRING (681522.081098 7466602.743761, 681524.855518 7466613.320388, 681526.764235 7466616.752883, 681527.186962 7466620.336146, 681526.788551 7466623.896055, 681525.710759 7466628.128641)

LINESTRING (681522.081098 7466602.743761, 681550.250427 7466614.144718, 681556.272042 7466616.586368)

LINESTRING (681789.866513 7466499.745871, 681775.505154 7466500.040612, 681771.668628 7466500.120028, 681766.881727 7466499.668202, 681758.012202 7466497.604252, 681734.688715 7466493.255604, 681718.216360 7466489.511121, 681715.015635 7466488.707934, 681711.238532 7466487.756630, 681690.078691 7466482.440487, 681678.500375 7466479.523077, 681657.669385 7466474.247234, 681652.375937 7466472.627502, 681611.313708 7466462.456134, 681601.196485 7466459.875496, 681581.136990 7466454.756399)

LINESTRING (681581.136990 7466454.756399, 681560.575345 7466449.687615)

LINESTRING (681581.136990 7466454.756399, 681601.196485 7466459.875496, 681611.313708 7466462.456134, 681652.375937 7466472.627502, 681657.669385 7466474.247234, 681678.500375 7466479.523077, 681690.078691 7466482.440487, 681711.238532 7466487.756630, 681715.015635 7466488.707934, 681718.216360 7466489.511121, 681734.688715 7466493.255604, 681758.012202 7466497.604252, 681766.881727 7466499.668202, 681771.668628 7466500.120028, 681775.505154 7466500.040612, 681789.866513 7466499.745871)

LINESTRING (681581.136990 7466454.756399, 681583.806576 7466436.140199, 681586.296277 7466419.630440, 681587.521911 7466418.308831, 681589.351770 7466416.038567, 681590.473491 7466412.049098, 681594.382302 7466342.915325)

LINESTRING (681512.286782 7466598.863385, 681522.081098 7466602.743761)

LINESTRING (681512.286782 7466598.863385, 681532.765651 7466535.588559, 681560.575345 7466449.687615)

LINESTRING (681512.286782 7466598.863385, 681503.555312 7466593.774112, 681497.846854 7466588.360541, 681494.419024 7466581.468711, 681450.177155 7466499.690064, 681434.043839 7466468.652070)

LINESTRING (681560.575345 7466449.687615, 681581.136990 7466454.756399)

LINESTRING (681560.575345 7466449.687615, 681549.149242 7466446.624303, 681543.940554 7466445.225019, 681530.723382 7466441.684849, 681510.948933 7466436.373957, 681488.981989 7466430.480265, 681476.536808 7466427.141197, 681447.436388 7466419.339667)

LINESTRING (681434.043839 7466468.652070, 681447.436388 7466419.339667)

LINESTRING (681434.043839 7466468.652070, 681418.791690 7466487.884584, 681414.509584 7466491.014925, 681409.307522 7466491.874842, 681393.995891 7466488.226817, 681344.899394 7466456.665511, 681322.619753 7466446.943341)

LINESTRING (681434.043839 7466468.652070, 681450.177155 7466499.690064, 681494.419024 7466581.468711, 681497.846854 7466588.360541, 681503.555312 7466593.774112, 681512.286782 7466598.863385)

LINESTRING (681525.710759 7466628.128641, 681536.042187 7466630.596009)

LINESTRING (681525.710759 7466628.128641, 681526.788551 7466623.896055, 681527.186962 7466620.336146, 681526.764235 7466616.752883, 681524.855518 7466613.320388, 681522.081098 7466602.743761)

LINESTRING (681525.710759 7466628.128641, 681515.540119 7466628.793597, 681402.654340 7466658.048532)

LINESTRING (681402.654340 7466658.048532, 681397.693370 7466659.337474)

LINESTRING (681402.654340 7466658.048532, 681515.540119 7466628.793597, 681525.710759 7466628.128641)

LINESTRING (681402.654340 7466658.048532, 681418.072207 7466637.219244, 681420.076701 7466632.399627, 681421.358130 7466618.639991, 681421.564885 7466595.711983, 681421.169648 7466590.998725)

LINESTRING (681322.619753 7466446.943341, 681344.899394 7466456.665511, 681393.995891 7466488.226817, 681409.307522 7466491.874842, 681414.509584 7466491.014925, 681418.791690 7466487.884584, 681434.043839 7466468.652070)

LINESTRING (681322.619753 7466446.943341, 681327.254603 7466465.493891, 681332.931045 7466480.211012, 681348.993179 7466522.424758)

LINESTRING (681397.693370 7466659.337474, 681402.654340 7466658.048532)

LINESTRING (681397.693370 7466659.337474, 681400.061058 7466677.915247)

LINESTRING (681400.061058 7466677.915247, 681306.101474 7466703.386910)

LINESTRING (681400.061058 7466677.915247, 681397.693370 7466659.337474)

LINESTRING (681348.993179 7466522.424758, 681332.931045 7466480.211012, 681327.254603 7466465.493891, 681322.619753 7466446.943341)

LINESTRING (681483.949826 7466681.071424, 681536.042187 7466630.596009)

LINESTRING (681306.101474 7466703.386910, 681400.061058 7466677.915247)

LINESTRING (681594.382302 7466342.915325, 681590.473491 7466412.049098, 681589.351770 7466416.038567, 681587.521911 7466418.308831, 681586.296277 7466419.630440, 681583.806576 7466436.140199, 681581.136990 7466454.756399)

LINESTRING (681421.169648 7466590.998725, 681421.564885 7466595.711983, 681421.358130 7466618.639991, 681420.076701 7466632.399627, 681418.072207 7466637.219244, 681402.654340 7466658.048532)

