LINESTRING (481.105235 398.190340, 461.687378 451.695754)

LINESTRING (461.687378 451.695754, 423.588743 471.392378)

LINESTRING (423.588743 471.392378, 371.618471 477.915240)

LINESTRING (371.618471 477.915240, 334.402316 447.440029)

LINESTRING (334.402316 447.440029, 316.980172 400.944457)

LINESTRING (316.980172 400.944457, 337.730009 354.049207)

LINESTRING (337.730009 354.049207, 375.838473 320.710119)

LINESTRING (375.838473 320.710119, 422.010717 322.974658)

LINESTRING (422.010717 322.974658, 464.572426 355.276988)

LINESTRING (464.572426 355.276988, 481.105235 398.190340)

LINESTRING (559.638413 396.659733, 526.988843 494.967795)

LINESTRING (526.988843 494.967795, 451.484752 552.477236)

LINESTRING (451.484752 552.477236, 347.369498 553.454227)

LINESTRING (347.369498 553.454227, 267.997282 496.066167)

LINESTRING (267.997282 496.066167, 237.869538 398.544871)

LINESTRING (237.869538 398.544871, 270.910954 302.783184)

LINESTRING (270.910954 302.783184, 350.759348 252.501683)

LINESTRING (350.759348 252.501683, 449.786627 252.426922)

LINESTRING (449.786627 252.426922, 533.081333 308.456909)

LINESTRING (533.081333 308.456909, 559.638413 396.659733)

LINESTRING (637.748805 396.087331, 597.621475 538.509136)

LINESTRING (597.621475 538.509136, 477.316009 625.430555)

LINESTRING (477.316009 625.430555, 330.709534 623.908484)

LINESTRING (330.709534 623.908484, 205.462232 541.276044)

LINESTRING (205.462232 541.276044, 155.641115 396.004124)

LINESTRING (155.641115 396.004124, 201.861767 257.118865)

LINESTRING (201.861767 257.118865, 325.793366 168.345633)

LINESTRING (325.793366 168.345633, 469.785546 176.185241)

LINESTRING (469.785546 176.185241, 589.641409 263.610094)

LINESTRING (589.641409 263.610094, 637.748805 396.087331)

LINESTRING (481.105235 398.190340, 559.638413 396.659733)

LINESTRING (559.638413 396.659733, 637.748805 396.087331)

LINESTRING (461.687378 451.695754, 526.988843 494.967795)

LINESTRING (526.988843 494.967795, 597.621475 538.509136)

LINESTRING (423.588743 471.392378, 451.484752 552.477236)

LINESTRING (451.484752 552.477236, 477.316009 625.430555)

LINESTRING (371.618471 477.915240, 347.369498 553.454227)

LINESTRING (347.369498 553.454227, 330.709534 623.908484)

LINESTRING (334.402316 447.440029, 267.997282 496.066167)

LINESTRING (267.997282 496.066167, 205.462232 541.276044)

LINESTRING (316.980172 400.944457, 237.869538 398.544871)

LINESTRING (237.869538 398.544871, 155.641115 396.004124)

LINESTRING (337.730009 354.049207, 270.910954 302.783184)

LINESTRING (270.910954 302.783184, 201.861767 257.118865)

LINESTRING (375.838473 320.710119, 350.759348 252.501683)

LINESTRING (350.759348 252.501683, 325.793366 168.345633)

LINESTRING (422.010717 322.974658, 449.786627 252.426922)

LINESTRING (449.786627 252.426922, 469.785546 176.185241)

LINESTRING (464.572426 355.276988, 533.081333 308.456909)

LINESTRING (533.081333 308.456909, 589.641409 263.610094)

LINESTRING (400.000000 400.000000, 481.105235 398.190340)

