LINESTRING (443501.959630 7375892.271882, 443500.663446 7375890.257824, 443498.692403 7375886.139033)

LINESTRING (443501.959630 7375892.271882, 443494.439623 7375895.245618, 443484.213086 7375897.114826, 443477.294390 7375898.136328, 443436.631890 7375898.985734)

LINESTRING (443498.692403 7375886.139033, 443506.850708 7375885.003194)

LINESTRING (443498.692403 7375886.139033, 443496.033954 7375879.079533, 443494.460365 7375873.492049, 443493.255456 7375867.428782, 443491.056544 7375854.729326, 443490.718413 7375845.102823, 443491.051401 7375832.797888, 443492.284847 7375814.643335, 443492.382114 7375805.632367, 443493.036050 7375763.127412, 443493.309297 7375757.736533, 443493.337625 7375742.048273)

LINESTRING (443436.631890 7375898.985734, 443445.234880 7375886.891613)

LINESTRING (443436.631890 7375898.985734, 443425.110019 7375899.320553, 443358.047211 7375896.672328)

LINESTRING (443490.553696 7376076.753247, 443411.399904 7376091.052009)

LINESTRING (443490.553696 7376076.753247, 443578.432910 7376062.056637, 443583.282081 7376060.843237)

LINESTRING (443490.553696 7376076.753247, 443436.157950 7375912.007134, 443435.648379 7375908.839824, 443435.954642 7375902.890777, 443436.631890 7375898.985734)

LINESTRING (443411.399904 7376091.052009, 443490.553696 7376076.753247)

LINESTRING (443411.399904 7376091.052009, 443434.636071 7376207.517643, 443439.005334 7376224.510146, 443441.407609 7376233.860502)

LINESTRING (443411.399904 7376091.052009, 443408.322485 7376087.245699, 443405.633036 7376083.476091, 443403.587022 7376079.392342, 443401.229955 7376069.650852, 443392.575491 7376040.057245, 443389.994668 7376034.412281, 443387.183566 7376030.355274, 443384.597593 7376024.676969, 443375.749279 7375991.262992, 443369.692079 7375970.324500, 443359.804318 7375939.652283)

LINESTRING (443411.399904 7376091.052009, 443328.652071 7376104.991478, 443323.186967 7376105.894543)

LINESTRING (443583.282081 7376060.843237, 443590.368346 7376057.789337)

LINESTRING (443583.282081 7376060.843237, 443578.432910 7376062.056637, 443490.553696 7376076.753247)

LINESTRING (443583.282081 7376060.843237, 443577.764856 7376046.248721, 443568.921471 7376028.744760, 443559.913314 7376004.007991, 443556.330423 7375995.250150, 443549.033180 7375982.442340, 443545.311029 7375974.501271, 443519.942907 7375920.984961, 443511.965372 7375907.354833, 443509.619573 7375904.068730, 443501.959630 7375892.271882)

LINESTRING (443529.418450 7376203.772889, 443539.140076 7376200.765654, 443590.253341 7376183.270805, 443591.985560 7376182.655863)

LINESTRING (443529.418450 7376203.772889, 443519.086762 7376207.639937, 443455.362617 7376229.150112, 443441.407609 7376233.860502)

LINESTRING (443529.418450 7376203.772889, 443526.549395 7376194.654943, 443490.553696 7376076.753247)

LINESTRING (443591.985560 7376182.655863, 443590.253341 7376183.270805, 443539.140076 7376200.765654, 443529.418450 7376203.772889)

LINESTRING (443591.985560 7376182.655863, 443598.293946 7376177.254018, 443608.397463 7376171.563343)

LINESTRING (443441.407609 7376233.860502, 443439.005334 7376224.510146, 443434.636071 7376207.517643, 443411.399904 7376091.052009)

LINESTRING (443441.407609 7376233.860502, 443444.668760 7376241.019182, 443500.230548 7376377.387849, 443503.499572 7376385.605657)

LINESTRING (443441.407609 7376233.860502, 443433.715603 7376236.425386, 443367.043003 7376258.644313, 443359.633355 7376261.081004)

LINESTRING (443441.407609 7376233.860502, 443455.362617 7376229.150112, 443519.086762 7376207.639937, 443529.418450 7376203.772889)

LINESTRING (443590.368346 7376057.789337, 443583.282081 7376060.843237)

LINESTRING (443590.368346 7376057.789337, 443595.067978 7376072.456215, 443613.407264 7376131.545655)

LINESTRING (443613.407264 7376131.545655, 443618.288308 7376147.268113, 443620.457381 7376152.609435, 443626.047388 7376158.962898)

LINESTRING (443613.407264 7376131.545655, 443623.999521 7376127.339191, 443639.536231 7376120.914055)

LINESTRING (443506.850708 7375885.003194, 443501.959630 7375892.271882)

LINESTRING (443506.850708 7375885.003194, 443516.757883 7375900.054716, 443523.926512 7375912.430222, 443538.264026 7375942.243260, 443552.619280 7375973.382826, 443570.441162 7376011.298019, 443583.736376 7376043.094786, 443590.368346 7376057.789337)

LINESTRING (443323.186967 7376105.894543, 443358.033388 7376252.238401, 443359.633355 7376261.081004)

LINESTRING (443323.186967 7376105.894543, 443262.053489 7375912.678690, 443258.985960 7375901.089798)

LINESTRING (443323.186967 7376105.894543, 443328.652071 7376104.991478, 443411.399904 7376091.052009)

LINESTRING (443359.633355 7376261.081004, 443360.735755 7376268.439681, 443377.591007 7376363.281746, 443381.548807 7376383.226085, 443382.892878 7376390.000057)

LINESTRING (443359.633355 7376261.081004, 443358.033388 7376252.238401, 443323.186967 7376105.894543)

LINESTRING (443359.633355 7376261.081004, 443367.043003 7376258.644313, 443433.715603 7376236.425386, 443441.407609 7376233.860502)

LINESTRING (443359.633355 7376261.081004, 443346.908062 7376265.187029, 443289.418832 7376283.719648, 443279.558799 7376286.897841)

LINESTRING (443258.985960 7375901.089798, 443256.529263 7375890.859862)

LINESTRING (443258.985960 7375901.089798, 443262.053489 7375912.678690, 443323.186967 7376105.894543)

LINESTRING (443382.892878 7376390.000057, 443386.540885 7376401.075504, 443396.341141 7376430.812990, 443399.808654 7376441.334640)

LINESTRING (443382.892878 7376390.000057, 443381.548807 7376383.226085, 443377.591007 7376363.281746, 443360.735755 7376268.439681, 443359.633355 7376261.081004)

LINESTRING (443382.892878 7376390.000057, 443371.913632 7376393.713620, 443332.014548 7376407.204161, 443325.442247 7376409.434335)

LINESTRING (443279.558799 7376286.897841, 443289.418832 7376283.719648, 443346.908062 7376265.187029, 443359.633355 7376261.081004)

LINESTRING (443279.558799 7376286.897841, 443281.339389 7376293.239172, 443322.714566 7376402.253762, 443325.442247 7376409.434335)

LINESTRING (443503.499572 7376385.605657, 443500.230548 7376377.387849, 443444.668760 7376241.019182, 443441.407609 7376233.860502)

LINESTRING (443503.499572 7376385.605657, 443506.077913 7376393.781759, 443514.604706 7376421.360168, 443515.335313 7376423.586418)

LINESTRING (443503.499572 7376385.605657, 443511.667018 7376381.269633, 443567.306409 7376350.358342, 443579.476569 7376344.123843)

LINESTRING (443503.499572 7376385.605657, 443494.151936 7376390.556637, 443405.268622 7376438.681302, 443399.808654 7376441.334640)

LINESTRING (443968.833781 7375794.839861, 443978.371152 7375798.059451, 443990.497800 7375805.408038)

LINESTRING (443968.833781 7375794.839861, 443979.679946 7375794.309078, 443996.064170 7375789.608274)

LINESTRING (443968.833781 7375794.839861, 443963.824941 7375793.903900, 443655.216883 7375736.632981, 443651.190543 7375737.182879, 443642.021282 7375739.197305, 443618.401025 7375742.452537, 443533.298993 7375740.756854)

LINESTRING (443990.497800 7375805.408038, 443978.371152 7375798.059451, 443968.833781 7375794.839861)

LINESTRING (443990.497800 7375805.408038, 443990.026308 7375803.878880, 443989.419915 7375800.735734, 443990.229799 7375796.304138, 443991.389203 7375793.091967, 443996.064170 7375789.608274)

LINESTRING (443990.497800 7375805.408038, 443999.299019 7375810.314984, 444002.275219 7375812.217377, 444013.550986 7375819.538603, 444021.610213 7375824.739304, 444042.452435 7375835.413622, 444054.212884 7375842.056271, 444061.992998 7375847.329602, 444068.937847 7375853.567482, 444075.442794 7375860.951497, 444081.428640 7375869.527835, 444087.731561 7375880.149350, 444093.807494 7375892.102255, 444102.313703 7375913.572731, 444107.169873 7375925.081905, 444111.567948 7375936.611446)

LINESTRING (443996.064170 7375789.608274, 443979.679946 7375794.309078, 443968.833781 7375794.839861)

LINESTRING (443996.064170 7375789.608274, 443991.389203 7375793.091967, 443990.229799 7375796.304138, 443989.419915 7375800.735734, 443990.026308 7375803.878880, 443990.497800 7375805.408038)

LINESTRING (443996.064170 7375789.608274, 444004.674521 7375787.026491, 444008.796003 7375786.118399, 444018.416730 7375783.973446, 444091.547567 7375771.764568)

LINESTRING (443533.298993 7375740.756854, 443520.947446 7375744.107392, 443508.983005 7375745.476616, 443502.287376 7375746.103273)

LINESTRING (443533.298993 7375740.756854, 443618.401025 7375742.452537, 443642.021282 7375739.197305, 443651.190543 7375737.182879, 443655.216883 7375736.632981, 443963.824941 7375793.903900, 443968.833781 7375794.839861)

LINESTRING (443399.808654 7376441.334640, 443405.268622 7376438.681302, 443494.151936 7376390.556637, 443503.499572 7376385.605657)

LINESTRING (443399.808654 7376441.334640, 443396.341141 7376430.812990, 443386.540885 7376401.075504, 443382.892878 7376390.000057)

LINESTRING (443399.808654 7376441.334640, 443429.799809 7376530.323451, 443431.092938 7376534.166095, 443435.432971 7376546.899975, 443436.940099 7376551.418400, 443467.090802 7376640.047530, 443468.487591 7376644.177973, 443470.702384 7376652.863177)

LINESTRING (443470.702384 7376652.863177, 443474.245494 7376661.220320)

LINESTRING (443470.702384 7376652.863177, 443484.181221 7376653.068458, 443546.274634 7376647.268377)

LINESTRING (443515.335313 7376423.586418, 443514.604706 7376421.360168, 443506.077913 7376393.781759, 443503.499572 7376385.605657)

LINESTRING (443579.476569 7376344.123843, 443567.306409 7376350.358342, 443511.667018 7376381.269633, 443503.499572 7376385.605657)

LINESTRING (443579.476569 7376344.123843, 443572.060037 7376334.819432, 443569.614801 7376329.684449, 443531.529779 7376210.865829, 443529.418450 7376203.772889)

LINESTRING (443579.476569 7376344.123843, 443587.984867 7376358.323148, 443592.403211 7376381.079286, 443598.665602 7376412.249510, 443610.558342 7376471.313645, 443611.562303 7376478.462556, 443613.601591 7376490.139556, 443640.621270 7376627.825924, 443643.610271 7376636.751995)

LINESTRING (443579.476569 7376344.123843, 443593.337131 7376340.698274, 443628.648325 7376335.254350, 443661.853137 7376330.399912, 443673.914512 7376328.226541)

LINESTRING (443643.610271 7376636.751995, 443647.025449 7376645.847822)

LINESTRING (443643.610271 7376636.751995, 443640.621270 7376627.825924, 443613.601591 7376490.139556, 443611.562303 7376478.462556, 443610.558342 7376471.313645, 443598.665602 7376412.249510, 443592.403211 7376381.079286, 443587.984867 7376358.323148, 443579.476569 7376344.123843)

LINESTRING (443643.610271 7376636.751995, 443662.021308 7376636.813519, 443693.662262 7376641.925492, 443709.017808 7376645.806699)

LINESTRING (443673.914512 7376328.226541, 443673.265030 7376324.727538, 443673.705030 7376321.184156, 443675.188131 7376317.942977, 443677.577851 7376315.296661)

LINESTRING (443673.914512 7376328.226541, 443661.853137 7376330.399912, 443628.648325 7376335.254350, 443593.337131 7376340.698274, 443579.476569 7376344.123843)

LINESTRING (443647.025449 7376645.847822, 443643.610271 7376636.751995)

LINESTRING (443647.025449 7376645.847822, 443649.151744 7376656.341207, 443655.025721 7376723.276628)

LINESTRING (443647.025449 7376645.847822, 443635.400287 7376646.641079, 443547.104134 7376655.680736)

LINESTRING (443655.025721 7376723.276628, 443649.151744 7376656.341207, 443647.025449 7376645.847822)

LINESTRING (443655.025721 7376723.276628, 443659.828052 7376768.971235, 443661.829944 7376777.504797, 443665.707892 7376785.732731, 443671.538864 7376793.062549)

LINESTRING (443655.025721 7376723.276628, 443649.637449 7376723.742681, 443526.719965 7376734.355017)

LINESTRING (443547.104134 7376655.680736, 443546.274634 7376647.268377)

LINESTRING (443547.104134 7376655.680736, 443488.495665 7376660.406452, 443484.702738 7376660.550487, 443474.245494 7376661.220320)

LINESTRING (443474.245494 7376661.220320, 443476.181141 7376672.810142, 443489.275081 7376769.847748)

LINESTRING (443474.245494 7376661.220320, 443471.049216 7376661.162690, 443464.796194 7376660.687811)

LINESTRING (443489.275081 7376769.847748, 443491.225654 7376789.398201, 443496.084385 7376810.383585, 443499.095098 7376821.237976, 443502.277192 7376831.330702, 443507.938787 7376843.881714)

LINESTRING (443464.796194 7376660.687811, 443467.228239 7376656.646721, 443470.702384 7376652.863177)

LINESTRING (443464.796194 7376660.687811, 443458.629290 7376659.196567, 443454.757182 7376657.636340, 443448.144026 7376653.678952, 443443.569201 7376646.234819)

LINESTRING (443759.807849 7376666.576050, 443755.173380 7376654.382848)

LINESTRING (443759.807849 7376666.576050, 443745.464061 7376666.721437, 443721.155106 7376661.950972, 443687.940980 7376652.098484, 443660.334706 7376647.127771, 443647.025449 7376645.847822)

LINESTRING (443759.807849 7376666.576050, 443759.980467 7376675.325093, 443753.805987 7376743.140070, 443753.316138 7376749.717176)

LINESTRING (443755.173380 7376654.382848, 443751.203701 7376646.234697, 443745.581084 7376632.054559)

LINESTRING (443755.173380 7376654.382848, 443769.446153 7376651.384619, 443852.239604 7376615.324805, 443856.072924 7376613.652947, 443868.470113 7376607.671555)

LINESTRING (443753.316138 7376749.717176, 443722.596032 7376754.631815, 443708.510200 7376759.800710, 443694.908209 7376769.520115, 443677.068614 7376788.167221, 443671.538864 7376793.062549)

LINESTRING (443753.316138 7376749.717176, 443752.549451 7376771.195926, 443752.847997 7376780.009320, 443753.194219 7376785.242685, 443753.735016 7376793.493689, 443760.593572 7376806.756843, 443770.450286 7376827.451960, 443775.502923 7376839.436026)

LINESTRING (443753.316138 7376749.717176, 443753.805987 7376743.140070, 443759.980467 7376675.325093, 443759.807849 7376666.576050)

LINESTRING (444261.628110 7376435.958114, 444258.935083 7376425.943968)

LINESTRING (444261.628110 7376435.958114, 444263.719234 7376443.698650, 444269.896196 7376466.554259, 444276.227259 7376489.997723, 444309.802091 7376610.031081)

LINESTRING (444261.628110 7376435.958114, 444193.610157 7376465.687904, 443900.438930 7376605.665740, 443877.528438 7376616.386075, 443868.986719 7376620.249150)

LINESTRING (444258.935083 7376425.943968, 444261.628110 7376435.958114)

LINESTRING (444258.935083 7376425.943968, 444322.738493 7376395.687015, 444419.748815 7376343.895111, 444427.897142 7376341.647184, 444433.025148 7376342.146735)

LINESTRING (444258.935083 7376425.943968, 444255.617318 7376412.296411, 444233.543079 7376321.557191)

LINESTRING (444309.802091 7376610.031081, 444312.664114 7376626.274552, 444319.072222 7376645.379334, 444340.980857 7376704.769580, 444356.669628 7376744.917543, 444364.177009 7376761.391383)

LINESTRING (444309.802091 7376610.031081, 444276.227259 7376489.997723, 444269.896196 7376466.554259, 444263.719234 7376443.698650, 444261.628110 7376435.958114)

LINESTRING (444309.802091 7376610.031081, 444318.229956 7376607.119379, 444322.702725 7376604.922474, 444325.343524 7376603.241713, 444326.981030 7376601.681402, 444330.809677 7376596.208261, 444355.479431 7376567.695055, 444363.270800 7376562.989992, 444370.913253 7376559.514397)

LINESTRING (443868.986719 7376620.249150, 443860.871603 7376624.081335, 443787.464706 7376658.668786, 443773.503166 7376664.291961, 443767.455171 7376665.808055, 443759.807849 7376666.576050)

LINESTRING (443507.938787 7376843.881714, 443513.364264 7376855.545557, 443520.361360 7376871.414371)

LINESTRING (443520.361360 7376871.414371, 443521.948114 7376885.118615, 443521.883288 7376891.999331, 443521.058881 7376899.163081, 443519.438795 7376904.614793, 443517.595207 7376908.264789, 443515.094345 7376912.195742, 443511.617736 7376915.187655, 443464.903824 7376942.205880, 443461.477972 7376943.970351)

LINESTRING (443461.477972 7376943.970351, 443456.955957 7376944.564109, 443452.040238 7376944.396554, 443446.077093 7376942.611310, 443438.059240 7376938.470707, 443431.740715 7376933.436997, 443424.697094 7376926.009716)

LINESTRING (444120.550045 7375770.077621, 444122.093544 7375763.156093, 444123.289077 7375757.746767, 444124.513003 7375753.306894, 444127.221377 7375749.193975, 444140.303293 7375738.963268, 444158.527122 7375725.206385, 444212.998897 7375689.236580, 444382.498411 7375573.284652, 444490.421103 7375501.297543)

LINESTRING (444120.550045 7375770.077621, 444132.541347 7375772.256091, 444214.730459 7375786.616508, 444231.476753 7375789.959898)

LINESTRING (444120.550045 7375770.077621, 444105.349769 7375770.137910, 444091.547567 7375771.764568)

LINESTRING (444490.421103 7375501.297543, 444382.498411 7375573.284652, 444212.998897 7375689.236580, 444158.527122 7375725.206385, 444140.303293 7375738.963268, 444127.221377 7375749.193975, 444124.513003 7375753.306894, 444123.289077 7375757.746767, 444122.093544 7375763.156093, 444120.550045 7375770.077621)

LINESTRING (444231.476753 7375789.959898, 444233.476110 7375784.891288, 444235.264442 7375780.841533, 444240.858765 7375774.797693, 444349.686603 7375700.344903, 444361.970030 7375691.982092)

LINESTRING (444231.476753 7375789.959898, 444350.246982 7375810.168969, 444365.749976 7375813.460002)

LINESTRING (444231.476753 7375789.959898, 444214.730459 7375786.616508, 444132.541347 7375772.256091, 444120.550045 7375770.077621)

LINESTRING (444091.547567 7375771.764568, 444090.657827 7375764.044582, 444089.081879 7375755.847811, 444087.683166 7375751.594465, 444084.434983 7375744.579747, 444070.982101 7375725.739808, 444041.703356 7375686.301627, 444038.899847 7375681.262653, 444038.385775 7375676.512084, 444039.422643 7375672.956762, 444042.677770 7375669.691280, 444046.417219 7375666.159612, 444056.986724 7375657.606939, 444092.881532 7375633.124894, 444217.154490 7375549.358644, 444243.064957 7375531.891398, 444250.920022 7375526.448936)

LINESTRING (444091.547567 7375771.764568, 444105.349769 7375770.137910, 444120.550045 7375770.077621)

LINESTRING (444091.547567 7375771.764568, 444018.416730 7375783.973446, 444008.796003 7375786.118399, 444004.674521 7375787.026491, 443996.064170 7375789.608274)

LINESTRING (444679.809810 7375766.217550, 444678.800662 7375747.941094, 444674.531049 7375718.379204, 444664.803335 7375662.177999, 444660.204058 7375627.248569, 444658.838789 7375612.781231, 444658.875805 7375599.657384, 444659.970610 7375577.949568, 444665.782819 7375537.606032)

LINESTRING (444679.809810 7375766.217550, 444682.401541 7375779.244489, 444683.957383 7375788.980603, 444682.681609 7375825.978154, 444680.934885 7375859.885483, 444678.767056 7375883.142151, 444674.805791 7375916.926318, 444673.958933 7375923.354210)

LINESTRING (444665.782819 7375537.606032, 444651.234329 7375538.263564, 444643.334242 7375539.914901, 444627.586543 7375544.509955, 444610.761592 7375548.435283)

LINESTRING (444665.782819 7375537.606032, 444677.603268 7375536.991709, 444688.238135 7375538.095766, 444696.967666 7375540.319276)

LINESTRING (444665.782819 7375537.606032, 444659.970610 7375577.949568, 444658.875805 7375599.657384, 444658.838789 7375612.781231, 444660.204058 7375627.248569, 444664.803335 7375662.177999, 444674.531049 7375718.379204, 444678.800662 7375747.941094, 444679.809810 7375766.217550)

LINESTRING (444673.958933 7375923.354210, 444672.140877 7375932.198604)

LINESTRING (444612.001867 7376116.016167, 444610.178691 7376121.906059, 444605.805987 7376136.320488, 444595.932843 7376159.251390, 444585.495744 7376182.238173, 444578.230616 7376195.773751, 444568.771998 7376212.017859, 444553.078380 7376233.403719, 444533.466488 7376259.149332, 444516.628732 7376276.700467, 444498.752844 7376293.514264, 444474.528248 7376313.766457, 444456.075333 7376327.514764, 444433.025148 7376342.146735)

LINESTRING (444612.001867 7376116.016167, 444612.337338 7376108.728768, 444615.786526 7376093.529980, 444632.249644 7376048.815290, 444646.773960 7376003.046657, 444660.474462 7375950.526688, 444664.284656 7375929.065843)

LINESTRING (444433.025148 7376342.146735, 444430.600404 7376348.416725, 444404.488992 7376363.511537, 444359.744391 7376385.959269, 444277.632499 7376427.798956, 444261.628110 7376435.958114)

LINESTRING (444433.025148 7376342.146735, 444456.075333 7376327.514764, 444474.528248 7376313.766457, 444498.752844 7376293.514264, 444516.628732 7376276.700467, 444533.466488 7376259.149332, 444553.078380 7376233.403719, 444568.771998 7376212.017859, 444578.230616 7376195.773751, 444585.495744 7376182.238173, 444595.932843 7376159.251390, 444605.805987 7376136.320488, 444610.178691 7376121.906059, 444612.001867 7376116.016167)

LINESTRING (444664.284656 7375929.065843, 444665.858210 7375920.014468)

LINESTRING (444664.284656 7375929.065843, 444650.044915 7375922.325078, 444627.738054 7375908.575853, 444589.127375 7375884.604188, 444574.929083 7375876.168227, 444553.219503 7375860.935921, 444543.683527 7375855.506724, 444537.562673 7375852.361994, 444532.372193 7375848.329040, 444527.992841 7375843.677828)

LINESTRING (443655.795806 7376808.656870, 443532.306315 7376818.745460)

LINESTRING (443655.795806 7376808.656870, 443637.241064 7376827.998881, 443622.909056 7376842.940392, 443576.532631 7376891.290455, 443573.695960 7376894.246994, 443570.788738 7376902.055110, 443571.766641 7376910.988499, 443574.050158 7376916.071011, 443575.667086 7376919.661844, 443580.460014 7376924.080167, 443586.673699 7376927.031334, 443593.945998 7376928.868349, 443652.525092 7376936.354285, 443661.916510 7376935.617512, 443667.309973 7376933.891446, 443672.862824 7376931.247882, 443680.260160 7376924.330040, 443693.579327 7376911.014908, 443733.610507 7376876.208448, 443769.781339 7376844.089744, 443772.185757 7376841.309404, 443775.502923 7376839.436026)

LINESTRING (443655.795806 7376808.656870, 443661.981400 7376802.532891, 443671.538864 7376793.062549)

LINESTRING (443532.306315 7376818.745460, 443655.795806 7376808.656870)

LINESTRING (443775.502923 7376839.436026, 443772.185757 7376841.309404, 443769.781339 7376844.089744, 443733.610507 7376876.208448, 443693.579327 7376911.014908, 443680.260160 7376924.330040, 443672.862824 7376931.247882, 443667.309973 7376933.891446, 443661.916510 7376935.617512, 443652.525092 7376936.354285, 443593.945998 7376928.868349, 443586.673699 7376927.031334, 443580.460014 7376924.080167, 443575.667086 7376919.661844, 443574.050158 7376916.071011, 443571.766641 7376910.988499, 443570.788738 7376902.055110, 443573.695960 7376894.246994, 443576.532631 7376891.290455, 443622.909056 7376842.940392, 443637.241064 7376827.998881, 443655.795806 7376808.656870)

LINESTRING (443775.502923 7376839.436026, 443770.450286 7376827.451960, 443760.593572 7376806.756843, 443753.735016 7376793.493689, 443753.194219 7376785.242685, 443752.847997 7376780.009320, 443752.549451 7376771.195926, 443753.316138 7376749.717176)

LINESTRING (443775.502923 7376839.436026, 443785.560109 7376833.100193, 443832.343029 7376799.574646, 443842.042454 7376792.476925, 443852.526854 7376784.805892)

LINESTRING (443671.538864 7376793.062549, 443665.707892 7376785.732731, 443661.829944 7376777.504797, 443659.828052 7376768.971235, 443655.025721 7376723.276628)

LINESTRING (443671.538864 7376793.062549, 443661.981400 7376802.532891, 443655.795806 7376808.656870)

LINESTRING (443671.538864 7376793.062549, 443677.068614 7376788.167221, 443694.908209 7376769.520115, 443708.510200 7376759.800710, 443722.596032 7376754.631815, 443753.316138 7376749.717176)

LINESTRING (443844.446290 7376389.299105, 443797.371012 7376252.908444)

LINESTRING (443797.371012 7376252.908444, 443844.446290 7376389.299105)

LINESTRING (443797.371012 7376252.908444, 443737.001964 7376084.676354)

LINESTRING (443797.371012 7376252.908444, 443700.985913 7376285.766202, 443691.661495 7376288.820577, 443677.541522 7376293.298978)

LINESTRING (443780.524921 7376413.938930, 443787.692538 7376422.423832, 443792.046491 7376430.419319, 443815.430687 7376485.773123, 443820.404786 7376496.275950)

LINESTRING (443780.524921 7376413.938930, 443770.464569 7376418.435101, 443767.078913 7376419.808121, 443699.598911 7376445.781768, 443686.254779 7376444.803358, 443676.068402 7376443.727564)

LINESTRING (443820.404786 7376496.275950, 443810.838226 7376500.750849, 443806.503004 7376502.477514, 443800.117423 7376505.583615, 443782.803389 7376513.593664, 443710.882813 7376546.525158, 443706.098438 7376548.261080)

LINESTRING (443820.404786 7376496.275950, 443843.909039 7376549.475649, 443862.966101 7376594.269277, 443865.350383 7376599.729074, 443868.470113 7376607.671555)

LINESTRING (443676.068402 7376443.727564, 443679.193671 7376416.113238, 443685.557150 7376347.558388, 443685.767975 7376345.223822, 443685.849041 7376336.045951)

LINESTRING (443676.068402 7376443.727564, 443686.254779 7376444.803358, 443699.598911 7376445.781768, 443767.078913 7376419.808121, 443770.464569 7376418.435101, 443780.524921 7376413.938930)

LINESTRING (443424.697094 7376926.009716, 443421.886105 7376914.047506, 443409.159086 7376877.724305, 443399.175613 7376848.748714, 443389.133117 7376823.219635, 443372.887683 7376786.566875, 443355.683196 7376751.784613, 443338.559620 7376721.427257, 443276.171892 7376618.538878)

LINESTRING (443424.697094 7376926.009716, 443439.094069 7376899.904911, 443466.784008 7376851.129834, 443471.586162 7376843.082358)

LINESTRING (443471.586162 7376843.082358, 443476.874729 7376840.789421, 443482.178353 7376839.455068, 443489.449873 7376839.050731, 443495.193704 7376839.669807, 443501.743615 7376841.197935, 443507.938787 7376843.881714)

LINESTRING (443471.586162 7376843.082358, 443476.007757 7376831.418961, 443480.266976 7376814.395841, 443481.132400 7376808.814509, 443481.811014 7376803.236978, 443482.064980 7376789.907852, 443479.727766 7376770.822408)

LINESTRING (443284.225983 7376611.751523, 443297.699953 7376625.882070, 443388.221393 7376720.805312, 443427.166179 7376757.263529, 443435.302690 7376763.709699, 443439.753163 7376767.019785, 443444.465752 7376768.997722, 443449.768014 7376770.651473, 443454.157173 7376771.387235, 443458.538846 7376771.755214, 443471.372830 7376772.006990, 443479.727766 7376770.822408)

LINESTRING (443479.727766 7376770.822408, 443489.275081 7376769.847748)

LINESTRING (443479.727766 7376770.822408, 443478.298811 7376760.950490, 443465.511727 7376679.672440, 443464.844485 7376673.341803, 443464.796194 7376660.687811)

LINESTRING (443443.569201 7376646.234819, 443409.595975 7376613.811661, 443381.757157 7376585.244379, 443377.459924 7376581.173071, 443364.933386 7376570.066721)

LINESTRING (443443.569201 7376646.234819, 443455.542651 7376648.343759, 443458.425827 7376649.634215, 443462.728143 7376651.341791, 443468.940365 7376652.653727, 443470.702384 7376652.863177)

LINESTRING (443364.933386 7376570.066721, 443377.459924 7376581.173071, 443381.757157 7376585.244379, 443409.595975 7376613.811661, 443443.569201 7376646.234819)

LINESTRING (443325.442247 7376409.434335, 443332.014548 7376407.204161, 443371.913632 7376393.713620, 443382.892878 7376390.000057)

LINESTRING (443325.442247 7376409.434335, 443322.714566 7376402.253762, 443281.339389 7376293.239172, 443279.558799 7376286.897841)

LINESTRING (443256.529263 7375890.859862, 443258.985960 7375901.089798)

LINESTRING (443256.529263 7375890.859862, 443275.794665 7375887.824174, 443284.703088 7375887.241013, 443351.320045 7375887.432466)

LINESTRING (443492.488399 7375682.091084, 443486.102179 7375684.149803)

LINESTRING (443492.488399 7375682.091084, 443494.225235 7375688.478031, 443495.576330 7375693.189209, 443497.880310 7375709.521348, 443499.433575 7375720.238128, 443499.876595 7375724.075784, 443501.432887 7375735.818280)

LINESTRING (443486.102179 7375684.149803, 443484.611001 7375679.118135)

LINESTRING (443486.102179 7375684.149803, 443482.238409 7375685.254126, 443478.050101 7375685.941363, 443473.341239 7375686.204351, 443461.251306 7375685.792367, 443433.538426 7375685.263437, 443419.560312 7375683.942326)

LINESTRING (443501.432887 7375735.818280, 443502.287376 7375746.103273)

LINESTRING (443501.432887 7375735.818280, 443523.861693 7375736.366018, 443533.298993 7375740.756854)

LINESTRING (443493.337625 7375742.048273, 443501.432887 7375735.818280)

LINESTRING (443493.337625 7375742.048273, 443492.849892 7375724.185153, 443489.070009 7375695.908198, 443486.102179 7375684.149803)

LINESTRING (443351.320045 7375887.432466, 443358.047211 7375896.672328)

LINESTRING (443351.320045 7375887.432466, 443345.717400 7375896.678297)

LINESTRING (443351.320045 7375887.432466, 443424.960803 7375886.958518, 443433.706835 7375886.925478, 443443.975244 7375886.894941, 443445.234880 7375886.891613)

LINESTRING (443359.804318 7375939.652283, 443369.692079 7375970.324500, 443375.749279 7375991.262992, 443384.597593 7376024.676969, 443387.183566 7376030.355274, 443389.994668 7376034.412281, 443392.575491 7376040.057245, 443401.229955 7376069.650852, 443403.587022 7376079.392342, 443405.633036 7376083.476091, 443408.322485 7376087.245699, 443411.399904 7376091.052009)

LINESTRING (443358.047211 7375896.672328, 443345.717400 7375896.678297)

LINESTRING (443358.047211 7375896.672328, 443351.320045 7375887.432466)

LINESTRING (443345.717400 7375896.678297, 443351.320045 7375887.432466)

LINESTRING (443345.717400 7375896.678297, 443291.701277 7375897.099577, 443277.057877 7375897.376044, 443258.985960 7375901.089798)

LINESTRING (443445.234880 7375886.891613, 443436.631890 7375898.985734)

LINESTRING (443445.234880 7375886.891613, 443478.792411 7375887.089921, 443482.903744 7375887.229324, 443498.692403 7375886.139033)

LINESTRING (443546.274634 7376647.268377, 443547.104134 7376655.680736)

LINESTRING (443546.274634 7376647.268377, 443632.633598 7376638.145346, 443643.610271 7376636.751995)

LINESTRING (443546.274634 7376647.268377, 443545.656700 7376639.632203, 443542.355542 7376616.452043, 443517.245524 7376542.314720)

LINESTRING (443709.017808 7376645.806699, 443720.451038 7376644.984189, 443727.883842 7376645.926340, 443733.746652 7376645.372786, 443737.907545 7376643.181242, 443740.156847 7376641.084153, 443744.436118 7376634.408031, 443745.581084 7376632.054559)

LINESTRING (443709.017808 7376645.806699, 443745.384878 7376655.116171, 443755.173380 7376654.382848)

LINESTRING (443745.581084 7376632.054559, 443743.056439 7376626.486204, 443723.899421 7376584.315565, 443709.982664 7376556.132159, 443706.098438 7376548.261080)

LINESTRING (443868.470113 7376607.671555, 443868.986719 7376620.249150)

LINESTRING (443868.470113 7376607.671555, 443896.373056 7376594.497760, 444188.766803 7376456.307935, 444230.561368 7376438.220363, 444244.092955 7376432.362867, 444258.935083 7376425.943968)

LINESTRING (443706.098438 7376548.261080, 443710.882813 7376546.525158, 443782.803389 7376513.593664, 443800.117423 7376505.583615, 443806.503004 7376502.477514, 443810.838226 7376500.750849, 443820.404786 7376496.275950)

LINESTRING (443706.098438 7376548.261080, 443703.663197 7376543.159235, 443687.968571 7376510.273310, 443675.180452 7376475.232407, 443674.260133 7376467.591193, 443674.654406 7376461.573496, 443676.068402 7376443.727564)

LINESTRING (444233.543079 7376321.557191, 444241.778272 7376318.983634, 444254.569681 7376314.579362, 444281.056443 7376304.013526, 444312.502313 7376291.943723, 444323.588548 7376287.941879)

LINESTRING (444233.543079 7376321.557191, 444255.617318 7376412.296411, 444258.935083 7376425.943968)

LINESTRING (444233.543079 7376321.557191, 444230.702035 7376310.386473, 444188.887151 7376159.556737)

LINESTRING (444665.858210 7375920.014468, 444673.958933 7375923.354210)

LINESTRING (444665.858210 7375920.014468, 444668.829905 7375900.476911)

LINESTRING (444527.992841 7375843.677828, 444536.048818 7375844.531700, 444541.589277 7375846.026710, 444547.971994 7375848.909784, 444549.545090 7375849.670029, 444570.232559 7375862.971502, 444579.053182 7375869.585763, 444595.099327 7375878.274806, 444646.180174 7375909.301217)

LINESTRING (444527.992841 7375843.677828, 444498.935331 7375836.330426, 444477.892801 7375832.692157, 444382.062945 7375816.300079, 444365.749976 7375813.460002)

LINESTRING (443526.719965 7376734.355017, 443649.637449 7376723.742681, 443655.025721 7376723.276628)

LINESTRING (443852.526854 7376784.805892, 443842.042454 7376792.476925, 443832.343029 7376799.574646, 443785.560109 7376833.100193, 443775.502923 7376839.436026)

LINESTRING (443487.571643 7375652.856062, 443488.839873 7375660.278308, 443489.315695 7375663.100669, 443491.552899 7375676.144989, 443492.488399 7375682.091084)

LINESTRING (443487.571643 7375652.856062, 443493.339174 7375653.207117, 443654.280569 7375672.206553, 443664.955401 7375673.082891, 443665.948752 7375666.963864, 443677.315177 7375596.724465, 443582.398575 7375582.370386, 443552.493027 7375579.576749, 443514.074866 7375574.771025, 443512.695848 7375574.821343, 443507.704187 7375574.978516, 443484.246820 7375579.959756, 443474.038959 7375581.928941)

LINESTRING (443474.038959 7375581.928941, 443484.246820 7375579.959756, 443507.704187 7375574.978516, 443512.695848 7375574.821343, 443514.074866 7375574.771025, 443552.493027 7375579.576749, 443582.398575 7375582.370386, 443677.315177 7375596.724465, 443665.948752 7375666.963864, 443664.955401 7375673.082891, 443654.280569 7375672.206553, 443493.339174 7375653.207117, 443487.571643 7375652.856062)

LINESTRING (443474.038959 7375581.928941, 443472.244776 7375568.128593, 443467.710024 7375533.177167)

LINESTRING (443474.038959 7375581.928941, 443476.073523 7375596.605231, 443480.978506 7375632.039731)

LINESTRING (443467.710024 7375533.177167, 443458.800861 7375475.769930)

LINESTRING (443467.710024 7375533.177167, 443472.244776 7375568.128593, 443474.038959 7375581.928941)

LINESTRING (443480.978506 7375632.039731, 443484.470911 7375636.751971, 443486.482026 7375643.490131, 443487.571643 7375652.856062)

LINESTRING (443480.978506 7375632.039731, 443476.073523 7375596.605231, 443474.038959 7375581.928941)

LINESTRING (443458.800861 7375475.769930, 443467.710024 7375533.177167)

LINESTRING (443517.245524 7376542.314720, 443542.355542 7376616.452043, 443545.656700 7376639.632203, 443546.274634 7376647.268377)

LINESTRING (444250.920022 7375526.448936, 444243.064957 7375531.891398, 444217.154490 7375549.358644, 444092.881532 7375633.124894, 444056.986724 7375657.606939, 444046.417219 7375666.159612, 444042.677770 7375669.691280, 444039.422643 7375672.956762, 444038.385775 7375676.512084, 444038.899847 7375681.262653, 444041.703356 7375686.301627, 444070.982101 7375725.739808, 444084.434983 7375744.579747, 444087.683166 7375751.594465, 444089.081879 7375755.847811, 444090.657827 7375764.044582, 444091.547567 7375771.764568)

LINESTRING (444604.990702 7375530.933844, 444594.768339 7375534.448981, 444427.323596 7375647.949453, 444409.704402 7375659.975393)

LINESTRING (444604.990702 7375530.933844, 444606.274809 7375534.832929, 444610.761592 7375548.435283)

LINESTRING (444409.704402 7375659.975393, 444427.323596 7375647.949453, 444594.768339 7375534.448981, 444604.990702 7375530.933844)

LINESTRING (444610.761592 7375548.435283, 444613.607202 7375562.114937, 444624.634421 7375609.069359, 444621.800669 7375616.317316, 444615.860744 7375623.393011, 444603.677710 7375632.154062, 444575.829004 7375650.704626, 444501.870845 7375699.978570, 444411.956031 7375761.670942, 444411.170027 7375762.210693, 444398.355785 7375772.289806, 444381.936037 7375784.815990, 444375.120017 7375790.549494, 444371.197312 7375795.611885, 444368.244322 7375803.531487, 444366.545777 7375809.184907, 444365.749976 7375813.460002)

LINESTRING (444610.761592 7375548.435283, 444627.586543 7375544.509955, 444643.334242 7375539.914901, 444651.234329 7375538.263564, 444665.782819 7375537.606032)

LINESTRING (444610.761592 7375548.435283, 444606.274809 7375534.832929, 444604.990702 7375530.933844)

LINESTRING (444361.970030 7375691.982092, 444349.686603 7375700.344903, 444240.858765 7375774.797693, 444235.264442 7375780.841533, 444233.476110 7375784.891288, 444231.476753 7375789.959898)

LINESTRING (444365.749976 7375813.460002, 444366.545777 7375809.184907, 444368.244322 7375803.531487, 444371.197312 7375795.611885, 444375.120017 7375790.549494, 444381.936037 7375784.815990, 444398.355785 7375772.289806, 444411.170027 7375762.210693, 444411.956031 7375761.670942, 444501.870845 7375699.978570, 444575.829004 7375650.704626, 444603.677710 7375632.154062, 444615.860744 7375623.393011, 444621.800669 7375616.317316, 444624.634421 7375609.069359, 444613.607202 7375562.114937, 444610.761592 7375548.435283)

LINESTRING (444365.749976 7375813.460002, 444364.489244 7375818.524879, 444363.779892 7375825.117374, 444364.350212 7375831.595060, 444365.770861 7375838.747008, 444367.857540 7375844.926756, 444371.869754 7375851.904198, 444390.248427 7375881.473305, 444410.298475 7375908.500428, 444448.644025 7375965.020771, 444473.730493 7376001.134991, 444500.592217 7376038.808378)

LINESTRING (444365.749976 7375813.460002, 444382.062945 7375816.300079, 444477.892801 7375832.692157, 444498.935331 7375836.330426, 444527.992841 7375843.677828)

LINESTRING (444365.749976 7375813.460002, 444350.246982 7375810.168969, 444231.476753 7375789.959898)

LINESTRING (444500.592217 7376038.808378, 444500.939060 7376043.696148, 444500.731354 7376054.024869, 444499.960371 7376061.332133, 444499.675418 7376063.110617, 444498.773177 7376068.302070, 444495.801515 7376081.975129, 444492.715990 7376095.739664, 444491.968381 7376101.095276, 444488.796916 7376123.480213, 444486.551193 7376134.496320, 444480.740783 7376162.687197, 444476.883674 7376183.714441, 444475.473545 7376193.777298, 444474.414731 7376207.166884, 444474.387457 7376211.816835, 444474.290372 7376230.126505, 444475.372955 7376251.344968, 444476.142088 7376259.546897, 444475.901273 7376264.201114, 444475.516733 7376267.230352, 444474.807432 7376270.266078, 444468.159871 7376272.127086, 444462.975505 7376273.267594, 444458.362576 7376273.828059, 444430.042132 7376275.754410, 444419.329261 7376276.180467, 444405.115418 7376276.464749, 444397.975354 7376276.618730, 444379.645304 7376277.375731, 444370.366956 7376277.873616, 444362.203717 7376278.717149, 444346.729943 7376281.647123, 444337.127884 7376284.203141, 444323.588548 7376287.941879)

LINESTRING (444500.592217 7376038.808378, 444473.730493 7376001.134991, 444448.644025 7375965.020771, 444410.298475 7375908.500428, 444390.248427 7375881.473305, 444371.869754 7375851.904198, 444367.857540 7375844.926756, 444365.770861 7375838.747008, 444364.350212 7375831.595060, 444363.779892 7375825.117374, 444364.489244 7375818.524879, 444365.749976 7375813.460002)

LINESTRING (444500.592217 7376038.808378, 444511.765587 7376030.412615, 444528.128785 7376018.891770, 444562.283122 7375995.788450, 444583.796388 7375980.017569, 444586.166772 7375978.130623)

LINESTRING (444323.588548 7376287.941879, 444337.127884 7376284.203141, 444346.729943 7376281.647123, 444362.203717 7376278.717149, 444370.366956 7376277.873616, 444379.645304 7376277.375731, 444397.975354 7376276.618730, 444405.115418 7376276.464749, 444419.329261 7376276.180467, 444430.042132 7376275.754410, 444458.362576 7376273.828059, 444462.975505 7376273.267594, 444468.159871 7376272.127086, 444474.807432 7376270.266078, 444475.516733 7376267.230352, 444475.901273 7376264.201114, 444476.142088 7376259.546897, 444475.372955 7376251.344968, 444474.290372 7376230.126505, 444474.387457 7376211.816835, 444474.414731 7376207.166884, 444475.473545 7376193.777298, 444476.883674 7376183.714441, 444480.740783 7376162.687197, 444486.551193 7376134.496320, 444488.796916 7376123.480213, 444491.968381 7376101.095276, 444492.715990 7376095.739664, 444495.801515 7376081.975129, 444498.773177 7376068.302070, 444499.675418 7376063.110617, 444499.960371 7376061.332133, 444500.731354 7376054.024869, 444500.939060 7376043.696148, 444500.592217 7376038.808378)

LINESTRING (444323.588548 7376287.941879, 444320.689436 7376278.076751, 444282.171760 7376134.750302)

LINESTRING (444323.588548 7376287.941879, 444312.502313 7376291.943723, 444281.056443 7376304.013526, 444254.569681 7376314.579362, 444241.778272 7376318.983634, 444233.543079 7376321.557191)

LINESTRING (444586.166772 7375978.130623, 444583.796388 7375980.017569, 444562.283122 7375995.788450, 444528.128785 7376018.891770, 444511.765587 7376030.412615, 444500.592217 7376038.808378)

LINESTRING (444282.171760 7376134.750302, 444320.689436 7376278.076751, 444323.588548 7376287.941879)

LINESTRING (444282.171760 7376134.750302, 444270.664627 7376098.030987, 444266.107683 7376088.522490, 444236.804540 7376052.427785, 444232.201423 7376043.511198, 444184.371105 7375916.249946, 444181.951232 7375913.667212, 444175.095170 7375911.608405, 444168.143335 7375912.316658, 444158.198797 7375916.050860, 444147.795058 7375921.076539, 444142.553382 7375923.601343, 444123.491126 7375930.785758, 444111.567948 7375936.611446)

LINESTRING (444282.171760 7376134.750302, 444236.555414 7376146.056596, 444199.408221 7376156.870268, 444188.887151 7376159.556737)

LINESTRING (444188.887151 7376159.556737, 444199.408221 7376156.870268, 444236.555414 7376146.056596, 444282.171760 7376134.750302)

LINESTRING (444188.887151 7376159.556737, 444173.957013 7376162.766637, 444158.602017 7376165.873656, 444131.510236 7376172.070971)

LINESTRING (444188.887151 7376159.556737, 444230.702035 7376310.386473, 444233.543079 7376321.557191)

LINESTRING (444188.887151 7376159.556737, 444186.685452 7376151.205238, 444181.698641 7376133.599688, 444177.509178 7376120.683298, 444163.633230 7376080.444068, 444111.567948 7375936.611446)

LINESTRING (444111.567948 7375936.611446, 444123.491126 7375930.785758, 444142.553382 7375923.601343, 444147.795058 7375921.076539, 444158.198797 7375916.050860, 444168.143335 7375912.316658, 444175.095170 7375911.608405, 444181.951232 7375913.667212, 444184.371105 7375916.249946, 444232.201423 7376043.511198, 444236.804540 7376052.427785, 444266.107683 7376088.522490, 444270.664627 7376098.030987, 444282.171760 7376134.750302)

LINESTRING (444111.567948 7375936.611446, 444163.633230 7376080.444068, 444177.509178 7376120.683298, 444181.698641 7376133.599688, 444186.685452 7376151.205238, 444188.887151 7376159.556737)

LINESTRING (444111.567948 7375936.611446, 444107.169873 7375925.081905, 444102.313703 7375913.572731, 444093.807494 7375892.102255, 444087.731561 7375880.149350, 444081.428640 7375869.527835, 444075.442794 7375860.951497, 444068.937847 7375853.567482, 444061.992998 7375847.329602, 444054.212884 7375842.056271, 444042.452435 7375835.413622, 444021.610213 7375824.739304, 444013.550986 7375819.538603, 444002.275219 7375812.217377, 443999.299019 7375810.314984, 443990.497800 7375805.408038)

LINESTRING (444131.510236 7376172.070971, 444158.602017 7376165.873656, 444173.957013 7376162.766637, 444188.887151 7376159.556737)

LINESTRING (444696.967666 7375540.319276, 444688.238135 7375538.095766, 444677.603268 7375536.991709, 444665.782819 7375537.606032)

LINESTRING (444646.180174 7375909.301217, 444650.129312 7375911.586302, 444654.602114 7375914.240054, 444665.858210 7375920.014468)

LINESTRING (444646.180174 7375909.301217, 444652.929004 7375908.453258, 444656.329661 7375908.229456, 444658.905645 7375907.721036, 444664.986521 7375904.846023, 444668.829905 7375900.476911)

LINESTRING (444672.140877 7375932.198604, 444664.284656 7375929.065843)

LINESTRING (444672.140877 7375932.198604, 444667.170426 7375958.655267)

LINESTRING (444668.829905 7375900.476911, 444673.773684 7375860.819625, 444676.089313 7375813.677508, 444677.210073 7375781.867614, 444679.809810 7375766.217550)

LINESTRING (443737.001964 7376084.676354, 443797.371012 7376252.908444)

LINESTRING (444364.177009 7376761.391383, 444369.644925 7376771.350064, 444378.674982 7376788.763478, 444389.010864 7376806.507574, 444399.691646 7376821.925674, 444411.344289 7376835.217082, 444423.974652 7376847.786551, 444433.487409 7376855.323021)

LINESTRING (444364.177009 7376761.391383, 444356.669628 7376744.917543, 444340.980857 7376704.769580, 444319.072222 7376645.379334, 444312.664114 7376626.274552, 444309.802091 7376610.031081)

LINESTRING (444364.177009 7376761.391383, 444371.882977 7376758.226695, 444375.091467 7376756.902553, 444424.454929 7376734.083796)

LINESTRING (444370.913253 7376559.514397, 444358.588192 7376424.459917)

LINESTRING (444370.913253 7376559.514397, 444363.270800 7376562.989992, 444355.479431 7376567.695055, 444330.809677 7376596.208261, 444326.981030 7376601.681402, 444325.343524 7376603.241713, 444322.702725 7376604.922474, 444318.229956 7376607.119379, 444309.802091 7376610.031081)

LINESTRING (444370.913253 7376559.514397, 444375.347785 7376581.635770, 444380.781195 7376605.197763, 444386.086836 7376628.383234, 444392.588635 7376649.749681, 444424.454929 7376734.083796)

LINESTRING (444358.588192 7376424.459917, 444370.913253 7376559.514397)

LINESTRING (444424.454929 7376734.083796, 444438.247305 7376764.023575, 444454.097709 7376788.302846, 444482.641675 7376826.555529)

LINESTRING (444424.454929 7376734.083796, 444392.588635 7376649.749681, 444386.086836 7376628.383234, 444380.781195 7376605.197763, 444375.347785 7376581.635770, 444370.913253 7376559.514397)

LINESTRING (444424.454929 7376734.083796, 444375.091467 7376756.902553, 444371.882977 7376758.226695, 444364.177009 7376761.391383)

LINESTRING (444482.641675 7376826.555529, 444454.097709 7376788.302846, 444438.247305 7376764.023575, 444424.454929 7376734.083796)

LINESTRING (444433.487409 7376855.323021, 444423.974652 7376847.786551, 444411.344289 7376835.217082, 444399.691646 7376821.925674, 444389.010864 7376806.507574, 444378.674982 7376788.763478, 444369.644925 7376771.350064, 444364.177009 7376761.391383)

LINESTRING (444433.487409 7376855.323021, 444425.893751 7376863.647594, 444422.684567 7376866.934035, 444413.879664 7376876.319788, 444396.370831 7376892.123549, 444370.462721 7376913.324770, 444362.062888 7376922.702585)

LINESTRING (444362.062888 7376922.702585, 444355.062450 7376927.079647, 444343.211950 7376936.560078, 444338.523976 7376941.314551)

LINESTRING (444362.062888 7376922.702585, 444370.462721 7376913.324770, 444396.370831 7376892.123549, 444413.879664 7376876.319788, 444422.684567 7376866.934035, 444425.893751 7376863.647594, 444433.487409 7376855.323021)

LINESTRING (444338.523976 7376941.314551, 444343.211950 7376936.560078, 444355.062450 7376927.079647, 444362.062888 7376922.702585)

LINESTRING (443677.541522 7376293.298978, 443691.661495 7376288.820577, 443700.985913 7376285.766202, 443797.371012 7376252.908444)

LINESTRING (443677.541522 7376293.298978, 443680.745994 7376302.086928, 443686.583799 7376312.783876)

LINESTRING (443686.583799 7376312.783876, 443690.089955 7376313.838960, 443693.096382 7376315.929948, 443695.305172 7376318.851028, 443696.510038 7376322.305334, 443696.584094 7376325.960945, 443695.524569 7376329.461125)

LINESTRING (443677.577851 7376315.296661, 443673.437400 7376304.464983, 443630.212021 7376198.839078, 443627.873487 7376193.478886, 443624.494955 7376187.972544, 443621.294423 7376184.001258)

LINESTRING (443677.577851 7376315.296661, 443679.585169 7376313.984914, 443681.819284 7376313.103412, 443684.187676 7376312.698630, 443686.583799 7376312.783876)

LINESTRING (443621.294423 7376184.001258, 443617.206623 7376183.024954, 443612.723184 7376180.317323)

LINESTRING (443695.524569 7376329.461125, 443706.364611 7376340.157126, 443756.795077 7376390.168408, 443769.224536 7376403.118171, 443771.896343 7376406.275234, 443780.524921 7376413.938930)

LINESTRING (443695.524569 7376329.461125, 443693.849504 7376332.014899, 443691.567480 7376334.045784, 443688.840613 7376335.427850, 443685.849041 7376336.045951)

LINESTRING (443608.397463 7376171.563343, 443608.661783 7376169.015840, 443610.132762 7376165.395782, 443611.810951 7376162.774997)

LINESTRING (443639.536231 7376120.914055, 443623.999521 7376127.339191, 443613.407264 7376131.545655)

LINESTRING (444667.170426 7375958.655267, 444659.251297 7375986.118365, 444650.061735 7376016.383047, 444636.976696 7376057.763489, 444628.298548 7376084.182595, 444621.585418 7376106.459515, 444612.001867 7376116.016167)

LINESTRING (444703.394509 7375944.632923, 444679.877600 7375935.590206, 444677.328870 7375934.559415, 444672.140877 7375932.198604)

LINESTRING (444703.394509 7375944.632923, 444692.100896 7375943.898740, 444683.575123 7375944.246783, 444678.746241 7375945.167954, 444675.838067 7375947.098971, 444672.780084 7375950.671968, 444670.982850 7375953.628944, 444667.170426 7375958.655267)

LINESTRING (443484.611001 7375679.118135, 443492.488399 7375682.091084)

LINESTRING (443484.611001 7375679.118135, 443482.188469 7375663.747293, 443480.523273 7375653.222342, 443478.892410 7375641.102281, 443480.978506 7375632.039731)

LINESTRING (443419.560312 7375683.942326, 443430.376381 7375681.692961, 443468.779135 7375677.265825, 443472.315011 7375676.892884, 443484.611001 7375679.118135)

LINESTRING (443502.287376 7375746.103273, 443493.337625 7375742.048273)

LINESTRING (443502.287376 7375746.103273, 443502.801323 7375758.469039, 443500.901790 7375815.694661, 443500.187892 7375830.504876, 443498.818071 7375843.265722, 443498.772756 7375849.577397, 443499.055813 7375856.495633, 443499.973165 7375862.865789, 443500.609890 7375865.941326, 443501.300153 7375868.803930, 443503.214006 7375874.707845, 443504.209398 7375877.909890, 443506.850708 7375885.003194)

LINESTRING (443405.865350 7376968.773482, 443424.697094 7376926.009716)

LINESTRING (443685.849041 7376336.045951, 443682.045955 7376335.710473, 443678.552128 7376334.164561, 443675.744860 7376331.578965, 443673.914512 7376328.226541)

LINESTRING (443612.723184 7376180.317323, 443600.903326 7376183.456071, 443591.985560 7376182.655863)

LINESTRING (443612.723184 7376180.317323, 443609.767618 7376176.575225, 443608.795883 7376174.309244, 443608.397463 7376171.563343)

LINESTRING (443611.810951 7376162.774997, 443612.714765 7376155.988772, 443611.304806 7376149.673177, 443587.897066 7376074.407998, 443583.282081 7376060.843237)

LINESTRING (443611.810951 7376162.774997, 443615.276271 7376160.051060, 443619.562978 7376158.982926, 443622.649361 7376158.641579, 443626.047388 7376158.962898)

LINESTRING (443626.047388 7376158.962898, 443630.532203 7376161.737421, 443633.629670 7376165.454364, 443634.820896 7376171.740955, 443634.141729 7376175.121948, 443632.066574 7376178.798845)

LINESTRING (443632.066574 7376178.798845, 443629.659132 7376181.233712, 443627.463146 7376182.683116, 443624.763386 7376183.652152, 443621.294423 7376184.001258)

LINESTRING (443632.066574 7376178.798845, 443631.949086 7376183.539864, 443633.921929 7376191.717208, 443677.541522 7376293.298978)

