LINESTRING (60.000000 60.000000, 83.627420 47.169628)

LINESTRING (60.000000 60.000000, 72.675115 56.852597)

LINESTRING (60.000000 60.000000, 61.385652 76.772492)

LINESTRING (60.000000 60.000000, 74.959896 37.431526)

LINESTRING (60.000000 60.000000, 84.079425 26.252738)

LINESTRING (60.000000 60.000000, 58.439505 95.937264)

LINESTRING (60.000000 60.000000, 83.487275 43.979144)

LINESTRING (60.000000 60.000000, 92.533989 26.663667)

LINESTRING (83.627420 47.169628, 72.675115 56.852597)

LINESTRING (83.627420 47.169628, 74.959896 37.431526)

LINESTRING (83.627420 47.169628, 58.439505 95.937264)

LINESTRING (83.627420 47.169628, 92.533989 26.663667)

LINESTRING (72.675115 56.852597, 61.385652 76.772492)

LINESTRING (72.675115 56.852597, 84.079425 26.252738)

LINESTRING (72.675115 56.852597, 58.439505 95.937264)

LINESTRING (72.675115 56.852597, 83.487275 43.979144)

LINESTRING (72.675115 56.852597, 92.533989 26.663667)

LINESTRING (61.385652 76.772492, 84.079425 26.252738)

LINESTRING (61.385652 76.772492, 58.439505 95.937264)

LINESTRING (61.385652 76.772492, 83.487275 43.979144)

LINESTRING (61.385652 76.772492, 92.533989 26.663667)

LINESTRING (74.959896 37.431526, 84.079425 26.252738)

LINESTRING (74.959896 37.431526, 58.439505 95.937264)

LINESTRING (74.959896 37.431526, 83.487275 43.979144)

LINESTRING (74.959896 37.431526, 92.533989 26.663667)

LINESTRING (84.079425 26.252738, 83.487275 43.979144)

LINESTRING (58.439505 95.937264, 83.487275 43.979144)

LINESTRING (58.439505 95.937264, 92.533989 26.663667)

LINESTRING (83.487275 43.979144, 92.533989 26.663667)

LINESTRING (360.000000 60.000000, 360.148357 58.490680)

LINESTRING (360.000000 60.000000, 336.958235 65.837781)

LINESTRING (360.000000 60.000000, 357.190783 72.227265)

LINESTRING (360.000000 60.000000, 363.665258 65.355458)

LINESTRING (360.000000 60.000000, 357.585891 31.983154)

LINESTRING (360.000000 60.000000, 387.615171 37.778093)

LINESTRING (360.000000 60.000000, 344.776459 28.460972)

LINESTRING (360.000000 60.000000, 370.943353 50.361823)

LINESTRING (360.148357 58.490680, 336.958235 65.837781)

LINESTRING (360.148357 58.490680, 357.190783 72.227265)

LINESTRING (360.148357 58.490680, 363.665258 65.355458)

LINESTRING (360.148357 58.490680, 357.585891 31.983154)

LINESTRING (360.148357 58.490680, 387.615171 37.778093)

LINESTRING (360.148357 58.490680, 344.776459 28.460972)

LINESTRING (336.958235 65.837781, 357.585891 31.983154)

LINESTRING (336.958235 65.837781, 387.615171 37.778093)

LINESTRING (336.958235 65.837781, 344.776459 28.460972)

LINESTRING (357.190783 72.227265, 363.665258 65.355458)

LINESTRING (357.190783 72.227265, 387.615171 37.778093)

LINESTRING (357.190783 72.227265, 370.943353 50.361823)

LINESTRING (363.665258 65.355458, 357.585891 31.983154)

LINESTRING (363.665258 65.355458, 387.615171 37.778093)

LINESTRING (363.665258 65.355458, 344.776459 28.460972)

LINESTRING (357.585891 31.983154, 344.776459 28.460972)

LINESTRING (387.615171 37.778093, 344.776459 28.460972)

LINESTRING (387.615171 37.778093, 370.943353 50.361823)

LINESTRING (344.776459 28.460972, 370.943353 50.361823)

LINESTRING (660.000000 60.000000, 645.193839 31.136999)

LINESTRING (660.000000 60.000000, 682.378014 91.948885)

LINESTRING (660.000000 60.000000, 631.146477 84.982758)

LINESTRING (660.000000 60.000000, 673.953485 54.947616)

LINESTRING (660.000000 60.000000, 675.074255 62.661660)

LINESTRING (660.000000 60.000000, 631.118662 74.115663)

LINESTRING (660.000000 60.000000, 635.739241 55.731967)

LINESTRING (660.000000 60.000000, 683.166406 49.365088)

LINESTRING (645.193839 31.136999, 682.378014 91.948885)

LINESTRING (645.193839 31.136999, 673.953485 54.947616)

LINESTRING (645.193839 31.136999, 675.074255 62.661660)

LINESTRING (645.193839 31.136999, 631.118662 74.115663)

LINESTRING (645.193839 31.136999, 635.739241 55.731967)

LINESTRING (645.193839 31.136999, 683.166406 49.365088)

LINESTRING (682.378014 91.948885, 673.953485 54.947616)

LINESTRING (682.378014 91.948885, 675.074255 62.661660)

LINESTRING (682.378014 91.948885, 631.118662 74.115663)

LINESTRING (631.146477 84.982758, 673.953485 54.947616)

LINESTRING (631.146477 84.982758, 675.074255 62.661660)

LINESTRING (631.146477 84.982758, 631.118662 74.115663)

LINESTRING (631.146477 84.982758, 635.739241 55.731967)

LINESTRING (673.953485 54.947616, 675.074255 62.661660)

LINESTRING (673.953485 54.947616, 635.739241 55.731967)

LINESTRING (673.953485 54.947616, 683.166406 49.365088)

LINESTRING (675.074255 62.661660, 635.739241 55.731967)

LINESTRING (675.074255 62.661660, 683.166406 49.365088)

LINESTRING (631.118662 74.115663, 635.739241 55.731967)

LINESTRING (631.118662 74.115663, 683.166406 49.365088)

LINESTRING (635.739241 55.731967, 683.166406 49.365088)

LINESTRING (60.000000 360.000000, 53.997104 359.679307)

LINESTRING (60.000000 360.000000, 69.342170 368.560741)

LINESTRING (60.000000 360.000000, 59.120852 334.106794)

LINESTRING (60.000000 360.000000, 78.681827 360.748469)

LINESTRING (60.000000 360.000000, 70.258648 375.871372)

LINESTRING (60.000000 360.000000, 32.294045 346.393036)

LINESTRING (60.000000 360.000000, 71.441507 348.481597)

LINESTRING (60.000000 360.000000, 28.987662 356.811313)

LINESTRING (53.997104 359.679307, 78.681827 360.748469)

LINESTRING (53.997104 359.679307, 32.294045 346.393036)

LINESTRING (53.997104 359.679307, 71.441507 348.481597)

LINESTRING (53.997104 359.679307, 28.987662 356.811313)

LINESTRING (69.342170 368.560741, 59.120852 334.106794)

LINESTRING (69.342170 368.560741, 70.258648 375.871372)

LINESTRING (69.342170 368.560741, 32.294045 346.393036)

LINESTRING (69.342170 368.560741, 71.441507 348.481597)

LINESTRING (69.342170 368.560741, 28.987662 356.811313)

LINESTRING (59.120852 334.106794, 78.681827 360.748469)

LINESTRING (59.120852 334.106794, 70.258648 375.871372)

LINESTRING (59.120852 334.106794, 32.294045 346.393036)

LINESTRING (59.120852 334.106794, 71.441507 348.481597)

LINESTRING (59.120852 334.106794, 28.987662 356.811313)

LINESTRING (78.681827 360.748469, 70.258648 375.871372)

LINESTRING (78.681827 360.748469, 32.294045 346.393036)

LINESTRING (78.681827 360.748469, 28.987662 356.811313)

LINESTRING (70.258648 375.871372, 32.294045 346.393036)

LINESTRING (70.258648 375.871372, 71.441507 348.481597)

LINESTRING (70.258648 375.871372, 28.987662 356.811313)

LINESTRING (32.294045 346.393036, 71.441507 348.481597)

LINESTRING (32.294045 346.393036, 28.987662 356.811313)

LINESTRING (360.000000 360.000000, 340.064663 353.168480)

LINESTRING (360.000000 360.000000, 372.656373 325.406886)

LINESTRING (360.000000 360.000000, 356.356815 353.352095)

LINESTRING (360.000000 360.000000, 324.776314 337.399588)

LINESTRING (360.000000 360.000000, 383.416125 367.805558)

LINESTRING (360.000000 360.000000, 364.276157 360.761522)

LINESTRING (360.000000 360.000000, 350.053892 376.672705)

LINESTRING (360.000000 360.000000, 330.662572 327.741818)

LINESTRING (340.064663 353.168480, 372.656373 325.406886)

LINESTRING (340.064663 353.168480, 356.356815 353.352095)

LINESTRING (340.064663 353.168480, 383.416125 367.805558)

LINESTRING (340.064663 353.168480, 350.053892 376.672705)

LINESTRING (372.656373 325.406886, 356.356815 353.352095)

LINESTRING (372.656373 325.406886, 383.416125 367.805558)

LINESTRING (372.656373 325.406886, 330.662572 327.741818)

LINESTRING (356.356815 353.352095, 383.416125 367.805558)

LINESTRING (356.356815 353.352095, 364.276157 360.761522)

LINESTRING (356.356815 353.352095, 350.053892 376.672705)

LINESTRING (324.776314 337.399588, 383.416125 367.805558)

LINESTRING (324.776314 337.399588, 364.276157 360.761522)

LINESTRING (324.776314 337.399588, 350.053892 376.672705)

LINESTRING (383.416125 367.805558, 350.053892 376.672705)

LINESTRING (383.416125 367.805558, 330.662572 327.741818)

LINESTRING (364.276157 360.761522, 350.053892 376.672705)

LINESTRING (364.276157 360.761522, 330.662572 327.741818)

LINESTRING (350.053892 376.672705, 330.662572 327.741818)

LINESTRING (660.000000 360.000000, 688.786607 381.251662)

LINESTRING (660.000000 360.000000, 654.745958 337.200937)

LINESTRING (660.000000 360.000000, 675.986153 391.088067)

LINESTRING (660.000000 360.000000, 654.751677 359.467457)

LINESTRING (660.000000 360.000000, 651.298736 330.970968)

LINESTRING (660.000000 360.000000, 657.405217 339.791830)

LINESTRING (660.000000 360.000000, 625.073306 385.287509)

LINESTRING (660.000000 360.000000, 645.871476 325.770857)

LINESTRING (688.786607 381.251662, 654.745958 337.200937)

LINESTRING (688.786607 381.251662, 675.986153 391.088067)

LINESTRING (688.786607 381.251662, 654.751677 359.467457)

LINESTRING (688.786607 381.251662, 657.405217 339.791830)

LINESTRING (688.786607 381.251662, 625.073306 385.287509)

LINESTRING (654.745958 337.200937, 675.986153 391.088067)

LINESTRING (654.745958 337.200937, 654.751677 359.467457)

LINESTRING (654.745958 337.200937, 651.298736 330.970968)

LINESTRING (654.745958 337.200937, 645.871476 325.770857)

LINESTRING (675.986153 391.088067, 654.751677 359.467457)

LINESTRING (675.986153 391.088067, 651.298736 330.970968)

LINESTRING (675.986153 391.088067, 657.405217 339.791830)

LINESTRING (675.986153 391.088067, 645.871476 325.770857)

LINESTRING (654.751677 359.467457, 651.298736 330.970968)

LINESTRING (654.751677 359.467457, 625.073306 385.287509)

LINESTRING (654.751677 359.467457, 645.871476 325.770857)

LINESTRING (651.298736 330.970968, 625.073306 385.287509)

LINESTRING (651.298736 330.970968, 645.871476 325.770857)

LINESTRING (625.073306 385.287509, 645.871476 325.770857)

LINESTRING (84.079425 26.252738, 370.943353 50.361823)

LINESTRING (61.385652 76.772492, 357.585891 31.983154)

LINESTRING (60.000000 60.000000, 360.000000 60.000000)

LINESTRING (387.615171 37.778093, 673.953485 54.947616)

LINESTRING (357.585891 31.983154, 675.074255 62.661660)

LINESTRING (360.000000 60.000000, 660.000000 60.000000)

LINESTRING (683.166406 49.365088, 28.987662 356.811313)

LINESTRING (673.953485 54.947616, 59.120852 334.106794)

LINESTRING (660.000000 60.000000, 60.000000 360.000000)

LINESTRING (70.258648 375.871372, 340.064663 353.168480)

LINESTRING (70.258648 375.871372, 340.064663 353.168480)

LINESTRING (60.000000 360.000000, 360.000000 360.000000)

LINESTRING (372.656373 325.406886, 645.871476 325.770857)

LINESTRING (330.662572 327.741818, 645.871476 325.770857)

LINESTRING (360.000000 360.000000, 660.000000 360.000000)

