LINESTRING (211.849339 3217.282694, 580.038028 3577.928885)

LINESTRING (1138.297180 786.662470, 1387.005710 1207.916503)

LINESTRING (1138.297180 786.662470, 925.395130 1338.277326)

LINESTRING (1138.297180 786.662470, 2302.686841 2484.126289)

LINESTRING (1138.297180 786.662470, 1307.615550 1882.384517)

LINESTRING (1138.297180 786.662470, 2430.810175 890.961539)

LINESTRING (1138.297180 786.662470, 2485.655602 1381.103082)

LINESTRING (4548.536912 8303.455187, 2607.479797 9367.272734)

LINESTRING (4548.536912 8303.455187, 4465.449195 8198.002608)

LINESTRING (4548.536912 8303.455187, 5313.629222 6941.335936)

LINESTRING (4548.536912 8303.455187, 3463.857915 8759.386322)

LINESTRING (4520.085557 2531.190089, 5372.658166 815.744290)

LINESTRING (4520.085557 2531.190089, 2562.478385 3081.540847)

LINESTRING (4520.085557 2531.190089, 3989.359768 2252.622088)

LINESTRING (4520.085557 2531.190089, 6351.187223 3816.505212)

LINESTRING (4520.085557 2531.190089, 4964.714023 3118.026917)

LINESTRING (6557.133821 9186.243722, 7670.412798 7481.008437)

LINESTRING (6557.133821 9186.243722, 7547.230718 7570.115443)

LINESTRING (1387.005710 1207.916503, 925.395130 1338.277326)

LINESTRING (1387.005710 1207.916503, 2446.138490 2188.525965)

LINESTRING (1387.005710 1207.916503, 1307.615550 1882.384517)

LINESTRING (1387.005710 1207.916503, 1160.611176 3470.448741)

LINESTRING (2607.479797 9367.272734, 4465.449195 8198.002608)

LINESTRING (2607.479797 9367.272734, 1990.130727 9381.263627)

LINESTRING (2607.479797 9367.272734, 1892.762598 9266.897124)

LINESTRING (2607.479797 9367.272734, 3463.857915 8759.386322)

LINESTRING (2607.479797 9367.272734, 957.774513 8836.696065)

LINESTRING (7794.831049 8212.963065, 7408.959248 9014.829429)

LINESTRING (7794.831049 8212.963065, 7670.412798 7481.008437)

LINESTRING (7794.831049 8212.963065, 7547.230718 7570.115443)

LINESTRING (5372.658166 815.744290, 5933.196725 1690.141855)

LINESTRING (5372.658166 815.744290, 6103.096566 593.623720)

LINESTRING (1118.392943 2016.091520, 925.395130 1338.277326)

LINESTRING (1118.392943 2016.091520, 2302.686841 2484.126289)

LINESTRING (1118.392943 2016.091520, 1307.615550 1882.384517)

LINESTRING (1118.392943 2016.091520, 2430.810175 890.961539)

LINESTRING (1118.392943 2016.091520, 172.919684 196.432060)

LINESTRING (1118.392943 2016.091520, 2485.655602 1381.103082)

LINESTRING (1118.392943 2016.091520, 2299.512421 2894.392749)

LINESTRING (1118.392943 2016.091520, 1160.611176 3470.448741)

LINESTRING (3420.204230 3542.828745, 2562.478385 3081.540847)

LINESTRING (3420.204230 3542.828745, 3989.359768 2252.622088)

LINESTRING (3420.204230 3542.828745, 2485.655602 1381.103082)

LINESTRING (3420.204230 3542.828745, 3073.363540 3716.552358)

LINESTRING (3420.204230 3542.828745, 2299.512421 2894.392749)

LINESTRING (3420.204230 3542.828745, 2223.043597 5193.968569)

LINESTRING (3420.204230 3542.828745, 4964.714023 3118.026917)

LINESTRING (925.395130 1338.277326, 2446.138490 2188.525965)

LINESTRING (925.395130 1338.277326, 580.038028 3577.928885)

LINESTRING (925.395130 1338.277326, 1307.615550 1882.384517)

LINESTRING (925.395130 1338.277326, 2430.810175 890.961539)

LINESTRING (925.395130 1338.277326, 172.919684 196.432060)

LINESTRING (925.395130 1338.277326, 1160.611176 3470.448741)

LINESTRING (1990.130727 9381.263627, 1892.762598 9266.897124)

LINESTRING (1990.130727 9381.263627, 3463.857915 8759.386322)

LINESTRING (7469.490147 1376.795481, 8325.622682 2191.167482)

LINESTRING (7469.490147 1376.795481, 7040.857457 3001.428179)

LINESTRING (7469.490147 1376.795481, 5933.196725 1690.141855)

LINESTRING (7469.490147 1376.795481, 6813.996102 2342.720881)

LINESTRING (7469.490147 1376.795481, 6103.096566 593.623720)

LINESTRING (7469.490147 1376.795481, 7692.579557 1626.558219)

LINESTRING (7469.490147 1376.795481, 8715.671038 3149.769041)

LINESTRING (4607.640676 185.577844, 6103.096566 593.623720)

LINESTRING (9260.321466 8476.467611, 7408.959248 9014.829429)

LINESTRING (9260.321466 8476.467611, 9389.639512 7955.986649)

LINESTRING (8325.622682 2191.167482, 7040.857457 3001.428179)

LINESTRING (8325.622682 2191.167482, 8637.912711 414.024861)

LINESTRING (8325.622682 2191.167482, 6813.996102 2342.720881)

LINESTRING (1892.762598 9266.897124, 957.774513 8836.696065)

LINESTRING (2446.138490 2188.525965, 2302.686841 2484.126289)

LINESTRING (2446.138490 2188.525965, 2562.478385 3081.540847)

LINESTRING (2446.138490 2188.525965, 1307.615550 1882.384517)

LINESTRING (2446.138490 2188.525965, 2299.512421 2894.392749)

LINESTRING (2446.138490 2188.525965, 1160.611176 3470.448741)

LINESTRING (2302.686841 2484.126289, 2562.478385 3081.540847)

LINESTRING (2302.686841 2484.126289, 1307.615550 1882.384517)

LINESTRING (2302.686841 2484.126289, 2485.655602 1381.103082)

LINESTRING (2302.686841 2484.126289, 3073.363540 3716.552358)

LINESTRING (2302.686841 2484.126289, 2299.512421 2894.392749)

LINESTRING (2302.686841 2484.126289, 1160.611176 3470.448741)

LINESTRING (7040.857457 3001.428179, 7118.318188 4066.836539)

LINESTRING (7040.857457 3001.428179, 5933.196725 1690.141855)

LINESTRING (7040.857457 3001.428179, 6813.996102 2342.720881)

LINESTRING (7040.857457 3001.428179, 4964.714023 3118.026917)

LINESTRING (694.043342 4657.092246, 580.038028 3577.928885)

LINESTRING (694.043342 4657.092246, 2223.043597 5193.968569)

LINESTRING (694.043342 4657.092246, 1160.611176 3470.448741)

LINESTRING (861.871883 5472.739714, 852.246452 6078.361110)

LINESTRING (861.871883 5472.739714, 1160.611176 3470.448741)

LINESTRING (580.038028 3577.928885, 1160.611176 3470.448741)

LINESTRING (7118.318188 4066.836539, 6813.996102 2342.720881)

LINESTRING (7118.318188 4066.836539, 7029.018607 5368.704910)

LINESTRING (7118.318188 4066.836539, 6351.187223 3816.505212)

LINESTRING (7118.318188 4066.836539, 4964.714023 3118.026917)

LINESTRING (3506.972394 6713.215890, 5313.629222 6941.335936)

LINESTRING (3506.972394 6713.215890, 3463.857915 8759.386322)

LINESTRING (6482.997502 5916.713761, 6856.677866 5587.758284)

LINESTRING (6482.997502 5916.713761, 5313.629222 6941.335936)

LINESTRING (6482.997502 5916.713761, 7029.018607 5368.704910)

LINESTRING (2562.478385 3081.540847, 1307.615550 1882.384517)

LINESTRING (2562.478385 3081.540847, 2430.810175 890.961539)

LINESTRING (2562.478385 3081.540847, 3989.359768 2252.622088)

LINESTRING (2562.478385 3081.540847, 2299.512421 2894.392749)

LINESTRING (5933.196725 1690.141855, 6813.996102 2342.720881)

LINESTRING (5933.196725 1690.141855, 7692.579557 1626.558219)

LINESTRING (5933.196725 1690.141855, 3989.359768 2252.622088)

LINESTRING (6813.996102 2342.720881, 6103.096566 593.623720)

LINESTRING (6813.996102 2342.720881, 7692.579557 1626.558219)

LINESTRING (1307.615550 1882.384517, 172.919684 196.432060)

LINESTRING (1307.615550 1882.384517, 2299.512421 2894.392749)

LINESTRING (6103.096566 593.623720, 7692.579557 1626.558219)

LINESTRING (6856.677866 5587.758284, 7029.018607 5368.704910)

LINESTRING (6856.677866 5587.758284, 6351.187223 3816.505212)

LINESTRING (6856.677866 5587.758284, 8061.182047 5760.265255)

LINESTRING (6856.677866 5587.758284, 7547.230718 7570.115443)

LINESTRING (7408.959248 9014.829429, 9389.639512 7955.986649)

LINESTRING (7408.959248 9014.829429, 8137.652906 9015.423700)

LINESTRING (7408.959248 9014.829429, 7670.412798 7481.008437)

LINESTRING (5313.629222 6941.335936, 5459.487805 6220.965251)

LINESTRING (2430.810175 890.961539, 3989.359768 2252.622088)

LINESTRING (2430.810175 890.961539, 2485.655602 1381.103082)

LINESTRING (7692.579557 1626.558219, 8715.671038 3149.769041)

LINESTRING (3989.359768 2252.622088, 4964.714023 3118.026917)

LINESTRING (7029.018607 5368.704910, 6351.187223 3816.505212)

LINESTRING (7029.018607 5368.704910, 8061.182047 5760.265255)

LINESTRING (7029.018607 5368.704910, 7670.412798 7481.008437)

LINESTRING (7029.018607 5368.704910, 5459.487805 6220.965251)

LINESTRING (2485.655602 1381.103082, 3487.535408 382.796402)

LINESTRING (852.246452 6078.361110, 2223.043597 5193.968569)

LINESTRING (9389.639512 7955.986649, 7670.412798 7481.008437)

LINESTRING (3073.363540 3716.552358, 2223.043597 5193.968569)

LINESTRING (3073.363540 3716.552358, 4964.714023 3118.026917)

LINESTRING (2223.043597 5193.968569, 1160.611176 3470.448741)

LINESTRING (7670.412798 7481.008437, 7547.230718 7570.115443)

