LINESTRING (327644.584771 6820190.033203, 327642.809572 6820187.488334, 327642.251887 6820184.425539, 327643.019757 6820181.408460, 327644.964631 6820178.991173)

LINESTRING (327644.964631 6820178.991173, 327647.281604 6820177.726891, 327649.893530 6820177.351678, 327652.545264 6820177.777796)

LINESTRING (327644.964631 6820178.991173, 327645.464289 6820168.534516, 327640.257598 6820136.872890, 327640.421931 6820134.488276, 327640.894954 6820127.469311, 327643.937261 6820082.589594, 327650.510281 6820002.546028, 327650.635981 6819966.190160, 327652.775991 6819949.114006, 327654.172681 6819942.640490, 327654.816139 6819939.372988, 327655.674817 6819928.084045, 327657.870454 6819908.796043, 327657.556254 6819898.602965, 327657.138053 6819889.753897, 327657.207994 6819867.849169)

LINESTRING (327454.485462 6819799.903124, 327447.515065 6819820.700671)

LINESTRING (327454.485462 6819799.903124, 327500.003906 6819811.575048, 327505.636447 6819813.559913, 327516.979893 6819816.744780)

LINESTRING (327454.485462 6819799.903124, 327431.995700 6819792.352522, 327421.736558 6819786.938361, 327411.246395 6819781.279107, 327400.027669 6819774.384216, 327375.702241 6819758.367787, 327340.050502 6819735.127441)

LINESTRING (327447.515065 6819820.700671, 327454.485462 6819799.903124)

LINESTRING (327447.515065 6819820.700671, 327445.450717 6819827.263279, 327443.989628 6819831.899184, 327441.167772 6819839.325091, 327437.269499 6819845.923127, 327433.405747 6819851.069031, 327423.751743 6819863.933546, 327419.923082 6819869.033094, 327414.614755 6819879.037263, 327397.522390 6819911.216595, 327395.949746 6819914.251457)

LINESTRING (327447.515065 6819820.700671, 327495.810115 6819834.343129, 327504.487450 6819836.712152)

LINESTRING (327516.979893 6819816.744780, 327522.783447 6819818.520343)

LINESTRING (327516.979893 6819816.744780, 327505.636447 6819813.559913, 327500.003906 6819811.575048, 327454.485462 6819799.903124)

LINESTRING (327516.979893 6819816.744780, 327520.597870 6819805.363244, 327528.107368 6819796.153572)

LINESTRING (327340.050502 6819735.127441, 327317.161285 6819719.028764)

LINESTRING (327340.050502 6819735.127441, 327345.229789 6819726.925874, 327347.229813 6819723.791628, 327370.355050 6819676.952780, 327376.753151 6819665.678223, 327379.539925 6819660.764356)

LINESTRING (327340.050502 6819735.127441, 327375.702241 6819758.367787, 327400.027669 6819774.384216, 327411.246395 6819781.279107, 327421.736558 6819786.938361, 327431.995700 6819792.352522, 327454.485462 6819799.903124)

LINESTRING (327872.742497 6820152.051655, 327869.246580 6820144.504463)

LINESTRING (327872.742497 6820152.051655, 327821.558413 6820168.984025, 327805.584940 6820174.183831, 327801.761741 6820175.310783, 327790.796156 6820178.633173, 327748.437126 6820190.386884, 327738.627610 6820191.844608, 327729.028678 6820192.600167, 327710.620508 6820191.639917, 327699.631908 6820191.058786, 327695.548043 6820190.804174, 327661.821968 6820188.150444, 327656.299452 6820187.721889)

LINESTRING (327869.246580 6820144.504463, 327872.742497 6820152.051655)

LINESTRING (327869.246580 6820144.504463, 327865.534517 6820137.548162, 327858.621525 6820128.775897, 327775.226654 6820022.995882, 327714.959215 6819946.550071, 327710.187554 6819940.617181, 327693.818744 6819920.254012)

LINESTRING (327869.246580 6820144.504463, 327896.307614 6820136.389643, 327926.214704 6820125.947112, 327971.977083 6820104.788924, 328016.697985 6820083.493334, 328028.675567 6820078.079802, 328031.441506 6820076.827005, 328042.091234 6820072.182229)

LINESTRING (327656.299452 6820187.721889, 327654.502505 6820190.109507)

LINESTRING (328141.994538 6820044.907045, 328140.037818 6820009.067478, 328140.973132 6819992.185332)

LINESTRING (326799.723824 6819415.312705, 326762.709247 6819378.612143, 326747.660429 6819363.687530)

LINESTRING (326747.660429 6819363.687530, 326737.123111 6819365.686358, 326729.546661 6819367.124568, 326704.410503 6819371.871888, 326678.112028 6819376.855960, 326669.350837 6819378.509676)

LINESTRING (326747.660429 6819363.687530, 326787.911771 6819348.568565, 326807.751572 6819341.107211, 326824.296521 6819334.892638, 326834.793138 6819332.717598)

LINESTRING (326747.660429 6819363.687530, 326736.646942 6819344.924252, 326731.029833 6819335.364040, 326728.717501 6819331.596782, 326723.105496 6819322.460299, 326717.302820 6819306.940262, 326710.001054 6819271.981121)

LINESTRING (326747.660429 6819363.687530, 326762.709247 6819378.612143, 326799.723824 6819415.312705)

LINESTRING (326834.793138 6819332.717598, 326860.818652 6819264.911118)

LINESTRING (326834.793138 6819332.717598, 326824.296521 6819334.892638, 326807.751572 6819341.107211, 326787.911771 6819348.568565, 326747.660429 6819363.687530)

LINESTRING (326834.793138 6819332.717598, 326884.962886 6819347.151191, 326890.226957 6819348.573338)

LINESTRING (326860.818652 6819264.911118, 326834.793138 6819332.717598)

LINESTRING (326860.818652 6819264.911118, 326772.579438 6819269.046650, 326710.001054 6819271.981121)

LINESTRING (326890.226957 6819348.573338, 326884.962886 6819347.151191, 326834.793138 6819332.717598)

LINESTRING (326890.226957 6819348.573338, 326897.251624 6819350.409745, 326899.224427 6819351.226230, 326925.328302 6819364.272395, 327008.334223 6819405.744126, 327036.281323 6819419.703331, 327042.503309 6819423.108554, 327063.660541 6819434.695190, 327074.712760 6819441.318474, 327080.214065 6819444.614628, 327097.884272 6819455.203715, 327114.861392 6819465.381129, 327166.057883 6819496.213025)

LINESTRING (326890.226957 6819348.573338, 326883.849564 6819364.634241, 326880.811695 6819378.843830, 326878.782252 6819388.339416, 326876.349970 6819420.571121, 326875.142561 6819437.556801, 326875.021574 6819443.476144)

LINESTRING (327166.057883 6819496.213025, 327114.861392 6819465.381129, 327097.884272 6819455.203715, 327080.214065 6819444.614628, 327074.712760 6819441.318474, 327063.660541 6819434.695190, 327042.503309 6819423.108554, 327036.281323 6819419.703331, 327008.334223 6819405.744126, 326925.328302 6819364.272395, 326899.224427 6819351.226230, 326897.251624 6819350.409745, 326890.226957 6819348.573338)

LINESTRING (327166.057883 6819496.213025, 327176.563474 6819502.584906, 327206.856650 6819522.319506, 327222.273330 6819533.969744, 327225.068407 6819536.084315, 327242.018527 6819550.023591, 327279.296053 6819580.679738, 327285.149658 6819585.487178, 327312.160713 6819607.394252, 327335.489412 6819626.304974, 327343.035767 6819632.422908, 327353.034429 6819640.527533, 327357.805789 6819644.395949, 327369.266307 6819653.030368, 327379.539925 6819660.764356)

LINESTRING (327166.057883 6819496.213025, 327168.498349 6819492.599298, 327174.998448 6819482.948214, 327198.480913 6819448.753740, 327227.668211 6819410.894825, 327233.915026 6819402.796164)

LINESTRING (327166.057883 6819496.213025, 327163.346685 6819499.962967, 327150.003075 6819518.367422, 327145.598604 6819524.444307, 327142.619931 6819528.609248, 327133.480980 6819541.850570, 327130.644521 6819546.298525)

LINESTRING (326875.021574 6819443.476144, 326892.790682 6819444.798838, 326910.532851 6819446.758926, 326934.546208 6819450.113391, 326939.279057 6819451.695979, 326947.135241 6819453.836876, 326962.416450 6819457.928236, 326968.238454 6819459.947468, 326990.023752 6819467.965524, 327005.404257 6819473.837259, 327017.340551 6819479.780331, 327027.019407 6819485.512406, 327043.139371 6819494.873100, 327053.027649 6819500.204304, 327060.582532 6819504.335277, 327072.448419 6819511.118820, 327075.200467 6819513.224264, 327086.628749 6819519.259815, 327112.489613 6819537.217353, 327130.644521 6819546.298525)

LINESTRING (326875.021574 6819443.476144, 326874.095112 6819463.739179, 326873.487707 6819477.559760, 326872.046241 6819485.787576, 326871.011080 6819489.108275, 326856.372045 6819536.074040, 326852.852518 6819547.362211)

LINESTRING (326875.021574 6819443.476144, 326875.142561 6819437.556801, 326876.349970 6819420.571121, 326878.782252 6819388.339416, 326880.811695 6819378.843830, 326883.849564 6819364.634241, 326890.226957 6819348.573338)

LINESTRING (327533.168025 6819765.911862, 327523.987265 6819759.752068, 327518.720353 6819756.320890, 327493.135065 6819739.641085, 327458.210734 6819715.560097, 327427.845476 6819694.633279, 327386.778431 6819666.060909, 327379.539925 6819660.764356)

LINESTRING (327533.168025 6819765.911862, 327532.141820 6819780.266215, 327528.107368 6819796.153572)

LINESTRING (327533.168025 6819765.911862, 327539.442155 6819740.541272, 327540.699394 6819734.699432, 327540.920524 6819730.236777, 327540.065782 6819726.675532, 327536.948554 6819718.072179, 327533.547670 6819711.814752, 327530.535546 6819707.903299, 327518.053084 6819691.687759, 327484.730564 6819649.809451, 327483.085276 6819647.737936, 327445.794072 6819600.869225, 327436.751855 6819588.599818, 327428.504188 6819574.494629)

LINESTRING (327379.539925 6819660.764356, 327369.266307 6819653.030368, 327357.805789 6819644.395949, 327353.034429 6819640.527533, 327343.035767 6819632.422908, 327335.489412 6819626.304974, 327312.160713 6819607.394252, 327285.149658 6819585.487178, 327279.296053 6819580.679738, 327242.018527 6819550.023591, 327225.068407 6819536.084315, 327222.273330 6819533.969744, 327206.856650 6819522.319506, 327176.563474 6819502.584906, 327166.057883 6819496.213025)

LINESTRING (327379.539925 6819660.764356, 327386.778431 6819666.060909, 327427.845476 6819694.633279, 327458.210734 6819715.560097, 327493.135065 6819739.641085, 327518.720353 6819756.320890, 327523.987265 6819759.752068, 327533.168025 6819765.911862)

LINESTRING (327379.539925 6819660.764356, 327383.972820 6819653.860742, 327402.522879 6819619.522557)

LINESTRING (327379.539925 6819660.764356, 327376.753151 6819665.678223, 327370.355050 6819676.952780, 327347.229813 6819723.791628, 327345.229789 6819726.925874, 327340.050502 6819735.127441)

LINESTRING (327528.107368 6819796.153572, 327532.141820 6819780.266215, 327533.168025 6819765.911862)

LINESTRING (327528.107368 6819796.153572, 327526.304305 6819807.009757, 327522.783447 6819818.520343)

LINESTRING (327428.504188 6819574.494629, 327423.430925 6819579.042406, 327417.579060 6819584.030569, 327414.076030 6819588.924236, 327412.133152 6819595.034531, 327407.759219 6819608.383957, 327402.522879 6819619.522557)

LINESTRING (327428.504188 6819574.494629, 327413.989600 6819538.041120, 327411.314977 6819531.156343, 327382.212988 6819456.267135, 327378.265369 6819446.109733, 327351.335643 6819376.825079, 327341.765918 6819355.042803, 327335.548627 6819343.681823, 327327.746069 6819332.533612, 327319.697801 6819322.669550, 327309.877142 6819312.904856, 327302.122104 6819305.503111)

LINESTRING (327428.504188 6819574.494629, 327436.751855 6819588.599818, 327445.794072 6819600.869225, 327483.085276 6819647.737936, 327484.730564 6819649.809451, 327518.053084 6819691.687759, 327530.535546 6819707.903299, 327533.547670 6819711.814752, 327536.948554 6819718.072179, 327540.065782 6819726.675532, 327540.920524 6819730.236777, 327540.699394 6819734.699432, 327539.442155 6819740.541272, 327533.168025 6819765.911862)

LINESTRING (327654.502505 6820190.109507, 327652.314005 6820235.203418, 327651.623800 6820252.564594, 327650.871384 6820272.539609, 327648.458040 6820317.399253, 327646.546989 6820365.815363, 327646.198863 6820380.716160, 327645.344353 6820416.996705, 327644.964053 6820433.182163)

LINESTRING (327654.502505 6820190.109507, 327652.192727 6820191.518469, 327649.527792 6820192.007885, 327646.871091 6820191.481603, 327644.584771 6820190.033203)

LINESTRING (327644.964053 6820433.182163, 327644.871922 6820443.462382)

LINESTRING (327644.964053 6820433.182163, 327654.856972 6820433.739410, 327668.181165 6820436.993583)

LINESTRING (327644.871922 6820443.462382, 327632.770209 6820443.550455)

LINESTRING (327668.181165 6820436.993583, 327658.300201 6820441.724145, 327654.769101 6820442.602470, 327644.871922 6820443.462382)

LINESTRING (328050.124433 6820068.682448, 328051.179030 6820080.702007)

LINESTRING (328050.124433 6820068.682448, 328071.713511 6820059.958860, 328084.676633 6820055.802056, 328096.226556 6820052.953744, 328109.298671 6820050.242038)

LINESTRING (328051.179030 6820080.702007, 328042.091234 6820072.182229)

LINESTRING (328051.179030 6820080.702007, 328035.778238 6820085.626872, 328023.202904 6820089.530350, 328006.247531 6820096.139015, 327960.783911 6820117.839765, 327924.884737 6820133.343214, 327872.742497 6820152.051655)

LINESTRING (328109.298671 6820050.242038, 328117.136113 6820043.650488, 328122.894914 6820040.230092, 328127.907867 6820035.217741, 328131.829979 6820029.835471, 328133.780187 6820023.747588, 328135.992912 6820008.955449, 328140.973132 6819992.185332)

LINESTRING (328109.298671 6820050.242038, 328134.880269 6820046.062754, 328141.994538 6820044.907045)

LINESTRING (327983.087820 6819992.244362, 327991.345409 6819982.719724, 327992.965806 6819980.854276, 327996.004169 6819977.345400, 328007.512832 6819966.878647, 328011.233375 6819964.105800, 328027.418754 6819952.068459, 328032.420635 6819948.339570, 328057.433482 6819929.438460, 328065.817228 6819923.098658, 328074.455649 6819915.005775, 328084.927144 6819902.336998, 328087.264697 6819899.219959, 328099.385866 6819883.010844, 328103.972362 6819876.602669, 328107.382859 6819870.799452, 328108.941007 6819866.705762, 328108.526839 6819859.853605, 328099.598722 6819842.500603, 328095.869364 6819837.129212, 328084.782749 6819821.233172, 328073.214930 6819805.427946, 328067.363747 6819798.053055, 328058.041618 6819793.862546, 328028.187823 6819784.988401)

LINESTRING (327983.087820 6819992.244362, 327957.919872 6819963.234555, 327921.323660 6819921.035129)

LINESTRING (327983.087820 6819992.244362, 327996.179401 6820006.389450, 328026.184683 6820038.808043)

LINESTRING (328028.187823 6819784.988401, 328013.300240 6819800.509268, 328003.243845 6819811.004385, 327985.124501 6819829.898794, 327977.396861 6819837.957899, 327968.722029 6819850.805696)

LINESTRING (328028.187823 6819784.988401, 328038.574174 6819773.718342, 328073.109471 6819743.634859, 328110.520790 6819711.055173, 328116.823414 6819705.566146)

LINESTRING (328028.187823 6819784.988401, 328058.041618 6819793.862546, 328067.363747 6819798.053055, 328073.214930 6819805.427946, 328084.782749 6819821.233172, 328095.869364 6819837.129212, 328099.598722 6819842.500603, 328108.526839 6819859.853605, 328108.941007 6819866.705762, 328107.382859 6819870.799452, 328103.972362 6819876.602669, 328099.385866 6819883.010844, 328087.264697 6819899.219959, 328084.927144 6819902.336998, 328074.455649 6819915.005775, 328065.817228 6819923.098658, 328057.433482 6819929.438460, 328032.420635 6819948.339570, 328027.418754 6819952.068459, 328011.233375 6819964.105800, 328007.512832 6819966.878647, 327996.004169 6819977.345400, 327992.965806 6819980.854276, 327991.345409 6819982.719724, 327983.087820 6819992.244362)

LINESTRING (327921.323660 6819921.035129, 327935.341280 6819900.257386, 327968.722029 6819850.805696)

LINESTRING (327921.323660 6819921.035129, 327915.326215 6819913.835093, 327891.621621 6819880.569251, 327882.392093 6819864.369703, 327880.033577 6819858.885893, 327872.783189 6819842.030337, 327860.119855 6819804.055386, 327856.558031 6819788.947020, 327855.922361 6819786.245095, 327852.919703 6819764.660250, 327850.691050 6819732.861831, 327847.244337 6819692.108999, 327843.280018 6819672.870208)

LINESTRING (327921.323660 6819921.035129, 327957.919872 6819963.234555, 327983.087820 6819992.244362)

LINESTRING (328026.184683 6820038.808043, 328041.285438 6820053.233025, 328044.757590 6820057.077439, 328050.124433 6820068.682448)

LINESTRING (328026.184683 6820038.808043, 327996.179401 6820006.389450, 327983.087820 6819992.244362)

LINESTRING (327843.280018 6819672.870208, 327827.645006 6819615.674230)

LINESTRING (327843.280018 6819672.870208, 327847.244337 6819692.108999, 327850.691050 6819732.861831, 327852.919703 6819764.660250, 327855.922361 6819786.245095, 327856.558031 6819788.947020, 327860.119855 6819804.055386, 327872.783189 6819842.030337, 327880.033577 6819858.885893, 327882.392093 6819864.369703, 327891.621621 6819880.569251, 327915.326215 6819913.835093, 327921.323660 6819921.035129)

LINESTRING (327843.280018 6819672.870208, 327848.603713 6819671.535013, 327867.574615 6819666.789346, 327919.057930 6819653.904457, 327941.207617 6819648.365617, 328018.256755 6819629.082450)

LINESTRING (327827.645006 6819615.674230, 327843.280018 6819672.870208)

LINESTRING (327827.645006 6819615.674230, 327811.141659 6819562.604842, 327801.914139 6819532.916535, 327800.426524 6819516.489162, 327801.976630 6819497.824691)

LINESTRING (327827.645006 6819615.674230, 327831.694644 6819614.580741, 327848.956983 6819609.919763, 327904.878001 6819594.817463, 327919.449411 6819590.881624, 327939.734594 6819585.401791, 327962.718158 6819579.665574, 328010.398012 6819567.751697)

LINESTRING (328018.256755 6819629.082450, 328058.249321 6819629.622017, 328098.017154 6819630.150861, 328113.770989 6819630.263013)

LINESTRING (328018.256755 6819629.082450, 327941.207617 6819648.365617, 327919.057930 6819653.904457, 327867.574615 6819666.789346, 327848.603713 6819671.535013, 327843.280018 6819672.870208)

LINESTRING (328018.256755 6819629.082450, 328011.075276 6819573.017682, 328010.398012 6819567.751697)

LINESTRING (328018.256755 6819629.082450, 328022.689497 6819659.622469, 328025.395881 6819678.265485)

LINESTRING (327801.976630 6819497.824691, 327804.488969 6819464.887311, 327802.799580 6819429.335710, 327800.366590 6819402.568090, 327804.100202 6819401.769191, 327823.068432 6819397.692926, 327824.868969 6819397.302355, 327861.860301 6819389.353243, 327866.338535 6819388.394751, 327871.877491 6819387.193984, 327898.893817 6819381.391285, 327905.684626 6819379.927666, 327985.566364 6819362.757392, 327995.879620 6819360.539197, 328017.098037 6819355.984311, 328026.600343 6819357.755956, 328026.394500 6819365.018170, 328023.291587 6819378.437544, 328016.132445 6819409.406993, 328010.809627 6819430.690481, 328004.712241 6819455.080533)

LINESTRING (327801.976630 6819497.824691, 327807.421775 6819496.673092, 327834.363375 6819490.996264, 327864.839039 6819484.586497, 327870.569494 6819483.376218, 327904.304095 6819476.280778, 327911.862247 6819474.689848, 327932.011291 6819470.432875, 327934.731513 6819469.862874, 327938.988264 6819468.960080, 327982.186097 6819459.834243, 328004.712241 6819455.080533)

LINESTRING (327801.976630 6819497.824691, 327800.426524 6819516.489162, 327801.914139 6819532.916535, 327811.141659 6819562.604842, 327827.645006 6819615.674230)

LINESTRING (328010.398012 6819567.751697, 327962.718158 6819579.665574, 327939.734594 6819585.401791, 327919.449411 6819590.881624, 327904.878001 6819594.817463, 327848.956983 6819609.919763, 327831.694644 6819614.580741, 327827.645006 6819615.674230)

LINESTRING (328010.398012 6819567.751697, 328011.075276 6819573.017682, 328018.256755 6819629.082450)

LINESTRING (328010.398012 6819567.751697, 328007.944805 6819548.404407, 328004.438464 6819520.730445, 328000.979672 6819493.478092, 328001.148491 6819485.793742, 328001.174453 6819484.487091, 328001.632574 6819471.979756, 328004.292392 6819457.377360, 328004.712241 6819455.080533)

LINESTRING (328004.712241 6819455.080533, 327982.186097 6819459.834243, 327938.988264 6819468.960080, 327934.731513 6819469.862874, 327932.011291 6819470.432875, 327911.862247 6819474.689848, 327904.304095 6819476.280778, 327870.569494 6819483.376218, 327864.839039 6819484.586497, 327834.363375 6819490.996264, 327807.421775 6819496.673092, 327801.976630 6819497.824691)

LINESTRING (328004.712241 6819455.080533, 328010.809627 6819430.690481, 328016.132445 6819409.406993, 328023.291587 6819378.437544, 328026.394500 6819365.018170, 328026.600343 6819357.755956, 328017.098037 6819355.984311, 327995.879620 6819360.539197, 327985.566364 6819362.757392, 327905.684626 6819379.927666, 327898.893817 6819381.391285, 327871.877491 6819387.193984, 327866.338535 6819388.394751, 327861.860301 6819389.353243, 327824.868969 6819397.302355, 327823.068432 6819397.692926, 327804.100202 6819401.769191, 327800.366590 6819402.568090, 327802.799580 6819429.335710, 327804.488969 6819464.887311, 327801.976630 6819497.824691)

LINESTRING (328004.712241 6819455.080533, 328004.292392 6819457.377360, 328001.632574 6819471.979756, 328001.174453 6819484.487091, 328001.148491 6819485.793742, 328000.979672 6819493.478092, 328004.438464 6819520.730445, 328007.944805 6819548.404407, 328010.398012 6819567.751697)

LINESTRING (328116.823414 6819705.566146, 328110.520790 6819711.055173, 328073.109471 6819743.634859, 328038.574174 6819773.718342, 328028.187823 6819784.988401)

LINESTRING (327968.722029 6819850.805696, 327997.839271 6819889.393338)

LINESTRING (327968.722029 6819850.805696, 327935.341280 6819900.257386, 327921.323660 6819921.035129)

LINESTRING (327968.722029 6819850.805696, 327977.396861 6819837.957899, 327985.124501 6819829.898794, 328003.243845 6819811.004385, 328013.300240 6819800.509268, 328028.187823 6819784.988401)

LINESTRING (328113.770989 6819630.263013, 328098.017154 6819630.150861, 328058.249321 6819629.622017, 328018.256755 6819629.082450)

LINESTRING (328025.395881 6819678.265485, 328022.689497 6819659.622469, 328018.256755 6819629.082450)

LINESTRING (326669.350837 6819378.509676, 326678.112028 6819376.855960, 326704.410503 6819371.871888, 326729.546661 6819367.124568, 326737.123111 6819365.686358, 326747.660429 6819363.687530)

LINESTRING (327130.644521 6819546.298525, 327133.480980 6819541.850570, 327142.619931 6819528.609248, 327145.598604 6819524.444307, 327150.003075 6819518.367422, 327163.346685 6819499.962967, 327166.057883 6819496.213025)

LINESTRING (327130.644521 6819546.298525, 327112.489613 6819537.217353, 327086.628749 6819519.259815, 327075.200467 6819513.224264, 327072.448419 6819511.118820, 327060.582532 6819504.335277, 327053.027649 6819500.204304, 327043.139371 6819494.873100, 327027.019407 6819485.512406, 327017.340551 6819479.780331, 327005.404257 6819473.837259, 326990.023752 6819467.965524, 326968.238454 6819459.947468, 326962.416450 6819457.928236, 326947.135241 6819453.836876, 326939.279057 6819451.695979, 326934.546208 6819450.113391, 326910.532851 6819446.758926, 326892.790682 6819444.798838, 326875.021574 6819443.476144)

LINESTRING (327130.644521 6819546.298525, 327161.829648 6819573.441254, 327178.273866 6819589.436021, 327203.353590 6819615.733973, 327218.663666 6819630.502315, 327241.767295 6819655.281123, 327256.347365 6819670.721912, 327262.778069 6819676.939845, 327276.491403 6819688.909365, 327289.252141 6819699.754852, 327291.733646 6819701.684246, 327317.161285 6819719.028764)

LINESTRING (326852.852518 6819547.362211, 326878.181729 6819553.462201, 326885.819336 6819555.290295, 326902.332518 6819559.264122, 326918.456803 6819563.145851, 326955.847731 6819572.148146)

LINESTRING (326852.852518 6819547.362211, 326856.372045 6819536.074040, 326871.011080 6819489.108275, 326872.046241 6819485.787576, 326873.487707 6819477.559760, 326874.095112 6819463.739179, 326875.021574 6819443.476144)

LINESTRING (326852.852518 6819547.362211, 326845.069364 6819571.816635, 326843.152801 6819575.761502, 326842.247249 6819577.614155, 326804.271343 6819617.633528, 326795.341466 6819631.612936, 326786.550385 6819651.364875, 326785.077873 6819655.008686, 326775.498204 6819678.738522)

LINESTRING (326775.498204 6819678.738522, 326785.077873 6819655.008686, 326786.550385 6819651.364875, 326795.341466 6819631.612936, 326804.271343 6819617.633528, 326842.247249 6819577.614155, 326843.152801 6819575.761502, 326845.069364 6819571.816635, 326852.852518 6819547.362211)

LINESTRING (326955.847731 6819572.148146, 326993.310020 6819593.397836, 327018.014038 6819607.418087, 327019.573649 6819608.299855, 327028.141407 6819613.161256, 327048.797421 6819624.884292)

LINESTRING (326955.847731 6819572.148146, 326918.456803 6819563.145851, 326902.332518 6819559.264122, 326885.819336 6819555.290295, 326878.181729 6819553.462201, 326852.852518 6819547.362211)

LINESTRING (326955.847731 6819572.148146, 326937.628897 6819611.124997, 326928.798995 6819630.008197, 326927.183801 6819633.469382, 326915.797919 6819657.813242, 326912.764759 6819664.301817, 326900.974679 6819689.525005, 326898.983181 6819693.785982, 326889.029985 6819715.068361, 326895.166520 6819714.092787, 326919.671213 6819710.214984, 326944.943407 6819706.209821, 326958.637889 6819704.188001, 326991.611167 6819699.330545, 327033.241431 6819693.205080, 327034.269188 6819693.053435, 327051.718114 6819690.443184, 327063.165531 6819688.734610, 327081.006763 6819686.071485, 327082.755183 6819685.281455, 327086.753649 6819683.486730, 327087.823885 6819683.009427, 327098.262847 6819674.020982, 327104.904883 6819668.301128, 327114.922014 6819678.479406, 327118.828658 6819682.446378, 327124.303713 6819688.008783, 327130.402922 6819694.209529, 327132.055621 6819695.890020, 327158.177428 6819722.436953, 327163.466710 6819727.807837, 327173.944416 6819738.454237, 327189.424806 6819754.184616, 327192.412805 6819757.282528, 327211.660058 6819777.288244, 327215.560275 6819781.344887, 327228.942868 6819795.249702)

LINESTRING (327633.609088 6820697.287126, 327626.325546 6820697.370150, 327614.818492 6820697.919701, 327598.294185 6820697.993452, 327565.465258 6820697.516628, 327562.273355 6820697.485638, 327550.466195 6820694.145346, 327534.421674 6820689.598829, 327506.797249 6820681.779034, 327482.754487 6820674.963960, 327473.245269 6820672.669968)

LINESTRING (327633.609088 6820697.287126, 327634.316305 6820651.396480, 327634.994377 6820590.422950, 327635.682862 6820555.210548, 327634.665377 6820526.788307, 327632.848233 6820469.709864, 327632.765412 6820452.688318, 327632.770209 6820443.550455)

LINESTRING (327473.245269 6820672.669968, 327482.754487 6820674.963960, 327506.797249 6820681.779034, 327534.421674 6820689.598829, 327550.466195 6820694.145346, 327562.273355 6820697.485638, 327565.465258 6820697.516628, 327598.294185 6820697.993452, 327614.818492 6820697.919701, 327626.325546 6820697.370150, 327633.609088 6820697.287126)

LINESTRING (327632.770209 6820443.550455, 327632.495203 6820433.076492)

LINESTRING (327632.770209 6820443.550455, 327623.969688 6820442.213781, 327605.123663 6820437.571786)

LINESTRING (327632.495203 6820433.076492, 327644.964053 6820433.182163)

LINESTRING (327632.495203 6820433.076492, 327633.129120 6820417.056940, 327634.566409 6820380.803212, 327635.105264 6820367.164838, 327636.532767 6820332.752517, 327639.325973 6820285.876868, 327640.088448 6820273.086483, 327640.956240 6820253.072257, 327644.208750 6820196.534125, 327644.584771 6820190.033203)

LINESTRING (327402.522879 6819619.522557, 327407.759219 6819608.383957, 327412.133152 6819595.034531, 327414.076030 6819588.924236, 327417.579060 6819584.030569, 327423.430925 6819579.042406, 327428.504188 6819574.494629)

LINESTRING (327402.522879 6819619.522557, 327383.972820 6819653.860742, 327379.539925 6819660.764356)

LINESTRING (327402.522879 6819619.522557, 327398.186345 6819612.486156, 327388.643396 6819598.200026, 327358.359290 6819551.686493, 327352.354140 6819542.222811, 327349.273870 6819537.377690, 327307.823049 6819474.439030, 327282.560715 6819436.322884, 327252.803300 6819415.668371, 327245.069313 6819410.296304, 327233.915026 6819402.796164)

LINESTRING (327302.122104 6819305.503111, 327297.949272 6819310.776085, 327289.924446 6819320.904428, 327282.894919 6819331.083672, 327264.300509 6819358.005186, 327263.514166 6819359.148879)

LINESTRING (327302.122104 6819305.503111, 327309.877142 6819312.904856, 327319.697801 6819322.669550, 327327.746069 6819332.533612, 327335.548627 6819343.681823, 327341.765918 6819355.042803, 327351.335643 6819376.825079, 327378.265369 6819446.109733, 327382.212988 6819456.267135, 327411.314977 6819531.156343, 327413.989600 6819538.041120, 327428.504188 6819574.494629)

LINESTRING (327317.161285 6819719.028764, 327340.050502 6819735.127441)

LINESTRING (327317.161285 6819719.028764, 327301.663968 6819738.331987, 327283.641447 6819755.574192, 327270.682493 6819764.542471, 327267.004409 6819767.090876, 327242.412085 6819786.244690, 327231.669888 6819793.429192, 327228.942868 6819795.249702)

LINESTRING (327317.161285 6819719.028764, 327291.733646 6819701.684246, 327289.252141 6819699.754852, 327276.491403 6819688.909365, 327262.778069 6819676.939845, 327256.347365 6819670.721912, 327241.767295 6819655.281123, 327218.663666 6819630.502315, 327203.353590 6819615.733973, 327178.273866 6819589.436021, 327161.829648 6819573.441254, 327130.644521 6819546.298525)

LINESTRING (327228.942868 6819795.249702, 327217.713274 6819803.897787, 327211.101833 6819810.229551, 327188.731979 6819831.671892, 327181.683514 6819835.548603, 327176.514952 6819838.383336, 327171.040203 6819841.177543, 327148.469905 6819831.914562, 327139.735939 6819824.773976, 327133.486900 6819818.346392, 327124.842035 6819809.460886, 327108.407346 6819792.573368, 327100.189666 6819784.124073, 327092.056461 6819776.406957, 327085.093719 6819771.510073, 327083.740924 6819771.242774, 327078.075105 6819770.097016, 327070.755850 6819770.361372, 327022.258854 6819777.353145, 327011.943168 6819778.849251, 326947.932409 6819788.077144, 326932.638029 6819791.718519)

LINESTRING (327228.942868 6819795.249702, 327231.669888 6819793.429192, 327242.412085 6819786.244690, 327267.004409 6819767.090876, 327270.682493 6819764.542471, 327283.641447 6819755.574192, 327301.663968 6819738.331987, 327317.161285 6819719.028764)

LINESTRING (327228.942868 6819795.249702, 327238.128441 6819804.711013, 327248.603716 6819811.887868, 327254.034855 6819815.611716, 327304.624016 6819850.770984, 327357.484141 6819887.513805, 327393.097271 6819912.262357, 327395.949746 6819914.251457)

LINESTRING (327228.942868 6819795.249702, 327215.560275 6819781.344887, 327211.660058 6819777.288244, 327192.412805 6819757.282528, 327189.424806 6819754.184616, 327173.944416 6819738.454237, 327163.466710 6819727.807837, 327158.177428 6819722.436953, 327132.055621 6819695.890020, 327130.402922 6819694.209529, 327124.303713 6819688.008783, 327118.828658 6819682.446378, 327114.922014 6819678.479406, 327104.904883 6819668.301128, 327098.262847 6819674.020982, 327087.823885 6819683.009427, 327086.753649 6819683.486730, 327082.755183 6819685.281455, 327081.006763 6819686.071485, 327063.165531 6819688.734610, 327051.718114 6819690.443184, 327034.269188 6819693.053435, 327033.241431 6819693.205080, 326991.611167 6819699.330545, 326958.637889 6819704.188001, 326944.943407 6819706.209821, 326919.671213 6819710.214984, 326895.166520 6819714.092787, 326889.029985 6819715.068361, 326898.983181 6819693.785982, 326900.974679 6819689.525005, 326912.764759 6819664.301817, 326915.797919 6819657.813242, 326927.183801 6819633.469382, 326928.798995 6819630.008197, 326937.628897 6819611.124997, 326955.847731 6819572.148146)

LINESTRING (327233.915026 6819402.796164, 327244.202896 6819390.747559, 327263.514166 6819359.148879)

LINESTRING (327233.915026 6819402.796164, 327227.668211 6819410.894825, 327198.480913 6819448.753740, 327174.998448 6819482.948214, 327168.498349 6819492.599298, 327166.057883 6819496.213025)

LINESTRING (327233.915026 6819402.796164, 327245.069313 6819410.296304, 327252.803300 6819415.668371, 327282.560715 6819436.322884, 327307.823049 6819474.439030, 327349.273870 6819537.377690, 327352.354140 6819542.222811, 327358.359290 6819551.686493, 327388.643396 6819598.200026, 327398.186345 6819612.486156, 327402.522879 6819619.522557)

LINESTRING (327263.514166 6819359.148879, 327264.300509 6819358.005186, 327282.894919 6819331.083672, 327289.924446 6819320.904428, 327297.949272 6819310.776085, 327302.122104 6819305.503111)

LINESTRING (327263.514166 6819359.148879, 327244.202896 6819390.747559, 327233.915026 6819402.796164)

LINESTRING (327263.514166 6819359.148879, 327259.746268 6819356.792609, 327244.922730 6819347.634146, 327234.642112 6819341.284311)

LINESTRING (326710.001054 6819271.981121, 326772.579438 6819269.046650, 326860.818652 6819264.911118)

LINESTRING (326710.001054 6819271.981121, 326717.302820 6819306.940262, 326723.105496 6819322.460299, 326728.717501 6819331.596782, 326731.029833 6819335.364040, 326736.646942 6819344.924252, 326747.660429 6819363.687530)

LINESTRING (327048.797421 6819624.884292, 327028.141407 6819613.161256, 327019.573649 6819608.299855, 327018.014038 6819607.418087, 326993.310020 6819593.397836, 326955.847731 6819572.148146)

LINESTRING (327557.572284 6819980.342447, 327540.087688 6819973.189581, 327522.777780 6819966.117371, 327501.246164 6819957.313804, 327496.480049 6819955.363982, 327481.261045 6819949.136362, 327461.668496 6819941.129176, 327442.756735 6819933.400635, 327437.462034 6819931.231723, 327425.336627 6819926.267423, 327395.949746 6819914.251457)

LINESTRING (327557.572284 6819980.342447, 327552.834866 6819990.563473, 327537.557071 6820023.510982, 327532.323326 6820031.581090)

LINESTRING (327557.572284 6819980.342447, 327558.845008 6819977.713068, 327575.067155 6819944.216684, 327588.167606 6819917.156937, 327589.125902 6819915.179148, 327595.499342 6819903.727717, 327596.444857 6819902.029493)

LINESTRING (327395.949746 6819914.251457, 327393.097271 6819912.262357, 327357.484141 6819887.513805, 327304.624016 6819850.770984, 327254.034855 6819815.611716, 327248.603716 6819811.887868, 327238.128441 6819804.711013, 327228.942868 6819795.249702)

LINESTRING (327395.949746 6819914.251457, 327425.336627 6819926.267423, 327437.462034 6819931.231723, 327442.756735 6819933.400635, 327461.668496 6819941.129176, 327481.261045 6819949.136362, 327496.480049 6819955.363982, 327501.246164 6819957.313804, 327522.777780 6819966.117371, 327540.087688 6819973.189581, 327557.572284 6819980.342447)

LINESTRING (327395.949746 6819914.251457, 327397.522390 6819911.216595, 327414.614755 6819879.037263, 327419.923082 6819869.033094, 327423.751743 6819863.933546, 327433.405747 6819851.069031, 327437.269499 6819845.923127, 327441.167772 6819839.325091, 327443.989628 6819831.899184, 327445.450717 6819827.263279, 327447.515065 6819820.700671)

LINESTRING (327395.949746 6819914.251457, 327381.163380 6819943.649632, 327369.945823 6819965.941762, 327364.361504 6819977.041999, 327361.555051 6819982.626304)

LINESTRING (327532.323326 6820031.581090, 327537.557071 6820023.510982, 327552.834866 6819990.563473, 327557.572284 6819980.342447)

LINESTRING (327596.444857 6819902.029493, 327595.499342 6819903.727717, 327589.125902 6819915.179148, 327588.167606 6819917.156937, 327575.067155 6819944.216684, 327558.845008 6819977.713068, 327557.572284 6819980.342447)

LINESTRING (326932.638029 6819791.718519, 326947.932409 6819788.077144, 327011.943168 6819778.849251, 327022.258854 6819777.353145, 327070.755850 6819770.361372, 327078.075105 6819770.097016, 327083.740924 6819771.242774, 327085.093719 6819771.510073, 327092.056461 6819776.406957, 327100.189666 6819784.124073, 327108.407346 6819792.573368, 327124.842035 6819809.460886, 327133.486900 6819818.346392, 327139.735939 6819824.773976, 327148.469905 6819831.914562, 327171.040203 6819841.177543, 327176.514952 6819838.383336, 327181.683514 6819835.548603, 327188.731979 6819831.671892, 327211.101833 6819810.229551, 327217.713274 6819803.897787, 327228.942868 6819795.249702)

LINESTRING (327234.642112 6819341.284311, 327244.922730 6819347.634146, 327259.746268 6819356.792609, 327263.514166 6819359.148879)

LINESTRING (327708.529575 6819762.577675, 327676.371163 6819767.287436, 327657.224345 6819770.625993)

LINESTRING (327657.224345 6819770.625993, 327663.204053 6819787.767426, 327665.101186 6819799.533122, 327666.629922 6819810.435709, 327668.087895 6819841.402149, 327667.907802 6819844.222665)

LINESTRING (327657.224345 6819770.625993, 327676.371163 6819767.287436, 327708.529575 6819762.577675)

LINESTRING (327667.907802 6819844.222665, 327672.127524 6819846.344904, 327675.315333 6819849.823770, 327677.064192 6819854.199723, 327677.143633 6819858.915200, 327675.549878 6819863.356753, 327672.477761 6819866.934540, 327670.364705 6819868.333704, 327668.027812 6819869.308863, 327665.544164 6819869.800404, 327662.897791 6819869.809119)

LINESTRING (328142.177614 6820061.744951, 328141.994538 6820044.907045)

LINESTRING (328142.177614 6820061.744951, 328124.728671 6820064.751458, 328084.830787 6820072.373643, 328065.837693 6820076.952000, 328051.179030 6820080.702007)

LINESTRING (328042.091234 6820072.182229, 328050.124433 6820068.682448)

LINESTRING (328042.091234 6820072.182229, 328036.693040 6820061.237045, 328026.184683 6820038.808043)

LINESTRING (327654.669002 6820179.390477, 327656.360485 6820181.861411, 327656.922169 6820184.790124, 327656.299452 6820187.721889)

LINESTRING (327654.669002 6820179.390477, 327660.675484 6820179.571848, 327665.789205 6820179.719477)

LINESTRING (327665.789205 6820179.719477, 327692.160623 6820180.507119, 327695.970422 6820180.507570, 327711.845347 6820181.169582, 327724.700172 6820181.401470, 327728.680643 6820181.293069, 327736.711826 6820180.771553, 327744.760172 6820179.735981, 327756.656604 6820177.215161, 327768.692989 6820174.073799, 327778.240079 6820171.413076, 327788.100117 6820168.714533, 327789.289238 6820168.376581, 327798.651718 6820165.758551, 327832.354718 6820155.260652, 327869.246580 6820144.504463)

LINESTRING (327693.818744 6819920.254012, 327710.187554 6819940.617181, 327714.959215 6819946.550071, 327775.226654 6820022.995882, 327858.621525 6820128.775897, 327865.534517 6820137.548162, 327869.246580 6820144.504463)

LINESTRING (327658.683645 6819844.915116, 327655.640359 6819811.148903, 327655.213057 6819801.686651, 327654.306145 6819787.618054, 327657.224345 6819770.625993)

LINESTRING (327658.683645 6819844.915116, 327663.235356 6819843.729530, 327667.907802 6819844.222665)

LINESTRING (327361.555051 6819982.626304, 327364.361504 6819977.041999, 327369.945823 6819965.941762, 327381.163380 6819943.649632, 327395.949746 6819914.251457)

LINESTRING (327526.995540 6819819.627500, 327522.783447 6819818.520343)

LINESTRING (327526.995540 6819819.627500, 327532.209350 6819819.200982, 327536.913234 6819818.822132, 327645.645987 6819850.159420, 327650.333195 6819852.024113, 327651.593384 6819853.222261)

LINESTRING (327522.783447 6819818.520343, 327526.995540 6819819.627500)

LINESTRING (327522.783447 6819818.520343, 327516.979893 6819816.744780)

LINESTRING (327522.783447 6819818.520343, 327516.547664 6819840.039892)

LINESTRING (327651.593384 6819853.222261, 327654.230196 6819848.293762, 327658.683645 6819844.915116)

LINESTRING (327516.547664 6819840.039892, 327525.914295 6819842.642472, 327599.807035 6819863.158645)

LINESTRING (327516.547664 6819840.039892, 327508.896698 6819837.921056, 327504.487450 6819836.712152)

LINESTRING (327605.123663 6820437.571786, 327595.664953 6820436.948472, 327590.976830 6820436.768660, 327554.896913 6820436.843854, 327546.327136 6820438.218228, 327520.714208 6820444.601571, 327505.441849 6820448.418001, 327492.057526 6820451.683168, 327482.151015 6820453.213436, 327474.527128 6820452.900858, 327470.740177 6820452.174321)

LINESTRING (327605.123663 6820437.571786, 327620.027540 6820435.034861, 327623.884063 6820434.263057, 327632.495203 6820433.076492)

LINESTRING (327470.740177 6820452.174321, 327474.527128 6820452.900858, 327482.151015 6820453.213436, 327492.057526 6820451.683168, 327505.441849 6820448.418001, 327520.714208 6820444.601571, 327546.327136 6820438.218228, 327554.896913 6820436.843854, 327590.976830 6820436.768660, 327595.664953 6820436.948472, 327605.123663 6820437.571786)

LINESTRING (327997.839271 6819889.393338, 327968.722029 6819850.805696)

LINESTRING (327652.545264 6820177.777796, 327654.669002 6820179.390477)

LINESTRING (327657.207994 6819867.849169, 327652.817650 6819863.258564)

LINESTRING (327652.817650 6819863.258564, 327647.930784 6819858.770726, 327643.397608 6819856.998798, 327536.127478 6819825.666992, 327531.691035 6819822.730062, 327526.995540 6819819.627500)

LINESTRING (327652.817650 6819863.258564, 327651.197705 6819858.362993, 327651.593384 6819853.222261)

LINESTRING (327662.897791 6819869.809119, 327662.653311 6819898.729130, 327663.933282 6819914.184984, 327665.254574 6819924.026800, 327665.556914 6819928.932034, 327665.539112 6819943.292018, 327665.172522 6819952.670976, 327664.155219 6819968.609121, 327662.817905 6819985.946634, 327661.318211 6820011.938917, 327660.288572 6820025.478917, 327659.524860 6820048.991255, 327656.886403 6820083.530620, 327655.983703 6820111.010617, 327654.712285 6820135.686203, 327654.366918 6820142.375269, 327653.195733 6820165.093398, 327653.024611 6820168.415540, 327652.862270 6820171.592204)

LINESTRING (327662.897791 6819869.809119, 327659.935569 6819869.152946, 327657.207994 6819867.849169)

LINESTRING (327652.862270 6820171.592204, 327652.545264 6820177.777796)

LINESTRING (327652.862270 6820171.592204, 327655.518684 6820174.260657, 327660.904685 6820175.700127, 327663.662026 6820177.392910, 327665.789205 6820179.719477)

LINESTRING (327599.807035 6819863.158645, 327525.914295 6819842.642472, 327516.547664 6819840.039892)

LINESTRING (327504.487450 6819836.712152, 327516.979893 6819816.744780)

LINESTRING (327504.487450 6819836.712152, 327495.810115 6819834.343129, 327447.515065 6819820.700671)

LINESTRING (327504.487450 6819836.712152, 327508.896698 6819837.921056, 327516.547664 6819840.039892)

