LINESTRING (60.000000 60.000000, 52.035101 78.858629)

LINESTRING (60.000000 60.000000, 73.797166 58.563759)

LINESTRING (60.000000 60.000000, 46.407293 74.656947)

LINESTRING (60.000000 60.000000, 59.917334 65.733429)

LINESTRING (60.000000 60.000000, 65.690569 75.328917)

LINESTRING (60.000000 60.000000, 56.458304 52.707448)

LINESTRING (60.000000 60.000000, 81.405505 46.134280)

LINESTRING (60.000000 60.000000, 80.537069 82.541606)

LINESTRING (60.000000 60.000000, 55.195775 39.731865)

LINESTRING (60.000000 60.000000, 48.841999 50.678114)

LINESTRING (60.000000 60.000000, 73.827372 36.632125)

LINESTRING (60.000000 60.000000, 41.777153 70.009174)

LINESTRING (60.000000 60.000000, 36.437495 83.229132)

LINESTRING (60.000000 60.000000, 56.253419 47.978878)

LINESTRING (60.000000 60.000000, 41.249203 66.404666)

LINESTRING (60.000000 60.000000, 61.620411 67.360082)

LINESTRING (60.000000 60.000000, 80.015028 78.002059)

LINESTRING (60.000000 60.000000, 52.171346 81.704325)

LINESTRING (60.000000 60.000000, 38.887090 81.834521)

LINESTRING (60.000000 60.000000, 72.367109 48.998138)

LINESTRING (60.000000 60.000000, 51.923128 58.960252)

LINESTRING (60.000000 60.000000, 46.836019 44.292685)

LINESTRING (60.000000 60.000000, 53.014820 39.436735)

LINESTRING (60.000000 60.000000, 59.226915 38.407407)

LINESTRING (60.000000 60.000000, 65.037553 65.666454)

LINESTRING (52.035101 78.858629, 73.797166 58.563759)

LINESTRING (52.035101 78.858629, 46.407293 74.656947)

LINESTRING (52.035101 78.858629, 65.690569 75.328917)

LINESTRING (52.035101 78.858629, 81.405505 46.134280)

LINESTRING (52.035101 78.858629, 80.537069 82.541606)

LINESTRING (52.035101 78.858629, 55.195775 39.731865)

LINESTRING (52.035101 78.858629, 48.841999 50.678114)

LINESTRING (52.035101 78.858629, 73.827372 36.632125)

LINESTRING (52.035101 78.858629, 41.777153 70.009174)

LINESTRING (52.035101 78.858629, 36.437495 83.229132)

LINESTRING (52.035101 78.858629, 41.249203 66.404666)

LINESTRING (52.035101 78.858629, 46.836019 44.292685)

LINESTRING (52.035101 78.858629, 53.014820 39.436735)

LINESTRING (73.797166 58.563759, 46.407293 74.656947)

LINESTRING (73.797166 58.563759, 56.458304 52.707448)

LINESTRING (73.797166 58.563759, 81.405505 46.134280)

LINESTRING (73.797166 58.563759, 55.195775 39.731865)

LINESTRING (73.797166 58.563759, 48.841999 50.678114)

LINESTRING (73.797166 58.563759, 73.827372 36.632125)

LINESTRING (73.797166 58.563759, 41.777153 70.009174)

LINESTRING (73.797166 58.563759, 56.253419 47.978878)

LINESTRING (73.797166 58.563759, 61.620411 67.360082)

LINESTRING (73.797166 58.563759, 80.015028 78.002059)

LINESTRING (73.797166 58.563759, 38.887090 81.834521)

LINESTRING (46.407293 74.656947, 59.917334 65.733429)

LINESTRING (46.407293 74.656947, 65.690569 75.328917)

LINESTRING (46.407293 74.656947, 56.458304 52.707448)

LINESTRING (46.407293 74.656947, 81.405505 46.134280)

LINESTRING (46.407293 74.656947, 48.841999 50.678114)

LINESTRING (46.407293 74.656947, 73.827372 36.632125)

LINESTRING (46.407293 74.656947, 41.777153 70.009174)

LINESTRING (46.407293 74.656947, 41.249203 66.404666)

LINESTRING (46.407293 74.656947, 61.620411 67.360082)

LINESTRING (46.407293 74.656947, 72.367109 48.998138)

LINESTRING (46.407293 74.656947, 46.836019 44.292685)

LINESTRING (46.407293 74.656947, 53.014820 39.436735)

LINESTRING (46.407293 74.656947, 59.226915 38.407407)

LINESTRING (59.917334 65.733429, 81.405505 46.134280)

LINESTRING (59.917334 65.733429, 55.195775 39.731865)

LINESTRING (59.917334 65.733429, 73.827372 36.632125)

LINESTRING (59.917334 65.733429, 36.437495 83.229132)

LINESTRING (59.917334 65.733429, 41.249203 66.404666)

LINESTRING (59.917334 65.733429, 61.620411 67.360082)

LINESTRING (59.917334 65.733429, 52.171346 81.704325)

LINESTRING (59.917334 65.733429, 38.887090 81.834521)

LINESTRING (59.917334 65.733429, 51.923128 58.960252)

LINESTRING (59.917334 65.733429, 59.226915 38.407407)

LINESTRING (59.917334 65.733429, 65.037553 65.666454)

LINESTRING (65.690569 75.328917, 80.537069 82.541606)

LINESTRING (65.690569 75.328917, 55.195775 39.731865)

LINESTRING (65.690569 75.328917, 48.841999 50.678114)

LINESTRING (65.690569 75.328917, 73.827372 36.632125)

LINESTRING (65.690569 75.328917, 41.249203 66.404666)

LINESTRING (65.690569 75.328917, 61.620411 67.360082)

LINESTRING (65.690569 75.328917, 72.367109 48.998138)

LINESTRING (65.690569 75.328917, 51.923128 58.960252)

LINESTRING (65.690569 75.328917, 59.226915 38.407407)

LINESTRING (56.458304 52.707448, 55.195775 39.731865)

LINESTRING (56.458304 52.707448, 41.777153 70.009174)

LINESTRING (56.458304 52.707448, 36.437495 83.229132)

LINESTRING (56.458304 52.707448, 56.253419 47.978878)

LINESTRING (56.458304 52.707448, 41.249203 66.404666)

LINESTRING (56.458304 52.707448, 52.171346 81.704325)

LINESTRING (56.458304 52.707448, 72.367109 48.998138)

LINESTRING (56.458304 52.707448, 46.836019 44.292685)

LINESTRING (56.458304 52.707448, 53.014820 39.436735)

LINESTRING (81.405505 46.134280, 48.841999 50.678114)

LINESTRING (81.405505 46.134280, 73.827372 36.632125)

LINESTRING (81.405505 46.134280, 52.171346 81.704325)

LINESTRING (81.405505 46.134280, 51.923128 58.960252)

LINESTRING (81.405505 46.134280, 59.226915 38.407407)

LINESTRING (81.405505 46.134280, 65.037553 65.666454)

LINESTRING (80.537069 82.541606, 48.841999 50.678114)

LINESTRING (80.537069 82.541606, 61.620411 67.360082)

LINESTRING (80.537069 82.541606, 52.171346 81.704325)

LINESTRING (80.537069 82.541606, 38.887090 81.834521)

LINESTRING (80.537069 82.541606, 72.367109 48.998138)

LINESTRING (80.537069 82.541606, 51.923128 58.960252)

LINESTRING (80.537069 82.541606, 53.014820 39.436735)

LINESTRING (80.537069 82.541606, 59.226915 38.407407)

LINESTRING (80.537069 82.541606, 65.037553 65.666454)

LINESTRING (55.195775 39.731865, 48.841999 50.678114)

LINESTRING (55.195775 39.731865, 73.827372 36.632125)

LINESTRING (55.195775 39.731865, 41.777153 70.009174)

LINESTRING (55.195775 39.731865, 41.249203 66.404666)

LINESTRING (55.195775 39.731865, 61.620411 67.360082)

LINESTRING (55.195775 39.731865, 80.015028 78.002059)

LINESTRING (55.195775 39.731865, 38.887090 81.834521)

LINESTRING (55.195775 39.731865, 72.367109 48.998138)

LINESTRING (55.195775 39.731865, 53.014820 39.436735)

LINESTRING (55.195775 39.731865, 65.037553 65.666454)

LINESTRING (48.841999 50.678114, 56.253419 47.978878)

LINESTRING (48.841999 50.678114, 41.249203 66.404666)

LINESTRING (48.841999 50.678114, 51.923128 58.960252)

LINESTRING (48.841999 50.678114, 46.836019 44.292685)

LINESTRING (48.841999 50.678114, 65.037553 65.666454)

LINESTRING (73.827372 36.632125, 41.777153 70.009174)

LINESTRING (73.827372 36.632125, 36.437495 83.229132)

LINESTRING (73.827372 36.632125, 56.253419 47.978878)

LINESTRING (73.827372 36.632125, 61.620411 67.360082)

LINESTRING (73.827372 36.632125, 38.887090 81.834521)

LINESTRING (41.777153 70.009174, 36.437495 83.229132)

LINESTRING (41.777153 70.009174, 56.253419 47.978878)

LINESTRING (41.777153 70.009174, 52.171346 81.704325)

LINESTRING (41.777153 70.009174, 46.836019 44.292685)

LINESTRING (41.777153 70.009174, 53.014820 39.436735)

LINESTRING (41.777153 70.009174, 59.226915 38.407407)

LINESTRING (36.437495 83.229132, 56.253419 47.978878)

LINESTRING (36.437495 83.229132, 80.015028 78.002059)

LINESTRING (36.437495 83.229132, 52.171346 81.704325)

LINESTRING (36.437495 83.229132, 72.367109 48.998138)

LINESTRING (56.253419 47.978878, 41.249203 66.404666)

LINESTRING (56.253419 47.978878, 61.620411 67.360082)

LINESTRING (56.253419 47.978878, 80.015028 78.002059)

LINESTRING (56.253419 47.978878, 51.923128 58.960252)

LINESTRING (56.253419 47.978878, 46.836019 44.292685)

LINESTRING (56.253419 47.978878, 59.226915 38.407407)

LINESTRING (41.249203 66.404666, 80.015028 78.002059)

LINESTRING (41.249203 66.404666, 52.171346 81.704325)

LINESTRING (41.249203 66.404666, 38.887090 81.834521)

LINESTRING (41.249203 66.404666, 72.367109 48.998138)

LINESTRING (41.249203 66.404666, 53.014820 39.436735)

LINESTRING (41.249203 66.404666, 59.226915 38.407407)

LINESTRING (61.620411 67.360082, 72.367109 48.998138)

LINESTRING (61.620411 67.360082, 51.923128 58.960252)

LINESTRING (80.015028 78.002059, 52.171346 81.704325)

LINESTRING (80.015028 78.002059, 38.887090 81.834521)

LINESTRING (80.015028 78.002059, 72.367109 48.998138)

LINESTRING (80.015028 78.002059, 51.923128 58.960252)

LINESTRING (80.015028 78.002059, 46.836019 44.292685)

LINESTRING (80.015028 78.002059, 59.226915 38.407407)

LINESTRING (52.171346 81.704325, 72.367109 48.998138)

LINESTRING (52.171346 81.704325, 51.923128 58.960252)

LINESTRING (52.171346 81.704325, 46.836019 44.292685)

LINESTRING (52.171346 81.704325, 59.226915 38.407407)

LINESTRING (38.887090 81.834521, 72.367109 48.998138)

LINESTRING (38.887090 81.834521, 51.923128 58.960252)

LINESTRING (38.887090 81.834521, 46.836019 44.292685)

LINESTRING (38.887090 81.834521, 65.037553 65.666454)

LINESTRING (72.367109 48.998138, 46.836019 44.292685)

LINESTRING (72.367109 48.998138, 53.014820 39.436735)

LINESTRING (72.367109 48.998138, 59.226915 38.407407)

LINESTRING (72.367109 48.998138, 65.037553 65.666454)

LINESTRING (51.923128 58.960252, 59.226915 38.407407)

LINESTRING (59.226915 38.407407, 65.037553 65.666454)

LINESTRING (260.000000 60.000000, 247.844317 53.000802)

LINESTRING (260.000000 60.000000, 261.513436 43.370780)

LINESTRING (260.000000 60.000000, 250.551474 71.836527)

LINESTRING (260.000000 60.000000, 278.245074 38.743071)

LINESTRING (260.000000 60.000000, 262.427031 58.797844)

LINESTRING (260.000000 60.000000, 260.041074 46.552733)

LINESTRING (260.000000 60.000000, 245.044333 82.376996)

LINESTRING (260.000000 60.000000, 267.409594 62.088340)

LINESTRING (260.000000 60.000000, 239.175164 77.339430)

LINESTRING (260.000000 60.000000, 275.647987 73.418631)

LINESTRING (260.000000 60.000000, 253.950668 78.602343)

LINESTRING (260.000000 60.000000, 255.385180 43.683394)

LINESTRING (260.000000 60.000000, 241.866606 57.763619)

LINESTRING (260.000000 60.000000, 248.044526 78.518327)

LINESTRING (260.000000 60.000000, 258.490227 60.606342)

LINESTRING (260.000000 60.000000, 265.079440 52.125645)

LINESTRING (260.000000 60.000000, 271.354122 62.774808)

LINESTRING (260.000000 60.000000, 267.725248 65.909569)

LINESTRING (260.000000 60.000000, 266.137008 48.598345)

LINESTRING (260.000000 60.000000, 279.406678 80.082427)

LINESTRING (260.000000 60.000000, 283.136568 59.906648)

LINESTRING (260.000000 60.000000, 279.557849 78.697238)

LINESTRING (260.000000 60.000000, 250.612044 74.645701)

LINESTRING (260.000000 60.000000, 236.919266 68.847789)

LINESTRING (260.000000 60.000000, 267.818219 65.988468)

LINESTRING (247.844317 53.000802, 250.551474 71.836527)

LINESTRING (247.844317 53.000802, 278.245074 38.743071)

LINESTRING (247.844317 53.000802, 245.044333 82.376996)

LINESTRING (247.844317 53.000802, 275.647987 73.418631)

LINESTRING (247.844317 53.000802, 253.950668 78.602343)

LINESTRING (247.844317 53.000802, 241.866606 57.763619)

LINESTRING (247.844317 53.000802, 248.044526 78.518327)

LINESTRING (247.844317 53.000802, 265.079440 52.125645)

LINESTRING (247.844317 53.000802, 267.725248 65.909569)

LINESTRING (247.844317 53.000802, 279.557849 78.697238)

LINESTRING (247.844317 53.000802, 250.612044 74.645701)

LINESTRING (247.844317 53.000802, 267.818219 65.988468)

LINESTRING (261.513436 43.370780, 278.245074 38.743071)

LINESTRING (261.513436 43.370780, 245.044333 82.376996)

LINESTRING (261.513436 43.370780, 239.175164 77.339430)

LINESTRING (261.513436 43.370780, 275.647987 73.418631)

LINESTRING (261.513436 43.370780, 253.950668 78.602343)

LINESTRING (261.513436 43.370780, 255.385180 43.683394)

LINESTRING (261.513436 43.370780, 241.866606 57.763619)

LINESTRING (261.513436 43.370780, 271.354122 62.774808)

LINESTRING (261.513436 43.370780, 267.725248 65.909569)

LINESTRING (261.513436 43.370780, 266.137008 48.598345)

LINESTRING (261.513436 43.370780, 279.557849 78.697238)

LINESTRING (261.513436 43.370780, 250.612044 74.645701)

LINESTRING (261.513436 43.370780, 267.818219 65.988468)

LINESTRING (250.551474 71.836527, 262.427031 58.797844)

LINESTRING (250.551474 71.836527, 245.044333 82.376996)

LINESTRING (250.551474 71.836527, 267.409594 62.088340)

LINESTRING (250.551474 71.836527, 239.175164 77.339430)

LINESTRING (250.551474 71.836527, 253.950668 78.602343)

LINESTRING (250.551474 71.836527, 255.385180 43.683394)

LINESTRING (250.551474 71.836527, 267.725248 65.909569)

LINESTRING (250.551474 71.836527, 279.406678 80.082427)

LINESTRING (250.551474 71.836527, 283.136568 59.906648)

LINESTRING (250.551474 71.836527, 279.557849 78.697238)

LINESTRING (278.245074 38.743071, 245.044333 82.376996)

LINESTRING (278.245074 38.743071, 239.175164 77.339430)

LINESTRING (278.245074 38.743071, 275.647987 73.418631)

LINESTRING (278.245074 38.743071, 253.950668 78.602343)

LINESTRING (278.245074 38.743071, 241.866606 57.763619)

LINESTRING (278.245074 38.743071, 248.044526 78.518327)

LINESTRING (278.245074 38.743071, 267.725248 65.909569)

LINESTRING (278.245074 38.743071, 279.406678 80.082427)

LINESTRING (278.245074 38.743071, 279.557849 78.697238)

LINESTRING (278.245074 38.743071, 250.612044 74.645701)

LINESTRING (262.427031 58.797844, 245.044333 82.376996)

LINESTRING (262.427031 58.797844, 239.175164 77.339430)

LINESTRING (262.427031 58.797844, 275.647987 73.418631)

LINESTRING (262.427031 58.797844, 253.950668 78.602343)

LINESTRING (262.427031 58.797844, 255.385180 43.683394)

LINESTRING (262.427031 58.797844, 265.079440 52.125645)

LINESTRING (262.427031 58.797844, 266.137008 48.598345)

LINESTRING (262.427031 58.797844, 279.406678 80.082427)

LINESTRING (262.427031 58.797844, 279.557849 78.697238)

LINESTRING (262.427031 58.797844, 236.919266 68.847789)

LINESTRING (262.427031 58.797844, 267.818219 65.988468)

LINESTRING (260.041074 46.552733, 275.647987 73.418631)

LINESTRING (260.041074 46.552733, 248.044526 78.518327)

LINESTRING (260.041074 46.552733, 258.490227 60.606342)

LINESTRING (260.041074 46.552733, 271.354122 62.774808)

LINESTRING (260.041074 46.552733, 250.612044 74.645701)

LINESTRING (260.041074 46.552733, 267.818219 65.988468)

LINESTRING (245.044333 82.376996, 239.175164 77.339430)

LINESTRING (245.044333 82.376996, 255.385180 43.683394)

LINESTRING (245.044333 82.376996, 241.866606 57.763619)

LINESTRING (245.044333 82.376996, 265.079440 52.125645)

LINESTRING (245.044333 82.376996, 271.354122 62.774808)

LINESTRING (245.044333 82.376996, 267.725248 65.909569)

LINESTRING (245.044333 82.376996, 266.137008 48.598345)

LINESTRING (245.044333 82.376996, 279.557849 78.697238)

LINESTRING (245.044333 82.376996, 236.919266 68.847789)

LINESTRING (245.044333 82.376996, 267.818219 65.988468)

LINESTRING (267.409594 62.088340, 239.175164 77.339430)

LINESTRING (267.409594 62.088340, 253.950668 78.602343)

LINESTRING (267.409594 62.088340, 241.866606 57.763619)

LINESTRING (267.409594 62.088340, 248.044526 78.518327)

LINESTRING (267.409594 62.088340, 258.490227 60.606342)

LINESTRING (267.409594 62.088340, 271.354122 62.774808)

LINESTRING (267.409594 62.088340, 267.725248 65.909569)

LINESTRING (267.409594 62.088340, 250.612044 74.645701)

LINESTRING (267.409594 62.088340, 267.818219 65.988468)

LINESTRING (239.175164 77.339430, 255.385180 43.683394)

LINESTRING (239.175164 77.339430, 241.866606 57.763619)

LINESTRING (239.175164 77.339430, 248.044526 78.518327)

LINESTRING (239.175164 77.339430, 258.490227 60.606342)

LINESTRING (239.175164 77.339430, 265.079440 52.125645)

LINESTRING (239.175164 77.339430, 266.137008 48.598345)

LINESTRING (239.175164 77.339430, 279.406678 80.082427)

LINESTRING (239.175164 77.339430, 283.136568 59.906648)

LINESTRING (239.175164 77.339430, 279.557849 78.697238)

LINESTRING (239.175164 77.339430, 267.818219 65.988468)

LINESTRING (275.647987 73.418631, 253.950668 78.602343)

LINESTRING (275.647987 73.418631, 255.385180 43.683394)

LINESTRING (275.647987 73.418631, 248.044526 78.518327)

LINESTRING (275.647987 73.418631, 258.490227 60.606342)

LINESTRING (275.647987 73.418631, 267.725248 65.909569)

LINESTRING (275.647987 73.418631, 266.137008 48.598345)

LINESTRING (275.647987 73.418631, 283.136568 59.906648)

LINESTRING (275.647987 73.418631, 267.818219 65.988468)

LINESTRING (253.950668 78.602343, 255.385180 43.683394)

LINESTRING (253.950668 78.602343, 267.725248 65.909569)

LINESTRING (253.950668 78.602343, 279.406678 80.082427)

LINESTRING (253.950668 78.602343, 283.136568 59.906648)

LINESTRING (253.950668 78.602343, 279.557849 78.697238)

LINESTRING (253.950668 78.602343, 250.612044 74.645701)

LINESTRING (253.950668 78.602343, 236.919266 68.847789)

LINESTRING (253.950668 78.602343, 267.818219 65.988468)

LINESTRING (255.385180 43.683394, 241.866606 57.763619)

LINESTRING (255.385180 43.683394, 248.044526 78.518327)

LINESTRING (255.385180 43.683394, 258.490227 60.606342)

LINESTRING (255.385180 43.683394, 267.725248 65.909569)

LINESTRING (255.385180 43.683394, 266.137008 48.598345)

LINESTRING (255.385180 43.683394, 283.136568 59.906648)

LINESTRING (255.385180 43.683394, 236.919266 68.847789)

LINESTRING (255.385180 43.683394, 267.818219 65.988468)

LINESTRING (241.866606 57.763619, 258.490227 60.606342)

LINESTRING (241.866606 57.763619, 266.137008 48.598345)

LINESTRING (241.866606 57.763619, 283.136568 59.906648)

LINESTRING (241.866606 57.763619, 279.557849 78.697238)

LINESTRING (241.866606 57.763619, 236.919266 68.847789)

LINESTRING (248.044526 78.518327, 258.490227 60.606342)

LINESTRING (248.044526 78.518327, 265.079440 52.125645)

LINESTRING (248.044526 78.518327, 271.354122 62.774808)

LINESTRING (248.044526 78.518327, 267.725248 65.909569)

LINESTRING (248.044526 78.518327, 266.137008 48.598345)

LINESTRING (248.044526 78.518327, 279.406678 80.082427)

LINESTRING (248.044526 78.518327, 250.612044 74.645701)

LINESTRING (258.490227 60.606342, 265.079440 52.125645)

LINESTRING (258.490227 60.606342, 271.354122 62.774808)

LINESTRING (258.490227 60.606342, 267.725248 65.909569)

LINESTRING (258.490227 60.606342, 266.137008 48.598345)

LINESTRING (258.490227 60.606342, 279.406678 80.082427)

LINESTRING (258.490227 60.606342, 250.612044 74.645701)

LINESTRING (265.079440 52.125645, 271.354122 62.774808)

LINESTRING (265.079440 52.125645, 267.725248 65.909569)

LINESTRING (265.079440 52.125645, 266.137008 48.598345)

LINESTRING (265.079440 52.125645, 283.136568 59.906648)

LINESTRING (265.079440 52.125645, 236.919266 68.847789)

LINESTRING (265.079440 52.125645, 267.818219 65.988468)

LINESTRING (271.354122 62.774808, 279.557849 78.697238)

LINESTRING (271.354122 62.774808, 250.612044 74.645701)

LINESTRING (267.725248 65.909569, 279.406678 80.082427)

LINESTRING (267.725248 65.909569, 279.557849 78.697238)

LINESTRING (267.725248 65.909569, 250.612044 74.645701)

LINESTRING (267.725248 65.909569, 236.919266 68.847789)

LINESTRING (266.137008 48.598345, 279.557849 78.697238)

LINESTRING (266.137008 48.598345, 250.612044 74.645701)

LINESTRING (266.137008 48.598345, 236.919266 68.847789)

LINESTRING (279.406678 80.082427, 279.557849 78.697238)

LINESTRING (279.406678 80.082427, 250.612044 74.645701)

LINESTRING (279.406678 80.082427, 236.919266 68.847789)

LINESTRING (279.557849 78.697238, 236.919266 68.847789)

LINESTRING (279.557849 78.697238, 267.818219 65.988468)

LINESTRING (250.612044 74.645701, 236.919266 68.847789)

LINESTRING (250.612044 74.645701, 267.818219 65.988468)

LINESTRING (460.000000 60.000000, 474.077359 72.957556)

LINESTRING (460.000000 60.000000, 446.228964 55.106436)

LINESTRING (460.000000 60.000000, 441.021825 69.742680)

LINESTRING (460.000000 60.000000, 444.928655 47.895828)

LINESTRING (460.000000 60.000000, 448.009164 39.509794)

LINESTRING (460.000000 60.000000, 448.390841 48.852151)

LINESTRING (460.000000 60.000000, 470.570787 53.813774)

LINESTRING (460.000000 60.000000, 466.708577 51.627346)

LINESTRING (460.000000 60.000000, 477.451239 56.863608)

LINESTRING (460.000000 60.000000, 468.748857 67.638076)

LINESTRING (460.000000 60.000000, 469.978326 48.735534)

LINESTRING (460.000000 60.000000, 478.972188 82.479087)

LINESTRING (460.000000 60.000000, 445.697379 78.991267)

LINESTRING (460.000000 60.000000, 437.097293 78.847263)

LINESTRING (460.000000 60.000000, 472.373183 77.307483)

LINESTRING (460.000000 60.000000, 467.033797 56.640468)

LINESTRING (460.000000 60.000000, 459.950874 63.255056)

LINESTRING (460.000000 60.000000, 470.257307 77.747258)

LINESTRING (460.000000 60.000000, 442.666925 41.455040)

LINESTRING (460.000000 60.000000, 445.676778 50.516806)

LINESTRING (460.000000 60.000000, 446.693393 79.844405)

LINESTRING (460.000000 60.000000, 474.280574 64.537745)

LINESTRING (460.000000 60.000000, 466.006248 62.658680)

LINESTRING (460.000000 60.000000, 441.568154 59.689243)

LINESTRING (460.000000 60.000000, 437.493577 73.175977)

LINESTRING (474.077359 72.957556, 441.021825 69.742680)

LINESTRING (474.077359 72.957556, 444.928655 47.895828)

LINESTRING (474.077359 72.957556, 448.390841 48.852151)

LINESTRING (474.077359 72.957556, 470.570787 53.813774)

LINESTRING (474.077359 72.957556, 466.708577 51.627346)

LINESTRING (474.077359 72.957556, 478.972188 82.479087)

LINESTRING (474.077359 72.957556, 467.033797 56.640468)

LINESTRING (474.077359 72.957556, 459.950874 63.255056)

LINESTRING (474.077359 72.957556, 470.257307 77.747258)

LINESTRING (474.077359 72.957556, 466.006248 62.658680)

LINESTRING (474.077359 72.957556, 441.568154 59.689243)

LINESTRING (474.077359 72.957556, 437.493577 73.175977)

LINESTRING (446.228964 55.106436, 444.928655 47.895828)

LINESTRING (446.228964 55.106436, 448.009164 39.509794)

LINESTRING (446.228964 55.106436, 466.708577 51.627346)

LINESTRING (446.228964 55.106436, 477.451239 56.863608)

LINESTRING (446.228964 55.106436, 468.748857 67.638076)

LINESTRING (446.228964 55.106436, 469.978326 48.735534)

LINESTRING (446.228964 55.106436, 478.972188 82.479087)

LINESTRING (446.228964 55.106436, 445.697379 78.991267)

LINESTRING (446.228964 55.106436, 437.097293 78.847263)

LINESTRING (446.228964 55.106436, 472.373183 77.307483)

LINESTRING (446.228964 55.106436, 470.257307 77.747258)

LINESTRING (446.228964 55.106436, 474.280574 64.537745)

LINESTRING (446.228964 55.106436, 441.568154 59.689243)

LINESTRING (446.228964 55.106436, 437.493577 73.175977)

LINESTRING (441.021825 69.742680, 444.928655 47.895828)

LINESTRING (441.021825 69.742680, 448.009164 39.509794)

LINESTRING (441.021825 69.742680, 448.390841 48.852151)

LINESTRING (441.021825 69.742680, 470.570787 53.813774)

LINESTRING (441.021825 69.742680, 477.451239 56.863608)

LINESTRING (441.021825 69.742680, 445.697379 78.991267)

LINESTRING (441.021825 69.742680, 467.033797 56.640468)

LINESTRING (441.021825 69.742680, 459.950874 63.255056)

LINESTRING (441.021825 69.742680, 445.676778 50.516806)

LINESTRING (441.021825 69.742680, 474.280574 64.537745)

LINESTRING (441.021825 69.742680, 466.006248 62.658680)

LINESTRING (441.021825 69.742680, 441.568154 59.689243)

LINESTRING (441.021825 69.742680, 437.493577 73.175977)

LINESTRING (444.928655 47.895828, 477.451239 56.863608)

LINESTRING (444.928655 47.895828, 468.748857 67.638076)

LINESTRING (444.928655 47.895828, 445.697379 78.991267)

LINESTRING (444.928655 47.895828, 437.097293 78.847263)

LINESTRING (444.928655 47.895828, 459.950874 63.255056)

LINESTRING (444.928655 47.895828, 442.666925 41.455040)

LINESTRING (444.928655 47.895828, 445.676778 50.516806)

LINESTRING (444.928655 47.895828, 474.280574 64.537745)

LINESTRING (444.928655 47.895828, 441.568154 59.689243)

LINESTRING (448.009164 39.509794, 470.570787 53.813774)

LINESTRING (448.009164 39.509794, 466.708577 51.627346)

LINESTRING (448.009164 39.509794, 469.978326 48.735534)

LINESTRING (448.009164 39.509794, 478.972188 82.479087)

LINESTRING (448.009164 39.509794, 437.097293 78.847263)

LINESTRING (448.009164 39.509794, 470.257307 77.747258)

LINESTRING (448.009164 39.509794, 442.666925 41.455040)

LINESTRING (448.009164 39.509794, 445.676778 50.516806)

LINESTRING (448.009164 39.509794, 446.693393 79.844405)

LINESTRING (448.009164 39.509794, 466.006248 62.658680)

LINESTRING (448.009164 39.509794, 437.493577 73.175977)

LINESTRING (448.390841 48.852151, 466.708577 51.627346)

LINESTRING (448.390841 48.852151, 445.697379 78.991267)

LINESTRING (448.390841 48.852151, 459.950874 63.255056)

LINESTRING (448.390841 48.852151, 442.666925 41.455040)

LINESTRING (448.390841 48.852151, 466.006248 62.658680)

LINESTRING (448.390841 48.852151, 441.568154 59.689243)

LINESTRING (448.390841 48.852151, 437.493577 73.175977)

LINESTRING (470.570787 53.813774, 466.708577 51.627346)

LINESTRING (470.570787 53.813774, 467.033797 56.640468)

LINESTRING (470.570787 53.813774, 441.568154 59.689243)

LINESTRING (466.708577 51.627346, 445.697379 78.991267)

LINESTRING (466.708577 51.627346, 437.097293 78.847263)

LINESTRING (466.708577 51.627346, 467.033797 56.640468)

LINESTRING (466.708577 51.627346, 459.950874 63.255056)

LINESTRING (466.708577 51.627346, 442.666925 41.455040)

LINESTRING (466.708577 51.627346, 445.676778 50.516806)

LINESTRING (466.708577 51.627346, 466.006248 62.658680)

LINESTRING (466.708577 51.627346, 437.493577 73.175977)

LINESTRING (477.451239 56.863608, 468.748857 67.638076)

LINESTRING (477.451239 56.863608, 469.978326 48.735534)

LINESTRING (477.451239 56.863608, 478.972188 82.479087)

LINESTRING (477.451239 56.863608, 445.697379 78.991267)

LINESTRING (477.451239 56.863608, 472.373183 77.307483)

LINESTRING (477.451239 56.863608, 459.950874 63.255056)

LINESTRING (477.451239 56.863608, 442.666925 41.455040)

LINESTRING (477.451239 56.863608, 474.280574 64.537745)

LINESTRING (477.451239 56.863608, 466.006248 62.658680)

LINESTRING (477.451239 56.863608, 441.568154 59.689243)

LINESTRING (477.451239 56.863608, 437.493577 73.175977)

LINESTRING (468.748857 67.638076, 469.978326 48.735534)

LINESTRING (468.748857 67.638076, 478.972188 82.479087)

LINESTRING (468.748857 67.638076, 467.033797 56.640468)

LINESTRING (468.748857 67.638076, 459.950874 63.255056)

LINESTRING (468.748857 67.638076, 470.257307 77.747258)

LINESTRING (468.748857 67.638076, 445.676778 50.516806)

LINESTRING (468.748857 67.638076, 446.693393 79.844405)

LINESTRING (468.748857 67.638076, 474.280574 64.537745)

LINESTRING (468.748857 67.638076, 441.568154 59.689243)

LINESTRING (469.978326 48.735534, 478.972188 82.479087)

LINESTRING (469.978326 48.735534, 472.373183 77.307483)

LINESTRING (469.978326 48.735534, 467.033797 56.640468)

LINESTRING (469.978326 48.735534, 459.950874 63.255056)

LINESTRING (469.978326 48.735534, 470.257307 77.747258)

LINESTRING (469.978326 48.735534, 445.676778 50.516806)

LINESTRING (469.978326 48.735534, 446.693393 79.844405)

LINESTRING (478.972188 82.479087, 445.697379 78.991267)

LINESTRING (478.972188 82.479087, 472.373183 77.307483)

LINESTRING (478.972188 82.479087, 459.950874 63.255056)

LINESTRING (478.972188 82.479087, 445.676778 50.516806)

LINESTRING (478.972188 82.479087, 474.280574 64.537745)

LINESTRING (478.972188 82.479087, 466.006248 62.658680)

LINESTRING (478.972188 82.479087, 441.568154 59.689243)

LINESTRING (445.697379 78.991267, 437.097293 78.847263)

LINESTRING (445.697379 78.991267, 472.373183 77.307483)

LINESTRING (445.697379 78.991267, 459.950874 63.255056)

LINESTRING (445.697379 78.991267, 470.257307 77.747258)

LINESTRING (445.697379 78.991267, 445.676778 50.516806)

LINESTRING (445.697379 78.991267, 446.693393 79.844405)

LINESTRING (445.697379 78.991267, 474.280574 64.537745)

LINESTRING (445.697379 78.991267, 441.568154 59.689243)

LINESTRING (437.097293 78.847263, 472.373183 77.307483)

LINESTRING (437.097293 78.847263, 470.257307 77.747258)

LINESTRING (437.097293 78.847263, 442.666925 41.455040)

LINESTRING (437.097293 78.847263, 445.676778 50.516806)

LINESTRING (437.097293 78.847263, 466.006248 62.658680)

LINESTRING (437.097293 78.847263, 441.568154 59.689243)

LINESTRING (437.097293 78.847263, 437.493577 73.175977)

LINESTRING (472.373183 77.307483, 467.033797 56.640468)

LINESTRING (472.373183 77.307483, 459.950874 63.255056)

LINESTRING (472.373183 77.307483, 470.257307 77.747258)

LINESTRING (472.373183 77.307483, 466.006248 62.658680)

LINESTRING (472.373183 77.307483, 441.568154 59.689243)

LINESTRING (467.033797 56.640468, 459.950874 63.255056)

LINESTRING (467.033797 56.640468, 470.257307 77.747258)

LINESTRING (467.033797 56.640468, 442.666925 41.455040)

LINESTRING (467.033797 56.640468, 446.693393 79.844405)

LINESTRING (467.033797 56.640468, 466.006248 62.658680)

LINESTRING (467.033797 56.640468, 441.568154 59.689243)

LINESTRING (467.033797 56.640468, 437.493577 73.175977)

LINESTRING (459.950874 63.255056, 470.257307 77.747258)

LINESTRING (459.950874 63.255056, 445.676778 50.516806)

LINESTRING (459.950874 63.255056, 466.006248 62.658680)

LINESTRING (459.950874 63.255056, 441.568154 59.689243)

LINESTRING (470.257307 77.747258, 442.666925 41.455040)

LINESTRING (470.257307 77.747258, 437.493577 73.175977)

LINESTRING (442.666925 41.455040, 474.280574 64.537745)

LINESTRING (442.666925 41.455040, 466.006248 62.658680)

LINESTRING (442.666925 41.455040, 437.493577 73.175977)

LINESTRING (445.676778 50.516806, 446.693393 79.844405)

LINESTRING (445.676778 50.516806, 474.280574 64.537745)

LINESTRING (445.676778 50.516806, 441.568154 59.689243)

LINESTRING (445.676778 50.516806, 437.493577 73.175977)

LINESTRING (446.693393 79.844405, 466.006248 62.658680)

LINESTRING (474.280574 64.537745, 466.006248 62.658680)

LINESTRING (474.280574 64.537745, 441.568154 59.689243)

LINESTRING (441.568154 59.689243, 437.493577 73.175977)

LINESTRING (60.000000 260.000000, 48.778313 266.312958)

LINESTRING (60.000000 260.000000, 76.158353 282.157392)

LINESTRING (60.000000 260.000000, 77.045050 274.255261)

LINESTRING (60.000000 260.000000, 62.470048 267.743889)

LINESTRING (60.000000 260.000000, 68.656010 266.041139)

LINESTRING (60.000000 260.000000, 72.581371 266.018117)

LINESTRING (60.000000 260.000000, 58.188951 262.908782)

LINESTRING (60.000000 260.000000, 45.383254 261.505552)

LINESTRING (60.000000 260.000000, 71.947539 249.641633)

LINESTRING (60.000000 260.000000, 50.565939 247.705630)

LINESTRING (60.000000 260.000000, 38.512656 259.705952)

LINESTRING (60.000000 260.000000, 48.895151 274.829859)

LINESTRING (60.000000 260.000000, 65.678618 276.345577)

LINESTRING (60.000000 260.000000, 61.271319 252.984331)

LINESTRING (60.000000 260.000000, 48.544364 265.919590)

LINESTRING (60.000000 260.000000, 72.629902 279.275639)

LINESTRING (60.000000 260.000000, 72.069695 243.591623)

LINESTRING (60.000000 260.000000, 76.378526 244.724414)

LINESTRING (60.000000 260.000000, 80.197335 256.343714)

LINESTRING (60.000000 260.000000, 69.955606 253.690139)

LINESTRING (60.000000 260.000000, 36.688674 277.565665)

LINESTRING (60.000000 260.000000, 52.453726 276.374538)

LINESTRING (60.000000 260.000000, 81.591630 271.855677)

LINESTRING (60.000000 260.000000, 42.827969 245.307439)

LINESTRING (60.000000 260.000000, 37.766340 275.120040)

LINESTRING (48.778313 266.312958, 62.470048 267.743889)

LINESTRING (48.778313 266.312958, 68.656010 266.041139)

LINESTRING (48.778313 266.312958, 72.581371 266.018117)

LINESTRING (48.778313 266.312958, 58.188951 262.908782)

LINESTRING (48.778313 266.312958, 71.947539 249.641633)

LINESTRING (48.778313 266.312958, 50.565939 247.705630)

LINESTRING (48.778313 266.312958, 38.512656 259.705952)

LINESTRING (48.778313 266.312958, 48.895151 274.829859)

LINESTRING (48.778313 266.312958, 65.678618 276.345577)

LINESTRING (48.778313 266.312958, 48.544364 265.919590)

LINESTRING (48.778313 266.312958, 72.069695 243.591623)

LINESTRING (48.778313 266.312958, 80.197335 256.343714)

LINESTRING (48.778313 266.312958, 81.591630 271.855677)

LINESTRING (48.778313 266.312958, 42.827969 245.307439)

LINESTRING (48.778313 266.312958, 37.766340 275.120040)

LINESTRING (76.158353 282.157392, 62.470048 267.743889)

LINESTRING (76.158353 282.157392, 68.656010 266.041139)

LINESTRING (76.158353 282.157392, 45.383254 261.505552)

LINESTRING (76.158353 282.157392, 71.947539 249.641633)

LINESTRING (76.158353 282.157392, 50.565939 247.705630)

LINESTRING (76.158353 282.157392, 38.512656 259.705952)

LINESTRING (76.158353 282.157392, 65.678618 276.345577)

LINESTRING (76.158353 282.157392, 72.629902 279.275639)

LINESTRING (76.158353 282.157392, 72.069695 243.591623)

LINESTRING (76.158353 282.157392, 80.197335 256.343714)

LINESTRING (76.158353 282.157392, 36.688674 277.565665)

LINESTRING (76.158353 282.157392, 52.453726 276.374538)

LINESTRING (77.045050 274.255261, 62.470048 267.743889)

LINESTRING (77.045050 274.255261, 58.188951 262.908782)

LINESTRING (77.045050 274.255261, 50.565939 247.705630)

LINESTRING (77.045050 274.255261, 38.512656 259.705952)

LINESTRING (77.045050 274.255261, 72.629902 279.275639)

LINESTRING (77.045050 274.255261, 76.378526 244.724414)

LINESTRING (77.045050 274.255261, 80.197335 256.343714)

LINESTRING (77.045050 274.255261, 69.955606 253.690139)

LINESTRING (77.045050 274.255261, 36.688674 277.565665)

LINESTRING (77.045050 274.255261, 52.453726 276.374538)

LINESTRING (77.045050 274.255261, 81.591630 271.855677)

LINESTRING (77.045050 274.255261, 42.827969 245.307439)

LINESTRING (62.470048 267.743889, 58.188951 262.908782)

LINESTRING (62.470048 267.743889, 45.383254 261.505552)

LINESTRING (62.470048 267.743889, 50.565939 247.705630)

LINESTRING (62.470048 267.743889, 38.512656 259.705952)

LINESTRING (62.470048 267.743889, 48.895151 274.829859)

LINESTRING (62.470048 267.743889, 65.678618 276.345577)

LINESTRING (62.470048 267.743889, 61.271319 252.984331)

LINESTRING (62.470048 267.743889, 48.544364 265.919590)

LINESTRING (62.470048 267.743889, 76.378526 244.724414)

LINESTRING (62.470048 267.743889, 80.197335 256.343714)

LINESTRING (62.470048 267.743889, 52.453726 276.374538)

LINESTRING (68.656010 266.041139, 58.188951 262.908782)

LINESTRING (68.656010 266.041139, 45.383254 261.505552)

LINESTRING (68.656010 266.041139, 71.947539 249.641633)

LINESTRING (68.656010 266.041139, 50.565939 247.705630)

LINESTRING (68.656010 266.041139, 65.678618 276.345577)

LINESTRING (68.656010 266.041139, 48.544364 265.919590)

LINESTRING (68.656010 266.041139, 72.629902 279.275639)

LINESTRING (68.656010 266.041139, 72.069695 243.591623)

LINESTRING (68.656010 266.041139, 76.378526 244.724414)

LINESTRING (68.656010 266.041139, 80.197335 256.343714)

LINESTRING (68.656010 266.041139, 52.453726 276.374538)

LINESTRING (68.656010 266.041139, 81.591630 271.855677)

LINESTRING (68.656010 266.041139, 37.766340 275.120040)

LINESTRING (72.581371 266.018117, 71.947539 249.641633)

LINESTRING (72.581371 266.018117, 48.895151 274.829859)

LINESTRING (72.581371 266.018117, 61.271319 252.984331)

LINESTRING (72.581371 266.018117, 72.629902 279.275639)

LINESTRING (72.581371 266.018117, 72.069695 243.591623)

LINESTRING (72.581371 266.018117, 69.955606 253.690139)

LINESTRING (72.581371 266.018117, 52.453726 276.374538)

LINESTRING (72.581371 266.018117, 37.766340 275.120040)

LINESTRING (58.188951 262.908782, 71.947539 249.641633)

LINESTRING (58.188951 262.908782, 48.895151 274.829859)

LINESTRING (58.188951 262.908782, 61.271319 252.984331)

LINESTRING (58.188951 262.908782, 48.544364 265.919590)

LINESTRING (58.188951 262.908782, 72.629902 279.275639)

LINESTRING (58.188951 262.908782, 72.069695 243.591623)

LINESTRING (58.188951 262.908782, 80.197335 256.343714)

LINESTRING (58.188951 262.908782, 36.688674 277.565665)

LINESTRING (58.188951 262.908782, 81.591630 271.855677)

LINESTRING (58.188951 262.908782, 42.827969 245.307439)

LINESTRING (58.188951 262.908782, 37.766340 275.120040)

LINESTRING (45.383254 261.505552, 71.947539 249.641633)

LINESTRING (45.383254 261.505552, 38.512656 259.705952)

LINESTRING (45.383254 261.505552, 48.895151 274.829859)

LINESTRING (45.383254 261.505552, 65.678618 276.345577)

LINESTRING (45.383254 261.505552, 48.544364 265.919590)

LINESTRING (45.383254 261.505552, 72.069695 243.591623)

LINESTRING (45.383254 261.505552, 76.378526 244.724414)

LINESTRING (45.383254 261.505552, 80.197335 256.343714)

LINESTRING (45.383254 261.505552, 36.688674 277.565665)

LINESTRING (45.383254 261.505552, 42.827969 245.307439)

LINESTRING (45.383254 261.505552, 37.766340 275.120040)

LINESTRING (71.947539 249.641633, 48.895151 274.829859)

LINESTRING (71.947539 249.641633, 72.629902 279.275639)

LINESTRING (71.947539 249.641633, 76.378526 244.724414)

LINESTRING (71.947539 249.641633, 69.955606 253.690139)

LINESTRING (71.947539 249.641633, 81.591630 271.855677)

LINESTRING (50.565939 247.705630, 38.512656 259.705952)

LINESTRING (50.565939 247.705630, 48.895151 274.829859)

LINESTRING (50.565939 247.705630, 61.271319 252.984331)

LINESTRING (50.565939 247.705630, 48.544364 265.919590)

LINESTRING (50.565939 247.705630, 72.629902 279.275639)

LINESTRING (50.565939 247.705630, 72.069695 243.591623)

LINESTRING (50.565939 247.705630, 76.378526 244.724414)

LINESTRING (50.565939 247.705630, 36.688674 277.565665)

LINESTRING (50.565939 247.705630, 81.591630 271.855677)

LINESTRING (50.565939 247.705630, 37.766340 275.120040)

LINESTRING (38.512656 259.705952, 48.544364 265.919590)

LINESTRING (38.512656 259.705952, 72.629902 279.275639)

LINESTRING (38.512656 259.705952, 76.378526 244.724414)

LINESTRING (38.512656 259.705952, 80.197335 256.343714)

LINESTRING (38.512656 259.705952, 69.955606 253.690139)

LINESTRING (38.512656 259.705952, 36.688674 277.565665)

LINESTRING (38.512656 259.705952, 81.591630 271.855677)

LINESTRING (38.512656 259.705952, 42.827969 245.307439)

LINESTRING (48.895151 274.829859, 65.678618 276.345577)

LINESTRING (48.895151 274.829859, 72.069695 243.591623)

LINESTRING (48.895151 274.829859, 76.378526 244.724414)

LINESTRING (48.895151 274.829859, 69.955606 253.690139)

LINESTRING (48.895151 274.829859, 36.688674 277.565665)

LINESTRING (48.895151 274.829859, 52.453726 276.374538)

LINESTRING (48.895151 274.829859, 81.591630 271.855677)

LINESTRING (48.895151 274.829859, 37.766340 275.120040)

LINESTRING (65.678618 276.345577, 72.629902 279.275639)

LINESTRING (65.678618 276.345577, 76.378526 244.724414)

LINESTRING (65.678618 276.345577, 36.688674 277.565665)

LINESTRING (61.271319 252.984331, 76.378526 244.724414)

LINESTRING (61.271319 252.984331, 69.955606 253.690139)

LINESTRING (61.271319 252.984331, 52.453726 276.374538)

LINESTRING (61.271319 252.984331, 81.591630 271.855677)

LINESTRING (48.544364 265.919590, 72.629902 279.275639)

LINESTRING (48.544364 265.919590, 36.688674 277.565665)

LINESTRING (48.544364 265.919590, 52.453726 276.374538)

LINESTRING (48.544364 265.919590, 81.591630 271.855677)

LINESTRING (48.544364 265.919590, 42.827969 245.307439)

LINESTRING (48.544364 265.919590, 37.766340 275.120040)

LINESTRING (72.629902 279.275639, 80.197335 256.343714)

LINESTRING (72.629902 279.275639, 69.955606 253.690139)

LINESTRING (72.629902 279.275639, 81.591630 271.855677)

LINESTRING (72.069695 243.591623, 69.955606 253.690139)

LINESTRING (72.069695 243.591623, 52.453726 276.374538)

LINESTRING (72.069695 243.591623, 81.591630 271.855677)

LINESTRING (72.069695 243.591623, 37.766340 275.120040)

LINESTRING (76.378526 244.724414, 80.197335 256.343714)

LINESTRING (76.378526 244.724414, 36.688674 277.565665)

LINESTRING (76.378526 244.724414, 52.453726 276.374538)

LINESTRING (80.197335 256.343714, 36.688674 277.565665)

LINESTRING (80.197335 256.343714, 81.591630 271.855677)

LINESTRING (69.955606 253.690139, 81.591630 271.855677)

LINESTRING (69.955606 253.690139, 37.766340 275.120040)

LINESTRING (52.453726 276.374538, 37.766340 275.120040)

LINESTRING (81.591630 271.855677, 37.766340 275.120040)

LINESTRING (260.000000 260.000000, 283.475028 276.735623)

LINESTRING (260.000000 260.000000, 281.516378 246.660064)

LINESTRING (260.000000 260.000000, 249.403444 261.919174)

LINESTRING (260.000000 260.000000, 249.386311 264.676888)

LINESTRING (260.000000 260.000000, 247.268469 271.514357)

LINESTRING (260.000000 260.000000, 254.221500 250.695660)

LINESTRING (260.000000 260.000000, 256.732724 260.135429)

LINESTRING (260.000000 260.000000, 270.740201 252.981446)

LINESTRING (260.000000 260.000000, 271.947692 279.894101)

LINESTRING (260.000000 260.000000, 245.896839 260.989813)

LINESTRING (260.000000 260.000000, 275.404383 261.361943)

LINESTRING (260.000000 260.000000, 253.399317 279.431941)

LINESTRING (260.000000 260.000000, 250.803746 246.787905)

LINESTRING (260.000000 260.000000, 261.564839 282.914147)

LINESTRING (260.000000 260.000000, 273.256301 256.936698)

LINESTRING (260.000000 260.000000, 259.150092 269.706268)

LINESTRING (260.000000 260.000000, 279.982576 259.778743)

LINESTRING (260.000000 260.000000, 277.040903 271.900068)

LINESTRING (260.000000 260.000000, 268.406711 265.123617)

LINESTRING (260.000000 260.000000, 275.392616 236.850530)

LINESTRING (260.000000 260.000000, 260.517008 239.069380)

LINESTRING (260.000000 260.000000, 261.966891 269.193116)

LINESTRING (260.000000 260.000000, 270.730527 260.858160)

LINESTRING (260.000000 260.000000, 271.216977 269.223593)

LINESTRING (260.000000 260.000000, 282.902485 255.041412)

LINESTRING (283.475028 276.735623, 281.516378 246.660064)

LINESTRING (283.475028 276.735623, 249.403444 261.919174)

LINESTRING (283.475028 276.735623, 256.732724 260.135429)

LINESTRING (283.475028 276.735623, 271.947692 279.894101)

LINESTRING (283.475028 276.735623, 245.896839 260.989813)

LINESTRING (283.475028 276.735623, 253.399317 279.431941)

LINESTRING (283.475028 276.735623, 250.803746 246.787905)

LINESTRING (283.475028 276.735623, 261.564839 282.914147)

LINESTRING (283.475028 276.735623, 259.150092 269.706268)

LINESTRING (283.475028 276.735623, 277.040903 271.900068)

LINESTRING (283.475028 276.735623, 268.406711 265.123617)

LINESTRING (283.475028 276.735623, 260.517008 239.069380)

LINESTRING (283.475028 276.735623, 270.730527 260.858160)

LINESTRING (283.475028 276.735623, 271.216977 269.223593)

LINESTRING (281.516378 246.660064, 247.268469 271.514357)

LINESTRING (281.516378 246.660064, 254.221500 250.695660)

LINESTRING (281.516378 246.660064, 270.740201 252.981446)

LINESTRING (281.516378 246.660064, 271.947692 279.894101)

LINESTRING (281.516378 246.660064, 275.404383 261.361943)

LINESTRING (281.516378 246.660064, 273.256301 256.936698)

LINESTRING (281.516378 246.660064, 275.392616 236.850530)

LINESTRING (281.516378 246.660064, 261.966891 269.193116)

LINESTRING (281.516378 246.660064, 282.902485 255.041412)

LINESTRING (249.403444 261.919174, 254.221500 250.695660)

LINESTRING (249.403444 261.919174, 256.732724 260.135429)

LINESTRING (249.403444 261.919174, 271.947692 279.894101)

LINESTRING (249.403444 261.919174, 261.564839 282.914147)

LINESTRING (249.403444 261.919174, 273.256301 256.936698)

LINESTRING (249.403444 261.919174, 277.040903 271.900068)

LINESTRING (249.403444 261.919174, 275.392616 236.850530)

LINESTRING (249.403444 261.919174, 261.966891 269.193116)

LINESTRING (249.403444 261.919174, 271.216977 269.223593)

LINESTRING (249.386311 264.676888, 256.732724 260.135429)

LINESTRING (249.386311 264.676888, 270.740201 252.981446)

LINESTRING (249.386311 264.676888, 271.947692 279.894101)

LINESTRING (249.386311 264.676888, 245.896839 260.989813)

LINESTRING (249.386311 264.676888, 275.404383 261.361943)

LINESTRING (249.386311 264.676888, 277.040903 271.900068)

LINESTRING (249.386311 264.676888, 270.730527 260.858160)

LINESTRING (249.386311 264.676888, 271.216977 269.223593)

LINESTRING (249.386311 264.676888, 282.902485 255.041412)

LINESTRING (247.268469 271.514357, 254.221500 250.695660)

LINESTRING (247.268469 271.514357, 270.740201 252.981446)

LINESTRING (247.268469 271.514357, 271.947692 279.894101)

LINESTRING (247.268469 271.514357, 245.896839 260.989813)

LINESTRING (247.268469 271.514357, 253.399317 279.431941)

LINESTRING (247.268469 271.514357, 261.564839 282.914147)

LINESTRING (247.268469 271.514357, 273.256301 256.936698)

LINESTRING (247.268469 271.514357, 279.982576 259.778743)

LINESTRING (247.268469 271.514357, 268.406711 265.123617)

LINESTRING (247.268469 271.514357, 275.392616 236.850530)

LINESTRING (247.268469 271.514357, 270.730527 260.858160)

LINESTRING (247.268469 271.514357, 271.216977 269.223593)

LINESTRING (247.268469 271.514357, 282.902485 255.041412)

LINESTRING (254.221500 250.695660, 256.732724 260.135429)

LINESTRING (254.221500 250.695660, 271.947692 279.894101)

LINESTRING (254.221500 250.695660, 275.404383 261.361943)

LINESTRING (254.221500 250.695660, 253.399317 279.431941)

LINESTRING (254.221500 250.695660, 250.803746 246.787905)

LINESTRING (254.221500 250.695660, 273.256301 256.936698)

LINESTRING (254.221500 250.695660, 279.982576 259.778743)

LINESTRING (254.221500 250.695660, 277.040903 271.900068)

LINESTRING (254.221500 250.695660, 275.392616 236.850530)

LINESTRING (254.221500 250.695660, 270.730527 260.858160)

LINESTRING (254.221500 250.695660, 271.216977 269.223593)

LINESTRING (254.221500 250.695660, 282.902485 255.041412)

LINESTRING (256.732724 260.135429, 270.740201 252.981446)

LINESTRING (256.732724 260.135429, 271.947692 279.894101)

LINESTRING (256.732724 260.135429, 245.896839 260.989813)

LINESTRING (256.732724 260.135429, 250.803746 246.787905)

LINESTRING (256.732724 260.135429, 261.564839 282.914147)

LINESTRING (256.732724 260.135429, 273.256301 256.936698)

LINESTRING (256.732724 260.135429, 259.150092 269.706268)

LINESTRING (256.732724 260.135429, 279.982576 259.778743)

LINESTRING (256.732724 260.135429, 268.406711 265.123617)

LINESTRING (256.732724 260.135429, 260.517008 239.069380)

LINESTRING (256.732724 260.135429, 282.902485 255.041412)

LINESTRING (270.740201 252.981446, 271.947692 279.894101)

LINESTRING (270.740201 252.981446, 275.404383 261.361943)

LINESTRING (270.740201 252.981446, 250.803746 246.787905)

LINESTRING (270.740201 252.981446, 259.150092 269.706268)

LINESTRING (270.740201 252.981446, 279.982576 259.778743)

LINESTRING (270.740201 252.981446, 275.392616 236.850530)

LINESTRING (270.740201 252.981446, 260.517008 239.069380)

LINESTRING (270.740201 252.981446, 270.730527 260.858160)

LINESTRING (270.740201 252.981446, 271.216977 269.223593)

LINESTRING (270.740201 252.981446, 282.902485 255.041412)

LINESTRING (271.947692 279.894101, 245.896839 260.989813)

LINESTRING (271.947692 279.894101, 253.399317 279.431941)

LINESTRING (271.947692 279.894101, 261.564839 282.914147)

LINESTRING (271.947692 279.894101, 273.256301 256.936698)

LINESTRING (271.947692 279.894101, 259.150092 269.706268)

LINESTRING (271.947692 279.894101, 279.982576 259.778743)

LINESTRING (271.947692 279.894101, 268.406711 265.123617)

LINESTRING (271.947692 279.894101, 275.392616 236.850530)

LINESTRING (271.947692 279.894101, 271.216977 269.223593)

LINESTRING (271.947692 279.894101, 282.902485 255.041412)

LINESTRING (245.896839 260.989813, 275.404383 261.361943)

LINESTRING (245.896839 260.989813, 250.803746 246.787905)

LINESTRING (245.896839 260.989813, 261.564839 282.914147)

LINESTRING (245.896839 260.989813, 273.256301 256.936698)

LINESTRING (245.896839 260.989813, 259.150092 269.706268)

LINESTRING (245.896839 260.989813, 279.982576 259.778743)

LINESTRING (245.896839 260.989813, 268.406711 265.123617)

LINESTRING (245.896839 260.989813, 270.730527 260.858160)

LINESTRING (245.896839 260.989813, 282.902485 255.041412)

LINESTRING (275.404383 261.361943, 253.399317 279.431941)

LINESTRING (275.404383 261.361943, 273.256301 256.936698)

LINESTRING (275.404383 261.361943, 259.150092 269.706268)

LINESTRING (275.404383 261.361943, 279.982576 259.778743)

LINESTRING (275.404383 261.361943, 261.966891 269.193116)

LINESTRING (275.404383 261.361943, 270.730527 260.858160)

LINESTRING (275.404383 261.361943, 271.216977 269.223593)

LINESTRING (275.404383 261.361943, 282.902485 255.041412)

LINESTRING (253.399317 279.431941, 261.564839 282.914147)

LINESTRING (253.399317 279.431941, 273.256301 256.936698)

LINESTRING (253.399317 279.431941, 268.406711 265.123617)

LINESTRING (253.399317 279.431941, 275.392616 236.850530)

LINESTRING (253.399317 279.431941, 260.517008 239.069380)

LINESTRING (253.399317 279.431941, 261.966891 269.193116)

LINESTRING (253.399317 279.431941, 270.730527 260.858160)

LINESTRING (253.399317 279.431941, 271.216977 269.223593)

LINESTRING (250.803746 246.787905, 279.982576 259.778743)

LINESTRING (250.803746 246.787905, 275.392616 236.850530)

LINESTRING (250.803746 246.787905, 261.966891 269.193116)

LINESTRING (250.803746 246.787905, 270.730527 260.858160)

LINESTRING (250.803746 246.787905, 271.216977 269.223593)

LINESTRING (250.803746 246.787905, 282.902485 255.041412)

LINESTRING (261.564839 282.914147, 273.256301 256.936698)

LINESTRING (261.564839 282.914147, 259.150092 269.706268)

LINESTRING (261.564839 282.914147, 279.982576 259.778743)

LINESTRING (261.564839 282.914147, 277.040903 271.900068)

LINESTRING (261.564839 282.914147, 268.406711 265.123617)

LINESTRING (261.564839 282.914147, 275.392616 236.850530)

LINESTRING (261.564839 282.914147, 261.966891 269.193116)

LINESTRING (261.564839 282.914147, 270.730527 260.858160)

LINESTRING (273.256301 256.936698, 260.517008 239.069380)

LINESTRING (273.256301 256.936698, 261.966891 269.193116)

LINESTRING (273.256301 256.936698, 270.730527 260.858160)

LINESTRING (273.256301 256.936698, 271.216977 269.223593)

LINESTRING (273.256301 256.936698, 282.902485 255.041412)

LINESTRING (259.150092 269.706268, 279.982576 259.778743)

LINESTRING (259.150092 269.706268, 275.392616 236.850530)

LINESTRING (279.982576 259.778743, 277.040903 271.900068)

LINESTRING (279.982576 259.778743, 275.392616 236.850530)

LINESTRING (279.982576 259.778743, 270.730527 260.858160)

LINESTRING (279.982576 259.778743, 271.216977 269.223593)

LINESTRING (279.982576 259.778743, 282.902485 255.041412)

LINESTRING (277.040903 271.900068, 268.406711 265.123617)

LINESTRING (277.040903 271.900068, 275.392616 236.850530)

LINESTRING (277.040903 271.900068, 260.517008 239.069380)

LINESTRING (277.040903 271.900068, 270.730527 260.858160)

LINESTRING (277.040903 271.900068, 271.216977 269.223593)

LINESTRING (268.406711 265.123617, 260.517008 239.069380)

LINESTRING (268.406711 265.123617, 270.730527 260.858160)

LINESTRING (268.406711 265.123617, 271.216977 269.223593)

LINESTRING (275.392616 236.850530, 260.517008 239.069380)

LINESTRING (275.392616 236.850530, 261.966891 269.193116)

LINESTRING (275.392616 236.850530, 270.730527 260.858160)

LINESTRING (275.392616 236.850530, 271.216977 269.223593)

LINESTRING (275.392616 236.850530, 282.902485 255.041412)

LINESTRING (260.517008 239.069380, 261.966891 269.193116)

LINESTRING (261.966891 269.193116, 270.730527 260.858160)

LINESTRING (261.966891 269.193116, 271.216977 269.223593)

LINESTRING (261.966891 269.193116, 282.902485 255.041412)

LINESTRING (270.730527 260.858160, 271.216977 269.223593)

LINESTRING (271.216977 269.223593, 282.902485 255.041412)

LINESTRING (460.000000 260.000000, 480.413520 256.208530)

LINESTRING (460.000000 260.000000, 440.010352 258.424915)

LINESTRING (460.000000 260.000000, 466.661048 259.479663)

LINESTRING (460.000000 260.000000, 481.087036 269.322042)

LINESTRING (460.000000 260.000000, 481.375840 270.811710)

LINESTRING (460.000000 260.000000, 468.831015 257.637939)

LINESTRING (460.000000 260.000000, 470.329220 256.282031)

LINESTRING (460.000000 260.000000, 438.602383 254.042402)

LINESTRING (460.000000 260.000000, 441.269899 242.123575)

LINESTRING (460.000000 260.000000, 481.491223 275.929167)

LINESTRING (460.000000 260.000000, 459.109386 252.697616)

LINESTRING (460.000000 260.000000, 483.368363 252.396697)

LINESTRING (460.000000 260.000000, 470.718256 251.535834)

LINESTRING (460.000000 260.000000, 447.192448 254.282958)

LINESTRING (460.000000 260.000000, 475.742360 267.805273)

LINESTRING (460.000000 260.000000, 463.237892 260.035154)

LINESTRING (460.000000 260.000000, 438.630887 283.945741)

LINESTRING (460.000000 260.000000, 447.620738 264.123878)

LINESTRING (460.000000 260.000000, 454.233811 274.051711)

LINESTRING (460.000000 260.000000, 445.054996 275.944450)

LINESTRING (460.000000 260.000000, 473.076802 262.593784)

LINESTRING (460.000000 260.000000, 448.467936 276.473066)

LINESTRING (460.000000 260.000000, 468.559953 265.831968)

LINESTRING (460.000000 260.000000, 467.481850 247.895222)

LINESTRING (460.000000 260.000000, 465.147732 260.551140)

LINESTRING (480.413520 256.208530, 481.087036 269.322042)

LINESTRING (480.413520 256.208530, 438.602383 254.042402)

LINESTRING (480.413520 256.208530, 441.269899 242.123575)

LINESTRING (480.413520 256.208530, 481.491223 275.929167)

LINESTRING (480.413520 256.208530, 459.109386 252.697616)

LINESTRING (480.413520 256.208530, 447.192448 254.282958)

LINESTRING (480.413520 256.208530, 463.237892 260.035154)

LINESTRING (480.413520 256.208530, 438.630887 283.945741)

LINESTRING (480.413520 256.208530, 445.054996 275.944450)

LINESTRING (480.413520 256.208530, 473.076802 262.593784)

LINESTRING (440.010352 258.424915, 466.661048 259.479663)

LINESTRING (440.010352 258.424915, 481.087036 269.322042)

LINESTRING (440.010352 258.424915, 468.831015 257.637939)

LINESTRING (440.010352 258.424915, 481.491223 275.929167)

LINESTRING (440.010352 258.424915, 459.109386 252.697616)

LINESTRING (440.010352 258.424915, 470.718256 251.535834)

LINESTRING (440.010352 258.424915, 447.192448 254.282958)

LINESTRING (440.010352 258.424915, 463.237892 260.035154)

LINESTRING (440.010352 258.424915, 447.620738 264.123878)

LINESTRING (440.010352 258.424915, 445.054996 275.944450)

LINESTRING (440.010352 258.424915, 473.076802 262.593784)

LINESTRING (440.010352 258.424915, 448.467936 276.473066)

LINESTRING (440.010352 258.424915, 465.147732 260.551140)

LINESTRING (466.661048 259.479663, 468.831015 257.637939)

LINESTRING (466.661048 259.479663, 470.329220 256.282031)

LINESTRING (466.661048 259.479663, 441.269899 242.123575)

LINESTRING (466.661048 259.479663, 459.109386 252.697616)

LINESTRING (466.661048 259.479663, 483.368363 252.396697)

LINESTRING (466.661048 259.479663, 470.718256 251.535834)

LINESTRING (466.661048 259.479663, 438.630887 283.945741)

LINESTRING (466.661048 259.479663, 447.620738 264.123878)

LINESTRING (466.661048 259.479663, 473.076802 262.593784)

LINESTRING (466.661048 259.479663, 448.467936 276.473066)

LINESTRING (466.661048 259.479663, 465.147732 260.551140)

LINESTRING (481.087036 269.322042, 468.831015 257.637939)

LINESTRING (481.087036 269.322042, 438.602383 254.042402)

LINESTRING (481.087036 269.322042, 470.718256 251.535834)

LINESTRING (481.087036 269.322042, 475.742360 267.805273)

LINESTRING (481.087036 269.322042, 445.054996 275.944450)

LINESTRING (481.087036 269.322042, 448.467936 276.473066)

LINESTRING (481.087036 269.322042, 465.147732 260.551140)

LINESTRING (481.375840 270.811710, 470.329220 256.282031)

LINESTRING (481.375840 270.811710, 438.602383 254.042402)

LINESTRING (481.375840 270.811710, 459.109386 252.697616)

LINESTRING (481.375840 270.811710, 483.368363 252.396697)

LINESTRING (481.375840 270.811710, 470.718256 251.535834)

LINESTRING (481.375840 270.811710, 447.192448 254.282958)

LINESTRING (481.375840 270.811710, 438.630887 283.945741)

LINESTRING (481.375840 270.811710, 447.620738 264.123878)

LINESTRING (481.375840 270.811710, 445.054996 275.944450)

LINESTRING (481.375840 270.811710, 473.076802 262.593784)

LINESTRING (481.375840 270.811710, 467.481850 247.895222)

LINESTRING (468.831015 257.637939, 481.491223 275.929167)

LINESTRING (468.831015 257.637939, 463.237892 260.035154)

LINESTRING (468.831015 257.637939, 438.630887 283.945741)

LINESTRING (468.831015 257.637939, 447.620738 264.123878)

LINESTRING (468.831015 257.637939, 454.233811 274.051711)

LINESTRING (468.831015 257.637939, 445.054996 275.944450)

LINESTRING (468.831015 257.637939, 473.076802 262.593784)

LINESTRING (468.831015 257.637939, 448.467936 276.473066)

LINESTRING (468.831015 257.637939, 467.481850 247.895222)

LINESTRING (470.329220 256.282031, 470.718256 251.535834)

LINESTRING (470.329220 256.282031, 447.192448 254.282958)

LINESTRING (470.329220 256.282031, 475.742360 267.805273)

LINESTRING (470.329220 256.282031, 463.237892 260.035154)

LINESTRING (470.329220 256.282031, 438.630887 283.945741)

LINESTRING (470.329220 256.282031, 445.054996 275.944450)

LINESTRING (470.329220 256.282031, 465.147732 260.551140)

LINESTRING (438.602383 254.042402, 441.269899 242.123575)

LINESTRING (438.602383 254.042402, 481.491223 275.929167)

LINESTRING (438.602383 254.042402, 483.368363 252.396697)

LINESTRING (438.602383 254.042402, 470.718256 251.535834)

LINESTRING (438.602383 254.042402, 438.630887 283.945741)

LINESTRING (438.602383 254.042402, 454.233811 274.051711)

LINESTRING (438.602383 254.042402, 445.054996 275.944450)

LINESTRING (438.602383 254.042402, 473.076802 262.593784)

LINESTRING (438.602383 254.042402, 448.467936 276.473066)

LINESTRING (438.602383 254.042402, 467.481850 247.895222)

LINESTRING (441.269899 242.123575, 483.368363 252.396697)

LINESTRING (441.269899 242.123575, 470.718256 251.535834)

LINESTRING (441.269899 242.123575, 447.192448 254.282958)

LINESTRING (441.269899 242.123575, 475.742360 267.805273)

LINESTRING (441.269899 242.123575, 463.237892 260.035154)

LINESTRING (441.269899 242.123575, 454.233811 274.051711)

LINESTRING (441.269899 242.123575, 473.076802 262.593784)

LINESTRING (441.269899 242.123575, 448.467936 276.473066)

LINESTRING (441.269899 242.123575, 468.559953 265.831968)

LINESTRING (441.269899 242.123575, 465.147732 260.551140)

LINESTRING (481.491223 275.929167, 459.109386 252.697616)

LINESTRING (481.491223 275.929167, 483.368363 252.396697)

LINESTRING (481.491223 275.929167, 470.718256 251.535834)

LINESTRING (481.491223 275.929167, 463.237892 260.035154)

LINESTRING (481.491223 275.929167, 438.630887 283.945741)

LINESTRING (481.491223 275.929167, 473.076802 262.593784)

LINESTRING (481.491223 275.929167, 448.467936 276.473066)

LINESTRING (481.491223 275.929167, 468.559953 265.831968)

LINESTRING (481.491223 275.929167, 467.481850 247.895222)

LINESTRING (481.491223 275.929167, 465.147732 260.551140)

LINESTRING (459.109386 252.697616, 483.368363 252.396697)

LINESTRING (459.109386 252.697616, 470.718256 251.535834)

LINESTRING (459.109386 252.697616, 447.192448 254.282958)

LINESTRING (459.109386 252.697616, 463.237892 260.035154)

LINESTRING (459.109386 252.697616, 447.620738 264.123878)

LINESTRING (459.109386 252.697616, 473.076802 262.593784)

LINESTRING (459.109386 252.697616, 468.559953 265.831968)

LINESTRING (459.109386 252.697616, 465.147732 260.551140)

LINESTRING (483.368363 252.396697, 447.192448 254.282958)

LINESTRING (483.368363 252.396697, 475.742360 267.805273)

LINESTRING (483.368363 252.396697, 447.620738 264.123878)

LINESTRING (483.368363 252.396697, 445.054996 275.944450)

LINESTRING (483.368363 252.396697, 465.147732 260.551140)

LINESTRING (470.718256 251.535834, 447.192448 254.282958)

LINESTRING (470.718256 251.535834, 475.742360 267.805273)

LINESTRING (470.718256 251.535834, 454.233811 274.051711)

LINESTRING (470.718256 251.535834, 445.054996 275.944450)

LINESTRING (470.718256 251.535834, 473.076802 262.593784)

LINESTRING (470.718256 251.535834, 465.147732 260.551140)

LINESTRING (447.192448 254.282958, 447.620738 264.123878)

LINESTRING (447.192448 254.282958, 454.233811 274.051711)

LINESTRING (447.192448 254.282958, 445.054996 275.944450)

LINESTRING (447.192448 254.282958, 468.559953 265.831968)

LINESTRING (447.192448 254.282958, 465.147732 260.551140)

LINESTRING (475.742360 267.805273, 463.237892 260.035154)

LINESTRING (475.742360 267.805273, 438.630887 283.945741)

LINESTRING (475.742360 267.805273, 473.076802 262.593784)

LINESTRING (475.742360 267.805273, 465.147732 260.551140)

LINESTRING (463.237892 260.035154, 454.233811 274.051711)

LINESTRING (463.237892 260.035154, 473.076802 262.593784)

LINESTRING (463.237892 260.035154, 468.559953 265.831968)

LINESTRING (463.237892 260.035154, 467.481850 247.895222)

LINESTRING (438.630887 283.945741, 454.233811 274.051711)

LINESTRING (438.630887 283.945741, 473.076802 262.593784)

LINESTRING (438.630887 283.945741, 468.559953 265.831968)

LINESTRING (438.630887 283.945741, 467.481850 247.895222)

LINESTRING (447.620738 264.123878, 473.076802 262.593784)

LINESTRING (447.620738 264.123878, 448.467936 276.473066)

LINESTRING (454.233811 274.051711, 473.076802 262.593784)

LINESTRING (454.233811 274.051711, 448.467936 276.473066)

LINESTRING (445.054996 275.944450, 448.467936 276.473066)

LINESTRING (445.054996 275.944450, 468.559953 265.831968)

LINESTRING (448.467936 276.473066, 468.559953 265.831968)

LINESTRING (448.467936 276.473066, 465.147732 260.551140)

LINESTRING (38.887090 81.834521, 283.136568 59.906648)

LINESTRING (60.000000 60.000000, 260.000000 60.000000)

LINESTRING (248.044526 78.518327, 441.021825 69.742680)

LINESTRING (260.000000 60.000000, 460.000000 60.000000)

LINESTRING (468.748857 67.638076, 48.544364 265.919590)

LINESTRING (460.000000 60.000000, 60.000000 260.000000)

LINESTRING (48.544364 265.919590, 249.386311 264.676888)

LINESTRING (60.000000 260.000000, 260.000000 260.000000)

LINESTRING (281.516378 246.660064, 481.491223 275.929167)

LINESTRING (260.000000 260.000000, 460.000000 260.000000)

