LINESTRING (60.000000 60.000000, 47.069099 67.881814)

LINESTRING (60.000000 60.000000, 64.495258 62.382456)

LINESTRING (60.000000 60.000000, 47.521379 65.545410)

LINESTRING (60.000000 60.000000, 74.032560 74.137884)

LINESTRING (60.000000 60.000000, 61.411870 73.211486)

LINESTRING (60.000000 60.000000, 72.441592 48.983475)

LINESTRING (60.000000 60.000000, 66.525825 72.249739)

LINESTRING (60.000000 60.000000, 50.005903 65.702432)

LINESTRING (47.069099 67.881814, 64.495258 62.382456)

LINESTRING (47.069099 67.881814, 47.521379 65.545410)

LINESTRING (47.069099 67.881814, 61.411870 73.211486)

LINESTRING (64.495258 62.382456, 61.411870 73.211486)

LINESTRING (64.495258 62.382456, 50.005903 65.702432)

LINESTRING (47.521379 65.545410, 61.411870 73.211486)

LINESTRING (47.521379 65.545410, 72.441592 48.983475)

LINESTRING (47.521379 65.545410, 50.005903 65.702432)

LINESTRING (74.032560 74.137884, 72.441592 48.983475)

LINESTRING (74.032560 74.137884, 66.525825 72.249739)

LINESTRING (74.032560 74.137884, 50.005903 65.702432)

LINESTRING (61.411870 73.211486, 72.441592 48.983475)

LINESTRING (61.411870 73.211486, 50.005903 65.702432)

LINESTRING (72.441592 48.983475, 66.525825 72.249739)

LINESTRING (180.000000 60.000000, 169.363609 55.700336)

LINESTRING (180.000000 60.000000, 187.499842 53.431107)

LINESTRING (180.000000 60.000000, 190.896491 67.625584)

LINESTRING (180.000000 60.000000, 181.936106 54.827983)

LINESTRING (180.000000 60.000000, 170.417165 55.698732)

LINESTRING (180.000000 60.000000, 173.540418 56.947545)

LINESTRING (180.000000 60.000000, 185.225275 72.918741)

LINESTRING (180.000000 60.000000, 170.499153 49.085249)

LINESTRING (169.363609 55.700336, 190.896491 67.625584)

LINESTRING (169.363609 55.700336, 170.417165 55.698732)

LINESTRING (169.363609 55.700336, 170.499153 49.085249)

LINESTRING (187.499842 53.431107, 190.896491 67.625584)

LINESTRING (187.499842 53.431107, 181.936106 54.827983)

LINESTRING (187.499842 53.431107, 185.225275 72.918741)

LINESTRING (190.896491 67.625584, 170.417165 55.698732)

LINESTRING (190.896491 67.625584, 173.540418 56.947545)

LINESTRING (190.896491 67.625584, 185.225275 72.918741)

LINESTRING (190.896491 67.625584, 170.499153 49.085249)

LINESTRING (181.936106 54.827983, 170.417165 55.698732)

LINESTRING (181.936106 54.827983, 185.225275 72.918741)

LINESTRING (181.936106 54.827983, 170.499153 49.085249)

LINESTRING (170.417165 55.698732, 173.540418 56.947545)

LINESTRING (170.417165 55.698732, 185.225275 72.918741)

LINESTRING (170.417165 55.698732, 170.499153 49.085249)

LINESTRING (173.540418 56.947545, 185.225275 72.918741)

LINESTRING (173.540418 56.947545, 170.499153 49.085249)

LINESTRING (60.000000 180.000000, 53.307647 167.237460)

LINESTRING (60.000000 180.000000, 47.912689 174.499530)

LINESTRING (60.000000 180.000000, 58.465606 177.797267)

LINESTRING (60.000000 180.000000, 62.825900 173.489123)

LINESTRING (60.000000 180.000000, 53.164313 175.797739)

LINESTRING (60.000000 180.000000, 52.712200 179.892010)

LINESTRING (60.000000 180.000000, 57.384063 190.628973)

LINESTRING (60.000000 180.000000, 54.249369 186.034358)

LINESTRING (53.307647 167.237460, 58.465606 177.797267)

LINESTRING (53.307647 167.237460, 57.384063 190.628973)

LINESTRING (47.912689 174.499530, 62.825900 173.489123)

LINESTRING (47.912689 174.499530, 53.164313 175.797739)

LINESTRING (58.465606 177.797267, 62.825900 173.489123)

LINESTRING (62.825900 173.489123, 53.164313 175.797739)

LINESTRING (62.825900 173.489123, 57.384063 190.628973)

LINESTRING (62.825900 173.489123, 54.249369 186.034358)

LINESTRING (53.164313 175.797739, 57.384063 190.628973)

LINESTRING (53.164313 175.797739, 54.249369 186.034358)

LINESTRING (52.712200 179.892010, 54.249369 186.034358)

LINESTRING (50.005903 65.702432, 190.896491 67.625584)

LINESTRING (60.000000 60.000000, 180.000000 60.000000)

LINESTRING (181.936106 54.827983, 54.249369 186.034358)

LINESTRING (180.000000 60.000000, 60.000000 180.000000)

