LINESTRING (3777.954810 5038.159875, 3157.201741 6083.379532)

LINESTRING (3777.954810 5038.159875, 3324.075187 4764.000812)

LINESTRING (3777.954810 5038.159875, 3269.384780 5453.845159)

LINESTRING (3777.954810 5038.159875, 5650.378350 6151.457455)

LINESTRING (3777.954810 5038.159875, 4144.139227 4539.254844)

LINESTRING (3777.954810 5038.159875, 3211.811125 2960.623828)

LINESTRING (3777.954810 5038.159875, 4505.676185 3330.764508)

LINESTRING (3777.954810 5038.159875, 3242.282427 7153.886802)

LINESTRING (3777.954810 5038.159875, 3184.799407 4539.969437)

LINESTRING (3777.954810 5038.159875, 2136.218905 4687.521058)

LINESTRING (3157.201741 6083.379532, 2378.322437 4728.558472)

LINESTRING (3157.201741 6083.379532, 3324.075187 4764.000812)

LINESTRING (3157.201741 6083.379532, 3815.094145 4030.226214)

LINESTRING (3157.201741 6083.379532, 3269.384780 5453.845159)

LINESTRING (3157.201741 6083.379532, 5083.847722 6082.797495)

LINESTRING (3157.201741 6083.379532, 5315.461734 6876.334999)

LINESTRING (3157.201741 6083.379532, 2741.064263 7467.548015)

LINESTRING (3157.201741 6083.379532, 3184.799407 4539.969437)

LINESTRING (6564.042612 6516.301920, 7035.975109 6986.254149)

LINESTRING (6564.042612 6516.301920, 5650.378350 6151.457455)

LINESTRING (6564.042612 6516.301920, 5315.461734 6876.334999)

LINESTRING (6564.042612 6516.301920, 7839.214014 4523.908547)

LINESTRING (5390.565446 3519.142682, 6182.586449 3058.372613)

LINESTRING (5390.565446 3519.142682, 4680.518234 3548.365500)

LINESTRING (5390.565446 3519.142682, 6867.210864 3794.600360)

LINESTRING (5390.565446 3519.142682, 4144.139227 4539.254844)

LINESTRING (7767.898786 619.269637, 7955.384834 1328.978941)

LINESTRING (7767.898786 619.269637, 6841.063737 1147.972763)

LINESTRING (7767.898786 619.269637, 5822.054039 984.785510)

LINESTRING (7449.738754 6835.867912, 7035.975109 6986.254149)

LINESTRING (7449.738754 6835.867912, 5650.378350 6151.457455)

LINESTRING (1796.646914 3059.121946, 1628.363942 896.995936)

LINESTRING (1796.646914 3059.121946, 1011.605116 4169.707727)

LINESTRING (1796.646914 3059.121946, 3435.049272 2464.589692)

LINESTRING (1796.646914 3059.121946, 378.604675 1253.772628)

LINESTRING (1796.646914 3059.121946, 445.085632 3153.983480)

LINESTRING (1796.646914 3059.121946, 2413.763210 819.989595)

LINESTRING (1796.646914 3059.121946, 2136.218905 4687.521058)

LINESTRING (5101.023062 7294.080868, 5083.847722 6082.797495)

LINESTRING (5101.023062 7294.080868, 5315.461734 6876.334999)

LINESTRING (5101.023062 7294.080868, 5294.360723 9086.518066)

LINESTRING (2378.322437 4728.558472, 1011.605116 4169.707727)

LINESTRING (2378.322437 4728.558472, 3815.094145 4030.226214)

LINESTRING (2378.322437 4728.558472, 3044.124759 4118.281578)

LINESTRING (2378.322437 4728.558472, 793.284929 3222.796227)

LINESTRING (2378.322437 4728.558472, 1579.585059 6627.170930)

LINESTRING (2378.322437 4728.558472, 2136.218905 4687.521058)

LINESTRING (10693.509851 3209.733743, 10613.202703 5127.024187)

LINESTRING (6182.586449 3058.372613, 4505.676185 3330.764508)

LINESTRING (6182.586449 3058.372613, 7839.214014 4523.908547)

LINESTRING (6182.586449 3058.372613, 6101.878054 1028.593262)

LINESTRING (5034.387016 9883.075052, 4573.362764 9714.364895)

LINESTRING (5034.387016 9883.075052, 5740.324785 10445.683221)

LINESTRING (5034.387016 9883.075052, 5889.932034 8214.049847)

LINESTRING (5034.387016 9883.075052, 3663.155931 9698.413961)

LINESTRING (1628.363942 896.995936, 3435.049272 2464.589692)

LINESTRING (1628.363942 896.995936, 378.604675 1253.772628)

LINESTRING (1628.363942 896.995936, 2733.214561 2507.037487)

LINESTRING (1628.363942 896.995936, 1436.854383 1298.181939)

LINESTRING (1628.363942 896.995936, 2413.763210 819.989595)

LINESTRING (9183.657033 8985.228396, 9356.437554 9363.830494)

LINESTRING (9183.657033 8985.228396, 8928.386181 9380.836726)

LINESTRING (9183.657033 8985.228396, 8347.527767 10576.578058)

LINESTRING (9183.657033 8985.228396, 8918.373008 8963.216818)

LINESTRING (9183.657033 8985.228396, 8955.674952 10127.712400)

LINESTRING (4573.362764 9714.364895, 3666.616839 8641.951507)

LINESTRING (4573.362764 9714.364895, 5889.932034 8214.049847)

LINESTRING (4680.518234 3548.365500, 3435.049272 2464.589692)

LINESTRING (4680.518234 3548.365500, 3324.075187 4764.000812)

LINESTRING (4680.518234 3548.365500, 3044.124759 4118.281578)

LINESTRING (4680.518234 3548.365500, 6867.210864 3794.600360)

LINESTRING (4680.518234 3548.365500, 3211.811125 2960.623828)

LINESTRING (4680.518234 3548.365500, 4505.676185 3330.764508)

LINESTRING (9356.437554 9363.830494, 8928.386181 9380.836726)

LINESTRING (9356.437554 9363.830494, 8347.527767 10576.578058)

LINESTRING (9356.437554 9363.830494, 8918.373008 8963.216818)

LINESTRING (9969.812233 3662.106330, 10613.202703 5127.024187)

LINESTRING (8928.386181 9380.836726, 7014.054825 8254.194439)

LINESTRING (8928.386181 9380.836726, 8918.373008 8963.216818)

LINESTRING (8928.386181 9380.836726, 8955.674952 10127.712400)

LINESTRING (1011.605116 4169.707727, 3324.075187 4764.000812)

LINESTRING (1011.605116 4169.707727, 2733.214561 2507.037487)

LINESTRING (1011.605116 4169.707727, 147.741594 4132.506867)

LINESTRING (1011.605116 4169.707727, 480.083960 5596.945353)

LINESTRING (1011.605116 4169.707727, 3184.799407 4539.969437)

LINESTRING (1011.605116 4169.707727, 2136.218905 4687.521058)

LINESTRING (9336.060056 4788.200060, 8589.875917 3595.100392)

LINESTRING (9336.060056 4788.200060, 10613.202703 5127.024187)

LINESTRING (9336.060056 4788.200060, 7839.214014 4523.908547)

LINESTRING (3435.049272 2464.589692, 3815.094145 4030.226214)

LINESTRING (3435.049272 2464.589692, 2733.214561 2507.037487)

LINESTRING (3435.049272 2464.589692, 1436.854383 1298.181939)

LINESTRING (3435.049272 2464.589692, 3211.811125 2960.623828)

LINESTRING (3435.049272 2464.589692, 2413.763210 819.989595)

LINESTRING (3435.049272 2464.589692, 3184.799407 4539.969437)

LINESTRING (3324.075187 4764.000812, 3044.124759 4118.281578)

LINESTRING (3324.075187 4764.000812, 3269.384780 5453.845159)

LINESTRING (3324.075187 4764.000812, 3211.811125 2960.623828)

LINESTRING (3324.075187 4764.000812, 3242.282427 7153.886802)

LINESTRING (3324.075187 4764.000812, 3184.799407 4539.969437)

LINESTRING (8589.875917 3595.100392, 7687.992863 3346.581101)

LINESTRING (7955.384834 1328.978941, 6841.063737 1147.972763)

LINESTRING (7955.384834 1328.978941, 5822.054039 984.785510)

LINESTRING (7955.384834 1328.978941, 8748.366464 1569.275483)

LINESTRING (7955.384834 1328.978941, 6828.457422 197.163520)

LINESTRING (5740.324785 10445.683221, 6057.995959 10281.247352)

LINESTRING (5740.324785 10445.683221, 5889.932034 8214.049847)

LINESTRING (5740.324785 10445.683221, 3663.155931 9698.413961)

LINESTRING (5740.324785 10445.683221, 5294.360723 9086.518066)

LINESTRING (4934.695305 298.935369, 5822.054039 984.785510)

LINESTRING (4934.695305 298.935369, 6101.878054 1028.593262)

LINESTRING (8347.527767 10576.578058, 6057.995959 10281.247352)

LINESTRING (8347.527767 10576.578058, 8955.674952 10127.712400)

LINESTRING (3815.094145 4030.226214, 3044.124759 4118.281578)

LINESTRING (3815.094145 4030.226214, 2733.214561 2507.037487)

LINESTRING (3815.094145 4030.226214, 4144.139227 4539.254844)

LINESTRING (3815.094145 4030.226214, 3211.811125 2960.623828)

LINESTRING (3815.094145 4030.226214, 4505.676185 3330.764508)

LINESTRING (3666.616839 8641.951507, 3242.282427 7153.886802)

LINESTRING (6057.995959 10281.247352, 7014.054825 8254.194439)

LINESTRING (6057.995959 10281.247352, 5889.932034 8214.049847)

LINESTRING (7035.975109 6986.254149, 5650.378350 6151.457455)

LINESTRING (7035.975109 6986.254149, 5083.847722 6082.797495)

LINESTRING (7035.975109 6986.254149, 5889.932034 8214.049847)

LINESTRING (9954.955492 1693.119831, 8748.366464 1569.275483)

LINESTRING (9954.955492 1693.119831, 10175.775134 156.327331)

LINESTRING (3044.124759 4118.281578, 4144.139227 4539.254844)

LINESTRING (3044.124759 4118.281578, 3211.811125 2960.623828)

LINESTRING (3044.124759 4118.281578, 3184.799407 4539.969437)

LINESTRING (1219.666706 7027.950805, 384.278292 8214.878851)

LINESTRING (1219.666706 7027.950805, 1579.585059 6627.170930)

LINESTRING (1219.666706 7027.950805, 706.738303 6510.201884)

LINESTRING (1219.666706 7027.950805, 2788.625332 8668.165330)

LINESTRING (1219.666706 7027.950805, 480.083960 5596.945353)

LINESTRING (378.604675 1253.772628, 793.284929 3222.796227)

LINESTRING (378.604675 1253.772628, 1436.854383 1298.181939)

LINESTRING (6841.063737 1147.972763, 7118.396855 2929.402864)

LINESTRING (6841.063737 1147.972763, 6121.391698 1452.376966)

LINESTRING (6841.063737 1147.972763, 6101.878054 1028.593262)

LINESTRING (793.284929 3222.796227, 445.085632 3153.983480)

LINESTRING (793.284929 3222.796227, 2733.214561 2507.037487)

LINESTRING (793.284929 3222.796227, 1436.854383 1298.181939)

LINESTRING (3269.384780 5453.845159, 4144.139227 4539.254844)

LINESTRING (3269.384780 5453.845159, 2741.064263 7467.548015)

LINESTRING (3269.384780 5453.845159, 3242.282427 7153.886802)

LINESTRING (5822.054039 984.785510, 6121.391698 1452.376966)

LINESTRING (5822.054039 984.785510, 6101.878054 1028.593262)

LINESTRING (384.278292 8214.878851, 1579.585059 6627.170930)

LINESTRING (384.278292 8214.878851, 706.738303 6510.201884)

LINESTRING (8748.366464 1569.275483, 7118.396855 2929.402864)

LINESTRING (8748.366464 1569.275483, 6828.457422 197.163520)

LINESTRING (7687.992863 3346.581101, 7118.396855 2929.402864)

LINESTRING (5650.378350 6151.457455, 5083.847722 6082.797495)

LINESTRING (5650.378350 6151.457455, 4281.045894 6230.515384)

LINESTRING (5650.378350 6151.457455, 5315.461734 6876.334999)

LINESTRING (445.085632 3153.983480, 2733.214561 2507.037487)

LINESTRING (445.085632 3153.983480, 147.741594 4132.506867)

LINESTRING (445.085632 3153.983480, 2136.218905 4687.521058)

LINESTRING (7014.054825 8254.194439, 8918.373008 8963.216818)

LINESTRING (2733.214561 2507.037487, 1436.854383 1298.181939)

LINESTRING (2733.214561 2507.037487, 3211.811125 2960.623828)

LINESTRING (5083.847722 6082.797495, 5889.932034 8214.049847)

LINESTRING (5083.847722 6082.797495, 4281.045894 6230.515384)

LINESTRING (7118.396855 2929.402864, 6121.391698 1452.376966)

LINESTRING (5889.932034 8214.049847, 5294.360723 9086.518066)

LINESTRING (4281.045894 6230.515384, 4144.139227 4539.254844)

LINESTRING (4281.045894 6230.515384, 2741.064263 7467.548015)

LINESTRING (4281.045894 6230.515384, 3242.282427 7153.886802)

LINESTRING (4281.045894 6230.515384, 3184.799407 4539.969437)

LINESTRING (147.741594 4132.506867, 480.083960 5596.945353)

LINESTRING (1579.585059 6627.170930, 480.083960 5596.945353)

LINESTRING (1579.585059 6627.170930, 3242.282427 7153.886802)

LINESTRING (1579.585059 6627.170930, 2136.218905 4687.521058)

LINESTRING (706.738303 6510.201884, 480.083960 5596.945353)

LINESTRING (2788.625332 8668.165330, 3242.282427 7153.886802)

LINESTRING (2788.625332 8668.165330, 1269.608776 9963.761755)

LINESTRING (6121.391698 1452.376966, 6828.457422 197.163520)

LINESTRING (6121.391698 1452.376966, 6101.878054 1028.593262)

LINESTRING (5315.461734 6876.334999, 5294.360723 9086.518066)

LINESTRING (4144.139227 4539.254844, 2136.218905 4687.521058)

LINESTRING (2369.063999 226.656044, 2413.763210 819.989595)

LINESTRING (8918.373008 8963.216818, 8955.674952 10127.712400)

LINESTRING (3211.811125 2960.623828, 2413.763210 819.989595)

LINESTRING (2741.064263 7467.548015, 3242.282427 7153.886802)

