LINESTRING (553.644848 382.228963, 507.058825 521.105848)

LINESTRING (507.058825 521.105848, 419.180617 543.235449)

LINESTRING (419.180617 543.235449, 293.028410 505.496207)

LINESTRING (293.028410 505.496207, 243.752066 403.445862)

LINESTRING (243.752066 403.445862, 286.709988 287.858048)

LINESTRING (286.709988 287.858048, 381.218552 265.485696)

LINESTRING (381.218552 265.485696, 503.919933 306.713167)

LINESTRING (503.919933 306.713167, 553.644848 382.228963)

LINESTRING (711.072921 403.215677, 593.879939 603.815418)

LINESTRING (593.879939 603.815418, 383.200580 691.198090)

LINESTRING (383.200580 691.198090, 177.353027 593.736589)

LINESTRING (177.353027 593.736589, 107.507504 383.317455)

LINESTRING (107.507504 383.317455, 185.666879 205.916590)

LINESTRING (185.666879 205.916590, 407.123232 111.968126)

LINESTRING (407.123232 111.968126, 593.262361 181.276138)

LINESTRING (593.262361 181.276138, 711.072921 403.215677)

LINESTRING (867.276500 397.674773, 706.487194 737.602102)

LINESTRING (706.487194 737.602102, 397.060234 857.467502)

LINESTRING (397.060234 857.467502, 78.844000 726.374665)

LINESTRING (78.844000 726.374665, -55.897760 382.493272)

LINESTRING (-55.897760 382.493272, 72.908909 74.502464)

LINESTRING (72.908909 74.502464, 411.149139 -42.641745)

LINESTRING (411.149139 -42.641745, 716.605529 91.840865)

LINESTRING (716.605529 91.840865, 867.276500 397.674773)

LINESTRING (1001.966673 399.977477, 817.564339 815.827275)

LINESTRING (817.564339 815.827275, 401.107566 1006.473217)

LINESTRING (401.107566 1006.473217, -23.281976 804.478244)

LINESTRING (-23.281976 804.478244, -193.398384 395.363627)

LINESTRING (-193.398384 395.363627, -13.091518 -12.076182)

LINESTRING (-13.091518 -12.076182, 401.946154 -203.615983)

LINESTRING (401.946154 -203.615983, 832.053126 -19.941916)

LINESTRING (832.053126 -19.941916, 1001.966673 399.977477)

LINESTRING (553.644848 382.228963, 711.072921 403.215677)

LINESTRING (711.072921 403.215677, 867.276500 397.674773)

LINESTRING (867.276500 397.674773, 1001.966673 399.977477)

LINESTRING (507.058825 521.105848, 593.879939 603.815418)

LINESTRING (593.879939 603.815418, 706.487194 737.602102)

LINESTRING (706.487194 737.602102, 817.564339 815.827275)

LINESTRING (419.180617 543.235449, 383.200580 691.198090)

LINESTRING (383.200580 691.198090, 397.060234 857.467502)

LINESTRING (397.060234 857.467502, 401.107566 1006.473217)

LINESTRING (293.028410 505.496207, 177.353027 593.736589)

LINESTRING (177.353027 593.736589, 78.844000 726.374665)

LINESTRING (78.844000 726.374665, -23.281976 804.478244)

LINESTRING (243.752066 403.445862, 107.507504 383.317455)

LINESTRING (107.507504 383.317455, -55.897760 382.493272)

LINESTRING (-55.897760 382.493272, -193.398384 395.363627)

LINESTRING (286.709988 287.858048, 185.666879 205.916590)

LINESTRING (185.666879 205.916590, 72.908909 74.502464)

LINESTRING (72.908909 74.502464, -13.091518 -12.076182)

LINESTRING (381.218552 265.485696, 407.123232 111.968126)

LINESTRING (407.123232 111.968126, 411.149139 -42.641745)

LINESTRING (411.149139 -42.641745, 401.946154 -203.615983)

LINESTRING (503.919933 306.713167, 593.262361 181.276138)

LINESTRING (593.262361 181.276138, 716.605529 91.840865)

LINESTRING (716.605529 91.840865, 832.053126 -19.941916)

LINESTRING (400.000000 400.000000, 553.644848 382.228963)

