LINESTRING (116.091296 117.532436, 140.729122 122.971741)

LINESTRING (116.091296 117.532436, 104.104260 127.949250)

LINESTRING (116.091296 117.532436, 135.865987 123.924316)

LINESTRING (116.091296 117.532436, 141.220591 132.612779)

LINESTRING (116.091296 117.532436, 127.889205 115.685026)

LINESTRING (116.091296 117.532436, 139.275983 142.963432)

LINESTRING (116.091296 117.532436, 140.356985 177.351682)

LINESTRING (116.091296 117.532436, 152.961580 135.941365)

LINESTRING (116.091296 117.532436, 171.907091 142.555569)

LINESTRING (116.091296 117.532436, 123.878740 145.056005)

LINESTRING (116.091296 117.532436, 158.260298 149.831271)

LINESTRING (116.091296 117.532436, 125.928553 160.966481)

LINESTRING (116.091296 117.532436, 177.741519 150.077636)

LINESTRING (116.091296 117.532436, 158.362261 135.394714)

LINESTRING (140.729122 122.971741, 104.104260 127.949250)

LINESTRING (140.729122 122.971741, 135.865987 123.924316)

LINESTRING (140.729122 122.971741, 141.220591 132.612779)

LINESTRING (140.729122 122.971741, 127.889205 115.685026)

LINESTRING (140.729122 122.971741, 139.275983 142.963432)

LINESTRING (140.729122 122.971741, 140.356985 177.351682)

LINESTRING (140.729122 122.971741, 152.961580 135.941365)

LINESTRING (140.729122 122.971741, 171.907091 142.555569)

LINESTRING (140.729122 122.971741, 123.878740 145.056005)

LINESTRING (140.729122 122.971741, 158.260298 149.831271)

LINESTRING (140.729122 122.971741, 125.928553 160.966481)

LINESTRING (140.729122 122.971741, 177.741519 150.077636)

LINESTRING (104.104260 127.949250, 135.865987 123.924316)

LINESTRING (104.104260 127.949250, 141.220591 132.612779)

LINESTRING (104.104260 127.949250, 139.275983 142.963432)

LINESTRING (104.104260 127.949250, 152.961580 135.941365)

LINESTRING (104.104260 127.949250, 123.878740 145.056005)

LINESTRING (104.104260 127.949250, 125.928553 160.966481)

LINESTRING (104.104260 127.949250, 158.362261 135.394714)

LINESTRING (135.865987 123.924316, 141.220591 132.612779)

LINESTRING (135.865987 123.924316, 127.889205 115.685026)

LINESTRING (135.865987 123.924316, 152.961580 135.941365)

LINESTRING (135.865987 123.924316, 171.907091 142.555569)

LINESTRING (135.865987 123.924316, 123.878740 145.056005)

LINESTRING (135.865987 123.924316, 158.260298 149.831271)

LINESTRING (135.865987 123.924316, 125.928553 160.966481)

LINESTRING (135.865987 123.924316, 177.741519 150.077636)

LINESTRING (135.865987 123.924316, 158.362261 135.394714)

LINESTRING (141.220591 132.612779, 139.275983 142.963432)

LINESTRING (141.220591 132.612779, 140.356985 177.351682)

LINESTRING (141.220591 132.612779, 152.961580 135.941365)

LINESTRING (141.220591 132.612779, 171.907091 142.555569)

LINESTRING (141.220591 132.612779, 123.878740 145.056005)

LINESTRING (141.220591 132.612779, 158.260298 149.831271)

LINESTRING (141.220591 132.612779, 125.928553 160.966481)

LINESTRING (141.220591 132.612779, 177.741519 150.077636)

LINESTRING (127.889205 115.685026, 152.961580 135.941365)

LINESTRING (127.889205 115.685026, 171.907091 142.555569)

LINESTRING (127.889205 115.685026, 125.928553 160.966481)

LINESTRING (127.889205 115.685026, 158.362261 135.394714)

LINESTRING (139.275983 142.963432, 152.961580 135.941365)

LINESTRING (139.275983 142.963432, 171.907091 142.555569)

LINESTRING (139.275983 142.963432, 123.878740 145.056005)

LINESTRING (139.275983 142.963432, 177.741519 150.077636)

LINESTRING (139.275983 142.963432, 158.362261 135.394714)

LINESTRING (140.356985 177.351682, 152.961580 135.941365)

LINESTRING (140.356985 177.351682, 171.907091 142.555569)

LINESTRING (140.356985 177.351682, 123.878740 145.056005)

LINESTRING (140.356985 177.351682, 158.260298 149.831271)

LINESTRING (140.356985 177.351682, 125.928553 160.966481)

LINESTRING (140.356985 177.351682, 177.741519 150.077636)

LINESTRING (140.356985 177.351682, 158.362261 135.394714)

LINESTRING (152.961580 135.941365, 171.907091 142.555569)

LINESTRING (152.961580 135.941365, 123.878740 145.056005)

LINESTRING (152.961580 135.941365, 125.928553 160.966481)

LINESTRING (152.961580 135.941365, 177.741519 150.077636)

LINESTRING (152.961580 135.941365, 158.362261 135.394714)

LINESTRING (171.907091 142.555569, 123.878740 145.056005)

LINESTRING (171.907091 142.555569, 158.260298 149.831271)

LINESTRING (171.907091 142.555569, 177.741519 150.077636)

LINESTRING (123.878740 145.056005, 158.260298 149.831271)

LINESTRING (123.878740 145.056005, 177.741519 150.077636)

LINESTRING (158.260298 149.831271, 125.928553 160.966481)

LINESTRING (158.260298 149.831271, 177.741519 150.077636)

LINESTRING (158.260298 149.831271, 158.362261 135.394714)

LINESTRING (125.928553 160.966481, 177.741519 150.077636)

LINESTRING (125.928553 160.966481, 158.362261 135.394714)

LINESTRING (504.951124 119.894998, 468.308632 113.239845)

LINESTRING (504.951124 119.894998, 528.148266 166.660395)

LINESTRING (504.951124 119.894998, 506.882450 147.588263)

LINESTRING (504.951124 119.894998, 468.901239 168.276726)

LINESTRING (504.951124 119.894998, 526.934639 131.323656)

LINESTRING (504.951124 119.894998, 455.419352 136.895619)

LINESTRING (504.951124 119.894998, 508.463763 123.274101)

LINESTRING (504.951124 119.894998, 455.692440 145.121707)

LINESTRING (504.951124 119.894998, 464.819813 170.651235)

LINESTRING (504.951124 119.894998, 471.235348 125.858058)

LINESTRING (504.951124 119.894998, 478.117819 160.645344)

LINESTRING (504.951124 119.894998, 511.998192 104.584044)

LINESTRING (504.951124 119.894998, 475.516300 116.921461)

LINESTRING (468.308632 113.239845, 528.148266 166.660395)

LINESTRING (468.308632 113.239845, 475.198298 168.030949)

LINESTRING (468.308632 113.239845, 468.901239 168.276726)

LINESTRING (468.308632 113.239845, 526.934639 131.323656)

LINESTRING (468.308632 113.239845, 455.419352 136.895619)

LINESTRING (468.308632 113.239845, 455.692440 145.121707)

LINESTRING (468.308632 113.239845, 464.819813 170.651235)

LINESTRING (468.308632 113.239845, 471.235348 125.858058)

LINESTRING (468.308632 113.239845, 478.117819 160.645344)

LINESTRING (468.308632 113.239845, 511.998192 104.584044)

LINESTRING (468.308632 113.239845, 475.516300 116.921461)

LINESTRING (528.148266 166.660395, 506.882450 147.588263)

LINESTRING (528.148266 166.660395, 475.198298 168.030949)

LINESTRING (528.148266 166.660395, 468.901239 168.276726)

LINESTRING (528.148266 166.660395, 526.934639 131.323656)

LINESTRING (528.148266 166.660395, 455.419352 136.895619)

LINESTRING (528.148266 166.660395, 508.463763 123.274101)

LINESTRING (528.148266 166.660395, 455.692440 145.121707)

LINESTRING (528.148266 166.660395, 464.819813 170.651235)

LINESTRING (528.148266 166.660395, 471.235348 125.858058)

LINESTRING (528.148266 166.660395, 478.117819 160.645344)

LINESTRING (528.148266 166.660395, 475.516300 116.921461)

LINESTRING (506.882450 147.588263, 508.463763 123.274101)

LINESTRING (506.882450 147.588263, 455.692440 145.121707)

LINESTRING (506.882450 147.588263, 471.235348 125.858058)

LINESTRING (506.882450 147.588263, 478.117819 160.645344)

LINESTRING (506.882450 147.588263, 511.998192 104.584044)

LINESTRING (506.882450 147.588263, 475.516300 116.921461)

LINESTRING (475.198298 168.030949, 468.901239 168.276726)

LINESTRING (475.198298 168.030949, 455.419352 136.895619)

LINESTRING (475.198298 168.030949, 508.463763 123.274101)

LINESTRING (475.198298 168.030949, 464.819813 170.651235)

LINESTRING (475.198298 168.030949, 471.235348 125.858058)

LINESTRING (475.198298 168.030949, 478.117819 160.645344)

LINESTRING (475.198298 168.030949, 475.516300 116.921461)

LINESTRING (468.901239 168.276726, 526.934639 131.323656)

LINESTRING (468.901239 168.276726, 455.419352 136.895619)

LINESTRING (468.901239 168.276726, 508.463763 123.274101)

LINESTRING (468.901239 168.276726, 455.692440 145.121707)

LINESTRING (468.901239 168.276726, 464.819813 170.651235)

LINESTRING (468.901239 168.276726, 471.235348 125.858058)

LINESTRING (468.901239 168.276726, 478.117819 160.645344)

LINESTRING (468.901239 168.276726, 511.998192 104.584044)

LINESTRING (468.901239 168.276726, 475.516300 116.921461)

LINESTRING (526.934639 131.323656, 455.419352 136.895619)

LINESTRING (526.934639 131.323656, 508.463763 123.274101)

LINESTRING (526.934639 131.323656, 464.819813 170.651235)

LINESTRING (526.934639 131.323656, 471.235348 125.858058)

LINESTRING (526.934639 131.323656, 511.998192 104.584044)

LINESTRING (526.934639 131.323656, 475.516300 116.921461)

LINESTRING (455.419352 136.895619, 508.463763 123.274101)

LINESTRING (455.419352 136.895619, 455.692440 145.121707)

LINESTRING (455.419352 136.895619, 464.819813 170.651235)

LINESTRING (455.419352 136.895619, 471.235348 125.858058)

LINESTRING (455.419352 136.895619, 478.117819 160.645344)

LINESTRING (455.419352 136.895619, 511.998192 104.584044)

LINESTRING (455.419352 136.895619, 475.516300 116.921461)

LINESTRING (508.463763 123.274101, 455.692440 145.121707)

LINESTRING (508.463763 123.274101, 464.819813 170.651235)

LINESTRING (508.463763 123.274101, 471.235348 125.858058)

LINESTRING (508.463763 123.274101, 511.998192 104.584044)

LINESTRING (455.692440 145.121707, 464.819813 170.651235)

LINESTRING (455.692440 145.121707, 471.235348 125.858058)

LINESTRING (455.692440 145.121707, 511.998192 104.584044)

LINESTRING (455.692440 145.121707, 475.516300 116.921461)

LINESTRING (464.819813 170.651235, 478.117819 160.645344)

LINESTRING (464.819813 170.651235, 511.998192 104.584044)

LINESTRING (464.819813 170.651235, 475.516300 116.921461)

LINESTRING (471.235348 125.858058, 478.117819 160.645344)

LINESTRING (471.235348 125.858058, 511.998192 104.584044)

LINESTRING (471.235348 125.858058, 475.516300 116.921461)

LINESTRING (478.117819 160.645344, 511.998192 104.584044)

LINESTRING (478.117819 160.645344, 475.516300 116.921461)

LINESTRING (511.998192 104.584044, 475.516300 116.921461)

LINESTRING (850.961696 130.026804, 870.552996 179.479817)

LINESTRING (850.961696 130.026804, 860.047892 163.373142)

LINESTRING (850.961696 130.026804, 842.578431 135.417495)

LINESTRING (850.961696 130.026804, 810.063226 157.237119)

LINESTRING (850.961696 130.026804, 839.975406 165.537666)

LINESTRING (850.961696 130.026804, 851.374640 153.463561)

LINESTRING (850.961696 130.026804, 822.742695 109.040613)

LINESTRING (850.961696 130.026804, 816.328430 116.046921)

LINESTRING (850.961696 130.026804, 857.945186 150.513349)

LINESTRING (850.961696 130.026804, 833.080876 129.985644)

LINESTRING (850.961696 130.026804, 877.069315 179.683496)

LINESTRING (850.961696 130.026804, 820.011179 103.970259)

LINESTRING (870.552996 179.479817, 860.047892 163.373142)

LINESTRING (870.552996 179.479817, 842.578431 135.417495)

LINESTRING (870.552996 179.479817, 810.063226 157.237119)

LINESTRING (870.552996 179.479817, 839.975406 165.537666)

LINESTRING (870.552996 179.479817, 851.374640 153.463561)

LINESTRING (870.552996 179.479817, 822.742695 109.040613)

LINESTRING (870.552996 179.479817, 857.945186 150.513349)

LINESTRING (870.552996 179.479817, 833.080876 129.985644)

LINESTRING (870.552996 179.479817, 877.069315 179.683496)

LINESTRING (870.552996 179.479817, 820.011179 103.970259)

LINESTRING (855.887162 130.083194, 860.047892 163.373142)

LINESTRING (855.887162 130.083194, 839.975406 165.537666)

LINESTRING (855.887162 130.083194, 851.374640 153.463561)

LINESTRING (855.887162 130.083194, 822.742695 109.040613)

LINESTRING (855.887162 130.083194, 816.328430 116.046921)

LINESTRING (855.887162 130.083194, 857.945186 150.513349)

LINESTRING (855.887162 130.083194, 833.080876 129.985644)

LINESTRING (855.887162 130.083194, 877.069315 179.683496)

LINESTRING (855.887162 130.083194, 839.349121 102.609595)

LINESTRING (855.887162 130.083194, 820.011179 103.970259)

LINESTRING (860.047892 163.373142, 842.578431 135.417495)

LINESTRING (860.047892 163.373142, 810.063226 157.237119)

LINESTRING (860.047892 163.373142, 851.374640 153.463561)

LINESTRING (860.047892 163.373142, 822.742695 109.040613)

LINESTRING (860.047892 163.373142, 816.328430 116.046921)

LINESTRING (860.047892 163.373142, 857.945186 150.513349)

LINESTRING (860.047892 163.373142, 833.080876 129.985644)

LINESTRING (860.047892 163.373142, 877.069315 179.683496)

LINESTRING (860.047892 163.373142, 839.349121 102.609595)

LINESTRING (860.047892 163.373142, 820.011179 103.970259)

LINESTRING (842.578431 135.417495, 810.063226 157.237119)

LINESTRING (842.578431 135.417495, 822.742695 109.040613)

LINESTRING (842.578431 135.417495, 816.328430 116.046921)

LINESTRING (842.578431 135.417495, 857.945186 150.513349)

LINESTRING (842.578431 135.417495, 839.349121 102.609595)

LINESTRING (842.578431 135.417495, 820.011179 103.970259)

LINESTRING (810.063226 157.237119, 851.374640 153.463561)

LINESTRING (810.063226 157.237119, 822.742695 109.040613)

LINESTRING (810.063226 157.237119, 857.945186 150.513349)

LINESTRING (810.063226 157.237119, 833.080876 129.985644)

LINESTRING (810.063226 157.237119, 839.349121 102.609595)

LINESTRING (810.063226 157.237119, 820.011179 103.970259)

LINESTRING (839.975406 165.537666, 851.374640 153.463561)

LINESTRING (839.975406 165.537666, 822.742695 109.040613)

LINESTRING (839.975406 165.537666, 816.328430 116.046921)

LINESTRING (839.975406 165.537666, 857.945186 150.513349)

LINESTRING (839.975406 165.537666, 833.080876 129.985644)

LINESTRING (839.975406 165.537666, 877.069315 179.683496)

LINESTRING (839.975406 165.537666, 839.349121 102.609595)

LINESTRING (839.975406 165.537666, 820.011179 103.970259)

LINESTRING (851.374640 153.463561, 822.742695 109.040613)

LINESTRING (851.374640 153.463561, 857.945186 150.513349)

LINESTRING (851.374640 153.463561, 833.080876 129.985644)

LINESTRING (851.374640 153.463561, 877.069315 179.683496)

LINESTRING (851.374640 153.463561, 839.349121 102.609595)

LINESTRING (851.374640 153.463561, 820.011179 103.970259)

LINESTRING (822.742695 109.040613, 816.328430 116.046921)

LINESTRING (822.742695 109.040613, 857.945186 150.513349)

LINESTRING (822.742695 109.040613, 833.080876 129.985644)

LINESTRING (822.742695 109.040613, 877.069315 179.683496)

LINESTRING (822.742695 109.040613, 820.011179 103.970259)

LINESTRING (816.328430 116.046921, 857.945186 150.513349)

LINESTRING (816.328430 116.046921, 833.080876 129.985644)

LINESTRING (816.328430 116.046921, 877.069315 179.683496)

LINESTRING (857.945186 150.513349, 833.080876 129.985644)

LINESTRING (857.945186 150.513349, 877.069315 179.683496)

LINESTRING (857.945186 150.513349, 820.011179 103.970259)

LINESTRING (833.080876 129.985644, 877.069315 179.683496)

LINESTRING (833.080876 129.985644, 839.349121 102.609595)

LINESTRING (877.069315 179.683496, 839.349121 102.609595)

LINESTRING (877.069315 179.683496, 820.011179 103.970259)

LINESTRING (839.349121 102.609595, 820.011179 103.970259)

LINESTRING (1179.794817 133.903515, 1159.045536 159.104178)

LINESTRING (1179.794817 133.903515, 1214.945852 130.498189)

LINESTRING (1179.794817 133.903515, 1184.935441 149.307556)

LINESTRING (1179.794817 133.903515, 1156.678714 143.354204)

LINESTRING (1179.794817 133.903515, 1207.417596 177.650513)

LINESTRING (1179.794817 133.903515, 1154.201443 143.163535)

LINESTRING (1179.794817 133.903515, 1174.510738 156.337577)

LINESTRING (1179.794817 133.903515, 1153.717508 120.559049)

LINESTRING (1179.794817 133.903515, 1153.076260 116.252612)

LINESTRING (1179.794817 133.903515, 1218.316114 115.522409)

LINESTRING (1179.794817 133.903515, 1189.144013 156.207087)

LINESTRING (1179.794817 133.903515, 1176.423316 170.538628)

LINESTRING (1179.794817 133.903515, 1225.262385 120.648009)

LINESTRING (1179.794817 133.903515, 1161.956133 178.673850)

LINESTRING (1159.045536 159.104178, 1214.945852 130.498189)

LINESTRING (1159.045536 159.104178, 1184.935441 149.307556)

LINESTRING (1159.045536 159.104178, 1156.678714 143.354204)

LINESTRING (1159.045536 159.104178, 1207.417596 177.650513)

LINESTRING (1159.045536 159.104178, 1174.510738 156.337577)

LINESTRING (1159.045536 159.104178, 1153.717508 120.559049)

LINESTRING (1159.045536 159.104178, 1153.076260 116.252612)

LINESTRING (1159.045536 159.104178, 1218.316114 115.522409)

LINESTRING (1159.045536 159.104178, 1225.262385 120.648009)

LINESTRING (1159.045536 159.104178, 1161.956133 178.673850)

LINESTRING (1214.945852 130.498189, 1184.935441 149.307556)

LINESTRING (1214.945852 130.498189, 1156.678714 143.354204)

LINESTRING (1214.945852 130.498189, 1207.417596 177.650513)

LINESTRING (1214.945852 130.498189, 1174.510738 156.337577)

LINESTRING (1214.945852 130.498189, 1153.717508 120.559049)

LINESTRING (1214.945852 130.498189, 1153.076260 116.252612)

LINESTRING (1214.945852 130.498189, 1189.144013 156.207087)

LINESTRING (1214.945852 130.498189, 1176.423316 170.538628)

LINESTRING (1214.945852 130.498189, 1225.262385 120.648009)

LINESTRING (1214.945852 130.498189, 1161.956133 178.673850)

LINESTRING (1184.935441 149.307556, 1156.678714 143.354204)

LINESTRING (1184.935441 149.307556, 1207.417596 177.650513)

LINESTRING (1184.935441 149.307556, 1153.717508 120.559049)

LINESTRING (1184.935441 149.307556, 1153.076260 116.252612)

LINESTRING (1184.935441 149.307556, 1218.316114 115.522409)

LINESTRING (1184.935441 149.307556, 1189.144013 156.207087)

LINESTRING (1184.935441 149.307556, 1176.423316 170.538628)

LINESTRING (1184.935441 149.307556, 1225.262385 120.648009)

LINESTRING (1184.935441 149.307556, 1161.956133 178.673850)

LINESTRING (1156.678714 143.354204, 1207.417596 177.650513)

LINESTRING (1156.678714 143.354204, 1154.201443 143.163535)

LINESTRING (1156.678714 143.354204, 1174.510738 156.337577)

LINESTRING (1156.678714 143.354204, 1189.144013 156.207087)

LINESTRING (1156.678714 143.354204, 1225.262385 120.648009)

LINESTRING (1156.678714 143.354204, 1161.956133 178.673850)

LINESTRING (1207.417596 177.650513, 1154.201443 143.163535)

LINESTRING (1207.417596 177.650513, 1174.510738 156.337577)

LINESTRING (1207.417596 177.650513, 1153.717508 120.559049)

LINESTRING (1207.417596 177.650513, 1218.316114 115.522409)

LINESTRING (1207.417596 177.650513, 1189.144013 156.207087)

LINESTRING (1207.417596 177.650513, 1176.423316 170.538628)

LINESTRING (1207.417596 177.650513, 1225.262385 120.648009)

LINESTRING (1207.417596 177.650513, 1161.956133 178.673850)

LINESTRING (1154.201443 143.163535, 1174.510738 156.337577)

LINESTRING (1154.201443 143.163535, 1153.076260 116.252612)

LINESTRING (1154.201443 143.163535, 1218.316114 115.522409)

LINESTRING (1154.201443 143.163535, 1176.423316 170.538628)

LINESTRING (1154.201443 143.163535, 1225.262385 120.648009)

LINESTRING (1154.201443 143.163535, 1161.956133 178.673850)

LINESTRING (1174.510738 156.337577, 1153.717508 120.559049)

LINESTRING (1174.510738 156.337577, 1153.076260 116.252612)

LINESTRING (1174.510738 156.337577, 1189.144013 156.207087)

LINESTRING (1174.510738 156.337577, 1176.423316 170.538628)

LINESTRING (1174.510738 156.337577, 1225.262385 120.648009)

LINESTRING (1174.510738 156.337577, 1161.956133 178.673850)

LINESTRING (1153.717508 120.559049, 1189.144013 156.207087)

LINESTRING (1153.717508 120.559049, 1225.262385 120.648009)

LINESTRING (1153.076260 116.252612, 1218.316114 115.522409)

LINESTRING (1153.076260 116.252612, 1189.144013 156.207087)

LINESTRING (1153.076260 116.252612, 1176.423316 170.538628)

LINESTRING (1153.076260 116.252612, 1225.262385 120.648009)

LINESTRING (1153.076260 116.252612, 1161.956133 178.673850)

LINESTRING (1218.316114 115.522409, 1189.144013 156.207087)

LINESTRING (1218.316114 115.522409, 1176.423316 170.538628)

LINESTRING (1218.316114 115.522409, 1225.262385 120.648009)

LINESTRING (1189.144013 156.207087, 1225.262385 120.648009)

LINESTRING (1189.144013 156.207087, 1161.956133 178.673850)

LINESTRING (1176.423316 170.538628, 1161.956133 178.673850)

LINESTRING (1225.262385 120.648009, 1161.956133 178.673850)

LINESTRING (158.362261 135.394714, 508.463763 123.274101)

LINESTRING (127.889205 115.685026, 468.901239 168.276726)

LINESTRING (177.741519 150.077636, 511.998192 104.584044)

LINESTRING (116.091296 117.532436, 504.951124 119.894998)

LINESTRING (471.235348 125.858058, 842.578431 135.417495)

LINESTRING (464.819813 170.651235, 839.975406 165.537666)

LINESTRING (455.419352 136.895619, 860.047892 163.373142)

LINESTRING (504.951124 119.894998, 850.961696 130.026804)

LINESTRING (851.374640 153.463561, 1174.510738 156.337577)

LINESTRING (810.063226 157.237119, 1214.945852 130.498189)

LINESTRING (839.975406 165.537666, 1153.076260 116.252612)

LINESTRING (850.961696 130.026804, 1179.794817 133.903515)

