LINESTRING (544854.194877 258802.512017, 544848.382764 258794.316960, 544844.654833 258788.275382)

LINESTRING (544854.194877 258802.512017, 544852.588396 258804.602140, 544851.415636 258808.229837)

LINESTRING (544844.654833 258788.275382, 544832.719498 258793.759008)

LINESTRING (544844.654833 258788.275382, 544848.382764 258794.316960, 544854.194877 258802.512017)

LINESTRING (544844.654833 258788.275382, 544842.215955 258784.219340, 544838.617149 258777.502573, 544830.597669 258763.410586, 544825.492546 258748.335239, 544820.984357 258732.019583, 544819.910846 258726.166901)

LINESTRING (544851.415636 258808.229837, 544854.760540 258811.232697, 544861.171805 258815.538427, 544869.037372 258821.790015)

LINESTRING (544851.415636 258808.229837, 544850.123756 258810.084283, 544839.640003 258822.522433, 544827.387184 258837.468947)

LINESTRING (544851.415636 258808.229837, 544852.588396 258804.602140, 544854.194877 258802.512017)

LINESTRING (544818.926492 258720.773179, 544818.929124 258702.430001)

LINESTRING (544818.926492 258720.773179, 544820.528480 258720.241199, 544847.789993 258711.421039, 544860.095692 258702.397597)

LINESTRING (544818.929124 258702.430001, 544819.568935 258698.085495)

LINESTRING (544818.929124 258702.430001, 544810.962970 258701.952356, 544799.356170 258701.334962, 544758.180767 258721.102183)

LINESTRING (544860.095692 258702.397597, 544877.081550 258721.582424, 544900.391003 258740.351145, 544901.670931 258741.479369)

LINESTRING (544860.095692 258702.397597, 544847.789993 258711.421039, 544820.528480 258720.241199, 544818.926492 258720.773179)

LINESTRING (544860.095692 258702.397597, 544852.996682 258693.307870, 544847.496219 258688.950864, 544824.058831 258681.331552, 544822.751564 258680.903780)

LINESTRING (545199.271244 258695.538025, 545186.372175 258694.214025)

LINESTRING (545199.271244 258695.538025, 545199.429491 258700.173014, 545201.277097 258716.466772)

LINESTRING (545186.372175 258694.214025, 545199.271244 258695.538025)

LINESTRING (545186.372175 258694.214025, 545179.110081 258693.511538)

LINESTRING (545186.372175 258694.214025, 545186.272491 258705.553241)

LINESTRING (545201.277097 258716.466772, 545203.781023 258730.197449)

LINESTRING (545201.277097 258716.466772, 545199.429491 258700.173014, 545199.271244 258695.538025)

LINESTRING (545201.277097 258716.466772, 545190.345632 258718.940307, 545131.992358 258726.758968, 545126.413960 258726.706918)

LINESTRING (544809.814787 258860.596877, 544818.460258 258849.051054)

LINESTRING (544809.814787 258860.596877, 544806.603532 258864.955291, 544801.840150 258870.715334, 544797.798653 258875.171931, 544785.729828 258888.276231)

LINESTRING (544809.814787 258860.596877, 544839.667081 258884.298172, 544845.313984 258898.843981, 544845.746702 258899.713686, 544861.947755 258930.518192)

LINESTRING (544818.460258 258849.051054, 544827.387184 258837.468947)

LINESTRING (544818.460258 258849.051054, 544809.814787 258860.596877)

LINESTRING (544818.460258 258849.051054, 544823.141318 258852.193114, 544829.620888 258856.968287, 544841.710671 258865.847676, 544861.254850 258874.922730, 544867.952329 258879.726587)

LINESTRING (544785.729828 258888.276231, 544797.798653 258875.171931, 544801.840150 258870.715334, 544806.603532 258864.955291, 544809.814787 258860.596877)

LINESTRING (544785.729828 258888.276231, 544737.997537 258934.999551, 544735.719013 258937.159126)

LINESTRING (544785.729828 258888.276231, 544789.974688 258893.943297, 544808.927487 258946.187671, 544820.252817 258986.132505, 544820.426561 258986.738636, 544822.254528 258996.019342)

LINESTRING (544785.729828 258888.276231, 544778.790537 258882.853239, 544769.678062 258879.258977, 544762.558019 258877.681922, 544757.106723 258878.435396)

LINESTRING (544861.947755 258930.518192, 544870.833908 258947.462766)

LINESTRING (544861.947755 258930.518192, 544845.746702 258899.713686, 544845.313984 258898.843981, 544839.667081 258884.298172, 544809.814787 258860.596877)

LINESTRING (544861.947755 258930.518192, 544870.231937 258925.951930, 544871.005560 258924.983920, 544878.723684 258920.601474)

LINESTRING (544735.719013 258937.159126, 544725.101727 258948.803322)

LINESTRING (544735.719013 258937.159126, 544737.997537 258934.999551, 544785.729828 258888.276231)

LINESTRING (544735.719013 258937.159126, 544745.397041 258945.500359, 544749.996097 258949.341186, 544751.951074 258950.767355, 544754.089499 258951.297304, 544755.969263 258951.318821, 544757.903988 258950.863328, 544764.751783 258948.414276, 544767.157906 258947.738814, 544769.355516 258947.647184, 544771.812759 258948.030626, 544774.250509 258949.081336, 544775.660222 258950.447064, 544776.664269 258952.357471)

LINESTRING (544822.254528 258996.019342, 544810.139378 258998.548131)

LINESTRING (544822.254528 258996.019342, 544823.341717 259005.378576, 544824.953259 259012.237614, 544828.028740 259018.137682, 544832.453322 259023.264645)

LINESTRING (544822.254528 258996.019342, 544820.426561 258986.738636, 544820.252817 258986.132505, 544808.927487 258946.187671, 544789.974688 258893.943297, 544785.729828 258888.276231)

LINESTRING (544757.106723 258878.435396, 544762.558019 258877.681922, 544769.678062 258879.258977, 544778.790537 258882.853239, 544785.729828 258888.276231)

LINESTRING (544832.453322 259023.264645, 544854.930163 259009.418413)

LINESTRING (544832.453322 259023.264645, 544806.471532 259036.552197)

LINESTRING (544832.453322 259023.264645, 544845.188961 259040.210383)

LINESTRING (544832.453322 259023.264645, 544828.028740 259018.137682, 544824.953259 259012.237614, 544823.341717 259005.378576, 544822.254528 258996.019342)

LINESTRING (544854.930163 259009.418413, 544865.548076 259002.905723)

LINESTRING (544854.930163 259009.418413, 544832.453322 259023.264645)

LINESTRING (544854.930163 259009.418413, 544877.713402 259040.994200)

LINESTRING (544806.471532 259036.552197, 544832.453322 259023.264645)

LINESTRING (544806.471532 259036.552197, 544817.173455 259059.215225)

LINESTRING (544806.471532 259036.552197, 544800.851175 259035.608821, 544795.911495 259037.579302, 544785.401019 259041.590883, 544783.390210 259042.311277, 544783.050901 259042.457192, 544782.176767 259042.888008)

LINESTRING (544845.188961 259040.210383, 544832.144667 259051.137838)

LINESTRING (544845.188961 259040.210383, 544832.453322 259023.264645)

LINESTRING (544845.188961 259040.210383, 544875.302413 259078.790113)

LINESTRING (544891.468014 258985.899028, 544916.299134 259022.732879)

LINESTRING (544891.468014 258985.899028, 544893.259914 258984.949664)

LINESTRING (544891.468014 258985.899028, 544865.548076 259002.905723)

LINESTRING (544916.299134 259022.732879, 544935.394679 259051.095664)

LINESTRING (544916.299134 259022.732879, 544891.468014 258985.899028)

LINESTRING (544916.299134 259022.732879, 544890.953819 259040.201467)

LINESTRING (544893.259914 258984.949664, 544891.468014 258985.899028)

LINESTRING (544893.259914 258984.949664, 544897.503479 258982.702917, 544900.927213 258980.198459, 544923.850334 258950.637988)

LINESTRING (544893.259914 258984.949664, 544890.001660 258979.689786, 544874.957963 258955.385899, 544871.767974 258949.426802)

LINESTRING (544865.548076 259002.905723, 544891.468014 258985.899028)

LINESTRING (544865.548076 259002.905723, 544854.930163 259009.418413)

LINESTRING (544865.548076 259002.905723, 544862.983759 258998.935042, 544856.239147 258988.497708, 544852.942147 258983.392553, 544852.837508 258974.340296)

LINESTRING (545103.880888 258693.356422, 545105.744182 258692.542786, 545125.860534 258692.130049)

LINESTRING (545103.880888 258693.356422, 545101.712382 258695.719413, 545100.278487 258699.383936, 545099.156485 258708.277864, 545099.396525 258725.537393)

LINESTRING (545103.880888 258693.356422, 545100.656424 258690.212219, 545098.087804 258689.658399, 545095.231528 258691.222111)

LINESTRING (545125.860534 258692.130049, 545153.007988 258692.602287, 545159.248185 258692.707140, 545171.667412 258692.903949, 545176.265235 258693.283505, 545179.110081 258693.511538)

LINESTRING (545125.860534 258692.130049, 545105.744182 258692.542786, 545103.880888 258693.356422)

LINESTRING (545099.396525 258725.537393, 545099.314175 258727.182317)

LINESTRING (545099.396525 258725.537393, 545096.331818 258722.776311, 545096.265489 258706.122924, 545096.115011 258698.883599, 545091.920784 258690.791266)

LINESTRING (545095.231528 258691.222111, 545103.880888 258693.356422)

LINESTRING (545095.231528 258691.222111, 545098.087804 258689.658399, 545100.656424 258690.212219, 545103.880888 258693.356422)

LINESTRING (545090.554246 258829.728500, 545110.389683 258826.046222, 545113.567625 258825.404653, 545133.521534 258821.414277)

LINESTRING (545090.554246 258829.728500, 545076.394763 258831.295229, 545054.944754 258832.670862, 545043.567309 258831.703414, 545030.930812 258829.129725, 545017.683667 258823.121093, 545005.725825 258815.580804, 544986.120160 258799.958568)

LINESTRING (545133.521534 258821.414277, 545130.697197 258801.808404)

LINESTRING (545133.521534 258821.414277, 545167.495883 258813.371258, 545172.977287 258812.062578)

LINESTRING (545133.521534 258821.414277, 545113.567625 258825.404653, 545110.389683 258826.046222, 545090.554246 258829.728500)

LINESTRING (544986.120160 258799.958568, 544963.181731 258835.851675, 544950.454234 258854.857827, 544945.929807 258862.962163, 544941.732361 258871.576944)

LINESTRING (544986.120160 258799.958568, 544973.104846 258788.358136, 544956.802182 258772.721343, 544934.508122 258749.641088, 544927.440243 258742.065919, 544920.687936 258735.156696, 544917.278926 258732.474707, 544914.015361 258731.132648)

LINESTRING (544986.120160 258799.958568, 545005.725825 258815.580804, 545017.683667 258823.121093, 545030.930812 258829.129725, 545043.567309 258831.703414, 545054.944754 258832.670862, 545076.394763 258831.295229, 545090.554246 258829.728500)

LINESTRING (544941.732361 258871.576944, 544934.112797 258890.354086)

LINESTRING (544941.732361 258871.576944, 544945.929807 258862.962163, 544950.454234 258854.857827, 544963.181731 258835.851675, 544986.120160 258799.958568)

LINESTRING (544914.015361 258731.132648, 544917.278926 258732.474707, 544920.687936 258735.156696, 544927.440243 258742.065919, 544934.508122 258749.641088, 544956.802182 258772.721343, 544973.104846 258788.358136, 544986.120160 258799.958568)

LINESTRING (544914.015361 258731.132648, 544910.832502 258731.239932, 544908.113942 258733.241870, 544901.670931 258741.479369)

LINESTRING (544934.112797 258890.354086, 544933.471898 258891.927023)

LINESTRING (544934.112797 258890.354086, 544941.732361 258871.576944)

LINESTRING (544901.670931 258741.479369, 544869.745137 258784.712337)

LINESTRING (544901.670931 258741.479369, 544900.391003 258740.351145, 544877.081550 258721.582424, 544860.095692 258702.397597)

LINESTRING (544869.745137 258784.712337, 544862.984104 258794.476611)

LINESTRING (544869.745137 258784.712337, 544892.398685 258800.412071, 544900.334812 258804.951655, 544911.419701 258818.732700, 544893.586865 258821.049598, 544887.183536 258821.853013, 544879.699213 258828.056579, 544877.124196 258830.296471)

LINESTRING (544810.139378 258998.548131, 544822.254528 258996.019342)

LINESTRING (544810.139378 258998.548131, 544807.760925 258999.213249, 544786.021097 259005.389966)

LINESTRING (544810.139378 258998.548131, 544806.295388 258981.038644, 544799.467682 258980.460695, 544790.581517 258977.084480, 544784.868136 258978.620535, 544773.160627 258981.706725, 544754.131024 258986.393345)

LINESTRING (544786.021097 259005.389966, 544807.760925 258999.213249, 544810.139378 258998.548131)

LINESTRING (544754.131024 258986.393345, 544754.982474 258987.909719, 544756.831884 258993.651486, 544755.896258 258994.080511, 544755.378343 258994.254602, 544756.662169 258996.184309, 544762.151482 259005.360460, 544772.804740 259024.315461, 544782.176767 259042.888008)

LINESTRING (544754.131024 258986.393345, 544751.414968 258981.527844, 544739.496143 258965.863987, 544732.706396 258956.727800, 544728.432961 258952.273184)

LINESTRING (544754.131024 258986.393345, 544773.160627 258981.706725, 544784.868136 258978.620535, 544790.581517 258977.084480, 544799.467682 258980.460695, 544806.295388 258981.038644, 544810.139378 258998.548131)

LINESTRING (544858.086467 259169.268578, 544857.992692 259147.917290, 544858.361350 259134.838447)

LINESTRING (544858.086467 259169.268578, 544853.096770 259170.146734, 544844.759577 259171.628273, 544831.555107 259164.185500, 544830.574899 259163.099441, 544820.834035 259143.124673, 544815.161732 259129.924939, 544798.989349 259085.987262, 544790.063682 259063.376172, 544782.176767 259042.888008)

LINESTRING (544858.361350 259134.838447, 544854.338094 259133.296117, 544841.299985 259107.058557)

LINESTRING (544858.361350 259134.838447, 544857.992692 259147.917290, 544858.086467 259169.268578)

LINESTRING (544858.361350 259134.838447, 544862.830560 259133.288372, 544890.832615 259097.197884)

LINESTRING (544782.176767 259042.888008, 544790.063682 259063.376172, 544798.989349 259085.987262, 544815.161732 259129.924939, 544820.834035 259143.124673, 544830.574899 259163.099441, 544831.555107 259164.185500, 544844.759577 259171.628273, 544853.096770 259170.146734, 544858.086467 259169.268578)

LINESTRING (544782.176767 259042.888008, 544783.050901 259042.457192, 544783.390210 259042.311277, 544785.401019 259041.590883, 544795.911495 259037.579302, 544800.851175 259035.608821, 544806.471532 259036.552197)

LINESTRING (544782.176767 259042.888008, 544772.804740 259024.315461, 544762.151482 259005.360460, 544756.662169 258996.184309, 544755.378343 258994.254602, 544755.896258 258994.080511, 544756.831884 258993.651486, 544754.982474 258987.909719, 544754.131024 258986.393345)

LINESTRING (544890.832615 259097.197884, 544935.394679 259051.095664)

LINESTRING (544890.832615 259097.197884, 544875.302413 259078.790113)

LINESTRING (544890.832615 259097.197884, 544862.830560 259133.288372, 544858.361350 259134.838447)

LINESTRING (544935.394679 259051.095664, 544998.775965 258987.668616)

LINESTRING (544935.394679 259051.095664, 544890.832615 259097.197884)

LINESTRING (544935.394679 259051.095664, 544916.299134 259022.732879)

LINESTRING (544875.302413 259078.790113, 544858.853019 259090.886838)

LINESTRING (544875.302413 259078.790113, 544845.188961 259040.210383)

LINESTRING (544875.302413 259078.790113, 544890.832615 259097.197884)

LINESTRING (544875.302413 259078.790113, 544876.068447 259072.701793, 544900.850053 259052.523042, 544890.953819 259040.201467)

LINESTRING (544998.775965 258987.668616, 544935.394679 259051.095664)

LINESTRING (544998.775965 258987.668616, 545016.021193 259003.778400)

LINESTRING (544998.775965 258987.668616, 544996.284928 258985.870480)

LINESTRING (544817.173455 259059.215225, 544832.144667 259051.137838)

LINESTRING (544817.173455 259059.215225, 544841.299985 259107.058557)

LINESTRING (544817.173455 259059.215225, 544806.471532 259036.552197)

LINESTRING (545016.021193 259003.778400, 545020.715639 259007.622283)

LINESTRING (545016.021193 259003.778400, 544998.775965 258987.668616)

LINESTRING (544996.284928 258985.870480, 544998.775965 258987.668616)

LINESTRING (544996.284928 258985.870480, 544987.129852 258980.237648, 544966.662046 258972.838035)

LINESTRING (544996.284928 258985.870480, 545000.271555 258980.254848, 545000.683754 258979.487764, 545003.643968 258974.598985, 545015.914966 258955.301345)

LINESTRING (545020.715639 259007.622283, 545016.021193 259003.778400)

LINESTRING (545020.715639 259007.622283, 545026.535469 259005.021070, 545031.913500 259003.030251, 545044.596424 259003.768766, 545073.313920 259014.549060, 545106.401217 259032.313962, 545113.310088 259035.488157, 545120.807201 259036.787378, 545127.135498 259035.503460)

LINESTRING (544923.850334 258950.637988, 544922.603962 258947.896795)

LINESTRING (544923.850334 258950.637988, 544900.927213 258980.198459, 544897.503479 258982.702917, 544893.259914 258984.949664)

LINESTRING (544923.850334 258950.637988, 544934.058966 258957.659447, 544944.463093 258964.541947, 544955.781039 258969.403164, 544966.662046 258972.838035)

LINESTRING (544922.603962 258947.896795, 544923.850334 258950.637988)

LINESTRING (544922.603962 258947.896795, 544922.315378 258946.307806, 544922.055738 258943.729037, 544921.972093 258940.042352)

LINESTRING (544922.603962 258947.896795, 544916.023814 258949.140220, 544871.767974 258949.426802)

LINESTRING (544966.662046 258972.838035, 544987.129852 258980.237648, 544996.284928 258985.870480)

LINESTRING (544966.662046 258972.838035, 544955.781039 258969.403164, 544944.463093 258964.541947, 544934.058966 258957.659447, 544923.850334 258950.637988)

LINESTRING (544966.662046 258972.838035, 544942.454660 258997.441012, 544928.741992 258988.658588)

LINESTRING (544923.498802 258932.028422, 544921.972093 258940.042352)

LINESTRING (544923.498802 258932.028422, 544924.633169 258924.570681)

LINESTRING (544923.498802 258932.028422, 544920.101023 258931.773229, 544918.312342 258931.676400)

LINESTRING (544921.972093 258940.042352, 544923.498802 258932.028422)

LINESTRING (544921.972093 258940.042352, 544907.647372 258939.089192)

LINESTRING (544921.972093 258940.042352, 544922.055738 258943.729037, 544922.315378 258946.307806, 544922.603962 258947.896795)

LINESTRING (544924.633169 258924.570681, 544923.498802 258932.028422)

LINESTRING (544924.633169 258924.570681, 544926.580529 258915.033026, 544929.835390 258902.639646, 544933.471898 258891.927023)

LINESTRING (544924.633169 258924.570681, 544905.596427 258910.545939, 544903.590069 258909.006899, 544900.308059 258906.428805)

LINESTRING (544918.312342 258931.676400, 544912.214842 258922.259671)

LINESTRING (544918.312342 258931.676400, 544914.854692 258930.662577, 544910.357577 258927.548064)

LINESTRING (544918.312342 258931.676400, 544920.101023 258931.773229, 544923.498802 258932.028422)

LINESTRING (544933.471898 258891.927023, 544934.112797 258890.354086)

LINESTRING (544933.471898 258891.927023, 544929.835390 258902.639646, 544926.580529 258915.033026, 544924.633169 258924.570681)

LINESTRING (544933.471898 258891.927023, 544947.084295 258897.834811, 544954.579705 258900.836705, 544955.816305 258901.340363, 544972.562600 258907.640419)

LINESTRING (544923.019950 258870.773688, 544934.112797 258890.354086)

LINESTRING (544923.019950 258870.773688, 544927.357362 258872.803868, 544931.796261 258873.234210, 544941.732361 258871.576944)

LINESTRING (544822.751564 258680.903780, 544824.058831 258681.331552, 544847.496219 258688.950864, 544852.996682 258693.307870, 544860.095692 258702.397597)

LINESTRING (544819.568935 258698.085495, 544820.835918 258690.765181, 544822.751564 258680.903780)

LINESTRING (544819.568935 258698.085495, 544823.757801 258698.419382, 544827.140128 258698.740833)

LINESTRING (544758.180767 258721.102183, 544799.356170 258701.334962, 544810.962970 258701.952356, 544818.929124 258702.430001)

LINESTRING (545197.309869 258929.124200, 545189.808024 258928.448049)

LINESTRING (545189.808024 258928.448049, 545197.309869 258929.124200)

LINESTRING (545189.808024 258928.448049, 545190.023602 258931.125724)

LINESTRING (545189.808024 258928.448049, 545161.386425 258931.132725)

LINESTRING (545189.808024 258928.448049, 545189.527772 258924.243580, 545188.225812 258908.700428)

LINESTRING (545099.314175 258727.182317, 545099.028714 258732.961896, 545090.554246 258829.728500)

LINESTRING (545099.314175 258727.182317, 545094.024017 258728.029194, 545078.734935 258731.265848)

LINESTRING (545091.920784 258690.791266, 545095.231528 258691.222111)

LINESTRING (544832.144667 259051.137838, 544845.188961 259040.210383)

LINESTRING (544832.144667 259051.137838, 544817.173455 259059.215225)

LINESTRING (544832.144667 259051.137838, 544858.853019 259090.886838)

LINESTRING (544832.144667 259051.137838, 544827.343622 259042.749728)

LINESTRING (544841.299985 259107.058557, 544817.173455 259059.215225)

LINESTRING (544841.299985 259107.058557, 544861.585164 259095.430088, 544858.853019 259090.886838)

LINESTRING (544841.299985 259107.058557, 544854.338094 259133.296117, 544858.361350 259134.838447)

LINESTRING (544827.343622 259042.749728, 544832.144667 259051.137838)

LINESTRING (544858.853019 259090.886838, 544832.144667 259051.137838)

LINESTRING (544858.853019 259090.886838, 544875.302413 259078.790113)

LINESTRING (544858.853019 259090.886838, 544861.585164 259095.430088, 544841.299985 259107.058557)

LINESTRING (544848.343161 258964.347194, 544852.055437 258961.327997, 544861.196395 258952.712957, 544870.833908 258947.462766)

LINESTRING (544870.833908 258947.462766, 544861.947755 258930.518192)

LINESTRING (544870.833908 258947.462766, 544871.767974 258949.426802)

LINESTRING (544870.833908 258947.462766, 544861.196395 258952.712957, 544852.055437 258961.327997, 544848.343161 258964.347194)

LINESTRING (544723.062322 258950.736142, 544725.101727 258948.803322)

LINESTRING (544725.101727 258948.803322, 544728.432961 258952.273184)

LINESTRING (544725.101727 258948.803322, 544723.062322 258950.736142)

LINESTRING (544725.101727 258948.803322, 544735.719013 258937.159126)

LINESTRING (545172.977287 258812.062578, 545181.137602 258809.641401)

LINESTRING (545172.977287 258812.062578, 545167.495883 258813.371258, 545133.521534 258821.414277)

LINESTRING (545172.977287 258812.062578, 545174.403043 258817.547234, 545185.470535 258878.578059)

LINESTRING (545181.137602 258809.641401, 545172.977287 258812.062578)

LINESTRING (545181.137602 258809.641401, 545182.391243 258815.165540, 545195.083345 258876.989740)

LINESTRING (545185.470535 258878.578059, 545186.147077 258882.326650, 545186.867656 258890.873845, 545186.939511 258891.922232)

LINESTRING (545185.470535 258878.578059, 545174.403043 258817.547234, 545172.977287 258812.062578)

LINESTRING (545185.470535 258878.578059, 545189.091238 258877.994034, 545192.669647 258877.453295, 545195.083345 258876.989740)

LINESTRING (544862.984104 258794.476611, 544857.967785 258799.527983, 544854.194877 258802.512017)

LINESTRING (544862.984104 258794.476611, 544866.758459 258797.291680, 544871.652980 258801.085601, 544871.167988 258805.278799, 544871.238668 258808.942841, 544872.441509 258811.538046, 544873.581219 258813.485830, 544870.655244 258819.778144, 544869.037372 258821.790015)

LINESTRING (544869.037372 258821.790015, 544877.124196 258830.296471)

LINESTRING (544869.037372 258821.790015, 544870.655244 258819.778144, 544873.581219 258813.485830, 544872.441509 258811.538046, 544871.238668 258808.942841, 544871.167988 258805.278799, 544871.652980 258801.085601, 544866.758459 258797.291680, 544862.984104 258794.476611)

LINESTRING (545132.564469 258989.982248, 545157.245825 258984.483114)

LINESTRING (545132.564469 258989.982248, 545130.231534 258979.985381, 545114.943173 258983.689398)

LINESTRING (545132.564469 258989.982248, 545138.587708 259015.458634, 545163.384773 259009.740311, 545161.490718 259001.336835)

LINESTRING (545132.564469 258989.982248, 545142.564432 258981.470778, 545150.380471 258973.284931, 545153.450855 258966.974737, 545154.865324 258960.237599, 545156.235565 258953.142984, 545159.011340 258943.585143, 545161.470482 258936.433380)

LINESTRING (545157.245825 258984.483114, 545132.564469 258989.982248)

LINESTRING (545157.245825 258984.483114, 545171.659053 258981.477082)

LINESTRING (545157.245825 258984.483114, 545161.490718 259001.336835)

LINESTRING (545114.943173 258983.689398, 545127.135498 259035.503460)

LINESTRING (545114.943173 258983.689398, 545130.231534 258979.985381, 545132.564469 258989.982248)

LINESTRING (545114.943173 258983.689398, 545089.996455 258987.043887, 545077.291986 258987.740480, 545072.568575 258985.353810, 545053.004787 258971.134951, 545044.497804 258965.320631, 545030.017381 258960.344392, 545015.914966 258955.301345)

LINESTRING (545161.490718 259001.336835, 545157.245825 258984.483114)

LINESTRING (545161.490718 259001.336835, 545175.467973 258998.039779)

LINESTRING (545161.490718 259001.336835, 545163.384773 259009.740311, 545138.587708 259015.458634, 545132.564469 258989.982248)

LINESTRING (545161.470482 258936.433380, 545163.042490 258944.860812)

LINESTRING (545161.470482 258936.433380, 545161.386425 258931.132725)

LINESTRING (545161.470482 258936.433380, 545159.011340 258943.585143, 545156.235565 258953.142984, 545154.865324 258960.237599, 545153.450855 258966.974737, 545150.380471 258973.284931, 545142.564432 258981.470778, 545132.564469 258989.982248)

LINESTRING (545127.135498 259035.503460, 545114.943173 258983.689398)

LINESTRING (545127.135498 259035.503460, 545120.807201 259036.787378, 545113.310088 259035.488157, 545106.401217 259032.313962, 545073.313920 259014.549060, 545044.596424 259003.768766, 545031.913500 259003.030251, 545026.535469 259005.021070, 545020.715639 259007.622283)

LINESTRING (545015.914966 258955.301345, 545011.699006 258953.797776, 544996.234392 258948.570227, 544964.624797 258935.657767, 544970.359111 258914.243210, 544972.562600 258907.640419)

LINESTRING (545015.914966 258955.301345, 545030.017381 258960.344392, 545044.497804 258965.320631, 545053.004787 258971.134951, 545072.568575 258985.353810, 545077.291986 258987.740480, 545089.996455 258987.043887, 545114.943173 258983.689398)

LINESTRING (545015.914966 258955.301345, 545003.643968 258974.598985, 545000.683754 258979.487764, 545000.271555 258980.254848, 544996.284928 258985.870480)

LINESTRING (545190.023602 258931.125724, 545189.808024 258928.448049)

LINESTRING (545161.386425 258931.132725, 545161.470482 258936.433380)

LINESTRING (545161.386425 258931.132725, 545159.857774 258894.379045)

LINESTRING (545161.386425 258931.132725, 545189.808024 258928.448049)

LINESTRING (545188.225812 258908.700428, 545186.939511 258891.922232)

LINESTRING (545188.225812 258908.700428, 545189.527772 258924.243580, 545189.808024 258928.448049)

LINESTRING (545188.225812 258908.700428, 545196.598352 258907.899446, 545197.362562 258907.955229)

LINESTRING (545186.939511 258891.922232, 545159.857774 258894.379045)

LINESTRING (545186.939511 258891.922232, 545188.225812 258908.700428)

LINESTRING (545186.939511 258891.922232, 545186.867656 258890.873845, 545186.147077 258882.326650, 545185.470535 258878.578059)

LINESTRING (545159.857774 258894.379045, 545186.939511 258891.922232)

LINESTRING (545159.857774 258894.379045, 545161.386425 258931.132725)

LINESTRING (545159.857774 258894.379045, 545159.706562 258892.538057)

LINESTRING (545159.857774 258894.379045, 545123.937640 258897.901717, 545114.991029 258904.997090, 545094.036504 258905.340768, 545084.763176 258904.212209)

LINESTRING (545159.706562 258892.538057, 545159.857774 258894.379045)

LINESTRING (545084.763176 258904.212209, 545084.542355 258886.062789)

LINESTRING (545084.763176 258904.212209, 545051.973619 258904.276375, 545051.440891 258893.508580, 545017.840663 258879.446725, 545014.097331 258880.483642, 545005.343195 258877.266737, 545004.490497 258875.794803, 545003.657643 258874.345712, 544981.740032 258866.469542, 544979.812726 258873.915208, 544978.935938 258880.278542, 544976.758454 258891.835225, 544976.153652 258896.848579, 544972.562600 258907.640419)

LINESTRING (545084.763176 258904.212209, 545094.036504 258905.340768, 545114.991029 258904.997090, 545123.937640 258897.901717, 545159.857774 258894.379045)

LINESTRING (545084.542355 258886.062789, 545084.763176 258904.212209)

LINESTRING (544972.562600 258907.640419, 544970.359111 258914.243210, 544964.624797 258935.657767, 544996.234392 258948.570227, 545011.699006 258953.797776, 545015.914966 258955.301345)

LINESTRING (544972.562600 258907.640419, 544976.153652 258896.848579, 544976.758454 258891.835225, 544978.935938 258880.278542, 544979.812726 258873.915208, 544981.740032 258866.469542, 545003.657643 258874.345712, 545004.490497 258875.794803, 545005.343195 258877.266737, 545014.097331 258880.483642, 545017.840663 258879.446725, 545051.440891 258893.508580, 545051.973619 258904.276375, 545084.763176 258904.212209)

LINESTRING (544972.562600 258907.640419, 544955.816305 258901.340363, 544954.579705 258900.836705, 544947.084295 258897.834811, 544933.471898 258891.927023)

LINESTRING (545163.042490 258944.860812, 545171.659053 258981.477082)

LINESTRING (545163.042490 258944.860812, 545161.470482 258936.433380)

LINESTRING (545171.659053 258981.477082, 545157.245825 258984.483114)

LINESTRING (545171.659053 258981.477082, 545163.042490 258944.860812)

LINESTRING (545171.659053 258981.477082, 545175.467973 258998.039779)

LINESTRING (545175.467973 258998.039779, 545161.490718 259001.336835)

LINESTRING (545175.467973 258998.039779, 545171.659053 258981.477082)

LINESTRING (545197.362562 258907.955229, 545196.598352 258907.899446, 545188.225812 258908.700428)

LINESTRING (545165.924719 258754.488599, 545162.982928 258755.003486)

LINESTRING (545165.924719 258754.488599, 545168.113429 258768.944645)

LINESTRING (545165.924719 258754.488599, 545163.998458 258742.511247, 545176.105321 258740.294702)

LINESTRING (545162.982928 258755.003486, 545165.924719 258754.488599)

LINESTRING (545168.113429 258768.944645, 545180.976338 258766.594432)

LINESTRING (545168.113429 258768.944645, 545154.604396 258771.409534)

LINESTRING (545168.113429 258768.944645, 545165.924719 258754.488599)

LINESTRING (545176.105321 258740.294702, 545204.576304 258734.561706)

LINESTRING (545176.105321 258740.294702, 545176.549310 258743.112633, 545177.221957 258747.462161)

LINESTRING (545176.105321 258740.294702, 545163.998458 258742.511247, 545165.924719 258754.488599)

LINESTRING (545130.697197 258801.808404, 545128.852821 258802.210749)

LINESTRING (545130.697197 258801.808404, 545133.521534 258821.414277)

LINESTRING (545130.697197 258801.808404, 545136.218640 258799.833016)

LINESTRING (545128.852821 258802.210749, 545130.697197 258801.808404)

LINESTRING (545128.852821 258802.210749, 545126.159627 258802.643891)

LINESTRING (545128.852821 258802.210749, 545128.554887 258799.541799, 545128.348675 258797.710333, 545126.991382 258785.449132)

LINESTRING (545136.218640 258799.833016, 545130.697197 258801.808404)

LINESTRING (545136.218640 258799.833016, 545143.018372 258797.405323)

LINESTRING (545136.218640 258799.833016, 545137.069946 258803.453148)

LINESTRING (545188.103712 258765.356245, 545180.976338 258766.594432)

LINESTRING (545180.976338 258766.594432, 545168.113429 258768.944645)

LINESTRING (545180.976338 258766.594432, 545188.103712 258765.356245)

LINESTRING (545180.976338 258766.594432, 545177.959694 258751.223672, 545177.221957 258747.462161)

LINESTRING (545151.870754 258755.245676, 545153.217085 258763.210133)

LINESTRING (545151.870754 258755.245676, 545143.407174 258756.812093)

LINESTRING (545151.870754 258755.245676, 545151.284284 258751.455209, 545153.490464 258751.074599)

LINESTRING (545153.217085 258763.210133, 545153.712158 258766.151995)

LINESTRING (545153.217085 258763.210133, 545151.870754 258755.245676)

LINESTRING (545153.217085 258763.210133, 545155.527047 258762.788041)

LINESTRING (545143.407174 258756.812093, 545151.870754 258755.245676)

LINESTRING (545143.407174 258756.812093, 545124.211391 258760.357155)

LINESTRING (545143.407174 258756.812093, 545142.774212 258751.807024)

LINESTRING (545153.490464 258751.074599, 545151.284284 258751.455209, 545151.870754 258755.245676)

LINESTRING (545126.159627 258802.643891, 545128.852821 258802.210749)

LINESTRING (545126.991382 258785.449132, 545126.134752 258785.513092)

LINESTRING (545126.991382 258785.449132, 545124.541531 258763.327575, 545124.211391 258760.357155)

LINESTRING (545126.991382 258785.449132, 545128.348675 258797.710333, 545128.554887 258799.541799, 545128.852821 258802.210749)

LINESTRING (545177.221957 258747.462161, 545182.705697 258746.543130)

LINESTRING (545177.221957 258747.462161, 545177.959694 258751.223672, 545180.976338 258766.594432)

LINESTRING (545177.221957 258747.462161, 545176.549310 258743.112633, 545176.105321 258740.294702)

LINESTRING (545182.705697 258746.543130, 545177.221957 258747.462161)

LINESTRING (545154.604396 258771.409534, 545168.113429 258768.944645)

LINESTRING (545154.604396 258771.409534, 545153.712158 258766.151995)

LINESTRING (545154.604396 258771.409534, 545146.934675 258773.188417)

LINESTRING (545154.604396 258771.409534, 545155.414914 258778.289756, 545155.516322 258781.131043, 545154.809925 258783.303091, 545153.694526 258786.832231, 545152.969239 258789.649304, 545153.309082 258793.688554, 545148.576909 258795.564603, 545143.951139 258797.076460, 545143.018372 258797.405323)

LINESTRING (545153.712158 258766.151995, 545154.604396 258771.409534)

LINESTRING (545153.712158 258766.151995, 545153.217085 258763.210133)

LINESTRING (545153.712158 258766.151995, 545150.780116 258767.268229, 545149.078512 258768.865729, 545148.188942 258771.221634, 545146.934675 258773.188417)

LINESTRING (545146.934675 258773.188417, 545154.604396 258771.409534)

LINESTRING (545146.934675 258773.188417, 545144.873572 258774.686343, 545142.825823 258775.728305, 545140.601749 258776.486837)

LINESTRING (545146.934675 258773.188417, 545148.188942 258771.221634, 545149.078512 258768.865729, 545150.780116 258767.268229, 545153.712158 258766.151995)

LINESTRING (545143.018372 258797.405323, 545136.218640 258799.833016)

LINESTRING (545143.018372 258797.405323, 545143.951139 258797.076460, 545148.576909 258795.564603, 545153.309082 258793.688554, 545152.969239 258789.649304, 545153.694526 258786.832231, 545154.809925 258783.303091, 545155.516322 258781.131043, 545155.414914 258778.289756, 545154.604396 258771.409534)

LINESTRING (545143.018372 258797.405323, 545143.810092 258802.359389, 545145.309930 258802.047135)

LINESTRING (545137.069946 258803.453148, 545136.218640 258799.833016)

LINESTRING (545124.211391 258760.357155, 545143.407174 258756.812093)

LINESTRING (545124.211391 258760.357155, 545123.900763 258757.654442)

LINESTRING (545124.211391 258760.357155, 545124.541531 258763.327575, 545126.991382 258785.449132)

LINESTRING (545123.900763 258757.654442, 545124.211391 258760.357155)

LINESTRING (544827.387184 258837.468947, 544818.460258 258849.051054)

LINESTRING (544827.387184 258837.468947, 544839.640003 258822.522433, 544850.123756 258810.084283, 544851.415636 258808.229837)

LINESTRING (544827.387184 258837.468947, 544832.599890 258841.839790, 544839.076540 258846.715065, 544839.571715 258847.085718)

LINESTRING (544928.741992 258988.658588, 544942.454660 258997.441012, 544966.662046 258972.838035)

LINESTRING (544890.953819 259040.201467, 544916.299134 259022.732879)

LINESTRING (544890.953819 259040.201467, 544887.467932 259038.752739, 544879.877887 259027.066280)

LINESTRING (544890.953819 259040.201467, 544900.850053 259052.523042, 544876.068447 259072.701793, 544875.302413 259078.790113)

LINESTRING (544712.713619 259003.059456, 544718.689295 258997.690919)

LINESTRING (544718.689295 258997.690919, 544712.713619 259003.059456)

LINESTRING (544718.689295 258997.690919, 544722.158126 258994.809218, 544732.330601 258997.221123, 544738.393728 259004.076576, 544746.252760 259013.589057, 544756.399840 259032.317755, 544745.267510 259039.594787)

LINESTRING (544718.689295 258997.690919, 544702.487463 258976.025116, 544701.063724 258974.202645)

LINESTRING (544852.837508 258974.340296, 544852.942147 258983.392553, 544856.239147 258988.497708, 544862.983759 258998.935042, 544865.548076 259002.905723)

LINESTRING (544745.267510 259039.594787, 544729.849476 259021.068346)

LINESTRING (544745.267510 259039.594787, 544755.569915 259055.345018, 544754.654815 259056.242128, 544753.458647 259057.398162, 544753.828578 259058.310548)

LINESTRING (544745.267510 259039.594787, 544756.399840 259032.317755, 544746.252760 259013.589057, 544738.393728 259004.076576, 544732.330601 258997.221123, 544722.158126 258994.809218, 544718.689295 258997.690919)

LINESTRING (544745.267510 259039.594787, 544742.919064 259041.340481, 544730.761806 259051.403652)

LINESTRING (544701.063724 258974.202645, 544702.487463 258976.025116, 544718.689295 258997.690919)

LINESTRING (544701.063724 258974.202645, 544712.050946 258965.340727, 544722.849521 258956.618021, 544724.763038 258955.015442, 544728.432961 258952.273184)

LINESTRING (545179.110081 258693.511538, 545186.372175 258694.214025)

LINESTRING (545179.110081 258693.511538, 545176.265235 258693.283505, 545171.667412 258692.903949, 545159.248185 258692.707140, 545153.007988 258692.602287, 545125.860534 258692.130049)

LINESTRING (544871.767974 258949.426802, 544870.833908 258947.462766)

LINESTRING (544871.767974 258949.426802, 544874.957963 258955.385899, 544890.001660 258979.689786, 544893.259914 258984.949664)

LINESTRING (544871.767974 258949.426802, 544916.023814 258949.140220, 544922.603962 258947.896795)

LINESTRING (545203.781023 258730.197449, 545204.576304 258734.561706)

LINESTRING (545203.781023 258730.197449, 545201.277097 258716.466772)

LINESTRING (545203.781023 258730.197449, 545195.350890 258731.787022)

LINESTRING (545126.413960 258726.706918, 545131.992358 258726.758968, 545190.345632 258718.940307, 545201.277097 258716.466772)

LINESTRING (545186.272491 258705.553241, 545186.372175 258694.214025)

LINESTRING (544753.828578 259058.310548, 544730.072410 259078.753697)

LINESTRING (544753.828578 259058.310548, 544753.458647 259057.398162, 544754.654815 259056.242128, 544755.569915 259055.345018, 544745.267510 259039.594787)

LINESTRING (544753.828578 259058.310548, 544764.424558 259079.222853, 544767.237710 259081.464376, 544771.089923 259083.246509, 544773.393321 259086.319070, 544775.587632 259095.465763, 544781.211527 259115.475969, 544785.143675 259134.412737, 544788.373469 259144.858585, 544793.169992 259155.739787, 544791.816412 259157.837315)

LINESTRING (544730.072410 259078.753697, 544753.828578 259058.310548)

LINESTRING (544730.072410 259078.753697, 544716.362880 259096.551861, 544692.959596 259121.313026, 544700.858874 259131.316364, 544706.770142 259142.196633, 544710.904648 259149.530009, 544721.597563 259157.288671, 544728.185470 259162.322896, 544732.746928 259166.507669)

LINESTRING (544730.072410 259078.753697, 544720.275402 259067.003039, 544719.095381 259065.499337, 544717.189518 259063.095119, 544730.761806 259051.403652)

LINESTRING (544791.816412 259157.837315, 544793.169992 259155.739787, 544788.373469 259144.858585, 544785.143675 259134.412737, 544781.211527 259115.475969, 544775.587632 259095.465763, 544773.393321 259086.319070, 544771.089923 259083.246509, 544767.237710 259081.464376, 544764.424558 259079.222853, 544753.828578 259058.310548)

LINESTRING (544729.849476 259021.068346, 544745.267510 259039.594787)

LINESTRING (544726.164882 259022.207365, 544724.141487 259024.997708, 544715.405582 259033.101675)

LINESTRING (544715.405582 259033.101675, 544730.761806 259051.403652)

LINESTRING (544715.405582 259033.101675, 544713.971461 259031.401333)

LINESTRING (544715.405582 259033.101675, 544724.141487 259024.997708, 544726.164882 259022.207365)

LINESTRING (544715.405582 259033.101675, 544713.449122 259034.068557, 544701.802986 259043.957503)

LINESTRING (544713.971461 259031.401333, 544715.405582 259033.101675)

LINESTRING (544730.761806 259051.403652, 544715.405582 259033.101675)

LINESTRING (544730.761806 259051.403652, 544742.919064 259041.340481, 544745.267510 259039.594787)

LINESTRING (544730.761806 259051.403652, 544717.189518 259063.095119, 544719.095381 259065.499337, 544720.275402 259067.003039, 544730.072410 259078.753697)

LINESTRING (544701.802986 259043.957503, 544713.449122 259034.068557, 544715.405582 259033.101675)

LINESTRING (544732.746928 259166.507669, 544728.185470 259162.322896, 544721.597563 259157.288671, 544710.904648 259149.530009, 544706.770142 259142.196633, 544700.858874 259131.316364, 544692.959596 259121.313026, 544716.362880 259096.551861, 544730.072410 259078.753697)

LINESTRING (545068.911843 258685.832415, 545066.373689 258692.414245)

LINESTRING (545068.911843 258685.832415, 545077.413502 258688.574540, 545091.920784 258690.791266)

LINESTRING (545066.373689 258692.414245, 545068.911843 258685.832415)

LINESTRING (545078.734935 258731.265848, 545094.024017 258728.029194, 545099.314175 258727.182317)

LINESTRING (544839.571715 258847.085718, 544849.416962 258854.385761, 544861.820350 258863.530370, 544866.785082 258867.493301, 544872.167869 258871.657680, 544872.529673 258873.081846, 544873.053180 258875.056140, 544877.501897 258878.425205)

LINESTRING (544839.571715 258847.085718, 544839.076540 258846.715065, 544832.599890 258841.839790, 544827.387184 258837.468947)

LINESTRING (544839.571715 258847.085718, 544839.422390 258847.281704, 544839.293887 258847.467169, 544842.265585 258849.668840, 544841.980925 258850.050092, 544838.473709 258847.454329)

LINESTRING (544896.730136 258850.826881, 544903.657646 258856.650399, 544923.019950 258870.773688)

LINESTRING (544896.730136 258850.826881, 544890.479219 258858.346514, 544877.886022 258873.472176)

LINESTRING (544877.886022 258873.472176, 544890.479219 258858.346514, 544896.730136 258850.826881)

LINESTRING (544811.249612 258729.820662, 544819.910846 258726.166901)

LINESTRING (544819.910846 258726.166901, 544818.926492 258720.773179)

LINESTRING (544819.910846 258726.166901, 544811.249612 258729.820662)

LINESTRING (544832.719498 258793.759008, 544844.654833 258788.275382)

LINESTRING (545195.083345 258876.989740, 545197.479659 258879.686785)

LINESTRING (545195.083345 258876.989740, 545192.669647 258877.453295, 545189.091238 258877.994034, 545185.470535 258878.578059)

LINESTRING (545195.083345 258876.989740, 545182.391243 258815.165540, 545181.137602 258809.641401)

LINESTRING (545197.479659 258879.686785, 545195.083345 258876.989740)

LINESTRING (544900.954130 258681.564520, 544898.590531 258684.990431, 544926.413336 258705.393863)

LINESTRING (544926.413336 258705.393863, 544914.015361 258731.132648)

LINESTRING (544926.413336 258705.393863, 544898.590531 258684.990431, 544900.954130 258681.564520)

LINESTRING (544877.124196 258830.296471, 544880.514307 258834.090945, 544896.730136 258850.826881)

LINESTRING (544877.124196 258830.296471, 544879.699213 258828.056579, 544887.183536 258821.853013, 544893.586865 258821.049598, 544911.419701 258818.732700, 544900.334812 258804.951655, 544892.398685 258800.412071, 544869.745137 258784.712337)

LINESTRING (544878.723684 258920.601474, 544871.005560 258924.983920, 544870.231937 258925.951930, 544861.947755 258930.518192)

LINESTRING (544867.952329 258879.726587, 544861.254850 258874.922730, 544841.710671 258865.847676, 544829.620888 258856.968287, 544823.141318 258852.193114, 544818.460258 258849.051054)

LINESTRING (545204.576304 258734.561706, 545203.781023 258730.197449)

LINESTRING (545204.576304 258734.561706, 545176.105321 258740.294702)

LINESTRING (545204.576304 258734.561706, 545205.136090 258737.627908, 545207.271112 258749.945316)

LINESTRING (545207.271112 258749.945316, 545205.136090 258737.627908, 545204.576304 258734.561706)

LINESTRING (545195.350890 258731.787022, 545203.781023 258730.197449)

LINESTRING (545142.774212 258751.807024, 545143.407174 258756.812093)

LINESTRING (545155.527047 258762.788041, 545153.217085 258763.210133)

LINESTRING (545126.134752 258785.513092, 545126.991382 258785.449132)

LINESTRING (545145.309930 258802.047135, 545143.810092 258802.359389, 545143.018372 258797.405323)

LINESTRING (545140.601749 258776.486837, 545142.825823 258775.728305, 545144.873572 258774.686343, 545146.934675 258773.188417)

LINESTRING (544879.877887 259027.066280, 544887.467932 259038.752739, 544890.953819 259040.201467)

LINESTRING (544877.713402 259040.994200, 544854.930163 259009.418413)

LINESTRING (544827.140128 258698.740833, 544823.757801 258698.419382, 544819.568935 258698.085495)

LINESTRING (544776.664269 258952.357471, 544775.660222 258950.447064, 544774.250509 258949.081336, 544771.812759 258948.030626, 544769.355516 258947.647184, 544767.157906 258947.738814, 544764.751783 258948.414276, 544757.903988 258950.863328, 544755.969263 258951.318821, 544754.089499 258951.297304, 544751.951074 258950.767355, 544749.996097 258949.341186, 544745.397041 258945.500359, 544735.719013 258937.159126)

LINESTRING (544910.357577 258927.548064, 544914.854692 258930.662577, 544918.312342 258931.676400)

LINESTRING (544912.214842 258922.259671, 544918.312342 258931.676400)

LINESTRING (544906.382492 258940.020570, 544907.647372 258939.089192)

LINESTRING (544907.647372 258939.089192, 544921.972093 258940.042352)

LINESTRING (544907.647372 258939.089192, 544906.382492 258940.020570)

LINESTRING (544907.647372 258939.089192, 544903.798027 258938.141837, 544901.867818 258937.272862)

LINESTRING (544901.867818 258937.272862, 544903.798027 258938.141837, 544907.647372 258939.089192)

LINESTRING (544877.501897 258878.425205, 544875.887295 258880.559606)

LINESTRING (544877.501897 258878.425205, 544880.712361 258880.878755, 544881.829581 258881.723952)

LINESTRING (544877.501897 258878.425205, 544873.053180 258875.056140, 544872.529673 258873.081846, 544872.167869 258871.657680, 544866.785082 258867.493301, 544861.820350 258863.530370, 544849.416962 258854.385761, 544839.571715 258847.085718)

LINESTRING (544875.887295 258880.559606, 544877.501897 258878.425205)

LINESTRING (544881.829581 258881.723952, 544885.826250 258876.932191, 544893.950981 258883.436276, 544895.288454 258884.466007)

LINESTRING (544881.829581 258881.723952, 544884.223763 258883.563717, 544885.501049 258884.547163, 544890.182368 258888.145654, 544891.526998 258889.164462)

LINESTRING (544881.829581 258881.723952, 544880.712361 258880.878755, 544877.501897 258878.425205)

LINESTRING (544838.473709 258847.454329, 544841.980925 258850.050092, 544842.265585 258849.668840, 544839.293887 258847.467169, 544839.422390 258847.281704, 544839.571715 258847.085718)

LINESTRING (544891.526998 258889.164462, 544895.288454 258884.466007)

LINESTRING (544891.526998 258889.164462, 544887.273974 258894.304903, 544894.599669 258901.943215, 544900.308059 258906.428805)

LINESTRING (544891.526998 258889.164462, 544890.182368 258888.145654, 544885.501049 258884.547163, 544884.223763 258883.563717, 544881.829581 258881.723952)

LINESTRING (544895.288454 258884.466007, 544891.526998 258889.164462)

LINESTRING (544895.288454 258884.466007, 544896.552074 258885.449056)

LINESTRING (544895.288454 258884.466007, 544893.950981 258883.436276, 544885.826250 258876.932191, 544881.829581 258881.723952)

LINESTRING (544900.308059 258906.428805, 544901.730656 258900.103681)

LINESTRING (544900.308059 258906.428805, 544903.590069 258909.006899, 544905.596427 258910.545939, 544924.633169 258924.570681)

LINESTRING (544900.308059 258906.428805, 544894.599669 258901.943215, 544887.273974 258894.304903, 544891.526998 258889.164462)

LINESTRING (544901.730656 258900.103681, 544900.308059 258906.428805)

LINESTRING (544896.552074 258885.449056, 544895.288454 258884.466007)

LINESTRING (544728.432961 258952.273184, 544725.101727 258948.803322)

LINESTRING (544728.432961 258952.273184, 544732.706396 258956.727800, 544739.496143 258965.863987, 544751.414968 258981.527844, 544754.131024 258986.393345)

LINESTRING (544728.432961 258952.273184, 544724.763038 258955.015442, 544722.849521 258956.618021, 544712.050946 258965.340727, 544701.063724 258974.202645)

