LINESTRING (80.000000 80.000000, 579.861750 68.242847)

LINESTRING (80.000000 80.000000, 354.923963 73.533566)

LINESTRING (354.923963 73.533566, 579.861750 68.242847)

LINESTRING (80.000000 80.000000, 501.000583 349.737853)

LINESTRING (80.000000 80.000000, 311.550321 228.355819)

LINESTRING (311.550321 228.355819, 501.000583 349.737853)

LINESTRING (80.000000 80.000000, 256.855732 547.677293)

LINESTRING (80.000000 80.000000, 177.270653 337.222511)

LINESTRING (177.270653 337.222511, 256.855732 547.677293)

LINESTRING (80.000000 80.000000, -76.378561 554.916567)

LINESTRING (80.000000 80.000000, -6.008209 341.204112)

LINESTRING (-6.008209 341.204112, -76.378561 554.916567)

LINESTRING (80.000000 80.000000, -299.834673 405.154765)

LINESTRING (80.000000 80.000000, -128.909070 258.835121)

LINESTRING (-128.909070 258.835121, -299.834673 405.154765)

LINESTRING (80.000000 80.000000, -419.998697 78.858613)

LINESTRING (80.000000 80.000000, -194.999283 79.372237)

LINESTRING (-194.999283 79.372237, -419.998697 78.858613)

LINESTRING (80.000000 80.000000, -315.554766 -225.837256)

LINESTRING (80.000000 80.000000, -137.555121 -88.210491)

LINESTRING (-137.555121 -88.210491, -315.554766 -225.837256)

LINESTRING (80.000000 80.000000, -50.734100 -402.606045)

LINESTRING (80.000000 80.000000, 8.096245 -185.433325)

LINESTRING (8.096245 -185.433325, -50.734100 -402.606045)

LINESTRING (80.000000 80.000000, 226.973914 -397.910733)

LINESTRING (80.000000 80.000000, 160.835653 -182.850903)

LINESTRING (160.835653 -182.850903, 226.973914 -397.910733)

LINESTRING (80.000000 80.000000, 482.226082 -217.008719)

LINESTRING (80.000000 80.000000, 301.224345 -83.354796)

LINESTRING (301.224345 -83.354796, 482.226082 -217.008719)

LINESTRING (579.861750 68.242847, 501.000583 349.737853)

LINESTRING (501.000583 349.737853, 256.855732 547.677293)

LINESTRING (256.855732 547.677293, -76.378561 554.916567)

LINESTRING (-76.378561 554.916567, -299.834673 405.154765)

LINESTRING (-299.834673 405.154765, -419.998697 78.858613)

LINESTRING (-419.998697 78.858613, -315.554766 -225.837256)

LINESTRING (-315.554766 -225.837256, -50.734100 -402.606045)

LINESTRING (-50.734100 -402.606045, 226.973914 -397.910733)

LINESTRING (226.973914 -397.910733, 482.226082 -217.008719)

LINESTRING (482.226082 -217.008719, 579.861750 68.242847)

