LINESTRING (2575.832107 2672.091494, 2633.924780 3232.755908)

LINESTRING (2575.832107 2672.091494, 2001.661699 3112.374783)

LINESTRING (2575.832107 2672.091494, 3284.155938 1823.860411)

LINESTRING (2575.832107 2672.091494, 2438.573801 3136.696106)

LINESTRING (2575.832107 2672.091494, 2465.971873 2615.426302)

LINESTRING (2575.832107 2672.091494, 1751.649307 2118.757521)

LINESTRING (2575.832107 2672.091494, 2783.886393 2703.156060)

LINESTRING (2633.924780 3232.755908, 2438.573801 3136.696106)

LINESTRING (2001.661699 3112.374783, 2465.971873 2615.426302)

LINESTRING (2001.661699 3112.374783, 1751.649307 2118.757521)

LINESTRING (3391.667639 907.392957, 3255.362855 946.235824)

LINESTRING (3391.667639 907.392957, 2716.121320 971.709498)

LINESTRING (1029.394515 1797.146633, 765.179354 1551.404790)

LINESTRING (1029.394515 1797.146633, 712.263322 2238.296684)

LINESTRING (1029.394515 1797.146633, 1759.074685 952.033176)

LINESTRING (1029.394515 1797.146633, 1626.507166 2623.595937)

LINESTRING (1029.394515 1797.146633, 202.593992 1807.699288)

LINESTRING (1029.394515 1797.146633, 1218.602867 1268.746065)

LINESTRING (1029.394515 1797.146633, 243.198484 1634.069473)

LINESTRING (112.265620 1436.239495, 712.263322 2238.296684)

LINESTRING (112.265620 1436.239495, 202.593992 1807.699288)

LINESTRING (112.265620 1436.239495, 243.198484 1634.069473)

LINESTRING (112.265620 1436.239495, 260.395214 1724.509481)

LINESTRING (552.422999 2210.486340, 712.263322 2238.296684)

LINESTRING (765.179354 1551.404790, 666.439250 1394.859285)

LINESTRING (765.179354 1551.404790, 1751.649307 2118.757521)

LINESTRING (712.263322 2238.296684, 666.439250 1394.859285)

LINESTRING (712.263322 2238.296684, 1751.649307 2118.757521)

LINESTRING (666.439250 1394.859285, 1759.074685 952.033176)

LINESTRING (3255.362855 946.235824, 2441.493083 1060.816494)

LINESTRING (2716.121320 971.709498, 2441.493083 1060.816494)

LINESTRING (2716.121320 971.709498, 2827.052498 1244.597781)

LINESTRING (1759.074685 952.033176, 1986.345370 974.042255)

LINESTRING (1759.074685 952.033176, 2441.493083 1060.816494)

LINESTRING (1759.074685 952.033176, 2827.052498 1244.597781)

LINESTRING (3284.155938 1823.860411, 3351.924626 1894.212745)

LINESTRING (2465.971873 2615.426302, 2783.886393 2703.156060)

LINESTRING (1260.969839 3114.890305, 1626.507166 2623.595937)

LINESTRING (1260.969839 3114.890305, 1751.649307 2118.757521)

LINESTRING (1626.507166 2623.595937, 2783.886393 2703.156060)

LINESTRING (202.593992 1807.699288, 243.198484 1634.069473)

LINESTRING (202.593992 1807.699288, 260.395214 1724.509481)

LINESTRING (1218.602867 1268.746065, 243.198484 1634.069473)

LINESTRING (1986.345370 974.042255, 2179.112550 580.588116)

LINESTRING (3351.924626 1894.212745, 2827.052498 1244.597781)

LINESTRING (243.198484 1634.069473, 260.395214 1724.509481)

