LINESTRING (103.275064 169.318700, 150.862397 138.023883)

LINESTRING (103.275064 169.318700, 167.852693 145.597225)

LINESTRING (103.275064 169.318700, 114.390609 125.483556)

LINESTRING (103.275064 169.318700, 148.122169 135.699484)

LINESTRING (103.275064 169.318700, 111.981327 156.296206)

LINESTRING (103.275064 169.318700, 117.562576 133.262013)

LINESTRING (103.275064 169.318700, 166.941848 171.711584)

LINESTRING (103.275064 169.318700, 112.069286 139.474736)

LINESTRING (103.275064 169.318700, 125.739323 118.866577)

LINESTRING (103.275064 169.318700, 175.299382 146.748168)

LINESTRING (103.275064 169.318700, 163.951001 110.635773)

LINESTRING (103.275064 169.318700, 136.655332 156.648985)

LINESTRING (103.275064 169.318700, 107.874058 155.572365)

LINESTRING (103.275064 169.318700, 103.377547 108.762183)

LINESTRING (103.275064 169.318700, 139.663828 148.551038)

LINESTRING (103.275064 169.318700, 114.366767 165.256550)

LINESTRING (103.275064 169.318700, 121.406207 159.597197)

LINESTRING (103.275064 169.318700, 167.264217 141.608323)

LINESTRING (103.275064 169.318700, 178.004651 169.868751)

LINESTRING (103.275064 169.318700, 100.813246 133.637875)

LINESTRING (103.275064 169.318700, 165.672667 168.009803)

LINESTRING (103.275064 169.318700, 140.681610 133.071745)

LINESTRING (103.275064 169.318700, 151.838987 158.470473)

LINESTRING (103.275064 169.318700, 104.108377 108.949589)

LINESTRING (103.275064 169.318700, 143.574443 100.028004)

LINESTRING (103.275064 169.318700, 173.695367 176.591293)

LINESTRING (170.688748 137.902754, 150.862397 138.023883)

LINESTRING (170.688748 137.902754, 167.852693 145.597225)

LINESTRING (170.688748 137.902754, 114.390609 125.483556)

LINESTRING (170.688748 137.902754, 111.981327 156.296206)

LINESTRING (170.688748 137.902754, 142.538179 114.356263)

LINESTRING (170.688748 137.902754, 117.562576 133.262013)

LINESTRING (170.688748 137.902754, 112.069286 139.474736)

LINESTRING (170.688748 137.902754, 108.844052 121.067743)

LINESTRING (170.688748 137.902754, 107.874058 155.572365)

LINESTRING (170.688748 137.902754, 139.663828 148.551038)

LINESTRING (170.688748 137.902754, 114.366767 165.256550)

LINESTRING (170.688748 137.902754, 121.406207 159.597197)

LINESTRING (170.688748 137.902754, 133.300663 103.554652)

LINESTRING (170.688748 137.902754, 169.978641 155.106865)

LINESTRING (170.688748 137.902754, 165.672667 168.009803)

LINESTRING (170.688748 137.902754, 140.681610 133.071745)

LINESTRING (170.688748 137.902754, 179.769487 177.480768)

LINESTRING (170.688748 137.902754, 104.108377 108.949589)

LINESTRING (170.688748 137.902754, 173.695367 176.591293)

LINESTRING (101.782355 125.821689, 150.862397 138.023883)

LINESTRING (101.782355 125.821689, 167.852693 145.597225)

LINESTRING (101.782355 125.821689, 111.981327 156.296206)

LINESTRING (101.782355 125.821689, 117.562576 133.262013)

LINESTRING (101.782355 125.821689, 166.941848 171.711584)

LINESTRING (101.782355 125.821689, 112.069286 139.474736)

LINESTRING (101.782355 125.821689, 125.739323 118.866577)

LINESTRING (101.782355 125.821689, 107.874058 155.572365)

LINESTRING (101.782355 125.821689, 103.377547 108.762183)

LINESTRING (101.782355 125.821689, 114.366767 165.256550)

LINESTRING (101.782355 125.821689, 166.056399 176.612139)

LINESTRING (101.782355 125.821689, 111.591654 150.391662)

LINESTRING (101.782355 125.821689, 167.264217 141.608323)

LINESTRING (101.782355 125.821689, 133.300663 103.554652)

LINESTRING (101.782355 125.821689, 125.907770 142.553398)

LINESTRING (101.782355 125.821689, 179.769487 177.480768)

LINESTRING (101.782355 125.821689, 139.863218 109.308636)

LINESTRING (150.862397 138.023883, 167.852693 145.597225)

LINESTRING (150.862397 138.023883, 128.302908 149.677490)

LINESTRING (150.862397 138.023883, 114.390609 125.483556)

LINESTRING (150.862397 138.023883, 142.538179 114.356263)

LINESTRING (150.862397 138.023883, 175.299382 146.748168)

LINESTRING (150.862397 138.023883, 136.655332 156.648985)

LINESTRING (150.862397 138.023883, 108.844052 121.067743)

LINESTRING (150.862397 138.023883, 103.377547 108.762183)

LINESTRING (150.862397 138.023883, 114.366767 165.256550)

LINESTRING (150.862397 138.023883, 111.591654 150.391662)

LINESTRING (150.862397 138.023883, 167.264217 141.608323)

LINESTRING (150.862397 138.023883, 178.004651 169.868751)

LINESTRING (150.862397 138.023883, 125.907770 142.553398)

LINESTRING (150.862397 138.023883, 169.978641 155.106865)

LINESTRING (150.862397 138.023883, 100.813246 133.637875)

LINESTRING (150.862397 138.023883, 165.672667 168.009803)

LINESTRING (150.862397 138.023883, 151.838987 158.470473)

LINESTRING (150.862397 138.023883, 179.769487 177.480768)

LINESTRING (150.862397 138.023883, 143.574443 100.028004)

LINESTRING (150.862397 138.023883, 173.695367 176.591293)

LINESTRING (167.852693 145.597225, 128.302908 149.677490)

LINESTRING (167.852693 145.597225, 114.390609 125.483556)

LINESTRING (167.852693 145.597225, 142.538179 114.356263)

LINESTRING (167.852693 145.597225, 117.562576 133.262013)

LINESTRING (167.852693 145.597225, 166.941848 171.711584)

LINESTRING (167.852693 145.597225, 125.739323 118.866577)

LINESTRING (167.852693 145.597225, 175.299382 146.748168)

LINESTRING (167.852693 145.597225, 163.951001 110.635773)

LINESTRING (167.852693 145.597225, 136.655332 156.648985)

LINESTRING (167.852693 145.597225, 107.874058 155.572365)

LINESTRING (167.852693 145.597225, 114.366767 165.256550)

LINESTRING (167.852693 145.597225, 166.056399 176.612139)

LINESTRING (167.852693 145.597225, 111.591654 150.391662)

LINESTRING (167.852693 145.597225, 121.406207 159.597197)

LINESTRING (167.852693 145.597225, 167.264217 141.608323)

LINESTRING (167.852693 145.597225, 133.300663 103.554652)

LINESTRING (167.852693 145.597225, 178.004651 169.868751)

LINESTRING (167.852693 145.597225, 125.907770 142.553398)

LINESTRING (167.852693 145.597225, 150.685704 128.964859)

LINESTRING (167.852693 145.597225, 100.813246 133.637875)

LINESTRING (167.852693 145.597225, 165.672667 168.009803)

LINESTRING (167.852693 145.597225, 140.681610 133.071745)

LINESTRING (167.852693 145.597225, 179.769487 177.480768)

LINESTRING (167.852693 145.597225, 104.108377 108.949589)

LINESTRING (167.852693 145.597225, 143.574443 100.028004)

LINESTRING (167.852693 145.597225, 139.863218 109.308636)

LINESTRING (128.302908 149.677490, 114.390609 125.483556)

LINESTRING (128.302908 149.677490, 148.122169 135.699484)

LINESTRING (128.302908 149.677490, 111.981327 156.296206)

LINESTRING (128.302908 149.677490, 142.538179 114.356263)

LINESTRING (128.302908 149.677490, 117.562576 133.262013)

LINESTRING (128.302908 149.677490, 166.941848 171.711584)

LINESTRING (128.302908 149.677490, 112.069286 139.474736)

LINESTRING (128.302908 149.677490, 175.299382 146.748168)

LINESTRING (128.302908 149.677490, 163.951001 110.635773)

LINESTRING (128.302908 149.677490, 108.844052 121.067743)

LINESTRING (128.302908 149.677490, 107.874058 155.572365)

LINESTRING (128.302908 149.677490, 103.377547 108.762183)

LINESTRING (128.302908 149.677490, 139.663828 148.551038)

LINESTRING (128.302908 149.677490, 114.366767 165.256550)

LINESTRING (128.302908 149.677490, 166.056399 176.612139)

LINESTRING (128.302908 149.677490, 121.406207 159.597197)

LINESTRING (128.302908 149.677490, 133.300663 103.554652)

LINESTRING (128.302908 149.677490, 178.004651 169.868751)

LINESTRING (128.302908 149.677490, 125.907770 142.553398)

LINESTRING (128.302908 149.677490, 150.685704 128.964859)

LINESTRING (128.302908 149.677490, 169.978641 155.106865)

LINESTRING (128.302908 149.677490, 151.838987 158.470473)

LINESTRING (128.302908 149.677490, 179.769487 177.480768)

LINESTRING (128.302908 149.677490, 173.695367 176.591293)

LINESTRING (128.302908 149.677490, 139.863218 109.308636)

LINESTRING (114.390609 125.483556, 148.122169 135.699484)

LINESTRING (114.390609 125.483556, 111.981327 156.296206)

LINESTRING (114.390609 125.483556, 142.538179 114.356263)

LINESTRING (114.390609 125.483556, 117.562576 133.262013)

LINESTRING (114.390609 125.483556, 112.069286 139.474736)

LINESTRING (114.390609 125.483556, 125.739323 118.866577)

LINESTRING (114.390609 125.483556, 136.655332 156.648985)

LINESTRING (114.390609 125.483556, 108.844052 121.067743)

LINESTRING (114.390609 125.483556, 107.874058 155.572365)

LINESTRING (114.390609 125.483556, 103.377547 108.762183)

LINESTRING (114.390609 125.483556, 114.366767 165.256550)

LINESTRING (114.390609 125.483556, 166.056399 176.612139)

LINESTRING (114.390609 125.483556, 111.591654 150.391662)

LINESTRING (114.390609 125.483556, 125.907770 142.553398)

LINESTRING (114.390609 125.483556, 100.813246 133.637875)

LINESTRING (114.390609 125.483556, 140.681610 133.071745)

LINESTRING (114.390609 125.483556, 151.838987 158.470473)

LINESTRING (114.390609 125.483556, 179.769487 177.480768)

LINESTRING (114.390609 125.483556, 104.108377 108.949589)

LINESTRING (114.390609 125.483556, 139.863218 109.308636)

LINESTRING (148.122169 135.699484, 117.562576 133.262013)

LINESTRING (148.122169 135.699484, 112.069286 139.474736)

LINESTRING (148.122169 135.699484, 163.951001 110.635773)

LINESTRING (148.122169 135.699484, 136.655332 156.648985)

LINESTRING (148.122169 135.699484, 108.844052 121.067743)

LINESTRING (148.122169 135.699484, 107.874058 155.572365)

LINESTRING (148.122169 135.699484, 166.056399 176.612139)

LINESTRING (148.122169 135.699484, 111.591654 150.391662)

LINESTRING (148.122169 135.699484, 121.406207 159.597197)

LINESTRING (148.122169 135.699484, 167.264217 141.608323)

LINESTRING (148.122169 135.699484, 178.004651 169.868751)

LINESTRING (148.122169 135.699484, 125.907770 142.553398)

LINESTRING (148.122169 135.699484, 150.685704 128.964859)

LINESTRING (148.122169 135.699484, 169.978641 155.106865)

LINESTRING (148.122169 135.699484, 165.672667 168.009803)

LINESTRING (148.122169 135.699484, 140.681610 133.071745)

LINESTRING (148.122169 135.699484, 179.769487 177.480768)

LINESTRING (148.122169 135.699484, 139.863218 109.308636)

LINESTRING (111.981327 156.296206, 142.538179 114.356263)

LINESTRING (111.981327 156.296206, 117.562576 133.262013)

LINESTRING (111.981327 156.296206, 166.941848 171.711584)

LINESTRING (111.981327 156.296206, 112.069286 139.474736)

LINESTRING (111.981327 156.296206, 108.844052 121.067743)

LINESTRING (111.981327 156.296206, 107.874058 155.572365)

LINESTRING (111.981327 156.296206, 103.377547 108.762183)

LINESTRING (111.981327 156.296206, 139.663828 148.551038)

LINESTRING (111.981327 156.296206, 166.056399 176.612139)

LINESTRING (111.981327 156.296206, 111.591654 150.391662)

LINESTRING (111.981327 156.296206, 121.406207 159.597197)

LINESTRING (111.981327 156.296206, 167.264217 141.608323)

LINESTRING (111.981327 156.296206, 125.907770 142.553398)

LINESTRING (111.981327 156.296206, 150.685704 128.964859)

LINESTRING (111.981327 156.296206, 100.813246 133.637875)

LINESTRING (142.538179 114.356263, 166.941848 171.711584)

LINESTRING (142.538179 114.356263, 112.069286 139.474736)

LINESTRING (142.538179 114.356263, 125.739323 118.866577)

LINESTRING (142.538179 114.356263, 175.299382 146.748168)

LINESTRING (142.538179 114.356263, 163.951001 110.635773)

LINESTRING (142.538179 114.356263, 136.655332 156.648985)

LINESTRING (142.538179 114.356263, 108.844052 121.067743)

LINESTRING (142.538179 114.356263, 111.591654 150.391662)

LINESTRING (142.538179 114.356263, 167.264217 141.608323)

LINESTRING (142.538179 114.356263, 133.300663 103.554652)

LINESTRING (142.538179 114.356263, 150.685704 128.964859)

LINESTRING (142.538179 114.356263, 100.813246 133.637875)

LINESTRING (142.538179 114.356263, 165.672667 168.009803)

LINESTRING (142.538179 114.356263, 140.681610 133.071745)

LINESTRING (142.538179 114.356263, 151.838987 158.470473)

LINESTRING (142.538179 114.356263, 179.769487 177.480768)

LINESTRING (142.538179 114.356263, 143.574443 100.028004)

LINESTRING (142.538179 114.356263, 139.863218 109.308636)

LINESTRING (117.562576 133.262013, 112.069286 139.474736)

LINESTRING (117.562576 133.262013, 125.739323 118.866577)

LINESTRING (117.562576 133.262013, 175.299382 146.748168)

LINESTRING (117.562576 133.262013, 136.655332 156.648985)

LINESTRING (117.562576 133.262013, 108.844052 121.067743)

LINESTRING (117.562576 133.262013, 103.377547 108.762183)

LINESTRING (117.562576 133.262013, 139.663828 148.551038)

LINESTRING (117.562576 133.262013, 166.056399 176.612139)

LINESTRING (117.562576 133.262013, 111.591654 150.391662)

LINESTRING (117.562576 133.262013, 167.264217 141.608323)

LINESTRING (117.562576 133.262013, 133.300663 103.554652)

LINESTRING (117.562576 133.262013, 125.907770 142.553398)

LINESTRING (117.562576 133.262013, 150.685704 128.964859)

LINESTRING (117.562576 133.262013, 169.978641 155.106865)

LINESTRING (117.562576 133.262013, 100.813246 133.637875)

LINESTRING (117.562576 133.262013, 165.672667 168.009803)

LINESTRING (117.562576 133.262013, 140.681610 133.071745)

LINESTRING (117.562576 133.262013, 151.838987 158.470473)

LINESTRING (117.562576 133.262013, 104.108377 108.949589)

LINESTRING (117.562576 133.262013, 143.574443 100.028004)

LINESTRING (117.562576 133.262013, 173.695367 176.591293)

LINESTRING (117.562576 133.262013, 139.863218 109.308636)

LINESTRING (166.941848 171.711584, 112.069286 139.474736)

LINESTRING (166.941848 171.711584, 125.739323 118.866577)

LINESTRING (166.941848 171.711584, 175.299382 146.748168)

LINESTRING (166.941848 171.711584, 136.655332 156.648985)

LINESTRING (166.941848 171.711584, 107.874058 155.572365)

LINESTRING (166.941848 171.711584, 103.377547 108.762183)

LINESTRING (166.941848 171.711584, 139.663828 148.551038)

LINESTRING (166.941848 171.711584, 114.366767 165.256550)

LINESTRING (166.941848 171.711584, 111.591654 150.391662)

LINESTRING (166.941848 171.711584, 121.406207 159.597197)

LINESTRING (166.941848 171.711584, 167.264217 141.608323)

LINESTRING (166.941848 171.711584, 133.300663 103.554652)

LINESTRING (166.941848 171.711584, 178.004651 169.868751)

LINESTRING (166.941848 171.711584, 125.907770 142.553398)

LINESTRING (166.941848 171.711584, 150.685704 128.964859)

LINESTRING (166.941848 171.711584, 169.978641 155.106865)

LINESTRING (166.941848 171.711584, 100.813246 133.637875)

LINESTRING (166.941848 171.711584, 165.672667 168.009803)

LINESTRING (166.941848 171.711584, 179.769487 177.480768)

LINESTRING (166.941848 171.711584, 143.574443 100.028004)

LINESTRING (166.941848 171.711584, 173.695367 176.591293)

LINESTRING (112.069286 139.474736, 175.299382 146.748168)

LINESTRING (112.069286 139.474736, 107.874058 155.572365)

LINESTRING (112.069286 139.474736, 139.663828 148.551038)

LINESTRING (112.069286 139.474736, 114.366767 165.256550)

LINESTRING (112.069286 139.474736, 121.406207 159.597197)

LINESTRING (112.069286 139.474736, 167.264217 141.608323)

LINESTRING (112.069286 139.474736, 133.300663 103.554652)

LINESTRING (112.069286 139.474736, 169.978641 155.106865)

LINESTRING (112.069286 139.474736, 100.813246 133.637875)

LINESTRING (112.069286 139.474736, 143.574443 100.028004)

LINESTRING (112.069286 139.474736, 139.863218 109.308636)

LINESTRING (125.739323 118.866577, 175.299382 146.748168)

LINESTRING (125.739323 118.866577, 136.655332 156.648985)

LINESTRING (125.739323 118.866577, 108.844052 121.067743)

LINESTRING (125.739323 118.866577, 107.874058 155.572365)

LINESTRING (125.739323 118.866577, 103.377547 108.762183)

LINESTRING (125.739323 118.866577, 111.591654 150.391662)

LINESTRING (125.739323 118.866577, 121.406207 159.597197)

LINESTRING (125.739323 118.866577, 150.685704 128.964859)

LINESTRING (125.739323 118.866577, 169.978641 155.106865)

LINESTRING (125.739323 118.866577, 100.813246 133.637875)

LINESTRING (125.739323 118.866577, 140.681610 133.071745)

LINESTRING (125.739323 118.866577, 143.574443 100.028004)

LINESTRING (175.299382 146.748168, 163.951001 110.635773)

LINESTRING (175.299382 146.748168, 136.655332 156.648985)

LINESTRING (175.299382 146.748168, 103.377547 108.762183)

LINESTRING (175.299382 146.748168, 114.366767 165.256550)

LINESTRING (175.299382 146.748168, 166.056399 176.612139)

LINESTRING (175.299382 146.748168, 111.591654 150.391662)

LINESTRING (175.299382 146.748168, 121.406207 159.597197)

LINESTRING (175.299382 146.748168, 167.264217 141.608323)

LINESTRING (175.299382 146.748168, 133.300663 103.554652)

LINESTRING (175.299382 146.748168, 169.978641 155.106865)

LINESTRING (175.299382 146.748168, 100.813246 133.637875)

LINESTRING (175.299382 146.748168, 165.672667 168.009803)

LINESTRING (175.299382 146.748168, 104.108377 108.949589)

LINESTRING (175.299382 146.748168, 143.574443 100.028004)

LINESTRING (175.299382 146.748168, 173.695367 176.591293)

LINESTRING (163.951001 110.635773, 136.655332 156.648985)

LINESTRING (163.951001 110.635773, 103.377547 108.762183)

LINESTRING (163.951001 110.635773, 166.056399 176.612139)

LINESTRING (163.951001 110.635773, 121.406207 159.597197)

LINESTRING (163.951001 110.635773, 167.264217 141.608323)

LINESTRING (163.951001 110.635773, 133.300663 103.554652)

LINESTRING (163.951001 110.635773, 178.004651 169.868751)

LINESTRING (163.951001 110.635773, 125.907770 142.553398)

LINESTRING (163.951001 110.635773, 100.813246 133.637875)

LINESTRING (163.951001 110.635773, 104.108377 108.949589)

LINESTRING (163.951001 110.635773, 173.695367 176.591293)

LINESTRING (163.951001 110.635773, 139.863218 109.308636)

LINESTRING (136.655332 156.648985, 103.377547 108.762183)

LINESTRING (136.655332 156.648985, 121.406207 159.597197)

LINESTRING (136.655332 156.648985, 178.004651 169.868751)

LINESTRING (136.655332 156.648985, 125.907770 142.553398)

LINESTRING (136.655332 156.648985, 150.685704 128.964859)

LINESTRING (136.655332 156.648985, 169.978641 155.106865)

LINESTRING (136.655332 156.648985, 100.813246 133.637875)

LINESTRING (136.655332 156.648985, 165.672667 168.009803)

LINESTRING (136.655332 156.648985, 140.681610 133.071745)

LINESTRING (136.655332 156.648985, 143.574443 100.028004)

LINESTRING (136.655332 156.648985, 173.695367 176.591293)

LINESTRING (136.655332 156.648985, 139.863218 109.308636)

LINESTRING (108.844052 121.067743, 107.874058 155.572365)

LINESTRING (108.844052 121.067743, 103.377547 108.762183)

LINESTRING (108.844052 121.067743, 139.663828 148.551038)

LINESTRING (108.844052 121.067743, 166.056399 176.612139)

LINESTRING (108.844052 121.067743, 111.591654 150.391662)

LINESTRING (108.844052 121.067743, 121.406207 159.597197)

LINESTRING (108.844052 121.067743, 167.264217 141.608323)

LINESTRING (108.844052 121.067743, 133.300663 103.554652)

LINESTRING (108.844052 121.067743, 178.004651 169.868751)

LINESTRING (108.844052 121.067743, 125.907770 142.553398)

LINESTRING (108.844052 121.067743, 150.685704 128.964859)

LINESTRING (108.844052 121.067743, 169.978641 155.106865)

LINESTRING (108.844052 121.067743, 100.813246 133.637875)

LINESTRING (108.844052 121.067743, 165.672667 168.009803)

LINESTRING (108.844052 121.067743, 140.681610 133.071745)

LINESTRING (108.844052 121.067743, 143.574443 100.028004)

LINESTRING (108.844052 121.067743, 139.863218 109.308636)

LINESTRING (107.874058 155.572365, 103.377547 108.762183)

LINESTRING (107.874058 155.572365, 166.056399 176.612139)

LINESTRING (107.874058 155.572365, 167.264217 141.608323)

LINESTRING (107.874058 155.572365, 133.300663 103.554652)

LINESTRING (107.874058 155.572365, 150.685704 128.964859)

LINESTRING (107.874058 155.572365, 169.978641 155.106865)

LINESTRING (107.874058 155.572365, 165.672667 168.009803)

LINESTRING (107.874058 155.572365, 151.838987 158.470473)

LINESTRING (107.874058 155.572365, 179.769487 177.480768)

LINESTRING (107.874058 155.572365, 143.574443 100.028004)

LINESTRING (107.874058 155.572365, 173.695367 176.591293)

LINESTRING (107.874058 155.572365, 139.863218 109.308636)

LINESTRING (103.377547 108.762183, 166.056399 176.612139)

LINESTRING (103.377547 108.762183, 111.591654 150.391662)

LINESTRING (103.377547 108.762183, 167.264217 141.608323)

LINESTRING (103.377547 108.762183, 150.685704 128.964859)

LINESTRING (103.377547 108.762183, 169.978641 155.106865)

LINESTRING (103.377547 108.762183, 165.672667 168.009803)

LINESTRING (103.377547 108.762183, 140.681610 133.071745)

LINESTRING (103.377547 108.762183, 151.838987 158.470473)

LINESTRING (103.377547 108.762183, 179.769487 177.480768)

LINESTRING (103.377547 108.762183, 104.108377 108.949589)

LINESTRING (103.377547 108.762183, 139.863218 109.308636)

LINESTRING (139.663828 148.551038, 114.366767 165.256550)

LINESTRING (139.663828 148.551038, 166.056399 176.612139)

LINESTRING (139.663828 148.551038, 121.406207 159.597197)

LINESTRING (139.663828 148.551038, 167.264217 141.608323)

LINESTRING (139.663828 148.551038, 178.004651 169.868751)

LINESTRING (139.663828 148.551038, 150.685704 128.964859)

LINESTRING (139.663828 148.551038, 169.978641 155.106865)

LINESTRING (139.663828 148.551038, 100.813246 133.637875)

LINESTRING (139.663828 148.551038, 165.672667 168.009803)

LINESTRING (139.663828 148.551038, 151.838987 158.470473)

LINESTRING (139.663828 148.551038, 179.769487 177.480768)

LINESTRING (139.663828 148.551038, 143.574443 100.028004)

LINESTRING (139.663828 148.551038, 173.695367 176.591293)

LINESTRING (114.366767 165.256550, 166.056399 176.612139)

LINESTRING (114.366767 165.256550, 111.591654 150.391662)

LINESTRING (114.366767 165.256550, 121.406207 159.597197)

LINESTRING (114.366767 165.256550, 150.685704 128.964859)

LINESTRING (114.366767 165.256550, 165.672667 168.009803)

LINESTRING (114.366767 165.256550, 140.681610 133.071745)

LINESTRING (114.366767 165.256550, 151.838987 158.470473)

LINESTRING (114.366767 165.256550, 179.769487 177.480768)

LINESTRING (114.366767 165.256550, 173.695367 176.591293)

LINESTRING (166.056399 176.612139, 111.591654 150.391662)

LINESTRING (166.056399 176.612139, 121.406207 159.597197)

LINESTRING (166.056399 176.612139, 167.264217 141.608323)

LINESTRING (166.056399 176.612139, 133.300663 103.554652)

LINESTRING (166.056399 176.612139, 178.004651 169.868751)

LINESTRING (166.056399 176.612139, 150.685704 128.964859)

LINESTRING (166.056399 176.612139, 169.978641 155.106865)

LINESTRING (166.056399 176.612139, 165.672667 168.009803)

LINESTRING (166.056399 176.612139, 140.681610 133.071745)

LINESTRING (166.056399 176.612139, 104.108377 108.949589)

LINESTRING (166.056399 176.612139, 143.574443 100.028004)

LINESTRING (166.056399 176.612139, 173.695367 176.591293)

LINESTRING (166.056399 176.612139, 139.863218 109.308636)

LINESTRING (111.591654 150.391662, 121.406207 159.597197)

LINESTRING (111.591654 150.391662, 167.264217 141.608323)

LINESTRING (111.591654 150.391662, 178.004651 169.868751)

LINESTRING (111.591654 150.391662, 169.978641 155.106865)

LINESTRING (111.591654 150.391662, 165.672667 168.009803)

LINESTRING (111.591654 150.391662, 151.838987 158.470473)

LINESTRING (111.591654 150.391662, 143.574443 100.028004)

LINESTRING (111.591654 150.391662, 173.695367 176.591293)

LINESTRING (111.591654 150.391662, 139.863218 109.308636)

LINESTRING (121.406207 159.597197, 167.264217 141.608323)

LINESTRING (121.406207 159.597197, 125.907770 142.553398)

LINESTRING (121.406207 159.597197, 100.813246 133.637875)

LINESTRING (121.406207 159.597197, 165.672667 168.009803)

LINESTRING (121.406207 159.597197, 140.681610 133.071745)

LINESTRING (121.406207 159.597197, 151.838987 158.470473)

LINESTRING (121.406207 159.597197, 179.769487 177.480768)

LINESTRING (121.406207 159.597197, 143.574443 100.028004)

LINESTRING (121.406207 159.597197, 173.695367 176.591293)

LINESTRING (121.406207 159.597197, 139.863218 109.308636)

LINESTRING (167.264217 141.608323, 178.004651 169.868751)

LINESTRING (167.264217 141.608323, 169.978641 155.106865)

LINESTRING (167.264217 141.608323, 140.681610 133.071745)

LINESTRING (167.264217 141.608323, 151.838987 158.470473)

LINESTRING (167.264217 141.608323, 179.769487 177.480768)

LINESTRING (167.264217 141.608323, 104.108377 108.949589)

LINESTRING (167.264217 141.608323, 143.574443 100.028004)

LINESTRING (167.264217 141.608323, 173.695367 176.591293)

LINESTRING (133.300663 103.554652, 178.004651 169.868751)

LINESTRING (133.300663 103.554652, 125.907770 142.553398)

LINESTRING (133.300663 103.554652, 150.685704 128.964859)

LINESTRING (133.300663 103.554652, 169.978641 155.106865)

LINESTRING (133.300663 103.554652, 140.681610 133.071745)

LINESTRING (133.300663 103.554652, 151.838987 158.470473)

LINESTRING (133.300663 103.554652, 179.769487 177.480768)

LINESTRING (133.300663 103.554652, 104.108377 108.949589)

LINESTRING (133.300663 103.554652, 173.695367 176.591293)

LINESTRING (133.300663 103.554652, 139.863218 109.308636)

LINESTRING (178.004651 169.868751, 169.978641 155.106865)

LINESTRING (178.004651 169.868751, 100.813246 133.637875)

LINESTRING (178.004651 169.868751, 151.838987 158.470473)

LINESTRING (178.004651 169.868751, 104.108377 108.949589)

LINESTRING (178.004651 169.868751, 143.574443 100.028004)

LINESTRING (178.004651 169.868751, 173.695367 176.591293)

LINESTRING (178.004651 169.868751, 139.863218 109.308636)

LINESTRING (125.907770 142.553398, 150.685704 128.964859)

LINESTRING (125.907770 142.553398, 169.978641 155.106865)

LINESTRING (125.907770 142.553398, 165.672667 168.009803)

LINESTRING (125.907770 142.553398, 179.769487 177.480768)

LINESTRING (125.907770 142.553398, 143.574443 100.028004)

LINESTRING (125.907770 142.553398, 173.695367 176.591293)

LINESTRING (150.685704 128.964859, 169.978641 155.106865)

LINESTRING (150.685704 128.964859, 100.813246 133.637875)

LINESTRING (150.685704 128.964859, 140.681610 133.071745)

LINESTRING (150.685704 128.964859, 151.838987 158.470473)

LINESTRING (150.685704 128.964859, 179.769487 177.480768)

LINESTRING (150.685704 128.964859, 104.108377 108.949589)

LINESTRING (150.685704 128.964859, 143.574443 100.028004)

LINESTRING (150.685704 128.964859, 173.695367 176.591293)

LINESTRING (150.685704 128.964859, 139.863218 109.308636)

LINESTRING (169.978641 155.106865, 100.813246 133.637875)

LINESTRING (169.978641 155.106865, 151.838987 158.470473)

LINESTRING (169.978641 155.106865, 104.108377 108.949589)

LINESTRING (169.978641 155.106865, 143.574443 100.028004)

LINESTRING (169.978641 155.106865, 173.695367 176.591293)

LINESTRING (169.978641 155.106865, 139.863218 109.308636)

LINESTRING (100.813246 133.637875, 140.681610 133.071745)

LINESTRING (100.813246 133.637875, 151.838987 158.470473)

LINESTRING (100.813246 133.637875, 179.769487 177.480768)

LINESTRING (100.813246 133.637875, 104.108377 108.949589)

LINESTRING (100.813246 133.637875, 143.574443 100.028004)

LINESTRING (100.813246 133.637875, 173.695367 176.591293)

LINESTRING (100.813246 133.637875, 139.863218 109.308636)

LINESTRING (165.672667 168.009803, 151.838987 158.470473)

LINESTRING (165.672667 168.009803, 179.769487 177.480768)

LINESTRING (165.672667 168.009803, 173.695367 176.591293)

LINESTRING (165.672667 168.009803, 139.863218 109.308636)

LINESTRING (140.681610 133.071745, 143.574443 100.028004)

LINESTRING (140.681610 133.071745, 139.863218 109.308636)

LINESTRING (151.838987 158.470473, 104.108377 108.949589)

LINESTRING (151.838987 158.470473, 139.863218 109.308636)

LINESTRING (179.769487 177.480768, 104.108377 108.949589)

LINESTRING (179.769487 177.480768, 143.574443 100.028004)

LINESTRING (179.769487 177.480768, 139.863218 109.308636)

LINESTRING (104.108377 108.949589, 173.695367 176.591293)

LINESTRING (143.574443 100.028004, 173.695367 176.591293)

LINESTRING (143.574443 100.028004, 139.863218 109.308636)

LINESTRING (173.695367 176.591293, 139.863218 109.308636)

LINESTRING (506.211838 111.827828, 484.455055 153.639741)

LINESTRING (506.211838 111.827828, 454.883359 102.816817)

LINESTRING (506.211838 111.827828, 489.043376 158.352308)

LINESTRING (506.211838 111.827828, 480.385725 122.708670)

LINESTRING (506.211838 111.827828, 479.097244 159.845884)

LINESTRING (506.211838 111.827828, 514.364694 126.560805)

LINESTRING (506.211838 111.827828, 520.853431 122.615753)

LINESTRING (506.211838 111.827828, 452.067928 129.854984)

LINESTRING (506.211838 111.827828, 451.861236 154.600889)

LINESTRING (506.211838 111.827828, 453.788005 161.247933)

LINESTRING (506.211838 111.827828, 501.909937 143.472387)

LINESTRING (506.211838 111.827828, 514.420239 163.815644)

LINESTRING (506.211838 111.827828, 474.025787 132.345105)

LINESTRING (506.211838 111.827828, 525.832287 164.631208)

LINESTRING (506.211838 111.827828, 521.027396 134.461658)

LINESTRING (506.211838 111.827828, 496.671398 171.229920)

LINESTRING (506.211838 111.827828, 499.339413 122.809276)

LINESTRING (506.211838 111.827828, 495.273808 139.703551)

LINESTRING (506.211838 111.827828, 477.468704 163.839964)

LINESTRING (506.211838 111.827828, 492.060118 123.510709)

LINESTRING (506.211838 111.827828, 510.513660 130.507017)

LINESTRING (484.455055 153.639741, 454.883359 102.816817)

LINESTRING (484.455055 153.639741, 484.079604 114.518232)

LINESTRING (484.455055 153.639741, 477.805466 116.971918)

LINESTRING (484.455055 153.639741, 479.097244 159.845884)

LINESTRING (484.455055 153.639741, 452.067928 129.854984)

LINESTRING (484.455055 153.639741, 491.999711 116.638968)

LINESTRING (484.455055 153.639741, 501.909937 143.472387)

LINESTRING (484.455055 153.639741, 522.126001 157.725656)

LINESTRING (484.455055 153.639741, 514.420239 163.815644)

LINESTRING (484.455055 153.639741, 470.972455 136.377270)

LINESTRING (484.455055 153.639741, 523.581943 118.041498)

LINESTRING (484.455055 153.639741, 498.287777 122.490529)

LINESTRING (484.455055 153.639741, 476.294649 159.255656)

LINESTRING (484.455055 153.639741, 525.832287 164.631208)

LINESTRING (484.455055 153.639741, 504.628177 129.244178)

LINESTRING (484.455055 153.639741, 468.750544 157.049358)

LINESTRING (484.455055 153.639741, 464.959127 167.774244)

LINESTRING (484.455055 153.639741, 496.671398 171.229920)

LINESTRING (484.455055 153.639741, 499.339413 122.809276)

LINESTRING (484.455055 153.639741, 495.273808 139.703551)

LINESTRING (484.455055 153.639741, 492.060118 123.510709)

LINESTRING (484.455055 153.639741, 463.731426 160.981550)

LINESTRING (454.883359 102.816817, 477.805466 116.971918)

LINESTRING (454.883359 102.816817, 489.043376 158.352308)

LINESTRING (454.883359 102.816817, 488.850615 139.499834)

LINESTRING (454.883359 102.816817, 522.155973 141.425729)

LINESTRING (454.883359 102.816817, 452.067928 129.854984)

LINESTRING (454.883359 102.816817, 483.095763 122.140341)

LINESTRING (454.883359 102.816817, 501.909937 143.472387)

LINESTRING (454.883359 102.816817, 514.420239 163.815644)

LINESTRING (454.883359 102.816817, 498.287777 122.490529)

LINESTRING (454.883359 102.816817, 474.025787 132.345105)

LINESTRING (454.883359 102.816817, 455.487451 137.695843)

LINESTRING (454.883359 102.816817, 476.294649 159.255656)

LINESTRING (454.883359 102.816817, 525.832287 164.631208)

LINESTRING (454.883359 102.816817, 521.027396 134.461658)

LINESTRING (454.883359 102.816817, 504.628177 129.244178)

LINESTRING (454.883359 102.816817, 464.959127 167.774244)

LINESTRING (454.883359 102.816817, 496.671398 171.229920)

LINESTRING (454.883359 102.816817, 477.468704 163.839964)

LINESTRING (454.883359 102.816817, 492.060118 123.510709)

LINESTRING (454.883359 102.816817, 510.513660 130.507017)

LINESTRING (484.079604 114.518232, 480.385725 122.708670)

LINESTRING (484.079604 114.518232, 479.097244 159.845884)

LINESTRING (484.079604 114.518232, 514.364694 126.560805)

LINESTRING (484.079604 114.518232, 488.850615 139.499834)

LINESTRING (484.079604 114.518232, 520.853431 122.615753)

LINESTRING (484.079604 114.518232, 522.155973 141.425729)

LINESTRING (484.079604 114.518232, 469.960236 101.115781)

LINESTRING (484.079604 114.518232, 452.067928 129.854984)

LINESTRING (484.079604 114.518232, 491.999711 116.638968)

LINESTRING (484.079604 114.518232, 483.095763 122.140341)

LINESTRING (484.079604 114.518232, 514.420239 163.815644)

LINESTRING (484.079604 114.518232, 476.294649 159.255656)

LINESTRING (484.079604 114.518232, 525.832287 164.631208)

LINESTRING (484.079604 114.518232, 521.027396 134.461658)

LINESTRING (484.079604 114.518232, 468.750544 157.049358)

LINESTRING (484.079604 114.518232, 464.959127 167.774244)

LINESTRING (484.079604 114.518232, 496.671398 171.229920)

LINESTRING (484.079604 114.518232, 499.339413 122.809276)

LINESTRING (484.079604 114.518232, 495.273808 139.703551)

LINESTRING (484.079604 114.518232, 477.468704 163.839964)

LINESTRING (477.805466 116.971918, 489.043376 158.352308)

LINESTRING (477.805466 116.971918, 479.097244 159.845884)

LINESTRING (477.805466 116.971918, 514.364694 126.560805)

LINESTRING (477.805466 116.971918, 488.850615 139.499834)

LINESTRING (477.805466 116.971918, 522.155973 141.425729)

LINESTRING (477.805466 116.971918, 469.960236 101.115781)

LINESTRING (477.805466 116.971918, 451.861236 154.600889)

LINESTRING (477.805466 116.971918, 491.999711 116.638968)

LINESTRING (477.805466 116.971918, 453.788005 161.247933)

LINESTRING (477.805466 116.971918, 522.126001 157.725656)

LINESTRING (477.805466 116.971918, 514.420239 163.815644)

LINESTRING (477.805466 116.971918, 470.972455 136.377270)

LINESTRING (477.805466 116.971918, 523.581943 118.041498)

LINESTRING (477.805466 116.971918, 498.287777 122.490529)

LINESTRING (477.805466 116.971918, 474.025787 132.345105)

LINESTRING (477.805466 116.971918, 455.487451 137.695843)

LINESTRING (477.805466 116.971918, 525.832287 164.631208)

LINESTRING (477.805466 116.971918, 521.027396 134.461658)

LINESTRING (477.805466 116.971918, 504.628177 129.244178)

LINESTRING (477.805466 116.971918, 468.750544 157.049358)

LINESTRING (477.805466 116.971918, 464.959127 167.774244)

LINESTRING (477.805466 116.971918, 496.671398 171.229920)

LINESTRING (477.805466 116.971918, 499.339413 122.809276)

LINESTRING (477.805466 116.971918, 495.273808 139.703551)

LINESTRING (477.805466 116.971918, 511.455893 106.985958)

LINESTRING (477.805466 116.971918, 492.060118 123.510709)

LINESTRING (477.805466 116.971918, 510.513660 130.507017)

LINESTRING (477.805466 116.971918, 463.731426 160.981550)

LINESTRING (489.043376 158.352308, 480.385725 122.708670)

LINESTRING (489.043376 158.352308, 514.364694 126.560805)

LINESTRING (489.043376 158.352308, 488.850615 139.499834)

LINESTRING (489.043376 158.352308, 522.155973 141.425729)

LINESTRING (489.043376 158.352308, 451.861236 154.600889)

LINESTRING (489.043376 158.352308, 491.999711 116.638968)

LINESTRING (489.043376 158.352308, 501.909937 143.472387)

LINESTRING (489.043376 158.352308, 522.126001 157.725656)

LINESTRING (489.043376 158.352308, 514.420239 163.815644)

LINESTRING (489.043376 158.352308, 470.972455 136.377270)

LINESTRING (489.043376 158.352308, 498.287777 122.490529)

LINESTRING (489.043376 158.352308, 474.025787 132.345105)

LINESTRING (489.043376 158.352308, 455.487451 137.695843)

LINESTRING (489.043376 158.352308, 476.294649 159.255656)

LINESTRING (489.043376 158.352308, 525.832287 164.631208)

LINESTRING (489.043376 158.352308, 521.027396 134.461658)

LINESTRING (489.043376 158.352308, 504.628177 129.244178)

LINESTRING (489.043376 158.352308, 468.750544 157.049358)

LINESTRING (489.043376 158.352308, 496.671398 171.229920)

LINESTRING (489.043376 158.352308, 499.339413 122.809276)

LINESTRING (489.043376 158.352308, 495.273808 139.703551)

LINESTRING (489.043376 158.352308, 492.060118 123.510709)

LINESTRING (480.385725 122.708670, 479.097244 159.845884)

LINESTRING (480.385725 122.708670, 452.067928 129.854984)

LINESTRING (480.385725 122.708670, 451.861236 154.600889)

LINESTRING (480.385725 122.708670, 491.999711 116.638968)

LINESTRING (480.385725 122.708670, 501.909937 143.472387)

LINESTRING (480.385725 122.708670, 523.581943 118.041498)

LINESTRING (480.385725 122.708670, 498.287777 122.490529)

LINESTRING (480.385725 122.708670, 474.025787 132.345105)

LINESTRING (480.385725 122.708670, 455.487451 137.695843)

LINESTRING (480.385725 122.708670, 476.294649 159.255656)

LINESTRING (480.385725 122.708670, 525.832287 164.631208)

LINESTRING (480.385725 122.708670, 521.027396 134.461658)

LINESTRING (480.385725 122.708670, 504.628177 129.244178)

LINESTRING (480.385725 122.708670, 468.750544 157.049358)

LINESTRING (480.385725 122.708670, 464.959127 167.774244)

LINESTRING (480.385725 122.708670, 496.671398 171.229920)

LINESTRING (480.385725 122.708670, 499.339413 122.809276)

LINESTRING (480.385725 122.708670, 495.273808 139.703551)

LINESTRING (480.385725 122.708670, 477.468704 163.839964)

LINESTRING (480.385725 122.708670, 492.060118 123.510709)

LINESTRING (480.385725 122.708670, 510.513660 130.507017)

LINESTRING (480.385725 122.708670, 463.731426 160.981550)

LINESTRING (479.097244 159.845884, 514.364694 126.560805)

LINESTRING (479.097244 159.845884, 488.850615 139.499834)

LINESTRING (479.097244 159.845884, 452.067928 129.854984)

LINESTRING (479.097244 159.845884, 491.999711 116.638968)

LINESTRING (479.097244 159.845884, 483.095763 122.140341)

LINESTRING (479.097244 159.845884, 514.420239 163.815644)

LINESTRING (479.097244 159.845884, 470.972455 136.377270)

LINESTRING (479.097244 159.845884, 523.581943 118.041498)

LINESTRING (479.097244 159.845884, 498.287777 122.490529)

LINESTRING (479.097244 159.845884, 474.025787 132.345105)

LINESTRING (479.097244 159.845884, 525.832287 164.631208)

LINESTRING (479.097244 159.845884, 468.750544 157.049358)

LINESTRING (479.097244 159.845884, 496.671398 171.229920)

LINESTRING (479.097244 159.845884, 499.339413 122.809276)

LINESTRING (479.097244 159.845884, 495.273808 139.703551)

LINESTRING (479.097244 159.845884, 511.455893 106.985958)

LINESTRING (479.097244 159.845884, 477.468704 163.839964)

LINESTRING (514.364694 126.560805, 488.850615 139.499834)

LINESTRING (514.364694 126.560805, 522.155973 141.425729)

LINESTRING (514.364694 126.560805, 451.861236 154.600889)

LINESTRING (514.364694 126.560805, 453.788005 161.247933)

LINESTRING (514.364694 126.560805, 501.909937 143.472387)

LINESTRING (514.364694 126.560805, 522.126001 157.725656)

LINESTRING (514.364694 126.560805, 514.420239 163.815644)

LINESTRING (514.364694 126.560805, 523.581943 118.041498)

LINESTRING (514.364694 126.560805, 498.287777 122.490529)

LINESTRING (514.364694 126.560805, 455.487451 137.695843)

LINESTRING (514.364694 126.560805, 476.294649 159.255656)

LINESTRING (514.364694 126.560805, 525.832287 164.631208)

LINESTRING (514.364694 126.560805, 521.027396 134.461658)

LINESTRING (514.364694 126.560805, 464.959127 167.774244)

LINESTRING (514.364694 126.560805, 496.671398 171.229920)

LINESTRING (514.364694 126.560805, 511.455893 106.985958)

LINESTRING (514.364694 126.560805, 477.468704 163.839964)

LINESTRING (514.364694 126.560805, 492.060118 123.510709)

LINESTRING (488.850615 139.499834, 520.853431 122.615753)

LINESTRING (488.850615 139.499834, 522.155973 141.425729)

LINESTRING (488.850615 139.499834, 452.067928 129.854984)

LINESTRING (488.850615 139.499834, 451.861236 154.600889)

LINESTRING (488.850615 139.499834, 453.788005 161.247933)

LINESTRING (488.850615 139.499834, 483.095763 122.140341)

LINESTRING (488.850615 139.499834, 501.909937 143.472387)

LINESTRING (488.850615 139.499834, 522.126001 157.725656)

LINESTRING (488.850615 139.499834, 523.581943 118.041498)

LINESTRING (488.850615 139.499834, 498.287777 122.490529)

LINESTRING (488.850615 139.499834, 455.487451 137.695843)

LINESTRING (488.850615 139.499834, 476.294649 159.255656)

LINESTRING (488.850615 139.499834, 521.027396 134.461658)

LINESTRING (488.850615 139.499834, 504.628177 129.244178)

LINESTRING (488.850615 139.499834, 468.750544 157.049358)

LINESTRING (488.850615 139.499834, 464.959127 167.774244)

LINESTRING (488.850615 139.499834, 496.671398 171.229920)

LINESTRING (488.850615 139.499834, 499.339413 122.809276)

LINESTRING (488.850615 139.499834, 495.273808 139.703551)

LINESTRING (488.850615 139.499834, 511.455893 106.985958)

LINESTRING (488.850615 139.499834, 477.468704 163.839964)

LINESTRING (488.850615 139.499834, 510.513660 130.507017)

LINESTRING (520.853431 122.615753, 451.861236 154.600889)

LINESTRING (520.853431 122.615753, 453.788005 161.247933)

LINESTRING (520.853431 122.615753, 522.126001 157.725656)

LINESTRING (520.853431 122.615753, 523.581943 118.041498)

LINESTRING (520.853431 122.615753, 474.025787 132.345105)

LINESTRING (520.853431 122.615753, 455.487451 137.695843)

LINESTRING (520.853431 122.615753, 476.294649 159.255656)

LINESTRING (520.853431 122.615753, 521.027396 134.461658)

LINESTRING (520.853431 122.615753, 504.628177 129.244178)

LINESTRING (520.853431 122.615753, 464.959127 167.774244)

LINESTRING (520.853431 122.615753, 496.671398 171.229920)

LINESTRING (520.853431 122.615753, 495.273808 139.703551)

LINESTRING (520.853431 122.615753, 511.455893 106.985958)

LINESTRING (520.853431 122.615753, 477.468704 163.839964)

LINESTRING (520.853431 122.615753, 492.060118 123.510709)

LINESTRING (520.853431 122.615753, 463.731426 160.981550)

LINESTRING (522.155973 141.425729, 452.067928 129.854984)

LINESTRING (522.155973 141.425729, 451.861236 154.600889)

LINESTRING (522.155973 141.425729, 453.788005 161.247933)

LINESTRING (522.155973 141.425729, 483.095763 122.140341)

LINESTRING (522.155973 141.425729, 501.909937 143.472387)

LINESTRING (522.155973 141.425729, 522.126001 157.725656)

LINESTRING (522.155973 141.425729, 514.420239 163.815644)

LINESTRING (522.155973 141.425729, 470.972455 136.377270)

LINESTRING (522.155973 141.425729, 523.581943 118.041498)

LINESTRING (522.155973 141.425729, 498.287777 122.490529)

LINESTRING (522.155973 141.425729, 474.025787 132.345105)

LINESTRING (522.155973 141.425729, 476.294649 159.255656)

LINESTRING (522.155973 141.425729, 525.832287 164.631208)

LINESTRING (522.155973 141.425729, 521.027396 134.461658)

LINESTRING (522.155973 141.425729, 468.750544 157.049358)

LINESTRING (522.155973 141.425729, 464.959127 167.774244)

LINESTRING (522.155973 141.425729, 496.671398 171.229920)

LINESTRING (522.155973 141.425729, 499.339413 122.809276)

LINESTRING (522.155973 141.425729, 495.273808 139.703551)

LINESTRING (522.155973 141.425729, 511.455893 106.985958)

LINESTRING (522.155973 141.425729, 477.468704 163.839964)

LINESTRING (522.155973 141.425729, 492.060118 123.510709)

LINESTRING (522.155973 141.425729, 463.731426 160.981550)

LINESTRING (469.960236 101.115781, 452.067928 129.854984)

LINESTRING (469.960236 101.115781, 451.861236 154.600889)

LINESTRING (469.960236 101.115781, 491.999711 116.638968)

LINESTRING (469.960236 101.115781, 453.788005 161.247933)

LINESTRING (469.960236 101.115781, 483.095763 122.140341)

LINESTRING (469.960236 101.115781, 501.909937 143.472387)

LINESTRING (469.960236 101.115781, 470.972455 136.377270)

LINESTRING (469.960236 101.115781, 523.581943 118.041498)

LINESTRING (469.960236 101.115781, 498.287777 122.490529)

LINESTRING (469.960236 101.115781, 525.832287 164.631208)

LINESTRING (469.960236 101.115781, 468.750544 157.049358)

LINESTRING (469.960236 101.115781, 464.959127 167.774244)

LINESTRING (469.960236 101.115781, 496.671398 171.229920)

LINESTRING (469.960236 101.115781, 499.339413 122.809276)

LINESTRING (469.960236 101.115781, 511.455893 106.985958)

LINESTRING (469.960236 101.115781, 477.468704 163.839964)

LINESTRING (469.960236 101.115781, 492.060118 123.510709)

LINESTRING (469.960236 101.115781, 510.513660 130.507017)

LINESTRING (452.067928 129.854984, 451.861236 154.600889)

LINESTRING (452.067928 129.854984, 491.999711 116.638968)

LINESTRING (452.067928 129.854984, 453.788005 161.247933)

LINESTRING (452.067928 129.854984, 483.095763 122.140341)

LINESTRING (452.067928 129.854984, 501.909937 143.472387)

LINESTRING (452.067928 129.854984, 522.126001 157.725656)

LINESTRING (452.067928 129.854984, 470.972455 136.377270)

LINESTRING (452.067928 129.854984, 498.287777 122.490529)

LINESTRING (452.067928 129.854984, 474.025787 132.345105)

LINESTRING (452.067928 129.854984, 476.294649 159.255656)

LINESTRING (452.067928 129.854984, 525.832287 164.631208)

LINESTRING (452.067928 129.854984, 504.628177 129.244178)

LINESTRING (452.067928 129.854984, 468.750544 157.049358)

LINESTRING (452.067928 129.854984, 496.671398 171.229920)

LINESTRING (452.067928 129.854984, 499.339413 122.809276)

LINESTRING (452.067928 129.854984, 511.455893 106.985958)

LINESTRING (452.067928 129.854984, 477.468704 163.839964)

LINESTRING (452.067928 129.854984, 463.731426 160.981550)

LINESTRING (451.861236 154.600889, 453.788005 161.247933)

LINESTRING (451.861236 154.600889, 483.095763 122.140341)

LINESTRING (451.861236 154.600889, 501.909937 143.472387)

LINESTRING (451.861236 154.600889, 522.126001 157.725656)

LINESTRING (451.861236 154.600889, 470.972455 136.377270)

LINESTRING (451.861236 154.600889, 498.287777 122.490529)

LINESTRING (451.861236 154.600889, 455.487451 137.695843)

LINESTRING (451.861236 154.600889, 476.294649 159.255656)

LINESTRING (451.861236 154.600889, 521.027396 134.461658)

LINESTRING (451.861236 154.600889, 504.628177 129.244178)

LINESTRING (451.861236 154.600889, 464.959127 167.774244)

LINESTRING (451.861236 154.600889, 499.339413 122.809276)

LINESTRING (451.861236 154.600889, 495.273808 139.703551)

LINESTRING (451.861236 154.600889, 477.468704 163.839964)

LINESTRING (451.861236 154.600889, 492.060118 123.510709)

LINESTRING (451.861236 154.600889, 510.513660 130.507017)

LINESTRING (451.861236 154.600889, 463.731426 160.981550)

LINESTRING (491.999711 116.638968, 453.788005 161.247933)

LINESTRING (491.999711 116.638968, 483.095763 122.140341)

LINESTRING (491.999711 116.638968, 501.909937 143.472387)

LINESTRING (491.999711 116.638968, 514.420239 163.815644)

LINESTRING (491.999711 116.638968, 498.287777 122.490529)

LINESTRING (491.999711 116.638968, 474.025787 132.345105)

LINESTRING (491.999711 116.638968, 455.487451 137.695843)

LINESTRING (491.999711 116.638968, 525.832287 164.631208)

LINESTRING (491.999711 116.638968, 521.027396 134.461658)

LINESTRING (491.999711 116.638968, 504.628177 129.244178)

LINESTRING (491.999711 116.638968, 464.959127 167.774244)

LINESTRING (491.999711 116.638968, 499.339413 122.809276)

LINESTRING (491.999711 116.638968, 495.273808 139.703551)

LINESTRING (491.999711 116.638968, 511.455893 106.985958)

LINESTRING (491.999711 116.638968, 477.468704 163.839964)

LINESTRING (491.999711 116.638968, 492.060118 123.510709)

LINESTRING (453.788005 161.247933, 501.909937 143.472387)

LINESTRING (453.788005 161.247933, 470.972455 136.377270)

LINESTRING (453.788005 161.247933, 498.287777 122.490529)

LINESTRING (453.788005 161.247933, 521.027396 134.461658)

LINESTRING (453.788005 161.247933, 504.628177 129.244178)

LINESTRING (453.788005 161.247933, 468.750544 157.049358)

LINESTRING (453.788005 161.247933, 464.959127 167.774244)

LINESTRING (453.788005 161.247933, 477.468704 163.839964)

LINESTRING (453.788005 161.247933, 463.731426 160.981550)

LINESTRING (483.095763 122.140341, 514.420239 163.815644)

LINESTRING (483.095763 122.140341, 523.581943 118.041498)

LINESTRING (483.095763 122.140341, 498.287777 122.490529)

LINESTRING (483.095763 122.140341, 474.025787 132.345105)

LINESTRING (483.095763 122.140341, 525.832287 164.631208)

LINESTRING (483.095763 122.140341, 521.027396 134.461658)

LINESTRING (483.095763 122.140341, 504.628177 129.244178)

LINESTRING (483.095763 122.140341, 468.750544 157.049358)

LINESTRING (483.095763 122.140341, 464.959127 167.774244)

LINESTRING (483.095763 122.140341, 496.671398 171.229920)

LINESTRING (483.095763 122.140341, 495.273808 139.703551)

LINESTRING (483.095763 122.140341, 511.455893 106.985958)

LINESTRING (483.095763 122.140341, 477.468704 163.839964)

LINESTRING (483.095763 122.140341, 492.060118 123.510709)

LINESTRING (483.095763 122.140341, 510.513660 130.507017)

LINESTRING (483.095763 122.140341, 463.731426 160.981550)

LINESTRING (501.909937 143.472387, 470.972455 136.377270)

LINESTRING (501.909937 143.472387, 498.287777 122.490529)

LINESTRING (501.909937 143.472387, 474.025787 132.345105)

LINESTRING (501.909937 143.472387, 525.832287 164.631208)

LINESTRING (501.909937 143.472387, 521.027396 134.461658)

LINESTRING (501.909937 143.472387, 499.339413 122.809276)

LINESTRING (501.909937 143.472387, 511.455893 106.985958)

LINESTRING (501.909937 143.472387, 477.468704 163.839964)

LINESTRING (501.909937 143.472387, 463.731426 160.981550)

LINESTRING (522.126001 157.725656, 470.972455 136.377270)

LINESTRING (522.126001 157.725656, 523.581943 118.041498)

LINESTRING (522.126001 157.725656, 476.294649 159.255656)

LINESTRING (522.126001 157.725656, 521.027396 134.461658)

LINESTRING (522.126001 157.725656, 504.628177 129.244178)

LINESTRING (522.126001 157.725656, 468.750544 157.049358)

LINESTRING (522.126001 157.725656, 464.959127 167.774244)

LINESTRING (522.126001 157.725656, 496.671398 171.229920)

LINESTRING (522.126001 157.725656, 499.339413 122.809276)

LINESTRING (522.126001 157.725656, 495.273808 139.703551)

LINESTRING (522.126001 157.725656, 511.455893 106.985958)

LINESTRING (522.126001 157.725656, 492.060118 123.510709)

LINESTRING (522.126001 157.725656, 463.731426 160.981550)

LINESTRING (514.420239 163.815644, 498.287777 122.490529)

LINESTRING (514.420239 163.815644, 474.025787 132.345105)

LINESTRING (514.420239 163.815644, 455.487451 137.695843)

LINESTRING (514.420239 163.815644, 476.294649 159.255656)

LINESTRING (514.420239 163.815644, 525.832287 164.631208)

LINESTRING (514.420239 163.815644, 468.750544 157.049358)

LINESTRING (514.420239 163.815644, 496.671398 171.229920)

LINESTRING (514.420239 163.815644, 511.455893 106.985958)

LINESTRING (514.420239 163.815644, 477.468704 163.839964)

LINESTRING (514.420239 163.815644, 510.513660 130.507017)

LINESTRING (514.420239 163.815644, 463.731426 160.981550)

LINESTRING (470.972455 136.377270, 498.287777 122.490529)

LINESTRING (470.972455 136.377270, 474.025787 132.345105)

LINESTRING (470.972455 136.377270, 455.487451 137.695843)

LINESTRING (470.972455 136.377270, 525.832287 164.631208)

LINESTRING (470.972455 136.377270, 521.027396 134.461658)

LINESTRING (470.972455 136.377270, 504.628177 129.244178)

LINESTRING (470.972455 136.377270, 468.750544 157.049358)

LINESTRING (470.972455 136.377270, 499.339413 122.809276)

LINESTRING (470.972455 136.377270, 495.273808 139.703551)

LINESTRING (470.972455 136.377270, 511.455893 106.985958)

LINESTRING (470.972455 136.377270, 477.468704 163.839964)

LINESTRING (470.972455 136.377270, 510.513660 130.507017)

LINESTRING (470.972455 136.377270, 463.731426 160.981550)

LINESTRING (523.581943 118.041498, 474.025787 132.345105)

LINESTRING (523.581943 118.041498, 455.487451 137.695843)

LINESTRING (523.581943 118.041498, 476.294649 159.255656)

LINESTRING (523.581943 118.041498, 525.832287 164.631208)

LINESTRING (523.581943 118.041498, 521.027396 134.461658)

LINESTRING (523.581943 118.041498, 464.959127 167.774244)

LINESTRING (523.581943 118.041498, 495.273808 139.703551)

LINESTRING (523.581943 118.041498, 511.455893 106.985958)

LINESTRING (498.287777 122.490529, 474.025787 132.345105)

LINESTRING (498.287777 122.490529, 476.294649 159.255656)

LINESTRING (498.287777 122.490529, 525.832287 164.631208)

LINESTRING (498.287777 122.490529, 504.628177 129.244178)

LINESTRING (498.287777 122.490529, 496.671398 171.229920)

LINESTRING (498.287777 122.490529, 499.339413 122.809276)

LINESTRING (498.287777 122.490529, 511.455893 106.985958)

LINESTRING (498.287777 122.490529, 492.060118 123.510709)

LINESTRING (498.287777 122.490529, 510.513660 130.507017)

LINESTRING (498.287777 122.490529, 463.731426 160.981550)

LINESTRING (474.025787 132.345105, 476.294649 159.255656)

LINESTRING (474.025787 132.345105, 525.832287 164.631208)

LINESTRING (474.025787 132.345105, 521.027396 134.461658)

LINESTRING (474.025787 132.345105, 468.750544 157.049358)

LINESTRING (474.025787 132.345105, 496.671398 171.229920)

LINESTRING (474.025787 132.345105, 477.468704 163.839964)

LINESTRING (474.025787 132.345105, 510.513660 130.507017)

LINESTRING (474.025787 132.345105, 463.731426 160.981550)

LINESTRING (455.487451 137.695843, 476.294649 159.255656)

LINESTRING (455.487451 137.695843, 504.628177 129.244178)

LINESTRING (455.487451 137.695843, 477.468704 163.839964)

LINESTRING (455.487451 137.695843, 492.060118 123.510709)

LINESTRING (455.487451 137.695843, 510.513660 130.507017)

LINESTRING (476.294649 159.255656, 525.832287 164.631208)

LINESTRING (476.294649 159.255656, 521.027396 134.461658)

LINESTRING (476.294649 159.255656, 504.628177 129.244178)

LINESTRING (476.294649 159.255656, 499.339413 122.809276)

LINESTRING (476.294649 159.255656, 492.060118 123.510709)

LINESTRING (476.294649 159.255656, 510.513660 130.507017)

LINESTRING (525.832287 164.631208, 468.750544 157.049358)

LINESTRING (525.832287 164.631208, 464.959127 167.774244)

LINESTRING (525.832287 164.631208, 496.671398 171.229920)

LINESTRING (525.832287 164.631208, 511.455893 106.985958)

LINESTRING (525.832287 164.631208, 510.513660 130.507017)

LINESTRING (525.832287 164.631208, 463.731426 160.981550)

LINESTRING (521.027396 134.461658, 504.628177 129.244178)

LINESTRING (521.027396 134.461658, 468.750544 157.049358)

LINESTRING (521.027396 134.461658, 496.671398 171.229920)

LINESTRING (521.027396 134.461658, 499.339413 122.809276)

LINESTRING (521.027396 134.461658, 477.468704 163.839964)

LINESTRING (521.027396 134.461658, 492.060118 123.510709)

LINESTRING (521.027396 134.461658, 463.731426 160.981550)

LINESTRING (504.628177 129.244178, 468.750544 157.049358)

LINESTRING (504.628177 129.244178, 464.959127 167.774244)

LINESTRING (504.628177 129.244178, 496.671398 171.229920)

LINESTRING (504.628177 129.244178, 499.339413 122.809276)

LINESTRING (504.628177 129.244178, 511.455893 106.985958)

LINESTRING (504.628177 129.244178, 477.468704 163.839964)

LINESTRING (504.628177 129.244178, 492.060118 123.510709)

LINESTRING (504.628177 129.244178, 510.513660 130.507017)

LINESTRING (468.750544 157.049358, 464.959127 167.774244)

LINESTRING (468.750544 157.049358, 499.339413 122.809276)

LINESTRING (468.750544 157.049358, 492.060118 123.510709)

LINESTRING (468.750544 157.049358, 510.513660 130.507017)

LINESTRING (464.959127 167.774244, 496.671398 171.229920)

LINESTRING (464.959127 167.774244, 499.339413 122.809276)

LINESTRING (464.959127 167.774244, 511.455893 106.985958)

LINESTRING (464.959127 167.774244, 492.060118 123.510709)

LINESTRING (464.959127 167.774244, 510.513660 130.507017)

LINESTRING (464.959127 167.774244, 463.731426 160.981550)

LINESTRING (496.671398 171.229920, 499.339413 122.809276)

LINESTRING (496.671398 171.229920, 495.273808 139.703551)

LINESTRING (496.671398 171.229920, 510.513660 130.507017)

LINESTRING (496.671398 171.229920, 463.731426 160.981550)

LINESTRING (499.339413 122.809276, 477.468704 163.839964)

LINESTRING (499.339413 122.809276, 510.513660 130.507017)

LINESTRING (495.273808 139.703551, 477.468704 163.839964)

LINESTRING (495.273808 139.703551, 510.513660 130.507017)

LINESTRING (495.273808 139.703551, 463.731426 160.981550)

LINESTRING (511.455893 106.985958, 463.731426 160.981550)

LINESTRING (477.468704 163.839964, 510.513660 130.507017)

LINESTRING (492.060118 123.510709, 463.731426 160.981550)

LINESTRING (510.513660 130.507017, 463.731426 160.981550)

LINESTRING (844.735917 175.793832, 869.106354 171.084786)

LINESTRING (844.735917 175.793832, 850.208353 104.360031)

LINESTRING (844.735917 175.793832, 853.022296 122.690299)

LINESTRING (844.735917 175.793832, 835.423258 104.726468)

LINESTRING (844.735917 175.793832, 832.317209 168.883715)

LINESTRING (844.735917 175.793832, 833.231871 111.236812)

LINESTRING (844.735917 175.793832, 851.126342 125.975980)

LINESTRING (844.735917 175.793832, 850.703861 129.062799)

LINESTRING (844.735917 175.793832, 841.538247 178.490357)

LINESTRING (844.735917 175.793832, 851.150390 159.690539)

LINESTRING (844.735917 175.793832, 850.564762 172.362336)

LINESTRING (844.735917 175.793832, 803.050438 171.258935)

LINESTRING (844.735917 175.793832, 842.921237 145.879179)

LINESTRING (844.735917 175.793832, 832.568388 153.734661)

LINESTRING (844.735917 175.793832, 821.141068 131.375875)

LINESTRING (844.735917 175.793832, 868.747903 104.043104)

LINESTRING (844.735917 175.793832, 840.592753 146.664032)

LINESTRING (844.735917 175.793832, 859.356691 162.677781)

LINESTRING (844.735917 175.793832, 802.097536 167.593082)

LINESTRING (844.735917 175.793832, 802.744635 130.068212)

LINESTRING (844.735917 175.793832, 852.586503 110.256997)

LINESTRING (844.735917 175.793832, 827.252542 114.407438)

LINESTRING (844.735917 175.793832, 816.318123 157.896277)

LINESTRING (844.735917 175.793832, 862.441141 170.149623)

LINESTRING (844.735917 175.793832, 839.380262 150.934538)

LINESTRING (869.106354 171.084786, 876.403886 160.033578)

LINESTRING (869.106354 171.084786, 825.162186 136.825327)

LINESTRING (869.106354 171.084786, 839.704205 135.510189)

LINESTRING (869.106354 171.084786, 850.208353 104.360031)

LINESTRING (869.106354 171.084786, 853.022296 122.690299)

LINESTRING (869.106354 171.084786, 857.352906 125.558751)

LINESTRING (869.106354 171.084786, 851.126342 125.975980)

LINESTRING (869.106354 171.084786, 850.703861 129.062799)

LINESTRING (869.106354 171.084786, 856.268504 112.849924)

LINESTRING (869.106354 171.084786, 850.564762 172.362336)

LINESTRING (869.106354 171.084786, 813.844050 136.282194)

LINESTRING (869.106354 171.084786, 842.921237 145.879179)

LINESTRING (869.106354 171.084786, 832.568388 153.734661)

LINESTRING (869.106354 171.084786, 868.747903 104.043104)

LINESTRING (869.106354 171.084786, 875.308347 125.899716)

LINESTRING (869.106354 171.084786, 840.592753 146.664032)

LINESTRING (869.106354 171.084786, 859.356691 162.677781)

LINESTRING (869.106354 171.084786, 852.788431 157.819182)

LINESTRING (869.106354 171.084786, 802.744635 130.068212)

LINESTRING (869.106354 171.084786, 852.586503 110.256997)

LINESTRING (869.106354 171.084786, 827.252542 114.407438)

LINESTRING (869.106354 171.084786, 859.184929 164.846488)

LINESTRING (876.403886 160.033578, 850.208353 104.360031)

LINESTRING (876.403886 160.033578, 835.423258 104.726468)

LINESTRING (876.403886 160.033578, 857.352906 125.558751)

LINESTRING (876.403886 160.033578, 832.317209 168.883715)

LINESTRING (876.403886 160.033578, 820.791627 161.953956)

LINESTRING (876.403886 160.033578, 833.231871 111.236812)

LINESTRING (876.403886 160.033578, 851.126342 125.975980)

LINESTRING (876.403886 160.033578, 850.703861 129.062799)

LINESTRING (876.403886 160.033578, 841.538247 178.490357)

LINESTRING (876.403886 160.033578, 856.268504 112.849924)

LINESTRING (876.403886 160.033578, 851.150390 159.690539)

LINESTRING (876.403886 160.033578, 850.564762 172.362336)

LINESTRING (876.403886 160.033578, 803.050438 171.258935)

LINESTRING (876.403886 160.033578, 805.850331 133.028585)

LINESTRING (876.403886 160.033578, 842.921237 145.879179)

LINESTRING (876.403886 160.033578, 832.568388 153.734661)

LINESTRING (876.403886 160.033578, 821.141068 131.375875)

LINESTRING (876.403886 160.033578, 875.308347 125.899716)

LINESTRING (876.403886 160.033578, 840.592753 146.664032)

LINESTRING (876.403886 160.033578, 876.289882 144.331936)

LINESTRING (876.403886 160.033578, 802.744635 130.068212)

LINESTRING (876.403886 160.033578, 827.252542 114.407438)

LINESTRING (876.403886 160.033578, 816.318123 157.896277)

LINESTRING (876.403886 160.033578, 859.184929 164.846488)

LINESTRING (825.162186 136.825327, 850.208353 104.360031)

LINESTRING (825.162186 136.825327, 820.791627 161.953956)

LINESTRING (825.162186 136.825327, 851.126342 125.975980)

LINESTRING (825.162186 136.825327, 850.703861 129.062799)

LINESTRING (825.162186 136.825327, 841.538247 178.490357)

LINESTRING (825.162186 136.825327, 851.150390 159.690539)

LINESTRING (825.162186 136.825327, 850.564762 172.362336)

LINESTRING (825.162186 136.825327, 813.844050 136.282194)

LINESTRING (825.162186 136.825327, 805.735946 176.445158)

LINESTRING (825.162186 136.825327, 803.050438 171.258935)

LINESTRING (825.162186 136.825327, 805.850331 133.028585)

LINESTRING (825.162186 136.825327, 842.921237 145.879179)

LINESTRING (825.162186 136.825327, 832.568388 153.734661)

LINESTRING (825.162186 136.825327, 859.356691 162.677781)

LINESTRING (825.162186 136.825327, 852.788431 157.819182)

LINESTRING (825.162186 136.825327, 802.097536 167.593082)

LINESTRING (825.162186 136.825327, 827.252542 114.407438)

LINESTRING (825.162186 136.825327, 859.184929 164.846488)

LINESTRING (825.162186 136.825327, 839.380262 150.934538)

LINESTRING (839.704205 135.510189, 857.352906 125.558751)

LINESTRING (839.704205 135.510189, 820.791627 161.953956)

LINESTRING (839.704205 135.510189, 851.126342 125.975980)

LINESTRING (839.704205 135.510189, 850.703861 129.062799)

LINESTRING (839.704205 135.510189, 856.268504 112.849924)

LINESTRING (839.704205 135.510189, 851.150390 159.690539)

LINESTRING (839.704205 135.510189, 850.564762 172.362336)

LINESTRING (839.704205 135.510189, 803.050438 171.258935)

LINESTRING (839.704205 135.510189, 842.921237 145.879179)

LINESTRING (839.704205 135.510189, 832.568388 153.734661)

LINESTRING (839.704205 135.510189, 868.747903 104.043104)

LINESTRING (839.704205 135.510189, 840.592753 146.664032)

LINESTRING (839.704205 135.510189, 859.356691 162.677781)

LINESTRING (839.704205 135.510189, 852.788431 157.819182)

LINESTRING (839.704205 135.510189, 802.097536 167.593082)

LINESTRING (839.704205 135.510189, 876.289882 144.331936)

LINESTRING (839.704205 135.510189, 873.596335 147.957947)

LINESTRING (839.704205 135.510189, 816.318123 157.896277)

LINESTRING (839.704205 135.510189, 859.184929 164.846488)

LINESTRING (839.704205 135.510189, 839.380262 150.934538)

LINESTRING (850.208353 104.360031, 853.022296 122.690299)

LINESTRING (850.208353 104.360031, 857.352906 125.558751)

LINESTRING (850.208353 104.360031, 832.317209 168.883715)

LINESTRING (850.208353 104.360031, 820.791627 161.953956)

LINESTRING (850.208353 104.360031, 833.231871 111.236812)

LINESTRING (850.208353 104.360031, 851.126342 125.975980)

LINESTRING (850.208353 104.360031, 813.844050 136.282194)

LINESTRING (850.208353 104.360031, 805.735946 176.445158)

LINESTRING (850.208353 104.360031, 805.850331 133.028585)

LINESTRING (850.208353 104.360031, 842.921237 145.879179)

LINESTRING (850.208353 104.360031, 832.568388 153.734661)

LINESTRING (850.208353 104.360031, 821.141068 131.375875)

LINESTRING (850.208353 104.360031, 868.747903 104.043104)

LINESTRING (850.208353 104.360031, 840.592753 146.664032)

LINESTRING (850.208353 104.360031, 852.788431 157.819182)

LINESTRING (850.208353 104.360031, 802.744635 130.068212)

LINESTRING (850.208353 104.360031, 873.596335 147.957947)

LINESTRING (850.208353 104.360031, 827.252542 114.407438)

LINESTRING (850.208353 104.360031, 859.184929 164.846488)

LINESTRING (853.022296 122.690299, 835.423258 104.726468)

LINESTRING (853.022296 122.690299, 832.317209 168.883715)

LINESTRING (853.022296 122.690299, 820.791627 161.953956)

LINESTRING (853.022296 122.690299, 850.703861 129.062799)

LINESTRING (853.022296 122.690299, 856.268504 112.849924)

LINESTRING (853.022296 122.690299, 851.150390 159.690539)

LINESTRING (853.022296 122.690299, 850.564762 172.362336)

LINESTRING (853.022296 122.690299, 805.850331 133.028585)

LINESTRING (853.022296 122.690299, 875.308347 125.899716)

LINESTRING (853.022296 122.690299, 802.097536 167.593082)

LINESTRING (853.022296 122.690299, 876.289882 144.331936)

LINESTRING (853.022296 122.690299, 802.744635 130.068212)

LINESTRING (853.022296 122.690299, 873.596335 147.957947)

LINESTRING (853.022296 122.690299, 852.586503 110.256997)

LINESTRING (853.022296 122.690299, 827.252542 114.407438)

LINESTRING (853.022296 122.690299, 816.318123 157.896277)

LINESTRING (853.022296 122.690299, 862.441141 170.149623)

LINESTRING (853.022296 122.690299, 839.380262 150.934538)

LINESTRING (835.423258 104.726468, 832.317209 168.883715)

LINESTRING (835.423258 104.726468, 820.791627 161.953956)

LINESTRING (835.423258 104.726468, 851.126342 125.975980)

LINESTRING (835.423258 104.726468, 841.538247 178.490357)

LINESTRING (835.423258 104.726468, 856.268504 112.849924)

LINESTRING (835.423258 104.726468, 813.844050 136.282194)

LINESTRING (835.423258 104.726468, 805.735946 176.445158)

LINESTRING (835.423258 104.726468, 803.050438 171.258935)

LINESTRING (835.423258 104.726468, 842.921237 145.879179)

LINESTRING (835.423258 104.726468, 832.568388 153.734661)

LINESTRING (835.423258 104.726468, 821.141068 131.375875)

LINESTRING (835.423258 104.726468, 875.308347 125.899716)

LINESTRING (835.423258 104.726468, 859.356691 162.677781)

LINESTRING (835.423258 104.726468, 852.788431 157.819182)

LINESTRING (835.423258 104.726468, 802.097536 167.593082)

LINESTRING (835.423258 104.726468, 876.289882 144.331936)

LINESTRING (835.423258 104.726468, 802.744635 130.068212)

LINESTRING (835.423258 104.726468, 873.596335 147.957947)

LINESTRING (835.423258 104.726468, 852.586503 110.256997)

LINESTRING (835.423258 104.726468, 827.252542 114.407438)

LINESTRING (835.423258 104.726468, 862.441141 170.149623)

LINESTRING (835.423258 104.726468, 839.380262 150.934538)

LINESTRING (857.352906 125.558751, 820.791627 161.953956)

LINESTRING (857.352906 125.558751, 841.538247 178.490357)

LINESTRING (857.352906 125.558751, 851.150390 159.690539)

LINESTRING (857.352906 125.558751, 850.564762 172.362336)

LINESTRING (857.352906 125.558751, 813.844050 136.282194)

LINESTRING (857.352906 125.558751, 805.735946 176.445158)

LINESTRING (857.352906 125.558751, 805.850331 133.028585)

LINESTRING (857.352906 125.558751, 821.141068 131.375875)

LINESTRING (857.352906 125.558751, 868.747903 104.043104)

LINESTRING (857.352906 125.558751, 859.356691 162.677781)

LINESTRING (857.352906 125.558751, 852.788431 157.819182)

LINESTRING (857.352906 125.558751, 876.289882 144.331936)

LINESTRING (857.352906 125.558751, 873.596335 147.957947)

LINESTRING (857.352906 125.558751, 852.586503 110.256997)

LINESTRING (857.352906 125.558751, 816.318123 157.896277)

LINESTRING (857.352906 125.558751, 862.441141 170.149623)

LINESTRING (832.317209 168.883715, 820.791627 161.953956)

LINESTRING (832.317209 168.883715, 851.126342 125.975980)

LINESTRING (832.317209 168.883715, 841.538247 178.490357)

LINESTRING (832.317209 168.883715, 856.268504 112.849924)

LINESTRING (832.317209 168.883715, 851.150390 159.690539)

LINESTRING (832.317209 168.883715, 813.844050 136.282194)

LINESTRING (832.317209 168.883715, 805.735946 176.445158)

LINESTRING (832.317209 168.883715, 803.050438 171.258935)

LINESTRING (832.317209 168.883715, 832.568388 153.734661)

LINESTRING (832.317209 168.883715, 821.141068 131.375875)

LINESTRING (832.317209 168.883715, 875.308347 125.899716)

LINESTRING (832.317209 168.883715, 840.592753 146.664032)

LINESTRING (832.317209 168.883715, 859.356691 162.677781)

LINESTRING (832.317209 168.883715, 876.289882 144.331936)

LINESTRING (832.317209 168.883715, 873.596335 147.957947)

LINESTRING (832.317209 168.883715, 827.252542 114.407438)

LINESTRING (832.317209 168.883715, 816.318123 157.896277)

LINESTRING (832.317209 168.883715, 862.441141 170.149623)

LINESTRING (832.317209 168.883715, 859.184929 164.846488)

LINESTRING (820.791627 161.953956, 851.126342 125.975980)

LINESTRING (820.791627 161.953956, 850.703861 129.062799)

LINESTRING (820.791627 161.953956, 841.538247 178.490357)

LINESTRING (820.791627 161.953956, 805.735946 176.445158)

LINESTRING (820.791627 161.953956, 803.050438 171.258935)

LINESTRING (820.791627 161.953956, 805.850331 133.028585)

LINESTRING (820.791627 161.953956, 832.568388 153.734661)

LINESTRING (820.791627 161.953956, 821.141068 131.375875)

LINESTRING (820.791627 161.953956, 868.747903 104.043104)

LINESTRING (820.791627 161.953956, 840.592753 146.664032)

LINESTRING (820.791627 161.953956, 859.356691 162.677781)

LINESTRING (820.791627 161.953956, 802.744635 130.068212)

LINESTRING (820.791627 161.953956, 873.596335 147.957947)

LINESTRING (820.791627 161.953956, 816.318123 157.896277)

LINESTRING (820.791627 161.953956, 859.184929 164.846488)

LINESTRING (820.791627 161.953956, 839.380262 150.934538)

LINESTRING (833.231871 111.236812, 851.126342 125.975980)

LINESTRING (833.231871 111.236812, 851.150390 159.690539)

LINESTRING (833.231871 111.236812, 850.564762 172.362336)

LINESTRING (833.231871 111.236812, 813.844050 136.282194)

LINESTRING (833.231871 111.236812, 803.050438 171.258935)

LINESTRING (833.231871 111.236812, 842.921237 145.879179)

LINESTRING (833.231871 111.236812, 832.568388 153.734661)

LINESTRING (833.231871 111.236812, 821.141068 131.375875)

LINESTRING (833.231871 111.236812, 868.747903 104.043104)

LINESTRING (833.231871 111.236812, 875.308347 125.899716)

LINESTRING (833.231871 111.236812, 859.356691 162.677781)

LINESTRING (833.231871 111.236812, 852.788431 157.819182)

LINESTRING (833.231871 111.236812, 802.097536 167.593082)

LINESTRING (833.231871 111.236812, 873.596335 147.957947)

LINESTRING (833.231871 111.236812, 852.586503 110.256997)

LINESTRING (833.231871 111.236812, 862.441141 170.149623)

LINESTRING (851.126342 125.975980, 856.268504 112.849924)

LINESTRING (851.126342 125.975980, 851.150390 159.690539)

LINESTRING (851.126342 125.975980, 850.564762 172.362336)

LINESTRING (851.126342 125.975980, 805.735946 176.445158)

LINESTRING (851.126342 125.975980, 803.050438 171.258935)

LINESTRING (851.126342 125.975980, 805.850331 133.028585)

LINESTRING (851.126342 125.975980, 842.921237 145.879179)

LINESTRING (851.126342 125.975980, 832.568388 153.734661)

LINESTRING (851.126342 125.975980, 868.747903 104.043104)

LINESTRING (851.126342 125.975980, 840.592753 146.664032)

LINESTRING (851.126342 125.975980, 852.788431 157.819182)

LINESTRING (851.126342 125.975980, 802.097536 167.593082)

LINESTRING (851.126342 125.975980, 873.596335 147.957947)

LINESTRING (851.126342 125.975980, 852.586503 110.256997)

LINESTRING (851.126342 125.975980, 816.318123 157.896277)

LINESTRING (851.126342 125.975980, 862.441141 170.149623)

LINESTRING (851.126342 125.975980, 839.380262 150.934538)

LINESTRING (850.703861 129.062799, 841.538247 178.490357)

LINESTRING (850.703861 129.062799, 856.268504 112.849924)

LINESTRING (850.703861 129.062799, 850.564762 172.362336)

LINESTRING (850.703861 129.062799, 805.735946 176.445158)

LINESTRING (850.703861 129.062799, 803.050438 171.258935)

LINESTRING (850.703861 129.062799, 832.568388 153.734661)

LINESTRING (850.703861 129.062799, 821.141068 131.375875)

LINESTRING (850.703861 129.062799, 875.308347 125.899716)

LINESTRING (850.703861 129.062799, 840.592753 146.664032)

LINESTRING (850.703861 129.062799, 859.356691 162.677781)

LINESTRING (850.703861 129.062799, 852.788431 157.819182)

LINESTRING (850.703861 129.062799, 802.097536 167.593082)

LINESTRING (850.703861 129.062799, 876.289882 144.331936)

LINESTRING (850.703861 129.062799, 852.586503 110.256997)

LINESTRING (850.703861 129.062799, 816.318123 157.896277)

LINESTRING (850.703861 129.062799, 859.184929 164.846488)

LINESTRING (841.538247 178.490357, 856.268504 112.849924)

LINESTRING (841.538247 178.490357, 805.735946 176.445158)

LINESTRING (841.538247 178.490357, 803.050438 171.258935)

LINESTRING (841.538247 178.490357, 805.850331 133.028585)

LINESTRING (841.538247 178.490357, 842.921237 145.879179)

LINESTRING (841.538247 178.490357, 832.568388 153.734661)

LINESTRING (841.538247 178.490357, 821.141068 131.375875)

LINESTRING (841.538247 178.490357, 840.592753 146.664032)

LINESTRING (841.538247 178.490357, 859.356691 162.677781)

LINESTRING (841.538247 178.490357, 852.788431 157.819182)

LINESTRING (841.538247 178.490357, 802.097536 167.593082)

LINESTRING (841.538247 178.490357, 873.596335 147.957947)

LINESTRING (841.538247 178.490357, 852.586503 110.256997)

LINESTRING (841.538247 178.490357, 862.441141 170.149623)

LINESTRING (841.538247 178.490357, 839.380262 150.934538)

LINESTRING (856.268504 112.849924, 805.735946 176.445158)

LINESTRING (856.268504 112.849924, 803.050438 171.258935)

LINESTRING (856.268504 112.849924, 805.850331 133.028585)

LINESTRING (856.268504 112.849924, 832.568388 153.734661)

LINESTRING (856.268504 112.849924, 821.141068 131.375875)

LINESTRING (856.268504 112.849924, 868.747903 104.043104)

LINESTRING (856.268504 112.849924, 875.308347 125.899716)

LINESTRING (856.268504 112.849924, 859.356691 162.677781)

LINESTRING (856.268504 112.849924, 852.788431 157.819182)

LINESTRING (856.268504 112.849924, 876.289882 144.331936)

LINESTRING (856.268504 112.849924, 802.744635 130.068212)

LINESTRING (856.268504 112.849924, 873.596335 147.957947)

LINESTRING (856.268504 112.849924, 852.586503 110.256997)

LINESTRING (856.268504 112.849924, 827.252542 114.407438)

LINESTRING (856.268504 112.849924, 859.184929 164.846488)

LINESTRING (851.150390 159.690539, 813.844050 136.282194)

LINESTRING (851.150390 159.690539, 805.850331 133.028585)

LINESTRING (851.150390 159.690539, 842.921237 145.879179)

LINESTRING (851.150390 159.690539, 875.308347 125.899716)

LINESTRING (851.150390 159.690539, 859.356691 162.677781)

LINESTRING (851.150390 159.690539, 827.252542 114.407438)

LINESTRING (850.564762 172.362336, 813.844050 136.282194)

LINESTRING (850.564762 172.362336, 805.735946 176.445158)

LINESTRING (850.564762 172.362336, 803.050438 171.258935)

LINESTRING (850.564762 172.362336, 805.850331 133.028585)

LINESTRING (850.564762 172.362336, 842.921237 145.879179)

LINESTRING (850.564762 172.362336, 832.568388 153.734661)

LINESTRING (850.564762 172.362336, 840.592753 146.664032)

LINESTRING (850.564762 172.362336, 859.356691 162.677781)

LINESTRING (850.564762 172.362336, 802.097536 167.593082)

LINESTRING (850.564762 172.362336, 876.289882 144.331936)

LINESTRING (850.564762 172.362336, 873.596335 147.957947)

LINESTRING (850.564762 172.362336, 852.586503 110.256997)

LINESTRING (850.564762 172.362336, 827.252542 114.407438)

LINESTRING (850.564762 172.362336, 816.318123 157.896277)

LINESTRING (850.564762 172.362336, 859.184929 164.846488)

LINESTRING (813.844050 136.282194, 803.050438 171.258935)

LINESTRING (813.844050 136.282194, 832.568388 153.734661)

LINESTRING (813.844050 136.282194, 868.747903 104.043104)

LINESTRING (813.844050 136.282194, 852.788431 157.819182)

LINESTRING (813.844050 136.282194, 876.289882 144.331936)

LINESTRING (813.844050 136.282194, 873.596335 147.957947)

LINESTRING (813.844050 136.282194, 852.586503 110.256997)

LINESTRING (813.844050 136.282194, 816.318123 157.896277)

LINESTRING (813.844050 136.282194, 862.441141 170.149623)

LINESTRING (813.844050 136.282194, 839.380262 150.934538)

LINESTRING (805.735946 176.445158, 805.850331 133.028585)

LINESTRING (805.735946 176.445158, 832.568388 153.734661)

LINESTRING (805.735946 176.445158, 868.747903 104.043104)

LINESTRING (805.735946 176.445158, 875.308347 125.899716)

LINESTRING (805.735946 176.445158, 840.592753 146.664032)

LINESTRING (805.735946 176.445158, 852.788431 157.819182)

LINESTRING (805.735946 176.445158, 802.097536 167.593082)

LINESTRING (805.735946 176.445158, 802.744635 130.068212)

LINESTRING (805.735946 176.445158, 873.596335 147.957947)

LINESTRING (805.735946 176.445158, 862.441141 170.149623)

LINESTRING (805.735946 176.445158, 839.380262 150.934538)

LINESTRING (803.050438 171.258935, 805.850331 133.028585)

LINESTRING (803.050438 171.258935, 842.921237 145.879179)

LINESTRING (803.050438 171.258935, 832.568388 153.734661)

LINESTRING (803.050438 171.258935, 821.141068 131.375875)

LINESTRING (803.050438 171.258935, 875.308347 125.899716)

LINESTRING (803.050438 171.258935, 840.592753 146.664032)

LINESTRING (803.050438 171.258935, 859.356691 162.677781)

LINESTRING (803.050438 171.258935, 852.788431 157.819182)

LINESTRING (803.050438 171.258935, 802.097536 167.593082)

LINESTRING (803.050438 171.258935, 802.744635 130.068212)

LINESTRING (803.050438 171.258935, 827.252542 114.407438)

LINESTRING (803.050438 171.258935, 816.318123 157.896277)

LINESTRING (803.050438 171.258935, 839.380262 150.934538)

LINESTRING (805.850331 133.028585, 842.921237 145.879179)

LINESTRING (805.850331 133.028585, 821.141068 131.375875)

LINESTRING (805.850331 133.028585, 868.747903 104.043104)

LINESTRING (805.850331 133.028585, 875.308347 125.899716)

LINESTRING (805.850331 133.028585, 859.356691 162.677781)

LINESTRING (805.850331 133.028585, 852.788431 157.819182)

LINESTRING (805.850331 133.028585, 873.596335 147.957947)

LINESTRING (805.850331 133.028585, 827.252542 114.407438)

LINESTRING (805.850331 133.028585, 816.318123 157.896277)

LINESTRING (805.850331 133.028585, 862.441141 170.149623)

LINESTRING (842.921237 145.879179, 832.568388 153.734661)

LINESTRING (842.921237 145.879179, 821.141068 131.375875)

LINESTRING (842.921237 145.879179, 852.788431 157.819182)

LINESTRING (842.921237 145.879179, 802.097536 167.593082)

LINESTRING (842.921237 145.879179, 802.744635 130.068212)

LINESTRING (842.921237 145.879179, 852.586503 110.256997)

LINESTRING (842.921237 145.879179, 862.441141 170.149623)

LINESTRING (832.568388 153.734661, 821.141068 131.375875)

LINESTRING (832.568388 153.734661, 852.586503 110.256997)

LINESTRING (832.568388 153.734661, 827.252542 114.407438)

LINESTRING (832.568388 153.734661, 816.318123 157.896277)

LINESTRING (832.568388 153.734661, 862.441141 170.149623)

LINESTRING (832.568388 153.734661, 859.184929 164.846488)

LINESTRING (832.568388 153.734661, 839.380262 150.934538)

LINESTRING (821.141068 131.375875, 875.308347 125.899716)

LINESTRING (821.141068 131.375875, 840.592753 146.664032)

LINESTRING (821.141068 131.375875, 859.356691 162.677781)

LINESTRING (821.141068 131.375875, 852.788431 157.819182)

LINESTRING (821.141068 131.375875, 802.097536 167.593082)

LINESTRING (821.141068 131.375875, 852.586503 110.256997)

LINESTRING (821.141068 131.375875, 827.252542 114.407438)

LINESTRING (821.141068 131.375875, 859.184929 164.846488)

LINESTRING (821.141068 131.375875, 839.380262 150.934538)

LINESTRING (868.747903 104.043104, 875.308347 125.899716)

LINESTRING (868.747903 104.043104, 859.356691 162.677781)

LINESTRING (868.747903 104.043104, 852.788431 157.819182)

LINESTRING (868.747903 104.043104, 802.097536 167.593082)

LINESTRING (868.747903 104.043104, 876.289882 144.331936)

LINESTRING (868.747903 104.043104, 802.744635 130.068212)

LINESTRING (868.747903 104.043104, 827.252542 114.407438)

LINESTRING (868.747903 104.043104, 816.318123 157.896277)

LINESTRING (875.308347 125.899716, 840.592753 146.664032)

LINESTRING (875.308347 125.899716, 859.356691 162.677781)

LINESTRING (875.308347 125.899716, 802.744635 130.068212)

LINESTRING (875.308347 125.899716, 852.586503 110.256997)

LINESTRING (875.308347 125.899716, 827.252542 114.407438)

LINESTRING (875.308347 125.899716, 862.441141 170.149623)

LINESTRING (875.308347 125.899716, 859.184929 164.846488)

LINESTRING (840.592753 146.664032, 852.788431 157.819182)

LINESTRING (840.592753 146.664032, 802.097536 167.593082)

LINESTRING (840.592753 146.664032, 876.289882 144.331936)

LINESTRING (840.592753 146.664032, 802.744635 130.068212)

LINESTRING (840.592753 146.664032, 873.596335 147.957947)

LINESTRING (840.592753 146.664032, 852.586503 110.256997)

LINESTRING (840.592753 146.664032, 827.252542 114.407438)

LINESTRING (840.592753 146.664032, 859.184929 164.846488)

LINESTRING (840.592753 146.664032, 839.380262 150.934538)

LINESTRING (859.356691 162.677781, 802.097536 167.593082)

LINESTRING (859.356691 162.677781, 873.596335 147.957947)

LINESTRING (859.356691 162.677781, 852.586503 110.256997)

LINESTRING (859.356691 162.677781, 827.252542 114.407438)

LINESTRING (859.356691 162.677781, 816.318123 157.896277)

LINESTRING (859.356691 162.677781, 862.441141 170.149623)

LINESTRING (859.356691 162.677781, 839.380262 150.934538)

LINESTRING (852.788431 157.819182, 802.097536 167.593082)

LINESTRING (852.788431 157.819182, 876.289882 144.331936)

LINESTRING (852.788431 157.819182, 802.744635 130.068212)

LINESTRING (852.788431 157.819182, 873.596335 147.957947)

LINESTRING (852.788431 157.819182, 852.586503 110.256997)

LINESTRING (852.788431 157.819182, 816.318123 157.896277)

LINESTRING (852.788431 157.819182, 862.441141 170.149623)

LINESTRING (802.097536 167.593082, 876.289882 144.331936)

LINESTRING (802.097536 167.593082, 802.744635 130.068212)

LINESTRING (802.097536 167.593082, 873.596335 147.957947)

LINESTRING (802.097536 167.593082, 852.586503 110.256997)

LINESTRING (802.097536 167.593082, 862.441141 170.149623)

LINESTRING (802.097536 167.593082, 859.184929 164.846488)

LINESTRING (802.097536 167.593082, 839.380262 150.934538)

LINESTRING (876.289882 144.331936, 873.596335 147.957947)

LINESTRING (876.289882 144.331936, 827.252542 114.407438)

LINESTRING (876.289882 144.331936, 816.318123 157.896277)

LINESTRING (876.289882 144.331936, 862.441141 170.149623)

LINESTRING (876.289882 144.331936, 859.184929 164.846488)

LINESTRING (802.744635 130.068212, 873.596335 147.957947)

LINESTRING (802.744635 130.068212, 816.318123 157.896277)

LINESTRING (802.744635 130.068212, 862.441141 170.149623)

LINESTRING (802.744635 130.068212, 859.184929 164.846488)

LINESTRING (802.744635 130.068212, 839.380262 150.934538)

LINESTRING (873.596335 147.957947, 852.586503 110.256997)

LINESTRING (873.596335 147.957947, 827.252542 114.407438)

LINESTRING (873.596335 147.957947, 816.318123 157.896277)

LINESTRING (873.596335 147.957947, 862.441141 170.149623)

LINESTRING (852.586503 110.256997, 816.318123 157.896277)

LINESTRING (852.586503 110.256997, 862.441141 170.149623)

LINESTRING (827.252542 114.407438, 862.441141 170.149623)

LINESTRING (816.318123 157.896277, 862.441141 170.149623)

LINESTRING (816.318123 157.896277, 859.184929 164.846488)

LINESTRING (816.318123 157.896277, 839.380262 150.934538)

LINESTRING (862.441141 170.149623, 859.184929 164.846488)

LINESTRING (862.441141 170.149623, 839.380262 150.934538)

LINESTRING (111.981327 156.296206, 483.095763 122.140341)

LINESTRING (103.377547 108.762183, 463.731426 160.981550)

LINESTRING (103.275064 169.318700, 506.211838 111.827828)

LINESTRING (477.468704 163.839964, 803.050438 171.258935)

LINESTRING (453.788005 161.247933, 827.252542 114.407438)

LINESTRING (506.211838 111.827828, 844.735917 175.793832)

