LINESTRING (80.000000 80.000000, 229.977199 82.615290)

LINESTRING (80.000000 80.000000, 162.487460 81.438410)

LINESTRING (162.487460 81.438410, 229.977199 82.615290)

LINESTRING (80.000000 80.000000, 197.117571 173.720193)

LINESTRING (80.000000 80.000000, 144.414664 131.546106)

LINESTRING (144.414664 131.546106, 197.117571 173.720193)

LINESTRING (80.000000 80.000000, 128.321445 222.003655)

LINESTRING (80.000000 80.000000, 106.576795 158.102010)

LINESTRING (106.576795 158.102010, 128.321445 222.003655)

LINESTRING (80.000000 80.000000, 32.181347 222.173754)

LINESTRING (80.000000 80.000000, 53.699741 158.195565)

LINESTRING (53.699741 158.195565, 32.181347 222.173754)

LINESTRING (80.000000 80.000000, -39.360701 170.846150)

LINESTRING (80.000000 80.000000, 14.351614 129.965383)

LINESTRING (14.351614 129.965383, -39.360701 170.846150)

LINESTRING (80.000000 80.000000, -69.782015 88.083815)

LINESTRING (80.000000 80.000000, -2.380108 84.446098)

LINESTRING (-2.380108 84.446098, -69.782015 88.083815)

LINESTRING (80.000000 80.000000, -46.275043 -0.960568)

LINESTRING (80.000000 80.000000, 10.548727 35.471687)

LINESTRING (10.548727 35.471687, -46.275043 -0.960568)

LINESTRING (80.000000 80.000000, 37.592766 -63.880598)

LINESTRING (80.000000 80.000000, 56.676022 0.865671)

LINESTRING (56.676022 0.865671, 37.592766 -63.880598)

LINESTRING (80.000000 80.000000, 134.046329 -59.924960)

LINESTRING (80.000000 80.000000, 109.725481 3.041272)

LINESTRING (109.725481 3.041272, 134.046329 -59.924960)

LINESTRING (80.000000 80.000000, 197.157577 -13.670177)

LINESTRING (80.000000 80.000000, 144.436668 28.481403)

LINESTRING (144.436668 28.481403, 197.157577 -13.670177)

LINESTRING (229.977199 82.615290, 197.117571 173.720193)

LINESTRING (197.117571 173.720193, 128.321445 222.003655)

LINESTRING (128.321445 222.003655, 32.181347 222.173754)

LINESTRING (32.181347 222.173754, -39.360701 170.846150)

LINESTRING (-39.360701 170.846150, -69.782015 88.083815)

LINESTRING (-69.782015 88.083815, -46.275043 -0.960568)

LINESTRING (-46.275043 -0.960568, 37.592766 -63.880598)

LINESTRING (37.592766 -63.880598, 134.046329 -59.924960)

LINESTRING (134.046329 -59.924960, 197.157577 -13.670177)

LINESTRING (197.157577 -13.670177, 229.977199 82.615290)

LINESTRING (280.000000 80.000000, 429.999884 79.813457)

LINESTRING (280.000000 80.000000, 362.499936 79.897402)

LINESTRING (362.499936 79.897402, 429.999884 79.813457)

LINESTRING (280.000000 80.000000, 405.623713 161.967571)

LINESTRING (280.000000 80.000000, 349.093042 125.082164)

LINESTRING (349.093042 125.082164, 405.623713 161.967571)

LINESTRING (280.000000 80.000000, 335.471275 219.366200)

LINESTRING (280.000000 80.000000, 310.509201 156.651410)

LINESTRING (310.509201 156.651410, 335.471275 219.366200)

LINESTRING (280.000000 80.000000, 242.824495 225.320273)

LINESTRING (280.000000 80.000000, 259.553472 159.926150)

LINESTRING (259.553472 159.926150, 242.824495 225.320273)

LINESTRING (280.000000 80.000000, 161.716231 172.243969)

LINESTRING (280.000000 80.000000, 214.943927 130.734183)

LINESTRING (214.943927 130.734183, 161.716231 172.243969)

LINESTRING (280.000000 80.000000, 130.162603 73.017564)

LINESTRING (280.000000 80.000000, 197.589432 76.159660)

LINESTRING (197.589432 76.159660, 130.162603 73.017564)

LINESTRING (280.000000 80.000000, 155.956739 -4.340200)

LINESTRING (280.000000 80.000000, 211.776206 33.612890)

LINESTRING (211.776206 33.612890, 155.956739 -4.340200)

LINESTRING (280.000000 80.000000, 243.929206 -65.598413)

LINESTRING (280.000000 80.000000, 260.161064 -0.079127)

LINESTRING (260.161064 -0.079127, 243.929206 -65.598413)

LINESTRING (280.000000 80.000000, 322.820612 -63.758113)

LINESTRING (280.000000 80.000000, 303.551337 0.933038)

LINESTRING (303.551337 0.933038, 322.820612 -63.758113)

LINESTRING (280.000000 80.000000, 398.972050 -11.354537)

LINESTRING (280.000000 80.000000, 345.434627 29.755005)

LINESTRING (345.434627 29.755005, 398.972050 -11.354537)

LINESTRING (429.999884 79.813457, 405.623713 161.967571)

LINESTRING (405.623713 161.967571, 335.471275 219.366200)

LINESTRING (335.471275 219.366200, 242.824495 225.320273)

LINESTRING (242.824495 225.320273, 161.716231 172.243969)

LINESTRING (161.716231 172.243969, 130.162603 73.017564)

LINESTRING (130.162603 73.017564, 155.956739 -4.340200)

LINESTRING (155.956739 -4.340200, 243.929206 -65.598413)

LINESTRING (243.929206 -65.598413, 322.820612 -63.758113)

LINESTRING (322.820612 -63.758113, 398.972050 -11.354537)

LINESTRING (398.972050 -11.354537, 429.999884 79.813457)

LINESTRING (480.000000 80.000000, 629.943084 84.131785)

LINESTRING (480.000000 80.000000, 562.468696 82.272482)

LINESTRING (562.468696 82.272482, 629.943084 84.131785)

LINESTRING (480.000000 80.000000, 594.602216 176.779813)

LINESTRING (480.000000 80.000000, 543.031219 133.228897)

LINESTRING (543.031219 133.228897, 594.602216 176.779813)

LINESTRING (480.000000 80.000000, 515.323718 225.781463)

LINESTRING (480.000000 80.000000, 499.428045 160.179805)

LINESTRING (499.428045 160.179805, 515.323718 225.781463)

LINESTRING (480.000000 80.000000, 426.800464 220.249098)

LINESTRING (480.000000 80.000000, 450.740255 157.137004)

LINESTRING (450.740255 157.137004, 426.800464 220.249098)

LINESTRING (480.000000 80.000000, 359.035320 168.699190)

LINESTRING (480.000000 80.000000, 413.469426 128.784554)

LINESTRING (413.469426 128.784554, 359.035320 168.699190)

LINESTRING (480.000000 80.000000, 330.298106 70.547863)

LINESTRING (480.000000 80.000000, 397.663958 74.801325)

LINESTRING (397.663958 74.801325, 330.298106 70.547863)

LINESTRING (480.000000 80.000000, 356.554248 -5.212360)

LINESTRING (480.000000 80.000000, 412.104836 33.133202)

LINESTRING (412.104836 33.133202, 356.554248 -5.212360)

LINESTRING (480.000000 80.000000, 444.055857 -65.629731)

LINESTRING (480.000000 80.000000, 460.230721 -0.096352)

LINESTRING (460.230721 -0.096352, 444.055857 -65.629731)

LINESTRING (480.000000 80.000000, 527.323442 -62.339355)

LINESTRING (480.000000 80.000000, 506.027893 1.713355)

LINESTRING (506.027893 1.713355, 527.323442 -62.339355)

LINESTRING (480.000000 80.000000, 601.431664 -8.058792)

LINESTRING (480.000000 80.000000, 546.787415 31.567664)

LINESTRING (546.787415 31.567664, 601.431664 -8.058792)

LINESTRING (629.943084 84.131785, 594.602216 176.779813)

LINESTRING (594.602216 176.779813, 515.323718 225.781463)

LINESTRING (515.323718 225.781463, 426.800464 220.249098)

LINESTRING (426.800464 220.249098, 359.035320 168.699190)

LINESTRING (359.035320 168.699190, 330.298106 70.547863)

LINESTRING (330.298106 70.547863, 356.554248 -5.212360)

LINESTRING (356.554248 -5.212360, 444.055857 -65.629731)

LINESTRING (444.055857 -65.629731, 527.323442 -62.339355)

LINESTRING (527.323442 -62.339355, 601.431664 -8.058792)

LINESTRING (601.431664 -8.058792, 629.943084 84.131785)

LINESTRING (80.000000 80.000000, 280.000000 80.000000)

LINESTRING (280.000000 80.000000, 480.000000 80.000000)

