LINESTRING (495.832684 400.944609, 488.168550 442.852283)

LINESTRING (488.168550 442.852283, 473.431072 469.775324)

LINESTRING (473.431072 469.775324, 440.654642 491.091274)

LINESTRING (440.654642 491.091274, 395.515835 504.480125)

LINESTRING (395.515835 504.480125, 364.706885 489.537045)

LINESTRING (364.706885 489.537045, 326.288359 474.639612)

LINESTRING (326.288359 474.639612, 310.711424 436.226119)

LINESTRING (310.711424 436.226119, 298.722533 396.549285)

LINESTRING (298.722533 396.549285, 303.696082 360.002336)

LINESTRING (303.696082 360.002336, 325.154043 327.410164)

LINESTRING (325.154043 327.410164, 357.080103 302.965006)

LINESTRING (357.080103 302.965006, 396.638220 301.353555)

LINESTRING (396.638220 301.353555, 442.795524 309.416912)

LINESTRING (442.795524 309.416912, 475.465958 325.683775)

LINESTRING (475.465958 325.683775, 491.731059 356.877676)

LINESTRING (491.731059 356.877676, 495.832684 400.944609)

LINESTRING (601.781157 400.464296, 583.725865 472.878105)

LINESTRING (583.725865 472.878105, 542.919846 536.461742)

LINESTRING (542.919846 536.461742, 480.128620 582.718608)

LINESTRING (480.128620 582.718608, 403.859918 599.763602)

LINESTRING (403.859918 599.763602, 327.578262 586.549432)

LINESTRING (327.578262 586.549432, 259.611936 539.745906)

LINESTRING (259.611936 539.745906, 213.901879 478.092893)

LINESTRING (213.901879 478.092893, 203.198435 403.834376)

LINESTRING (203.198435 403.834376, 215.291428 320.981420)

LINESTRING (215.291428 320.981420, 261.100845 258.396846)

LINESTRING (261.100845 258.396846, 324.628544 217.437484)

LINESTRING (324.628544 217.437484, 395.722012 203.353332)

LINESTRING (395.722012 203.353332, 471.746740 210.418075)

LINESTRING (471.746740 210.418075, 540.754752 254.137775)

LINESTRING (540.754752 254.137775, 585.622984 320.869035)

LINESTRING (585.622984 320.869035, 601.781157 400.464296)

LINESTRING (702.757434 403.821188, 679.555948 510.005186)

LINESTRING (679.555948 510.005186, 615.168526 607.919987)

LINESTRING (615.168526 607.919987, 510.587591 672.778545)

LINESTRING (510.587591 672.778545, 395.206559 699.424802)

LINESTRING (395.206559 699.424802, 288.707183 673.210128)

LINESTRING (288.707183 673.210128, 190.425101 616.337757)

LINESTRING (190.425101 616.337757, 126.370048 518.432865)

LINESTRING (126.370048 518.432865, 99.329534 396.032180)

LINESTRING (99.329534 396.032180, 120.239695 289.370375)

LINESTRING (120.239695 289.370375, 185.106316 184.302607)

LINESTRING (185.106316 184.302607, 280.551722 118.349019)

LINESTRING (280.551722 118.349019, 401.685677 103.613791)

LINESTRING (401.685677 103.613791, 512.271531 118.313770)

LINESTRING (512.271531 118.313770, 610.202876 187.922577)

LINESTRING (610.202876 187.922577, 680.055719 280.689860)

LINESTRING (680.055719 280.689860, 702.757434 403.821188)

LINESTRING (804.021633 401.818284, 770.886892 549.615919)

LINESTRING (770.886892 549.615919, 682.058134 679.465209)

LINESTRING (682.058134 679.465209, 553.569231 768.620035)

LINESTRING (553.569231 768.620035, 403.046449 804.378543)

LINESTRING (403.046449 804.378543, 244.159813 766.554393)

LINESTRING (244.159813 766.554393, 120.703045 678.194045)

LINESTRING (120.703045 678.194045, 31.745262 551.178342)

LINESTRING (31.745262 551.178342, 0.760654 404.215607)

LINESTRING (0.760654 404.215607, 26.143294 249.333048)

LINESTRING (26.143294 249.333048, 120.380683 114.042309)

LINESTRING (120.380683 114.042309, 246.399316 27.207269)

LINESTRING (246.399316 27.207269, 404.960249 -0.288047)

LINESTRING (404.960249 -0.288047, 552.699829 27.284780)

LINESTRING (552.699829 27.284780, 687.396573 119.243642)

LINESTRING (687.396573 119.243642, 773.315779 246.505593)

LINESTRING (773.315779 246.505593, 804.021633 401.818284)

LINESTRING (899.818998 402.814104, 864.967782 593.185788)

LINESTRING (864.967782 593.185788, 751.111630 749.204172)

LINESTRING (751.111630 749.204172, 594.613873 861.336549)

LINESTRING (594.613873 861.336549, 402.603514 899.083046)

LINESTRING (402.603514 899.083046, 206.959167 866.664872)

LINESTRING (206.959167 866.664872, 42.761358 750.396814)

LINESTRING (42.761358 750.396814, -59.023243 590.907080)

LINESTRING (-59.023243 590.907080, -97.652778 398.204909)

LINESTRING (-97.652778 398.204909, -62.542775 205.737020)

LINESTRING (-62.542775 205.737020, 45.103027 49.323667)

LINESTRING (45.103027 49.323667, 207.713919 -59.885452)

LINESTRING (207.713919 -59.885452, 397.461638 -98.190888)

LINESTRING (397.461638 -98.190888, 591.798945 -63.943335)

LINESTRING (591.798945 -63.943335, 753.570070 42.581923)

LINESTRING (753.570070 42.581923, 863.549549 210.452174)

LINESTRING (863.549549 210.452174, 899.818998 402.814104)

LINESTRING (995.673108 401.417923, 951.260761 633.310965)

LINESTRING (951.260761 633.310965, 823.502451 820.264456)

LINESTRING (823.502451 820.264456, 628.322712 957.038131)

LINESTRING (628.322712 957.038131, 398.047137 1001.033422)

LINESTRING (398.047137 1001.033422, 171.144227 949.527718)

LINESTRING (171.144227 949.527718, -20.959464 819.617107)

LINESTRING (-20.959464 819.617107, -149.452713 631.410185)

LINESTRING (-149.452713 631.410185, -200.747490 399.048936)

LINESTRING (-200.747490 399.048936, -152.997597 174.835466)

LINESTRING (-152.997597 174.835466, -20.764835 -26.746446)

LINESTRING (-20.764835 -26.746446, 174.754252 -156.318314)

LINESTRING (174.754252 -156.318314, 399.595159 -204.033027)

LINESTRING (399.595159 -204.033027, 632.042468 -152.792858)

LINESTRING (632.042468 -152.792858, 827.522305 -22.724406)

LINESTRING (827.522305 -22.724406, 949.399073 170.588449)

LINESTRING (949.399073 170.588449, 995.673108 401.417923)

LINESTRING (1101.643482 400.238498, 1045.436401 669.823756)

LINESTRING (1045.436401 669.823756, 893.522413 893.846189)

LINESTRING (893.522413 893.846189, 664.054236 1043.185379)

LINESTRING (664.054236 1043.185379, 395.518199 1095.924862)

LINESTRING (395.518199 1095.924862, 128.893525 1050.366660)

LINESTRING (128.893525 1050.366660, -94.035316 891.610251)

LINESTRING (-94.035316 891.610251, -241.788826 665.409890)

LINESTRING (-241.788826 665.409890, -298.958326 400.791538)

LINESTRING (-298.958326 400.791538, -250.625024 134.854109)

LINESTRING (-250.625024 134.854109, -99.901721 -90.558291)

LINESTRING (-99.901721 -90.558291, 133.144998 -245.631114)

LINESTRING (133.144998 -245.631114, 400.514654 -301.756038)

LINESTRING (400.514654 -301.756038, 671.513559 -247.347821)

LINESTRING (671.513559 -247.347821, 899.765742 -92.537705)

LINESTRING (899.765742 -92.537705, 1047.139707 136.672960)

LINESTRING (1047.139707 136.672960, 1101.643482 400.238498)

LINESTRING (1197.563853 398.255991, 1140.189422 707.090211)

LINESTRING (1140.189422 707.090211, 964.893495 966.292646)

LINESTRING (964.893495 966.292646, 703.763173 1139.504737)

LINESTRING (703.763173 1139.504737, 401.833918 1200.964177)

LINESTRING (401.833918 1200.964177, 91.223765 1140.610657)

LINESTRING (91.223765 1140.610657, -166.620002 963.108559)

LINESTRING (-166.620002 963.108559, -334.498117 703.659893)

LINESTRING (-334.498117 703.659893, -399.642618 404.707976)

LINESTRING (-399.642618 404.707976, -338.272151 92.209676)

LINESTRING (-338.272151 92.209676, -164.926381 -170.223103)

LINESTRING (-164.926381 -170.223103, 96.440155 -342.597399)

LINESTRING (96.440155 -342.597399, 404.097662 -397.052094)

LINESTRING (404.097662 -397.052094, 707.322708 -341.493092)

LINESTRING (707.322708 -341.493092, 965.262892 -169.550426)

LINESTRING (965.262892 -169.550426, 1136.927052 98.183035)

LINESTRING (1136.927052 98.183035, 1197.563853 398.255991)

LINESTRING (495.832684 400.944609, 601.781157 400.464296)

LINESTRING (601.781157 400.464296, 702.757434 403.821188)

LINESTRING (702.757434 403.821188, 804.021633 401.818284)

LINESTRING (804.021633 401.818284, 899.818998 402.814104)

LINESTRING (899.818998 402.814104, 995.673108 401.417923)

LINESTRING (995.673108 401.417923, 1101.643482 400.238498)

LINESTRING (1101.643482 400.238498, 1197.563853 398.255991)

LINESTRING (488.168550 442.852283, 583.725865 472.878105)

LINESTRING (583.725865 472.878105, 679.555948 510.005186)

LINESTRING (679.555948 510.005186, 770.886892 549.615919)

LINESTRING (770.886892 549.615919, 864.967782 593.185788)

LINESTRING (864.967782 593.185788, 951.260761 633.310965)

LINESTRING (951.260761 633.310965, 1045.436401 669.823756)

LINESTRING (1045.436401 669.823756, 1140.189422 707.090211)

LINESTRING (473.431072 469.775324, 542.919846 536.461742)

LINESTRING (542.919846 536.461742, 615.168526 607.919987)

LINESTRING (615.168526 607.919987, 682.058134 679.465209)

LINESTRING (682.058134 679.465209, 751.111630 749.204172)

LINESTRING (751.111630 749.204172, 823.502451 820.264456)

LINESTRING (823.502451 820.264456, 893.522413 893.846189)

LINESTRING (893.522413 893.846189, 964.893495 966.292646)

LINESTRING (440.654642 491.091274, 480.128620 582.718608)

LINESTRING (480.128620 582.718608, 510.587591 672.778545)

LINESTRING (510.587591 672.778545, 553.569231 768.620035)

LINESTRING (553.569231 768.620035, 594.613873 861.336549)

LINESTRING (594.613873 861.336549, 628.322712 957.038131)

LINESTRING (628.322712 957.038131, 664.054236 1043.185379)

LINESTRING (664.054236 1043.185379, 703.763173 1139.504737)

LINESTRING (395.515835 504.480125, 403.859918 599.763602)

LINESTRING (403.859918 599.763602, 395.206559 699.424802)

LINESTRING (395.206559 699.424802, 403.046449 804.378543)

LINESTRING (403.046449 804.378543, 402.603514 899.083046)

LINESTRING (402.603514 899.083046, 398.047137 1001.033422)

LINESTRING (398.047137 1001.033422, 395.518199 1095.924862)

LINESTRING (395.518199 1095.924862, 401.833918 1200.964177)

LINESTRING (364.706885 489.537045, 327.578262 586.549432)

LINESTRING (327.578262 586.549432, 288.707183 673.210128)

LINESTRING (288.707183 673.210128, 244.159813 766.554393)

LINESTRING (244.159813 766.554393, 206.959167 866.664872)

LINESTRING (206.959167 866.664872, 171.144227 949.527718)

LINESTRING (171.144227 949.527718, 128.893525 1050.366660)

LINESTRING (128.893525 1050.366660, 91.223765 1140.610657)

LINESTRING (326.288359 474.639612, 259.611936 539.745906)

LINESTRING (259.611936 539.745906, 190.425101 616.337757)

LINESTRING (190.425101 616.337757, 120.703045 678.194045)

LINESTRING (120.703045 678.194045, 42.761358 750.396814)

LINESTRING (42.761358 750.396814, -20.959464 819.617107)

LINESTRING (-20.959464 819.617107, -94.035316 891.610251)

LINESTRING (-94.035316 891.610251, -166.620002 963.108559)

LINESTRING (310.711424 436.226119, 213.901879 478.092893)

LINESTRING (213.901879 478.092893, 126.370048 518.432865)

LINESTRING (126.370048 518.432865, 31.745262 551.178342)

LINESTRING (31.745262 551.178342, -59.023243 590.907080)

LINESTRING (-59.023243 590.907080, -149.452713 631.410185)

LINESTRING (-149.452713 631.410185, -241.788826 665.409890)

LINESTRING (-241.788826 665.409890, -334.498117 703.659893)

LINESTRING (298.722533 396.549285, 203.198435 403.834376)

LINESTRING (203.198435 403.834376, 99.329534 396.032180)

LINESTRING (99.329534 396.032180, 0.760654 404.215607)

LINESTRING (0.760654 404.215607, -97.652778 398.204909)

LINESTRING (-97.652778 398.204909, -200.747490 399.048936)

LINESTRING (-200.747490 399.048936, -298.958326 400.791538)

LINESTRING (-298.958326 400.791538, -399.642618 404.707976)

LINESTRING (303.696082 360.002336, 215.291428 320.981420)

LINESTRING (215.291428 320.981420, 120.239695 289.370375)

LINESTRING (120.239695 289.370375, 26.143294 249.333048)

LINESTRING (26.143294 249.333048, -62.542775 205.737020)

LINESTRING (-62.542775 205.737020, -152.997597 174.835466)

LINESTRING (-152.997597 174.835466, -250.625024 134.854109)

LINESTRING (-250.625024 134.854109, -338.272151 92.209676)

LINESTRING (325.154043 327.410164, 261.100845 258.396846)

LINESTRING (261.100845 258.396846, 185.106316 184.302607)

LINESTRING (185.106316 184.302607, 120.380683 114.042309)

LINESTRING (120.380683 114.042309, 45.103027 49.323667)

LINESTRING (45.103027 49.323667, -20.764835 -26.746446)

LINESTRING (-20.764835 -26.746446, -99.901721 -90.558291)

LINESTRING (-99.901721 -90.558291, -164.926381 -170.223103)

LINESTRING (357.080103 302.965006, 324.628544 217.437484)

LINESTRING (324.628544 217.437484, 280.551722 118.349019)

LINESTRING (280.551722 118.349019, 246.399316 27.207269)

LINESTRING (246.399316 27.207269, 207.713919 -59.885452)

LINESTRING (207.713919 -59.885452, 174.754252 -156.318314)

LINESTRING (174.754252 -156.318314, 133.144998 -245.631114)

LINESTRING (133.144998 -245.631114, 96.440155 -342.597399)

LINESTRING (396.638220 301.353555, 395.722012 203.353332)

LINESTRING (395.722012 203.353332, 401.685677 103.613791)

LINESTRING (401.685677 103.613791, 404.960249 -0.288047)

LINESTRING (404.960249 -0.288047, 397.461638 -98.190888)

LINESTRING (397.461638 -98.190888, 399.595159 -204.033027)

LINESTRING (399.595159 -204.033027, 400.514654 -301.756038)

LINESTRING (400.514654 -301.756038, 404.097662 -397.052094)

LINESTRING (442.795524 309.416912, 471.746740 210.418075)

LINESTRING (471.746740 210.418075, 512.271531 118.313770)

LINESTRING (512.271531 118.313770, 552.699829 27.284780)

LINESTRING (552.699829 27.284780, 591.798945 -63.943335)

LINESTRING (591.798945 -63.943335, 632.042468 -152.792858)

LINESTRING (632.042468 -152.792858, 671.513559 -247.347821)

LINESTRING (671.513559 -247.347821, 707.322708 -341.493092)

LINESTRING (475.465958 325.683775, 540.754752 254.137775)

LINESTRING (540.754752 254.137775, 610.202876 187.922577)

LINESTRING (610.202876 187.922577, 687.396573 119.243642)

LINESTRING (687.396573 119.243642, 753.570070 42.581923)

LINESTRING (753.570070 42.581923, 827.522305 -22.724406)

LINESTRING (827.522305 -22.724406, 899.765742 -92.537705)

LINESTRING (899.765742 -92.537705, 965.262892 -169.550426)

LINESTRING (491.731059 356.877676, 585.622984 320.869035)

LINESTRING (585.622984 320.869035, 680.055719 280.689860)

LINESTRING (680.055719 280.689860, 773.315779 246.505593)

LINESTRING (773.315779 246.505593, 863.549549 210.452174)

LINESTRING (863.549549 210.452174, 949.399073 170.588449)

LINESTRING (949.399073 170.588449, 1047.139707 136.672960)

LINESTRING (1047.139707 136.672960, 1136.927052 98.183035)

LINESTRING (400.000000 400.000000, 495.832684 400.944609)

