LINESTRING (80.000000 80.000000, 777.907720 25.918442)

LINESTRING (80.000000 80.000000, 463.849246 50.255143)

LINESTRING (463.849246 50.255143, 777.907720 25.918442)

LINESTRING (80.000000 80.000000, 661.451048 469.762336)

LINESTRING (80.000000 80.000000, 399.798076 294.369285)

LINESTRING (399.798076 294.369285, 661.451048 469.762336)

LINESTRING (80.000000 80.000000, 415.518667 694.351059)

LINESTRING (80.000000 80.000000, 264.535267 417.893083)

LINESTRING (264.535267 417.893083, 415.518667 694.351059)

LINESTRING (80.000000 80.000000, 92.250133 779.892802)

LINESTRING (80.000000 80.000000, 86.737573 464.941041)

LINESTRING (86.737573 464.941041, 92.250133 779.892802)

LINESTRING (80.000000 80.000000, -245.174362 699.888405)

LINESTRING (80.000000 80.000000, -98.845899 420.938623)

LINESTRING (-98.845899 420.938623, -245.174362 699.888405)

LINESTRING (80.000000 80.000000, -544.182092 396.854409)

LINESTRING (80.000000 80.000000, -263.300150 254.269925)

LINESTRING (-263.300150 254.269925, -544.182092 396.854409)

LINESTRING (80.000000 80.000000, -618.931983 41.346631)

LINESTRING (80.000000 80.000000, -304.412591 58.740647)

LINESTRING (-304.412591 58.740647, -618.931983 41.346631)

LINESTRING (80.000000 80.000000, -497.096633 -316.181115)

LINESTRING (80.000000 80.000000, -237.403148 -137.899613)

LINESTRING (-237.403148 -137.899613, -497.096633 -316.181115)

LINESTRING (80.000000 80.000000, -252.229044 -536.136237)

LINESTRING (80.000000 80.000000, -102.725974 -258.874930)

LINESTRING (-102.725974 -258.874930, -252.229044 -536.136237)

LINESTRING (80.000000 80.000000, 37.127794 -618.685891)

LINESTRING (80.000000 80.000000, 56.420287 -304.277240)

LINESTRING (56.420287 -304.277240, 37.127794 -618.685891)

LINESTRING (80.000000 80.000000, 396.746955 -544.236627)

LINESTRING (80.000000 80.000000, 254.210825 -263.330145)

LINESTRING (254.210825 -263.330145, 396.746955 -544.236627)

LINESTRING (80.000000 80.000000, 685.822747 -270.683332)

LINESTRING (80.000000 80.000000, 413.202511 -112.875833)

LINESTRING (413.202511 -112.875833, 685.822747 -270.683332)

LINESTRING (777.907720 25.918442, 661.451048 469.762336)

LINESTRING (661.451048 469.762336, 415.518667 694.351059)

LINESTRING (415.518667 694.351059, 92.250133 779.892802)

LINESTRING (92.250133 779.892802, -245.174362 699.888405)

LINESTRING (-245.174362 699.888405, -544.182092 396.854409)

LINESTRING (-544.182092 396.854409, -618.931983 41.346631)

LINESTRING (-618.931983 41.346631, -497.096633 -316.181115)

LINESTRING (-497.096633 -316.181115, -252.229044 -536.136237)

LINESTRING (-252.229044 -536.136237, 37.127794 -618.685891)

LINESTRING (37.127794 -618.685891, 396.746955 -544.236627)

LINESTRING (396.746955 -544.236627, 685.822747 -270.683332)

LINESTRING (685.822747 -270.683332, 777.907720 25.918442)

LINESTRING (880.000000 80.000000, 1579.681513 58.886473)

LINESTRING (880.000000 80.000000, 1264.824832 68.387560)

LINESTRING (1264.824832 68.387560, 1579.681513 58.886473)

LINESTRING (880.000000 80.000000, 1490.842485 421.864679)

LINESTRING (880.000000 80.000000, 1215.963367 268.025574)

LINESTRING (1215.963367 268.025574, 1490.842485 421.864679)

LINESTRING (880.000000 80.000000, 1244.402695 677.671043)

LINESTRING (880.000000 80.000000, 1080.421482 408.719074)

LINESTRING (1080.421482 408.719074, 1244.402695 677.671043)

LINESTRING (880.000000 80.000000, 838.513056 778.769514)

LINESTRING (880.000000 80.000000, 857.182181 464.323233)

LINESTRING (857.182181 464.323233, 838.513056 778.769514)

LINESTRING (880.000000 80.000000, 538.062030 690.801461)

LINESTRING (880.000000 80.000000, 691.934116 415.940803)

LINESTRING (691.934116 415.940803, 538.062030 690.801461)

LINESTRING (880.000000 80.000000, 281.344589 442.783267)

LINESTRING (880.000000 80.000000, 550.739524 279.530797)

LINESTRING (550.739524 279.530797, 281.344589 442.783267)

LINESTRING (880.000000 80.000000, 180.307446 59.255610)

LINESTRING (880.000000 80.000000, 495.169095 68.590586)

LINESTRING (495.169095 68.590586, 180.307446 59.255610)

LINESTRING (880.000000 80.000000, 267.474429 -258.839822)

LINESTRING (880.000000 80.000000, 543.110936 -106.361902)

LINESTRING (543.110936 -106.361902, 267.474429 -258.839822)

LINESTRING (880.000000 80.000000, 542.717826 -533.384655)

LINESTRING (880.000000 80.000000, 694.494804 -257.361560)

LINESTRING (694.494804 -257.361560, 542.717826 -533.384655)

LINESTRING (880.000000 80.000000, 885.122204 -619.981259)

LINESTRING (880.000000 80.000000, 882.817212 -304.989692)

LINESTRING (882.817212 -304.989692, 885.122204 -619.981259)

LINESTRING (880.000000 80.000000, 1273.065087 -499.223478)

LINESTRING (880.000000 80.000000, 1096.185798 -238.572913)

LINESTRING (1096.185798 -238.572913, 1273.065087 -499.223478)

LINESTRING (880.000000 80.000000, 1503.096665 -238.983614)

LINESTRING (880.000000 80.000000, 1222.703166 -95.440988)

LINESTRING (1222.703166 -95.440988, 1503.096665 -238.983614)

LINESTRING (1579.681513 58.886473, 1490.842485 421.864679)

LINESTRING (1490.842485 421.864679, 1244.402695 677.671043)

LINESTRING (1244.402695 677.671043, 838.513056 778.769514)

LINESTRING (838.513056 778.769514, 538.062030 690.801461)

LINESTRING (538.062030 690.801461, 281.344589 442.783267)

LINESTRING (281.344589 442.783267, 180.307446 59.255610)

LINESTRING (180.307446 59.255610, 267.474429 -258.839822)

LINESTRING (267.474429 -258.839822, 542.717826 -533.384655)

LINESTRING (542.717826 -533.384655, 885.122204 -619.981259)

LINESTRING (885.122204 -619.981259, 1273.065087 -499.223478)

LINESTRING (1273.065087 -499.223478, 1503.096665 -238.983614)

LINESTRING (1503.096665 -238.983614, 1579.681513 58.886473)

LINESTRING (80.000000 80.000000, 880.000000 80.000000)

