LINESTRING (4790.327676 4410.782753, 6317.726971 4290.756918)

LINESTRING (4790.327676 4410.782753, 4245.265519 4684.665021)

LINESTRING (4790.327676 4410.782753, 6315.488547 6025.671149)

LINESTRING (4790.327676 4410.782753, 4380.185576 4139.410889)

LINESTRING (4790.327676 4410.782753, 6435.116703 4355.584517)

LINESTRING (4790.327676 4410.782753, 5878.763711 6099.849083)

LINESTRING (7812.429782 6918.527600, 7250.066846 8482.397881)

LINESTRING (7812.429782 6918.527600, 6143.676974 6796.233077)

LINESTRING (7812.429782 6918.527600, 6315.488547 6025.671149)

LINESTRING (7812.429782 6918.527600, 7822.115809 6455.906715)

LINESTRING (7812.429782 6918.527600, 9028.044118 7275.860180)

LINESTRING (7812.429782 6918.527600, 5878.763711 6099.849083)

LINESTRING (2609.517260 9314.937048, 313.315693 9146.156713)

LINESTRING (2609.517260 9314.937048, 2893.846104 9446.529401)

LINESTRING (2609.517260 9314.937048, 691.969025 9280.994751)

LINESTRING (2609.517260 9314.937048, 4801.824356 8386.199887)

LINESTRING (2609.517260 9314.937048, 1015.932048 8844.578527)

LINESTRING (7402.112547 3708.414327, 6317.726971 4290.756918)

LINESTRING (7402.112547 3708.414327, 7955.069575 5616.699758)

LINESTRING (7402.112547 3708.414327, 7039.186479 1823.372625)

LINESTRING (7402.112547 3708.414327, 5997.014013 4805.597927)

LINESTRING (7402.112547 3708.414327, 6062.419525 4900.435494)

LINESTRING (7402.112547 3708.414327, 7915.482384 4253.099680)

LINESTRING (6317.726971 4290.756918, 4234.016604 3401.964356)

LINESTRING (6317.726971 4290.756918, 4245.265519 4684.665021)

LINESTRING (6317.726971 4290.756918, 6131.051588 5238.874091)

LINESTRING (6317.726971 4290.756918, 6435.116703 4355.584517)

LINESTRING (6317.726971 4290.756918, 6045.210757 3560.469891)

LINESTRING (6317.726971 4290.756918, 7955.069575 5616.699758)

LINESTRING (6317.726971 4290.756918, 5997.014013 4805.597927)

LINESTRING (6317.726971 4290.756918, 6062.419525 4900.435494)

LINESTRING (6317.726971 4290.756918, 5878.763711 6099.849083)

LINESTRING (6317.726971 4290.756918, 7915.482384 4253.099680)

LINESTRING (4026.348300 7709.365671, 3698.602856 6592.133530)

LINESTRING (4026.348300 7709.365671, 4838.720150 5910.830814)

LINESTRING (4026.348300 7709.365671, 4116.893201 8328.166413)

LINESTRING (4026.348300 7709.365671, 3748.838956 9264.960299)

LINESTRING (4026.348300 7709.365671, 2893.846104 9446.529401)

LINESTRING (4026.348300 7709.365671, 4461.659558 6526.443010)

LINESTRING (4234.016604 3401.964356, 4380.185576 4139.410889)

LINESTRING (4234.016604 3401.964356, 3425.388554 2109.030096)

LINESTRING (4234.016604 3401.964356, 4294.082165 2961.657096)

LINESTRING (4234.016604 3401.964356, 6045.210757 3560.469891)

LINESTRING (4234.016604 3401.964356, 5997.014013 4805.597927)

LINESTRING (7250.066846 8482.397881, 6067.720710 9154.588959)

LINESTRING (7250.066846 8482.397881, 6143.676974 6796.233077)

LINESTRING (7250.066846 8482.397881, 7822.115809 6455.906715)

LINESTRING (7250.066846 8482.397881, 6635.049656 8915.475636)

LINESTRING (6067.720710 9154.588959, 6143.676974 6796.233077)

LINESTRING (6067.720710 9154.588959, 4116.893201 8328.166413)

LINESTRING (6067.720710 9154.588959, 6635.049656 8915.475636)

LINESTRING (6067.720710 9154.588959, 4895.988399 7449.313309)

LINESTRING (6067.720710 9154.588959, 4801.824356 8386.199887)

LINESTRING (3698.602856 6592.133530, 4461.659558 6526.443010)

LINESTRING (4245.265519 4684.665021, 3711.672143 4544.513053)

LINESTRING (4245.265519 4684.665021, 4380.185576 4139.410889)

LINESTRING (4245.265519 4684.665021, 6435.116703 4355.584517)

LINESTRING (4245.265519 4684.665021, 4461.659558 6526.443010)

LINESTRING (4245.265519 4684.665021, 6062.419525 4900.435494)

LINESTRING (4906.682148 6086.869492, 3711.672143 4544.513053)

LINESTRING (4906.682148 6086.869492, 4838.720150 5910.830814)

LINESTRING (4906.682148 6086.869492, 4461.659558 6526.443010)

LINESTRING (4906.682148 6086.869492, 5997.014013 4805.597927)

LINESTRING (4906.682148 6086.869492, 4801.824356 8386.199887)

LINESTRING (4906.682148 6086.869492, 5878.763711 6099.849083)

LINESTRING (6131.051588 5238.874091, 7822.115809 6455.906715)

LINESTRING (6131.051588 5238.874091, 4380.185576 4139.410889)

LINESTRING (6131.051588 5238.874091, 6435.116703 4355.584517)

LINESTRING (6131.051588 5238.874091, 6045.210757 3560.469891)

LINESTRING (6131.051588 5238.874091, 4461.659558 6526.443010)

LINESTRING (6131.051588 5238.874091, 5997.014013 4805.597927)

LINESTRING (6131.051588 5238.874091, 6062.419525 4900.435494)

LINESTRING (7786.379556 1615.171631, 7039.186479 1823.372625)

LINESTRING (7786.379556 1615.171631, 9259.329712 1066.148419)

LINESTRING (224.484022 8038.491638, 313.315693 9146.156713)

LINESTRING (4378.568156 1198.813555, 2800.852843 367.133619)

LINESTRING (4378.568156 1198.813555, 5049.669699 2227.653261)

LINESTRING (4378.568156 1198.813555, 4856.689016 953.775701)

LINESTRING (6143.676974 6796.233077, 6315.488547 6025.671149)

LINESTRING (6143.676974 6796.233077, 5313.002793 8301.585981)

LINESTRING (6143.676974 6796.233077, 5997.014013 4805.597927)

LINESTRING (6143.676974 6796.233077, 4801.824356 8386.199887)

LINESTRING (6143.676974 6796.233077, 5878.763711 6099.849083)

LINESTRING (2800.852843 367.133619, 3425.388554 2109.030096)

LINESTRING (2800.852843 367.133619, 2316.608763 935.886885)

LINESTRING (2800.852843 367.133619, 4856.689016 953.775701)

LINESTRING (771.334026 2391.864513, 1827.363155 1813.689133)

LINESTRING (771.334026 2391.864513, 931.952397 1765.238375)

LINESTRING (1966.063441 126.108109, 1827.363155 1813.689133)

LINESTRING (1966.063441 126.108109, 931.952397 1765.238375)

LINESTRING (1966.063441 126.108109, 2316.608763 935.886885)

LINESTRING (6315.488547 6025.671149, 7955.069575 5616.699758)

LINESTRING (6315.488547 6025.671149, 5997.014013 4805.597927)

LINESTRING (6315.488547 6025.671149, 6062.419525 4900.435494)

LINESTRING (6315.488547 6025.671149, 5878.763711 6099.849083)

LINESTRING (3711.672143 4544.513053, 4380.185576 4139.410889)

LINESTRING (3711.672143 4544.513053, 4294.082165 2961.657096)

LINESTRING (3711.672143 4544.513053, 4461.659558 6526.443010)

LINESTRING (4838.720150 5910.830814, 4895.988399 7449.313309)

LINESTRING (4838.720150 5910.830814, 4461.659558 6526.443010)

LINESTRING (4838.720150 5910.830814, 5878.763711 6099.849083)

LINESTRING (4116.893201 8328.166413, 3748.838956 9264.960299)

LINESTRING (4116.893201 8328.166413, 2893.846104 9446.529401)

LINESTRING (4116.893201 8328.166413, 5313.002793 8301.585981)

LINESTRING (4116.893201 8328.166413, 4461.659558 6526.443010)

LINESTRING (4116.893201 8328.166413, 4801.824356 8386.199887)

LINESTRING (7822.115809 6455.906715, 9028.044118 7275.860180)

LINESTRING (7822.115809 6455.906715, 7955.069575 5616.699758)

LINESTRING (4380.185576 4139.410889, 6435.116703 4355.584517)

LINESTRING (4380.185576 4139.410889, 4461.659558 6526.443010)

LINESTRING (4380.185576 4139.410889, 5997.014013 4805.597927)

LINESTRING (3425.388554 2109.030096, 5049.669699 2227.653261)

LINESTRING (313.315693 9146.156713, 691.969025 9280.994751)

LINESTRING (313.315693 9146.156713, 1015.932048 8844.578527)

LINESTRING (4294.082165 2961.657096, 6045.210757 3560.469891)

LINESTRING (4294.082165 2961.657096, 4856.689016 953.775701)

LINESTRING (9113.250317 775.027182, 7039.186479 1823.372625)

LINESTRING (9113.250317 775.027182, 9259.329712 1066.148419)

LINESTRING (9113.250317 775.027182, 8869.818712 658.595793)

LINESTRING (6635.049656 8915.475636, 4895.988399 7449.313309)

LINESTRING (6635.049656 8915.475636, 5313.002793 8301.585981)

LINESTRING (6435.116703 4355.584517, 5997.014013 4805.597927)

LINESTRING (6435.116703 4355.584517, 6062.419525 4900.435494)

LINESTRING (6435.116703 4355.584517, 5878.763711 6099.849083)

LINESTRING (7955.069575 5616.699758, 5997.014013 4805.597927)

LINESTRING (7955.069575 5616.699758, 6062.419525 4900.435494)

LINESTRING (7955.069575 5616.699758, 5878.763711 6099.849083)

LINESTRING (7955.069575 5616.699758, 7915.482384 4253.099680)

LINESTRING (931.952397 1765.238375, 2316.608763 935.886885)

LINESTRING (4895.988399 7449.313309, 4461.659558 6526.443010)

LINESTRING (4895.988399 7449.313309, 4801.824356 8386.199887)

LINESTRING (4895.988399 7449.313309, 5878.763711 6099.849083)

LINESTRING (2893.846104 9446.529401, 4801.824356 8386.199887)

LINESTRING (7039.186479 1823.372625, 9259.329712 1066.148419)

LINESTRING (7039.186479 1823.372625, 4856.689016 953.775701)

LINESTRING (7039.186479 1823.372625, 8869.818712 658.595793)

LINESTRING (5313.002793 8301.585981, 4801.824356 8386.199887)

LINESTRING (7418.467438 339.643963, 8636.491045 2237.039914)

LINESTRING (7418.467438 339.643963, 9259.329712 1066.148419)

LINESTRING (7418.467438 339.643963, 8869.818712 658.595793)

LINESTRING (4461.659558 6526.443010, 5997.014013 4805.597927)

LINESTRING (5049.669699 2227.653261, 4856.689016 953.775701)

LINESTRING (8636.491045 2237.039914, 9259.329712 1066.148419)

LINESTRING (9259.329712 1066.148419, 8869.818712 658.595793)

LINESTRING (5997.014013 4805.597927, 6062.419525 4900.435494)

LINESTRING (5997.014013 4805.597927, 5878.763711 6099.849083)

LINESTRING (5997.014013 4805.597927, 7915.482384 4253.099680)

LINESTRING (691.969025 9280.994751, 1015.932048 8844.578527)

LINESTRING (6062.419525 4900.435494, 5878.763711 6099.849083)

LINESTRING (6062.419525 4900.435494, 7915.482384 4253.099680)

