LINESTRING (60.000000 60.000000, 70.513008 73.740892)

LINESTRING (60.000000 60.000000, 63.441536 68.820896)

LINESTRING (60.000000 60.000000, 26.082030 71.317022)

LINESTRING (60.000000 60.000000, 86.308583 82.720144)

LINESTRING (60.000000 60.000000, 44.643411 57.262363)

LINESTRING (60.000000 60.000000, 60.068774 79.442988)

LINESTRING (60.000000 60.000000, 80.058982 81.635029)

LINESTRING (60.000000 60.000000, 37.127523 30.264649)

LINESTRING (70.513008 73.740892, 63.441536 68.820896)

LINESTRING (70.513008 73.740892, 86.308583 82.720144)

LINESTRING (70.513008 73.740892, 44.643411 57.262363)

LINESTRING (70.513008 73.740892, 60.068774 79.442988)

LINESTRING (63.441536 68.820896, 26.082030 71.317022)

LINESTRING (63.441536 68.820896, 44.643411 57.262363)

LINESTRING (63.441536 68.820896, 80.058982 81.635029)

LINESTRING (63.441536 68.820896, 37.127523 30.264649)

LINESTRING (26.082030 71.317022, 86.308583 82.720144)

LINESTRING (26.082030 71.317022, 44.643411 57.262363)

LINESTRING (26.082030 71.317022, 80.058982 81.635029)

LINESTRING (86.308583 82.720144, 44.643411 57.262363)

LINESTRING (86.308583 82.720144, 60.068774 79.442988)

LINESTRING (86.308583 82.720144, 80.058982 81.635029)

LINESTRING (86.308583 82.720144, 37.127523 30.264649)

LINESTRING (44.643411 57.262363, 60.068774 79.442988)

LINESTRING (44.643411 57.262363, 80.058982 81.635029)

LINESTRING (44.643411 57.262363, 37.127523 30.264649)

LINESTRING (80.058982 81.635029, 37.127523 30.264649)

LINESTRING (360.000000 60.000000, 333.968582 30.738942)

LINESTRING (360.000000 60.000000, 392.225821 34.776603)

LINESTRING (360.000000 60.000000, 380.928458 54.693188)

LINESTRING (360.000000 60.000000, 395.810742 91.474435)

LINESTRING (360.000000 60.000000, 357.180313 42.817227)

LINESTRING (360.000000 60.000000, 382.652841 73.800639)

LINESTRING (360.000000 60.000000, 336.020449 25.551694)

LINESTRING (360.000000 60.000000, 346.836839 91.642282)

LINESTRING (333.968582 30.738942, 392.225821 34.776603)

LINESTRING (333.968582 30.738942, 380.928458 54.693188)

LINESTRING (333.968582 30.738942, 395.810742 91.474435)

LINESTRING (333.968582 30.738942, 382.652841 73.800639)

LINESTRING (333.968582 30.738942, 336.020449 25.551694)

LINESTRING (333.968582 30.738942, 346.836839 91.642282)

LINESTRING (392.225821 34.776603, 395.810742 91.474435)

LINESTRING (392.225821 34.776603, 357.180313 42.817227)

LINESTRING (392.225821 34.776603, 382.652841 73.800639)

LINESTRING (392.225821 34.776603, 336.020449 25.551694)

LINESTRING (392.225821 34.776603, 346.836839 91.642282)

LINESTRING (380.928458 54.693188, 395.810742 91.474435)

LINESTRING (380.928458 54.693188, 382.652841 73.800639)

LINESTRING (380.928458 54.693188, 336.020449 25.551694)

LINESTRING (380.928458 54.693188, 346.836839 91.642282)

LINESTRING (395.810742 91.474435, 357.180313 42.817227)

LINESTRING (395.810742 91.474435, 382.652841 73.800639)

LINESTRING (395.810742 91.474435, 346.836839 91.642282)

LINESTRING (357.180313 42.817227, 382.652841 73.800639)

LINESTRING (357.180313 42.817227, 336.020449 25.551694)

LINESTRING (357.180313 42.817227, 346.836839 91.642282)

LINESTRING (382.652841 73.800639, 336.020449 25.551694)

LINESTRING (382.652841 73.800639, 346.836839 91.642282)

LINESTRING (336.020449 25.551694, 346.836839 91.642282)

LINESTRING (660.000000 60.000000, 655.823644 37.265049)

LINESTRING (660.000000 60.000000, 645.705228 34.490564)

LINESTRING (660.000000 60.000000, 656.043837 87.284869)

LINESTRING (660.000000 60.000000, 645.631958 93.148724)

LINESTRING (660.000000 60.000000, 680.045599 45.562064)

LINESTRING (660.000000 60.000000, 627.802272 62.666730)

LINESTRING (660.000000 60.000000, 640.006014 50.563703)

LINESTRING (660.000000 60.000000, 650.835582 68.330131)

LINESTRING (655.823644 37.265049, 645.705228 34.490564)

LINESTRING (655.823644 37.265049, 680.045599 45.562064)

LINESTRING (655.823644 37.265049, 627.802272 62.666730)

LINESTRING (655.823644 37.265049, 640.006014 50.563703)

LINESTRING (645.705228 34.490564, 656.043837 87.284869)

LINESTRING (645.705228 34.490564, 645.631958 93.148724)

LINESTRING (645.705228 34.490564, 680.045599 45.562064)

LINESTRING (645.705228 34.490564, 627.802272 62.666730)

LINESTRING (645.705228 34.490564, 640.006014 50.563703)

LINESTRING (645.705228 34.490564, 650.835582 68.330131)

LINESTRING (656.043837 87.284869, 645.631958 93.148724)

LINESTRING (656.043837 87.284869, 680.045599 45.562064)

LINESTRING (656.043837 87.284869, 627.802272 62.666730)

LINESTRING (656.043837 87.284869, 650.835582 68.330131)

LINESTRING (645.631958 93.148724, 680.045599 45.562064)

LINESTRING (645.631958 93.148724, 627.802272 62.666730)

LINESTRING (645.631958 93.148724, 640.006014 50.563703)

LINESTRING (645.631958 93.148724, 650.835582 68.330131)

LINESTRING (680.045599 45.562064, 640.006014 50.563703)

LINESTRING (680.045599 45.562064, 650.835582 68.330131)

LINESTRING (640.006014 50.563703, 650.835582 68.330131)

LINESTRING (60.000000 360.000000, 63.706406 367.045739)

LINESTRING (60.000000 360.000000, 25.209540 352.275528)

LINESTRING (60.000000 360.000000, 63.126205 324.427694)

LINESTRING (60.000000 360.000000, 95.798039 331.549140)

LINESTRING (60.000000 360.000000, 62.520566 330.693379)

LINESTRING (60.000000 360.000000, 41.175879 346.451079)

LINESTRING (60.000000 360.000000, 62.145652 330.332331)

LINESTRING (60.000000 360.000000, 51.643330 329.211529)

LINESTRING (63.706406 367.045739, 25.209540 352.275528)

LINESTRING (63.706406 367.045739, 63.126205 324.427694)

LINESTRING (63.706406 367.045739, 95.798039 331.549140)

LINESTRING (63.706406 367.045739, 41.175879 346.451079)

LINESTRING (63.706406 367.045739, 62.145652 330.332331)

LINESTRING (63.706406 367.045739, 51.643330 329.211529)

LINESTRING (25.209540 352.275528, 63.126205 324.427694)

LINESTRING (25.209540 352.275528, 95.798039 331.549140)

LINESTRING (25.209540 352.275528, 51.643330 329.211529)

LINESTRING (63.126205 324.427694, 95.798039 331.549140)

LINESTRING (63.126205 324.427694, 62.520566 330.693379)

LINESTRING (63.126205 324.427694, 62.145652 330.332331)

LINESTRING (63.126205 324.427694, 51.643330 329.211529)

LINESTRING (95.798039 331.549140, 62.520566 330.693379)

LINESTRING (95.798039 331.549140, 41.175879 346.451079)

LINESTRING (95.798039 331.549140, 62.145652 330.332331)

LINESTRING (95.798039 331.549140, 51.643330 329.211529)

LINESTRING (62.520566 330.693379, 41.175879 346.451079)

LINESTRING (62.520566 330.693379, 62.145652 330.332331)

LINESTRING (62.520566 330.693379, 51.643330 329.211529)

LINESTRING (62.145652 330.332331, 51.643330 329.211529)

LINESTRING (360.000000 360.000000, 391.663546 362.661810)

LINESTRING (360.000000 360.000000, 354.020502 393.904150)

LINESTRING (360.000000 360.000000, 366.042763 336.630964)

LINESTRING (360.000000 360.000000, 338.959640 363.938649)

LINESTRING (360.000000 360.000000, 368.620682 389.609905)

LINESTRING (360.000000 360.000000, 369.572335 346.830654)

LINESTRING (360.000000 360.000000, 352.977462 370.203538)

LINESTRING (360.000000 360.000000, 366.406477 387.120389)

LINESTRING (391.663546 362.661810, 354.020502 393.904150)

LINESTRING (391.663546 362.661810, 366.042763 336.630964)

LINESTRING (391.663546 362.661810, 338.959640 363.938649)

LINESTRING (391.663546 362.661810, 368.620682 389.609905)

LINESTRING (391.663546 362.661810, 352.977462 370.203538)

LINESTRING (354.020502 393.904150, 366.042763 336.630964)

LINESTRING (354.020502 393.904150, 368.620682 389.609905)

LINESTRING (354.020502 393.904150, 369.572335 346.830654)

LINESTRING (354.020502 393.904150, 352.977462 370.203538)

LINESTRING (366.042763 336.630964, 368.620682 389.609905)

LINESTRING (366.042763 336.630964, 369.572335 346.830654)

LINESTRING (338.959640 363.938649, 368.620682 389.609905)

LINESTRING (338.959640 363.938649, 369.572335 346.830654)

LINESTRING (338.959640 363.938649, 366.406477 387.120389)

LINESTRING (368.620682 389.609905, 369.572335 346.830654)

LINESTRING (369.572335 346.830654, 352.977462 370.203538)

LINESTRING (352.977462 370.203538, 366.406477 387.120389)

LINESTRING (660.000000 360.000000, 633.855288 360.004144)

LINESTRING (660.000000 360.000000, 626.176502 351.666058)

LINESTRING (660.000000 360.000000, 635.840112 363.061722)

LINESTRING (660.000000 360.000000, 656.655164 381.150334)

LINESTRING (660.000000 360.000000, 653.644329 381.534453)

LINESTRING (660.000000 360.000000, 661.679213 395.573791)

LINESTRING (660.000000 360.000000, 693.539593 332.091553)

LINESTRING (660.000000 360.000000, 639.622277 375.603341)

LINESTRING (633.855288 360.004144, 626.176502 351.666058)

LINESTRING (633.855288 360.004144, 635.840112 363.061722)

LINESTRING (633.855288 360.004144, 653.644329 381.534453)

LINESTRING (633.855288 360.004144, 661.679213 395.573791)

LINESTRING (633.855288 360.004144, 693.539593 332.091553)

LINESTRING (633.855288 360.004144, 639.622277 375.603341)

LINESTRING (626.176502 351.666058, 635.840112 363.061722)

LINESTRING (626.176502 351.666058, 656.655164 381.150334)

LINESTRING (626.176502 351.666058, 653.644329 381.534453)

LINESTRING (626.176502 351.666058, 661.679213 395.573791)

LINESTRING (626.176502 351.666058, 639.622277 375.603341)

LINESTRING (635.840112 363.061722, 656.655164 381.150334)

LINESTRING (656.655164 381.150334, 653.644329 381.534453)

LINESTRING (656.655164 381.150334, 661.679213 395.573791)

LINESTRING (653.644329 381.534453, 661.679213 395.573791)

LINESTRING (653.644329 381.534453, 693.539593 332.091553)

LINESTRING (60.000000 660.000000, 34.141315 679.522844)

LINESTRING (60.000000 660.000000, 42.020262 640.669342)

LINESTRING (60.000000 660.000000, 66.780251 664.929171)

LINESTRING (60.000000 660.000000, 40.493070 649.758634)

LINESTRING (60.000000 660.000000, 67.830300 652.311614)

LINESTRING (60.000000 660.000000, 45.310277 677.579068)

LINESTRING (60.000000 660.000000, 88.393204 669.026015)

LINESTRING (60.000000 660.000000, 55.346357 641.775725)

LINESTRING (34.141315 679.522844, 42.020262 640.669342)

LINESTRING (34.141315 679.522844, 66.780251 664.929171)

LINESTRING (34.141315 679.522844, 40.493070 649.758634)

LINESTRING (34.141315 679.522844, 67.830300 652.311614)

LINESTRING (34.141315 679.522844, 88.393204 669.026015)

LINESTRING (34.141315 679.522844, 55.346357 641.775725)

LINESTRING (42.020262 640.669342, 66.780251 664.929171)

LINESTRING (42.020262 640.669342, 40.493070 649.758634)

LINESTRING (42.020262 640.669342, 67.830300 652.311614)

LINESTRING (42.020262 640.669342, 88.393204 669.026015)

LINESTRING (42.020262 640.669342, 55.346357 641.775725)

LINESTRING (66.780251 664.929171, 40.493070 649.758634)

LINESTRING (66.780251 664.929171, 55.346357 641.775725)

LINESTRING (40.493070 649.758634, 67.830300 652.311614)

LINESTRING (40.493070 649.758634, 88.393204 669.026015)

LINESTRING (40.493070 649.758634, 55.346357 641.775725)

LINESTRING (67.830300 652.311614, 45.310277 677.579068)

LINESTRING (67.830300 652.311614, 55.346357 641.775725)

LINESTRING (45.310277 677.579068, 88.393204 669.026015)

LINESTRING (88.393204 669.026015, 55.346357 641.775725)

LINESTRING (44.643411 57.262363, 382.652841 73.800639)

LINESTRING (70.513008 73.740892, 346.836839 91.642282)

LINESTRING (60.000000 60.000000, 360.000000 60.000000)

LINESTRING (395.810742 91.474435, 645.631958 93.148724)

LINESTRING (357.180313 42.817227, 645.631958 93.148724)

LINESTRING (360.000000 60.000000, 660.000000 60.000000)

LINESTRING (645.705228 34.490564, 63.706406 367.045739)

LINESTRING (645.705228 34.490564, 25.209540 352.275528)

LINESTRING (660.000000 60.000000, 60.000000 360.000000)

LINESTRING (25.209540 352.275528, 366.406477 387.120389)

LINESTRING (62.145652 330.332331, 391.663546 362.661810)

LINESTRING (60.000000 360.000000, 360.000000 360.000000)

LINESTRING (369.572335 346.830654, 635.840112 363.061722)

LINESTRING (369.572335 346.830654, 661.679213 395.573791)

LINESTRING (360.000000 360.000000, 660.000000 360.000000)

LINESTRING (639.622277 375.603341, 67.830300 652.311614)

LINESTRING (639.622277 375.603341, 66.780251 664.929171)

LINESTRING (660.000000 360.000000, 60.000000 660.000000)

