LINESTRING (80.000000 80.000000, 379.999993 80.065692)

LINESTRING (80.000000 80.000000, 244.999996 80.036131)

LINESTRING (244.999996 80.036131, 379.999993 80.065692)

LINESTRING (80.000000 80.000000, 322.117602 257.141376)

LINESTRING (80.000000 80.000000, 213.164681 177.427757)

LINESTRING (213.164681 177.427757, 322.117602 257.141376)

LINESTRING (80.000000 80.000000, 188.187295 359.813347)

LINESTRING (80.000000 80.000000, 139.503012 233.897341)

LINESTRING (139.503012 233.897341, 188.187295 359.813347)

LINESTRING (80.000000 80.000000, -22.773737 361.846694)

LINESTRING (80.000000 80.000000, 23.474444 235.015682)

LINESTRING (23.474444 235.015682, -22.773737 361.846694)

LINESTRING (80.000000 80.000000, -163.727934 254.919108)

LINESTRING (80.000000 80.000000, -54.050364 176.205509)

LINESTRING (-54.050364 176.205509, -163.727934 254.919108)

LINESTRING (80.000000 80.000000, -219.223744 58.432643)

LINESTRING (80.000000 80.000000, -84.573059 68.137954)

LINESTRING (-84.573059 68.137954, -219.223744 58.432643)

LINESTRING (80.000000 80.000000, -161.083844 -98.545737)

LINESTRING (80.000000 80.000000, -52.596114 -18.200155)

LINESTRING (-52.596114 -18.200155, -161.083844 -98.545737)

LINESTRING (80.000000 80.000000, -28.069301 -199.858940)

LINESTRING (80.000000 80.000000, 20.561885 -73.922417)

LINESTRING (20.561885 -73.922417, -28.069301 -199.858940)

LINESTRING (80.000000 80.000000, 169.994504 -206.183489)

LINESTRING (80.000000 80.000000, 129.496977 -77.400919)

LINESTRING (129.496977 -77.400919, 169.994504 -206.183489)

LINESTRING (80.000000 80.000000, 312.369839 -109.747879)

LINESTRING (80.000000 80.000000, 207.803412 -24.361334)

LINESTRING (207.803412 -24.361334, 312.369839 -109.747879)

LINESTRING (379.999993 80.065692, 322.117602 257.141376)

LINESTRING (322.117602 257.141376, 188.187295 359.813347)

LINESTRING (188.187295 359.813347, -22.773737 361.846694)

LINESTRING (-22.773737 361.846694, -163.727934 254.919108)

LINESTRING (-163.727934 254.919108, -219.223744 58.432643)

LINESTRING (-219.223744 58.432643, -161.083844 -98.545737)

LINESTRING (-161.083844 -98.545737, -28.069301 -199.858940)

LINESTRING (-28.069301 -199.858940, 169.994504 -206.183489)

LINESTRING (169.994504 -206.183489, 312.369839 -109.747879)

LINESTRING (312.369839 -109.747879, 379.999993 80.065692)

LINESTRING (880.000000 80.000000, 1179.475385 97.733966)

LINESTRING (880.000000 80.000000, 1044.711462 89.753681)

LINESTRING (1044.711462 89.753681, 1179.475385 97.733966)

LINESTRING (880.000000 80.000000, 1118.644034 261.793908)

LINESTRING (880.000000 80.000000, 1011.254219 179.986649)

LINESTRING (1011.254219 179.986649, 1118.644034 261.793908)

LINESTRING (880.000000 80.000000, 970.643614 365.978557)

LINESTRING (880.000000 80.000000, 929.853987 237.288207)

LINESTRING (929.853987 237.288207, 970.643614 365.978557)

LINESTRING (880.000000 80.000000, 795.205881 367.767193)

LINESTRING (880.000000 80.000000, 833.363235 238.271956)

LINESTRING (833.363235 238.271956, 795.205881 367.767193)

LINESTRING (880.000000 80.000000, 636.564956 255.326494)

LINESTRING (880.000000 80.000000, 746.110726 176.429571)

LINESTRING (746.110726 176.429571, 636.564956 255.326494)

LINESTRING (880.000000 80.000000, 580.017603 76.750140)

LINESTRING (880.000000 80.000000, 715.009682 78.212577)

LINESTRING (715.009682 78.212577, 580.017603 76.750140)

LINESTRING (880.000000 80.000000, 646.476262 -108.325951)

LINESTRING (880.000000 80.000000, 751.561944 -23.579273)

LINESTRING (751.561944 -23.579273, 646.476262 -108.325951)

LINESTRING (880.000000 80.000000, 770.074404 -199.135027)

LINESTRING (880.000000 80.000000, 819.540922 -73.524265)

LINESTRING (819.540922 -73.524265, 770.074404 -199.135027)

LINESTRING (880.000000 80.000000, 982.049386 -202.109771)

LINESTRING (880.000000 80.000000, 936.127162 -75.160374)

LINESTRING (936.127162 -75.160374, 982.049386 -202.109771)

LINESTRING (880.000000 80.000000, 1128.807076 -87.615748)

LINESTRING (880.000000 80.000000, 1016.843892 -12.188661)

LINESTRING (1016.843892 -12.188661, 1128.807076 -87.615748)

LINESTRING (1179.475385 97.733966, 1118.644034 261.793908)

LINESTRING (1118.644034 261.793908, 970.643614 365.978557)

LINESTRING (970.643614 365.978557, 795.205881 367.767193)

LINESTRING (795.205881 367.767193, 636.564956 255.326494)

LINESTRING (636.564956 255.326494, 580.017603 76.750140)

LINESTRING (580.017603 76.750140, 646.476262 -108.325951)

LINESTRING (646.476262 -108.325951, 770.074404 -199.135027)

LINESTRING (770.074404 -199.135027, 982.049386 -202.109771)

LINESTRING (982.049386 -202.109771, 1128.807076 -87.615748)

LINESTRING (1128.807076 -87.615748, 1179.475385 97.733966)

LINESTRING (1680.000000 80.000000, 1979.991887 77.793759)

LINESTRING (1680.000000 80.000000, 1844.995538 78.786568)

LINESTRING (1844.995538 78.786568, 1979.991887 77.793759)

LINESTRING (1680.000000 80.000000, 1908.864035 273.961990)

LINESTRING (1680.000000 80.000000, 1805.875219 186.679094)

LINESTRING (1805.875219 186.679094, 1908.864035 273.961990)

LINESTRING (1680.000000 80.000000, 1793.149261 357.843921)

LINESTRING (1680.000000 80.000000, 1742.232094 232.814157)

LINESTRING (1742.232094 232.814157, 1793.149261 357.843921)

LINESTRING (1680.000000 80.000000, 1590.238245 366.256576)

LINESTRING (1680.000000 80.000000, 1630.631035 237.441117)

LINESTRING (1630.631035 237.441117, 1590.238245 366.256576)

LINESTRING (1680.000000 80.000000, 1443.601491 264.704481)

LINESTRING (1680.000000 80.000000, 1549.980820 181.587464)

LINESTRING (1549.980820 181.587464, 1443.601491 264.704481)

LINESTRING (1680.000000 80.000000, 1380.149748 89.477681)

LINESTRING (1680.000000 80.000000, 1515.082361 85.212724)

LINESTRING (1515.082361 85.212724, 1380.149748 89.477681)

LINESTRING (1680.000000 80.000000, 1425.090114 -78.180119)

LINESTRING (1680.000000 80.000000, 1539.799563 -6.999066)

LINESTRING (1539.799563 -6.999066, 1425.090114 -78.180119)

LINESTRING (1680.000000 80.000000, 1591.308519 -206.589988)

LINESTRING (1680.000000 80.000000, 1631.219686 -77.624493)

LINESTRING (1631.219686 -77.624493, 1591.308519 -206.589988)

LINESTRING (1680.000000 80.000000, 1775.389855 -204.430616)

LINESTRING (1680.000000 80.000000, 1732.464420 -76.436839)

LINESTRING (1732.464420 -76.436839, 1775.389855 -204.430616)

LINESTRING (1680.000000 80.000000, 1910.597733 -111.897591)

LINESTRING (1680.000000 80.000000, 1806.828753 -25.543675)

LINESTRING (1806.828753 -25.543675, 1910.597733 -111.897591)

LINESTRING (1979.991887 77.793759, 1908.864035 273.961990)

LINESTRING (1908.864035 273.961990, 1793.149261 357.843921)

LINESTRING (1793.149261 357.843921, 1590.238245 366.256576)

LINESTRING (1590.238245 366.256576, 1443.601491 264.704481)

LINESTRING (1443.601491 264.704481, 1380.149748 89.477681)

LINESTRING (1380.149748 89.477681, 1425.090114 -78.180119)

LINESTRING (1425.090114 -78.180119, 1591.308519 -206.589988)

LINESTRING (1591.308519 -206.589988, 1775.389855 -204.430616)

LINESTRING (1775.389855 -204.430616, 1910.597733 -111.897591)

LINESTRING (1910.597733 -111.897591, 1979.991887 77.793759)

LINESTRING (80.000000 80.000000, 880.000000 80.000000)

LINESTRING (880.000000 80.000000, 1680.000000 80.000000)

