LINESTRING (80.000000 80.000000, 779.775429 62.270101)

LINESTRING (80.000000 80.000000, 464.876486 70.248555)

LINESTRING (464.876486 70.248555, 779.775429 62.270101)

LINESTRING (80.000000 80.000000, 645.840670 492.097484)

LINESTRING (80.000000 80.000000, 391.212368 306.653616)

LINESTRING (391.212368 306.653616, 645.840670 492.097484)

LINESTRING (80.000000 80.000000, 298.743356 744.944617)

LINESTRING (80.000000 80.000000, 200.308846 445.719540)

LINESTRING (200.308846 445.719540, 298.743356 744.944617)

LINESTRING (80.000000 80.000000, -87.715747 759.611233)

LINESTRING (80.000000 80.000000, -12.243661 453.786178)

LINESTRING (-12.243661 453.786178, -87.715747 759.611233)

LINESTRING (80.000000 80.000000, -493.408074 481.501159)

LINESTRING (80.000000 80.000000, -235.374441 300.825637)

LINESTRING (-235.374441 300.825637, -493.408074 481.501159)

LINESTRING (80.000000 80.000000, -619.021260 117.003763)

LINESTRING (80.000000 80.000000, -304.461693 100.352070)

LINESTRING (-304.461693 100.352070, -619.021260 117.003763)

LINESTRING (80.000000 80.000000, -457.174662 -368.824445)

LINESTRING (80.000000 80.000000, -215.446064 -166.853445)

LINESTRING (-215.446064 -166.853445, -457.174662 -368.824445)

LINESTRING (80.000000 80.000000, -83.030099 -600.750459)

LINESTRING (80.000000 80.000000, -9.666554 -294.412752)

LINESTRING (-9.666554 -294.412752, -83.030099 -600.750459)

LINESTRING (80.000000 80.000000, 298.419525 -585.051059)

LINESTRING (80.000000 80.000000, 200.130739 -285.778083)

LINESTRING (200.130739 -285.778083, 298.419525 -585.051059)

LINESTRING (80.000000 80.000000, 666.429117 -302.231462)

LINESTRING (80.000000 80.000000, 402.536014 -130.227304)

LINESTRING (402.536014 -130.227304, 666.429117 -302.231462)

LINESTRING (779.775429 62.270101, 645.840670 492.097484)

LINESTRING (645.840670 492.097484, 298.743356 744.944617)

LINESTRING (298.743356 744.944617, -87.715747 759.611233)

LINESTRING (-87.715747 759.611233, -493.408074 481.501159)

LINESTRING (-493.408074 481.501159, -619.021260 117.003763)

LINESTRING (-619.021260 117.003763, -457.174662 -368.824445)

LINESTRING (-457.174662 -368.824445, -83.030099 -600.750459)

LINESTRING (-83.030099 -600.750459, 298.419525 -585.051059)

LINESTRING (298.419525 -585.051059, 666.429117 -302.231462)

LINESTRING (666.429117 -302.231462, 779.775429 62.270101)

LINESTRING (880.000000 80.000000, 1579.627950 102.819529)

LINESTRING (880.000000 80.000000, 1264.795373 92.550741)

LINESTRING (1264.795373 92.550741, 1579.627950 102.819529)

LINESTRING (880.000000 80.000000, 1454.217631 480.342494)

LINESTRING (880.000000 80.000000, 1195.819697 300.188372)

LINESTRING (1195.819697 300.188372, 1454.217631 480.342494)

LINESTRING (880.000000 80.000000, 1064.945403 755.126061)

LINESTRING (880.000000 80.000000, 981.719972 451.319333)

LINESTRING (981.719972 451.319333, 1064.945403 755.126061)

LINESTRING (880.000000 80.000000, 675.251828 749.386425)

LINESTRING (880.000000 80.000000, 767.388505 448.162534)

LINESTRING (767.388505 448.162534, 675.251828 749.386425)

LINESTRING (880.000000 80.000000, 283.504859 446.324374)

LINESTRING (880.000000 80.000000, 551.927673 281.478406)

LINESTRING (551.927673 281.478406, 283.504859 446.324374)

LINESTRING (880.000000 80.000000, 180.852910 45.455154)

LINESTRING (880.000000 80.000000, 495.469100 61.000335)

LINESTRING (495.469100 61.000335, 180.852910 45.455154)

LINESTRING (880.000000 80.000000, 338.307586 -363.361397)

LINESTRING (880.000000 80.000000, 582.069172 -163.848768)

LINESTRING (582.069172 -163.848768, 338.307586 -363.361397)

LINESTRING (880.000000 80.000000, 692.371978 -594.385443)

LINESTRING (880.000000 80.000000, 776.804588 -290.911993)

LINESTRING (776.804588 -290.911993, 692.371978 -594.385443)

LINESTRING (880.000000 80.000000, 1121.726663 -576.938521)

LINESTRING (880.000000 80.000000, 1012.949664 -281.316187)

LINESTRING (1012.949664 -281.316187, 1121.726663 -576.938521)

LINESTRING (880.000000 80.000000, 1418.179903 -367.618578)

LINESTRING (880.000000 80.000000, 1175.998947 -166.190218)

LINESTRING (1175.998947 -166.190218, 1418.179903 -367.618578)

LINESTRING (1579.627950 102.819529, 1454.217631 480.342494)

LINESTRING (1454.217631 480.342494, 1064.945403 755.126061)

LINESTRING (1064.945403 755.126061, 675.251828 749.386425)

LINESTRING (675.251828 749.386425, 283.504859 446.324374)

LINESTRING (283.504859 446.324374, 180.852910 45.455154)

LINESTRING (180.852910 45.455154, 338.307586 -363.361397)

LINESTRING (338.307586 -363.361397, 692.371978 -594.385443)

LINESTRING (692.371978 -594.385443, 1121.726663 -576.938521)

LINESTRING (1121.726663 -576.938521, 1418.179903 -367.618578)

LINESTRING (1418.179903 -367.618578, 1579.627950 102.819529)

LINESTRING (80.000000 80.000000, 880.000000 80.000000)

