LINESTRING (80.000000 80.000000, 157.274066 100.705524)

LINESTRING (157.274066 100.705524, 234.548132 80.000000)

LINESTRING (234.548132 80.000000, 291.116675 23.431458)

LINESTRING (291.116675 23.431458, 311.822198 -53.842609)

LINESTRING (291.116675 23.431458, 347.685217 -33.137085)

LINESTRING (291.116675 23.431458, 368.390741 2.725934)

LINESTRING (234.548132 80.000000, 311.822198 59.294476)

LINESTRING (311.822198 59.294476, 368.390741 2.725934)

LINESTRING (311.822198 59.294476, 389.096264 38.588953)

LINESTRING (311.822198 59.294476, 389.096264 80.000000)

LINESTRING (234.548132 80.000000, 311.822198 100.705524)

LINESTRING (311.822198 100.705524, 389.096264 80.000000)

LINESTRING (311.822198 100.705524, 389.096264 121.411047)

LINESTRING (311.822198 100.705524, 368.390741 157.274066)

LINESTRING (157.274066 100.705524, 234.548132 121.411047)

LINESTRING (234.548132 121.411047, 311.822198 100.705524)

LINESTRING (311.822198 100.705524, 368.390741 44.136981)

LINESTRING (311.822198 100.705524, 389.096264 80.000000)

LINESTRING (311.822198 100.705524, 389.096264 121.411047)

LINESTRING (234.548132 121.411047, 311.822198 142.116571)

LINESTRING (311.822198 142.116571, 389.096264 121.411047)

LINESTRING (311.822198 142.116571, 389.096264 162.822094)

LINESTRING (311.822198 142.116571, 368.390741 198.685113)

LINESTRING (234.548132 121.411047, 291.116675 177.979590)

LINESTRING (291.116675 177.979590, 368.390741 198.685113)

LINESTRING (291.116675 177.979590, 347.685217 234.548132)

LINESTRING (291.116675 177.979590, 311.822198 255.253656)

LINESTRING (157.274066 100.705524, 213.842609 157.274066)

LINESTRING (213.842609 157.274066, 291.116675 177.979590)

LINESTRING (291.116675 177.979590, 368.390741 157.274066)

LINESTRING (291.116675 177.979590, 368.390741 198.685113)

LINESTRING (291.116675 177.979590, 347.685217 234.548132)

LINESTRING (213.842609 157.274066, 270.411151 213.842609)

LINESTRING (270.411151 213.842609, 347.685217 234.548132)

LINESTRING (270.411151 213.842609, 326.979694 270.411151)

LINESTRING (270.411151 213.842609, 291.116675 291.116675)

LINESTRING (213.842609 157.274066, 234.548132 234.548132)

LINESTRING (234.548132 234.548132, 291.116675 291.116675)

LINESTRING (234.548132 234.548132, 255.253656 311.822198)

LINESTRING (234.548132 234.548132, 213.842609 311.822198)

LINESTRING (80.000000 80.000000, 136.568542 136.568542)

LINESTRING (136.568542 136.568542, 213.842609 157.274066)

LINESTRING (213.842609 157.274066, 291.116675 136.568542)

LINESTRING (291.116675 136.568542, 347.685217 80.000000)

LINESTRING (291.116675 136.568542, 368.390741 115.863019)

LINESTRING (291.116675 136.568542, 368.390741 157.274066)

LINESTRING (213.842609 157.274066, 291.116675 177.979590)

LINESTRING (291.116675 177.979590, 368.390741 157.274066)

LINESTRING (291.116675 177.979590, 368.390741 198.685113)

LINESTRING (291.116675 177.979590, 347.685217 234.548132)

LINESTRING (213.842609 157.274066, 270.411151 213.842609)

LINESTRING (270.411151 213.842609, 347.685217 234.548132)

LINESTRING (270.411151 213.842609, 326.979694 270.411151)

LINESTRING (270.411151 213.842609, 291.116675 291.116675)

LINESTRING (136.568542 136.568542, 193.137085 193.137085)

LINESTRING (193.137085 193.137085, 270.411151 213.842609)

LINESTRING (270.411151 213.842609, 347.685217 193.137085)

LINESTRING (270.411151 213.842609, 347.685217 234.548132)

LINESTRING (270.411151 213.842609, 326.979694 270.411151)

LINESTRING (193.137085 193.137085, 249.705627 249.705627)

LINESTRING (249.705627 249.705627, 326.979694 270.411151)

LINESTRING (249.705627 249.705627, 306.274170 306.274170)

LINESTRING (249.705627 249.705627, 270.411151 326.979694)

LINESTRING (193.137085 193.137085, 213.842609 270.411151)

LINESTRING (213.842609 270.411151, 270.411151 326.979694)

LINESTRING (213.842609 270.411151, 234.548132 347.685217)

LINESTRING (213.842609 270.411151, 193.137085 347.685217)

LINESTRING (136.568542 136.568542, 157.274066 213.842609)

LINESTRING (157.274066 213.842609, 213.842609 270.411151)

LINESTRING (213.842609 270.411151, 291.116675 291.116675)

LINESTRING (213.842609 270.411151, 270.411151 326.979694)

LINESTRING (213.842609 270.411151, 234.548132 347.685217)

LINESTRING (157.274066 213.842609, 177.979590 291.116675)

LINESTRING (177.979590 291.116675, 234.548132 347.685217)

LINESTRING (177.979590 291.116675, 198.685113 368.390741)

LINESTRING (177.979590 291.116675, 157.274066 368.390741)

LINESTRING (157.274066 213.842609, 136.568542 291.116675)

LINESTRING (136.568542 291.116675, 157.274066 368.390741)

LINESTRING (136.568542 291.116675, 115.863019 368.390741)

LINESTRING (136.568542 291.116675, 80.000000 347.685217)

LINESTRING (80.000000 80.000000, 100.705524 157.274066)

LINESTRING (100.705524 157.274066, 157.274066 213.842609)

LINESTRING (157.274066 213.842609, 234.548132 234.548132)

LINESTRING (234.548132 234.548132, 311.822198 213.842609)

LINESTRING (234.548132 234.548132, 311.822198 255.253656)

LINESTRING (234.548132 234.548132, 291.116675 291.116675)

LINESTRING (157.274066 213.842609, 213.842609 270.411151)

LINESTRING (213.842609 270.411151, 291.116675 291.116675)

LINESTRING (213.842609 270.411151, 270.411151 326.979694)

LINESTRING (213.842609 270.411151, 234.548132 347.685217)

LINESTRING (157.274066 213.842609, 177.979590 291.116675)

LINESTRING (177.979590 291.116675, 234.548132 347.685217)

LINESTRING (177.979590 291.116675, 198.685113 368.390741)

LINESTRING (177.979590 291.116675, 157.274066 368.390741)

LINESTRING (100.705524 157.274066, 121.411047 234.548132)

LINESTRING (121.411047 234.548132, 177.979590 291.116675)

LINESTRING (177.979590 291.116675, 255.253656 311.822198)

LINESTRING (177.979590 291.116675, 234.548132 347.685217)

LINESTRING (177.979590 291.116675, 198.685113 368.390741)

LINESTRING (121.411047 234.548132, 142.116571 311.822198)

LINESTRING (142.116571 311.822198, 198.685113 368.390741)

LINESTRING (142.116571 311.822198, 162.822094 389.096264)

LINESTRING (142.116571 311.822198, 121.411047 389.096264)

LINESTRING (121.411047 234.548132, 100.705524 311.822198)

LINESTRING (100.705524 311.822198, 121.411047 389.096264)

LINESTRING (100.705524 311.822198, 80.000000 389.096264)

LINESTRING (100.705524 311.822198, 44.136981 368.390741)

LINESTRING (100.705524 157.274066, 80.000000 234.548132)

LINESTRING (80.000000 234.548132, 100.705524 311.822198)

LINESTRING (100.705524 311.822198, 157.274066 368.390741)

LINESTRING (100.705524 311.822198, 121.411047 389.096264)

LINESTRING (100.705524 311.822198, 80.000000 389.096264)

LINESTRING (80.000000 234.548132, 59.294476 311.822198)

LINESTRING (59.294476 311.822198, 80.000000 389.096264)

LINESTRING (59.294476 311.822198, 38.588953 389.096264)

LINESTRING (59.294476 311.822198, 2.725934 368.390741)

LINESTRING (80.000000 234.548132, 23.431458 291.116675)

LINESTRING (23.431458 291.116675, 2.725934 368.390741)

LINESTRING (23.431458 291.116675, -33.137085 347.685217)

LINESTRING (23.431458 291.116675, -53.842609 311.822198)

