LINESTRING (80.000000 80.000000, 229.860638 86.464456)

LINESTRING (80.000000 80.000000, 162.423351 83.555451)

LINESTRING (162.423351 83.555451, 229.860638 86.464456)

LINESTRING (80.000000 80.000000, 213.913039 147.581787)

LINESTRING (80.000000 80.000000, 153.652172 117.169983)

LINESTRING (153.652172 117.169983, 213.913039 147.581787)

LINESTRING (80.000000 80.000000, 149.802390 212.769071)

LINESTRING (80.000000 80.000000, 118.391315 153.022989)

LINESTRING (118.391315 153.022989, 149.802390 212.769071)

LINESTRING (80.000000 80.000000, 90.068632 229.661694)

LINESTRING (80.000000 80.000000, 85.537748 162.313932)

LINESTRING (85.537748 162.313932, 90.068632 229.661694)

LINESTRING (80.000000 80.000000, -0.746875 206.411796)

LINESTRING (80.000000 80.000000, 35.589219 149.526488)

LINESTRING (35.589219 149.526488, -0.746875 206.411796)

LINESTRING (80.000000 80.000000, -54.711758 145.975315)

LINESTRING (80.000000 80.000000, 5.908533 116.286423)

LINESTRING (5.908533 116.286423, -54.711758 145.975315)

LINESTRING (80.000000 80.000000, -69.858241 73.480205)

LINESTRING (80.000000 80.000000, -2.422032 76.414113)

LINESTRING (-2.422032 76.414113, -69.858241 73.480205)

LINESTRING (80.000000 80.000000, -49.651292 4.564315)

LINESTRING (80.000000 80.000000, 8.691789 38.510374)

LINESTRING (8.691789 38.510374, -49.651292 4.564315)

LINESTRING (80.000000 80.000000, -4.624593 -43.849418)

LINESTRING (80.000000 80.000000, 33.456474 11.882820)

LINESTRING (33.456474 11.882820, -4.624593 -43.849418)

LINESTRING (80.000000 80.000000, 72.462897 -69.810521)

LINESTRING (80.000000 80.000000, 75.854593 -2.395786)

LINESTRING (75.854593 -2.395786, 72.462897 -69.810521)

LINESTRING (80.000000 80.000000, 158.170022 -48.021278)

LINESTRING (80.000000 80.000000, 122.993512 9.588297)

LINESTRING (122.993512 9.588297, 158.170022 -48.021278)

LINESTRING (80.000000 80.000000, 212.962243 10.566278)

LINESTRING (80.000000 80.000000, 153.129234 41.811453)

LINESTRING (153.129234 41.811453, 212.962243 10.566278)

LINESTRING (229.860638 86.464456, 213.913039 147.581787)

LINESTRING (213.913039 147.581787, 149.802390 212.769071)

LINESTRING (149.802390 212.769071, 90.068632 229.661694)

LINESTRING (90.068632 229.661694, -0.746875 206.411796)

LINESTRING (-0.746875 206.411796, -54.711758 145.975315)

LINESTRING (-54.711758 145.975315, -69.858241 73.480205)

LINESTRING (-69.858241 73.480205, -49.651292 4.564315)

LINESTRING (-49.651292 4.564315, -4.624593 -43.849418)

LINESTRING (-4.624593 -43.849418, 72.462897 -69.810521)

LINESTRING (72.462897 -69.810521, 158.170022 -48.021278)

LINESTRING (158.170022 -48.021278, 212.962243 10.566278)

LINESTRING (212.962243 10.566278, 229.860638 86.464456)

LINESTRING (280.000000 80.000000, 429.730301 71.009056)

LINESTRING (280.000000 80.000000, 362.351665 75.054981)

LINESTRING (362.351665 75.054981, 429.730301 71.009056)

LINESTRING (280.000000 80.000000, 410.204424 154.476895)

LINESTRING (280.000000 80.000000, 351.612433 120.962292)

LINESTRING (351.612433 120.962292, 410.204424 154.476895)

LINESTRING (280.000000 80.000000, 364.000739 204.273391)

LINESTRING (280.000000 80.000000, 326.200407 148.350365)

LINESTRING (326.200407 148.350365, 364.000739 204.273391)

LINESTRING (280.000000 80.000000, 271.994251 229.786208)

LINESTRING (280.000000 80.000000, 275.596838 162.382414)

LINESTRING (275.596838 162.382414, 271.994251 229.786208)

LINESTRING (280.000000 80.000000, 195.020445 203.606129)

LINESTRING (280.000000 80.000000, 233.261245 147.983371)

LINESTRING (233.261245 147.983371, 195.020445 203.606129)

LINESTRING (280.000000 80.000000, 155.697038 163.956975)

LINESTRING (280.000000 80.000000, 211.633371 126.176336)

LINESTRING (211.633371 126.176336, 155.697038 163.956975)

LINESTRING (280.000000 80.000000, 130.014804 77.892645)

LINESTRING (280.000000 80.000000, 197.508142 78.840955)

LINESTRING (197.508142 78.840955, 130.014804 77.892645)

LINESTRING (280.000000 80.000000, 152.134176 1.575954)

LINESTRING (280.000000 80.000000, 209.673797 36.866775)

LINESTRING (209.673797 36.866775, 152.134176 1.575954)

LINESTRING (280.000000 80.000000, 209.986090 -52.657651)

LINESTRING (280.000000 80.000000, 241.492349 7.038292)

LINESTRING (241.492349 7.038292, 209.986090 -52.657651)

LINESTRING (280.000000 80.000000, 280.662143 -69.998539)

LINESTRING (280.000000 80.000000, 280.364179 -2.499196)

LINESTRING (280.364179 -2.499196, 280.662143 -69.998539)

LINESTRING (280.000000 80.000000, 352.339198 -51.404111)

LINESTRING (280.000000 80.000000, 319.786559 7.727739)

LINESTRING (319.786559 7.727739, 352.339198 -51.404111)

LINESTRING (280.000000 80.000000, 403.500932 -5.132366)

LINESTRING (280.000000 80.000000, 347.925513 33.177199)

LINESTRING (347.925513 33.177199, 403.500932 -5.132366)

LINESTRING (429.730301 71.009056, 410.204424 154.476895)

LINESTRING (410.204424 154.476895, 364.000739 204.273391)

LINESTRING (364.000739 204.273391, 271.994251 229.786208)

LINESTRING (271.994251 229.786208, 195.020445 203.606129)

LINESTRING (195.020445 203.606129, 155.697038 163.956975)

LINESTRING (155.697038 163.956975, 130.014804 77.892645)

LINESTRING (130.014804 77.892645, 152.134176 1.575954)

LINESTRING (152.134176 1.575954, 209.986090 -52.657651)

LINESTRING (209.986090 -52.657651, 280.662143 -69.998539)

LINESTRING (280.662143 -69.998539, 352.339198 -51.404111)

LINESTRING (352.339198 -51.404111, 403.500932 -5.132366)

LINESTRING (403.500932 -5.132366, 429.730301 71.009056)

LINESTRING (80.000000 80.000000, 280.000000 80.000000)

