LINESTRING (60.000000 60.000000, 52.877170 63.999481)

LINESTRING (60.000000 60.000000, 57.553938 59.352800)

LINESTRING (60.000000 60.000000, 65.388212 53.144189)

LINESTRING (60.000000 60.000000, 59.862923 80.657231)

LINESTRING (60.000000 60.000000, 42.235211 53.693082)

LINESTRING (60.000000 60.000000, 59.772247 52.009708)

LINESTRING (60.000000 60.000000, 74.595182 74.690162)

LINESTRING (60.000000 60.000000, 70.435123 73.876076)

LINESTRING (52.877170 63.999481, 65.388212 53.144189)

LINESTRING (52.877170 63.999481, 59.862923 80.657231)

LINESTRING (57.553938 59.352800, 42.235211 53.693082)

LINESTRING (57.553938 59.352800, 59.772247 52.009708)

LINESTRING (65.388212 53.144189, 59.772247 52.009708)

LINESTRING (59.862923 80.657231, 42.235211 53.693082)

LINESTRING (59.862923 80.657231, 74.595182 74.690162)

LINESTRING (42.235211 53.693082, 59.772247 52.009708)

LINESTRING (42.235211 53.693082, 70.435123 73.876076)

LINESTRING (74.595182 74.690162, 70.435123 73.876076)

LINESTRING (260.000000 60.000000, 264.239813 42.383719)

LINESTRING (260.000000 60.000000, 256.314046 78.302111)

LINESTRING (260.000000 60.000000, 269.142267 42.274622)

LINESTRING (260.000000 60.000000, 278.112230 52.165508)

LINESTRING (260.000000 60.000000, 265.597359 74.557300)

LINESTRING (260.000000 60.000000, 261.659037 48.427317)

LINESTRING (260.000000 60.000000, 249.003724 59.204635)

LINESTRING (260.000000 60.000000, 239.771405 36.639848)

LINESTRING (264.239813 42.383719, 256.314046 78.302111)

LINESTRING (264.239813 42.383719, 269.142267 42.274622)

LINESTRING (264.239813 42.383719, 278.112230 52.165508)

LINESTRING (256.314046 78.302111, 269.142267 42.274622)

LINESTRING (256.314046 78.302111, 265.597359 74.557300)

LINESTRING (256.314046 78.302111, 249.003724 59.204635)

LINESTRING (256.314046 78.302111, 239.771405 36.639848)

LINESTRING (269.142267 42.274622, 265.597359 74.557300)

LINESTRING (269.142267 42.274622, 261.659037 48.427317)

LINESTRING (269.142267 42.274622, 239.771405 36.639848)

LINESTRING (278.112230 52.165508, 265.597359 74.557300)

LINESTRING (278.112230 52.165508, 249.003724 59.204635)

LINESTRING (278.112230 52.165508, 239.771405 36.639848)

LINESTRING (265.597359 74.557300, 261.659037 48.427317)

LINESTRING (265.597359 74.557300, 249.003724 59.204635)

LINESTRING (249.003724 59.204635, 239.771405 36.639848)

LINESTRING (460.000000 60.000000, 464.511953 78.670047)

LINESTRING (460.000000 60.000000, 455.367301 82.510028)

LINESTRING (460.000000 60.000000, 478.282565 71.910511)

LINESTRING (460.000000 60.000000, 470.739640 50.132118)

LINESTRING (460.000000 60.000000, 443.625897 43.126606)

LINESTRING (460.000000 60.000000, 472.308222 83.577571)

LINESTRING (460.000000 60.000000, 444.395792 37.793391)

LINESTRING (460.000000 60.000000, 459.052637 51.674086)

LINESTRING (464.511953 78.670047, 455.367301 82.510028)

LINESTRING (464.511953 78.670047, 443.625897 43.126606)

LINESTRING (464.511953 78.670047, 444.395792 37.793391)

LINESTRING (464.511953 78.670047, 459.052637 51.674086)

LINESTRING (455.367301 82.510028, 478.282565 71.910511)

LINESTRING (455.367301 82.510028, 470.739640 50.132118)

LINESTRING (455.367301 82.510028, 472.308222 83.577571)

LINESTRING (455.367301 82.510028, 444.395792 37.793391)

LINESTRING (478.282565 71.910511, 472.308222 83.577571)

LINESTRING (470.739640 50.132118, 443.625897 43.126606)

LINESTRING (470.739640 50.132118, 472.308222 83.577571)

LINESTRING (470.739640 50.132118, 444.395792 37.793391)

LINESTRING (470.739640 50.132118, 459.052637 51.674086)

LINESTRING (443.625897 43.126606, 472.308222 83.577571)

LINESTRING (443.625897 43.126606, 444.395792 37.793391)

LINESTRING (443.625897 43.126606, 459.052637 51.674086)

LINESTRING (472.308222 83.577571, 444.395792 37.793391)

LINESTRING (472.308222 83.577571, 459.052637 51.674086)

LINESTRING (60.000000 260.000000, 49.177068 264.142193)

LINESTRING (60.000000 260.000000, 59.857973 237.849900)

LINESTRING (60.000000 260.000000, 63.906969 255.764389)

LINESTRING (60.000000 260.000000, 42.346537 236.355106)

LINESTRING (60.000000 260.000000, 72.462760 279.808637)

LINESTRING (60.000000 260.000000, 36.142176 278.080823)

LINESTRING (60.000000 260.000000, 62.001377 270.996295)

LINESTRING (60.000000 260.000000, 65.366127 262.449690)

LINESTRING (49.177068 264.142193, 63.906969 255.764389)

LINESTRING (49.177068 264.142193, 62.001377 270.996295)

LINESTRING (49.177068 264.142193, 65.366127 262.449690)

LINESTRING (59.857973 237.849900, 72.462760 279.808637)

LINESTRING (59.857973 237.849900, 36.142176 278.080823)

LINESTRING (59.857973 237.849900, 65.366127 262.449690)

LINESTRING (63.906969 255.764389, 42.346537 236.355106)

LINESTRING (63.906969 255.764389, 36.142176 278.080823)

LINESTRING (63.906969 255.764389, 62.001377 270.996295)

LINESTRING (63.906969 255.764389, 65.366127 262.449690)

LINESTRING (42.346537 236.355106, 72.462760 279.808637)

LINESTRING (42.346537 236.355106, 36.142176 278.080823)

LINESTRING (72.462760 279.808637, 65.366127 262.449690)

LINESTRING (62.001377 270.996295, 65.366127 262.449690)

LINESTRING (260.000000 260.000000, 239.613837 280.400254)

LINESTRING (260.000000 260.000000, 250.905185 270.810110)

LINESTRING (260.000000 260.000000, 258.897267 273.255280)

LINESTRING (260.000000 260.000000, 238.335850 278.130453)

LINESTRING (260.000000 260.000000, 253.188009 252.646140)

LINESTRING (260.000000 260.000000, 241.896107 280.262407)

LINESTRING (260.000000 260.000000, 274.631309 264.005953)

LINESTRING (260.000000 260.000000, 282.599618 277.395361)

LINESTRING (239.613837 280.400254, 253.188009 252.646140)

LINESTRING (239.613837 280.400254, 241.896107 280.262407)

LINESTRING (250.905185 270.810110, 274.631309 264.005953)

LINESTRING (250.905185 270.810110, 282.599618 277.395361)

LINESTRING (258.897267 273.255280, 238.335850 278.130453)

LINESTRING (258.897267 273.255280, 253.188009 252.646140)

LINESTRING (258.897267 273.255280, 274.631309 264.005953)

LINESTRING (258.897267 273.255280, 282.599618 277.395361)

LINESTRING (238.335850 278.130453, 274.631309 264.005953)

LINESTRING (238.335850 278.130453, 282.599618 277.395361)

LINESTRING (253.188009 252.646140, 241.896107 280.262407)

LINESTRING (241.896107 280.262407, 274.631309 264.005953)

LINESTRING (460.000000 260.000000, 464.951395 252.366171)

LINESTRING (460.000000 260.000000, 451.281898 269.655673)

LINESTRING (460.000000 260.000000, 464.077427 274.451687)

LINESTRING (460.000000 260.000000, 438.083417 265.380398)

LINESTRING (460.000000 260.000000, 464.908066 260.025652)

LINESTRING (460.000000 260.000000, 441.749431 277.759081)

LINESTRING (460.000000 260.000000, 443.266436 245.206892)

LINESTRING (460.000000 260.000000, 481.042782 249.828378)

LINESTRING (464.951395 252.366171, 438.083417 265.380398)

LINESTRING (464.951395 252.366171, 464.908066 260.025652)

LINESTRING (464.951395 252.366171, 443.266436 245.206892)

LINESTRING (451.281898 269.655673, 464.908066 260.025652)

LINESTRING (451.281898 269.655673, 441.749431 277.759081)

LINESTRING (464.077427 274.451687, 438.083417 265.380398)

LINESTRING (464.077427 274.451687, 464.908066 260.025652)

LINESTRING (464.077427 274.451687, 443.266436 245.206892)

LINESTRING (464.077427 274.451687, 481.042782 249.828378)

LINESTRING (438.083417 265.380398, 441.749431 277.759081)

LINESTRING (438.083417 265.380398, 443.266436 245.206892)

LINESTRING (438.083417 265.380398, 481.042782 249.828378)

LINESTRING (464.908066 260.025652, 481.042782 249.828378)

LINESTRING (441.749431 277.759081, 443.266436 245.206892)

LINESTRING (60.000000 460.000000, 74.578057 478.891732)

LINESTRING (60.000000 460.000000, 80.393046 470.926594)

LINESTRING (60.000000 460.000000, 54.235532 462.557761)

LINESTRING (60.000000 460.000000, 46.882038 465.818406)

LINESTRING (60.000000 460.000000, 69.429583 455.463783)

LINESTRING (60.000000 460.000000, 37.190474 465.658252)

LINESTRING (60.000000 460.000000, 65.314272 457.584641)

LINESTRING (60.000000 460.000000, 44.241698 458.826361)

LINESTRING (74.578057 478.891732, 54.235532 462.557761)

LINESTRING (74.578057 478.891732, 46.882038 465.818406)

LINESTRING (74.578057 478.891732, 37.190474 465.658252)

LINESTRING (74.578057 478.891732, 65.314272 457.584641)

LINESTRING (80.393046 470.926594, 54.235532 462.557761)

LINESTRING (80.393046 470.926594, 46.882038 465.818406)

LINESTRING (80.393046 470.926594, 69.429583 455.463783)

LINESTRING (80.393046 470.926594, 37.190474 465.658252)

LINESTRING (80.393046 470.926594, 65.314272 457.584641)

LINESTRING (54.235532 462.557761, 46.882038 465.818406)

LINESTRING (54.235532 462.557761, 69.429583 455.463783)

LINESTRING (54.235532 462.557761, 37.190474 465.658252)

LINESTRING (54.235532 462.557761, 44.241698 458.826361)

LINESTRING (46.882038 465.818406, 69.429583 455.463783)

LINESTRING (46.882038 465.818406, 37.190474 465.658252)

LINESTRING (46.882038 465.818406, 65.314272 457.584641)

LINESTRING (46.882038 465.818406, 44.241698 458.826361)

LINESTRING (69.429583 455.463783, 65.314272 457.584641)

LINESTRING (65.314272 457.584641, 44.241698 458.826361)

LINESTRING (260.000000 460.000000, 240.855372 440.279677)

LINESTRING (260.000000 460.000000, 269.317587 441.399748)

LINESTRING (260.000000 460.000000, 253.463995 461.959372)

LINESTRING (260.000000 460.000000, 275.734436 459.567083)

LINESTRING (260.000000 460.000000, 239.035169 446.735099)

LINESTRING (260.000000 460.000000, 243.867429 452.131573)

LINESTRING (260.000000 460.000000, 238.281807 443.288855)

LINESTRING (260.000000 460.000000, 271.542957 471.111929)

LINESTRING (240.855372 440.279677, 275.734436 459.567083)

LINESTRING (240.855372 440.279677, 243.867429 452.131573)

LINESTRING (240.855372 440.279677, 238.281807 443.288855)

LINESTRING (240.855372 440.279677, 271.542957 471.111929)

LINESTRING (269.317587 441.399748, 275.734436 459.567083)

LINESTRING (269.317587 441.399748, 239.035169 446.735099)

LINESTRING (269.317587 441.399748, 238.281807 443.288855)

LINESTRING (269.317587 441.399748, 271.542957 471.111929)

LINESTRING (253.463995 461.959372, 243.867429 452.131573)

LINESTRING (253.463995 461.959372, 238.281807 443.288855)

LINESTRING (253.463995 461.959372, 271.542957 471.111929)

LINESTRING (239.035169 446.735099, 238.281807 443.288855)

LINESTRING (243.867429 452.131573, 238.281807 443.288855)

LINESTRING (238.281807 443.288855, 271.542957 471.111929)

LINESTRING (70.435123 73.876076, 264.239813 42.383719)

LINESTRING (59.862923 80.657231, 264.239813 42.383719)

LINESTRING (60.000000 60.000000, 260.000000 60.000000)

LINESTRING (249.003724 59.204635, 478.282565 71.910511)

LINESTRING (264.239813 42.383719, 443.625897 43.126606)

LINESTRING (260.000000 60.000000, 460.000000 60.000000)

LINESTRING (459.052637 51.674086, 62.001377 270.996295)

LINESTRING (464.511953 78.670047, 49.177068 264.142193)

LINESTRING (460.000000 60.000000, 60.000000 260.000000)

LINESTRING (49.177068 264.142193, 239.613837 280.400254)

LINESTRING (49.177068 264.142193, 241.896107 280.262407)

LINESTRING (60.000000 260.000000, 260.000000 260.000000)

LINESTRING (238.335850 278.130453, 438.083417 265.380398)

LINESTRING (250.905185 270.810110, 481.042782 249.828378)

LINESTRING (260.000000 260.000000, 460.000000 260.000000)

LINESTRING (441.749431 277.759081, 74.578057 478.891732)

LINESTRING (464.077427 274.451687, 54.235532 462.557761)

LINESTRING (460.000000 260.000000, 60.000000 460.000000)

LINESTRING (74.578057 478.891732, 238.281807 443.288855)

LINESTRING (54.235532 462.557761, 239.035169 446.735099)

LINESTRING (60.000000 460.000000, 260.000000 460.000000)

