LINESTRING (80.000000 80.000000, 779.007031 117.271580)

LINESTRING (80.000000 80.000000, 464.453867 100.499369)

LINESTRING (464.453867 100.499369, 779.007031 117.271580)

LINESTRING (80.000000 80.000000, 647.285159 490.106753)

LINESTRING (80.000000 80.000000, 392.006837 305.558714)

LINESTRING (392.006837 305.558714, 647.285159 490.106753)

LINESTRING (80.000000 80.000000, 316.209831 738.942270)

LINESTRING (80.000000 80.000000, 209.915407 442.418249)

LINESTRING (209.915407 442.418249, 316.209831 738.942270)

LINESTRING (80.000000 80.000000, -142.596610 743.664636)

LINESTRING (80.000000 80.000000, -42.428135 445.015550)

LINESTRING (-42.428135 445.015550, -142.596610 743.664636)

LINESTRING (80.000000 80.000000, -486.839477 490.722543)

LINESTRING (80.000000 80.000000, -231.761713 305.897398)

LINESTRING (-231.761713 305.897398, -486.839477 490.722543)

LINESTRING (80.000000 80.000000, -619.936610 89.420261)

LINESTRING (80.000000 80.000000, -304.965136 85.181144)

LINESTRING (-304.965136 85.181144, -619.936610 89.420261)

LINESTRING (80.000000 80.000000, -491.126239 -324.740435)

LINESTRING (80.000000 80.000000, -234.119431 -142.607239)

LINESTRING (-234.119431 -142.607239, -491.126239 -324.740435)

LINESTRING (80.000000 80.000000, -149.584342 -581.279842)

LINESTRING (80.000000 80.000000, -46.271388 -283.703913)

LINESTRING (-46.271388 -283.703913, -149.584342 -581.279842)

LINESTRING (80.000000 80.000000, 281.208311 -590.458959)

LINESTRING (80.000000 80.000000, 190.664571 -288.752427)

LINESTRING (190.664571 -288.752427, 281.208311 -590.458959)

LINESTRING (80.000000 80.000000, 651.546439 -324.146840)

LINESTRING (80.000000 80.000000, 394.350541 -142.280762)

LINESTRING (394.350541 -142.280762, 651.546439 -324.146840)

LINESTRING (779.007031 117.271580, 647.285159 490.106753)

LINESTRING (647.285159 490.106753, 316.209831 738.942270)

LINESTRING (316.209831 738.942270, -142.596610 743.664636)

LINESTRING (-142.596610 743.664636, -486.839477 490.722543)

LINESTRING (-486.839477 490.722543, -619.936610 89.420261)

LINESTRING (-619.936610 89.420261, -491.126239 -324.740435)

LINESTRING (-491.126239 -324.740435, -149.584342 -581.279842)

LINESTRING (-149.584342 -581.279842, 281.208311 -590.458959)

LINESTRING (281.208311 -590.458959, 651.546439 -324.146840)

LINESTRING (651.546439 -324.146840, 779.007031 117.271580)

LINESTRING (880.000000 80.000000, 1578.478783 33.876360)

LINESTRING (880.000000 80.000000, 1264.163330 54.631998)

LINESTRING (1264.163330 54.631998, 1578.478783 33.876360)

LINESTRING (880.000000 80.000000, 1473.870872 450.563609)

LINESTRING (880.000000 80.000000, 1206.628979 283.809985)

LINESTRING (1206.628979 283.809985, 1473.870872 450.563609)

LINESTRING (880.000000 80.000000, 1049.281500 759.222919)

LINESTRING (880.000000 80.000000, 973.104825 453.572605)

LINESTRING (973.104825 453.572605, 1049.281500 759.222919)

LINESTRING (880.000000 80.000000, 639.840737 737.513139)

LINESTRING (880.000000 80.000000, 747.912405 441.632227)

LINESTRING (747.912405 441.632227, 639.840737 737.513139)

LINESTRING (880.000000 80.000000, 297.111612 467.609503)

LINESTRING (880.000000 80.000000, 559.411386 293.185227)

LINESTRING (559.411386 293.185227, 297.111612 467.609503)

LINESTRING (880.000000 80.000000, 180.155911 65.226661)

LINESTRING (880.000000 80.000000, 495.085751 71.874664)

LINESTRING (495.085751 71.874664, 180.155911 65.226661)

LINESTRING (880.000000 80.000000, 292.226209 -300.160454)

LINESTRING (880.000000 80.000000, 556.724415 -129.088249)

LINESTRING (556.724415 -129.088249, 292.226209 -300.160454)

LINESTRING (880.000000 80.000000, 685.280450 -592.372142)

LINESTRING (880.000000 80.000000, 772.904248 -289.804678)

LINESTRING (772.904248 -289.804678, 685.280450 -592.372142)

LINESTRING (880.000000 80.000000, 1121.182590 -577.138462)

LINESTRING (880.000000 80.000000, 1012.650424 -281.426154)

LINESTRING (1012.650424 -281.426154, 1121.182590 -577.138462)

LINESTRING (880.000000 80.000000, 1421.121778 -364.057678)

LINESTRING (880.000000 80.000000, 1177.616978 -164.231723)

LINESTRING (1177.616978 -164.231723, 1421.121778 -364.057678)

LINESTRING (1578.478783 33.876360, 1473.870872 450.563609)

LINESTRING (1473.870872 450.563609, 1049.281500 759.222919)

LINESTRING (1049.281500 759.222919, 639.840737 737.513139)

LINESTRING (639.840737 737.513139, 297.111612 467.609503)

LINESTRING (297.111612 467.609503, 180.155911 65.226661)

LINESTRING (180.155911 65.226661, 292.226209 -300.160454)

LINESTRING (292.226209 -300.160454, 685.280450 -592.372142)

LINESTRING (685.280450 -592.372142, 1121.182590 -577.138462)

LINESTRING (1121.182590 -577.138462, 1421.121778 -364.057678)

LINESTRING (1421.121778 -364.057678, 1578.478783 33.876360)

LINESTRING (80.000000 80.000000, 880.000000 80.000000)

