LINESTRING (60.000000 60.000000, 37.412945 88.076616)

LINESTRING (60.000000 60.000000, 84.372858 82.024672)

LINESTRING (60.000000 60.000000, 80.541360 69.129836)

LINESTRING (60.000000 60.000000, 95.261595 47.232909)

LINESTRING (60.000000 60.000000, 69.275826 61.423556)

LINESTRING (60.000000 60.000000, 74.019157 77.619941)

LINESTRING (60.000000 60.000000, 33.054472 25.331611)

LINESTRING (60.000000 60.000000, 28.586524 88.542676)

LINESTRING (60.000000 60.000000, 68.169204 94.539696)

LINESTRING (60.000000 60.000000, 76.957701 41.311429)

LINESTRING (60.000000 60.000000, 52.535185 40.017560)

LINESTRING (60.000000 60.000000, 66.426388 36.417918)

LINESTRING (37.412945 88.076616, 84.372858 82.024672)

LINESTRING (37.412945 88.076616, 80.541360 69.129836)

LINESTRING (37.412945 88.076616, 95.261595 47.232909)

LINESTRING (37.412945 88.076616, 69.275826 61.423556)

LINESTRING (37.412945 88.076616, 74.019157 77.619941)

LINESTRING (37.412945 88.076616, 33.054472 25.331611)

LINESTRING (37.412945 88.076616, 28.586524 88.542676)

LINESTRING (37.412945 88.076616, 68.169204 94.539696)

LINESTRING (37.412945 88.076616, 76.957701 41.311429)

LINESTRING (37.412945 88.076616, 66.426388 36.417918)

LINESTRING (84.372858 82.024672, 80.541360 69.129836)

LINESTRING (84.372858 82.024672, 95.261595 47.232909)

LINESTRING (84.372858 82.024672, 33.054472 25.331611)

LINESTRING (84.372858 82.024672, 28.586524 88.542676)

LINESTRING (84.372858 82.024672, 68.169204 94.539696)

LINESTRING (84.372858 82.024672, 76.957701 41.311429)

LINESTRING (84.372858 82.024672, 52.535185 40.017560)

LINESTRING (80.541360 69.129836, 95.261595 47.232909)

LINESTRING (80.541360 69.129836, 69.275826 61.423556)

LINESTRING (80.541360 69.129836, 74.019157 77.619941)

LINESTRING (80.541360 69.129836, 33.054472 25.331611)

LINESTRING (80.541360 69.129836, 28.586524 88.542676)

LINESTRING (80.541360 69.129836, 68.169204 94.539696)

LINESTRING (80.541360 69.129836, 52.535185 40.017560)

LINESTRING (80.541360 69.129836, 66.426388 36.417918)

LINESTRING (95.261595 47.232909, 69.275826 61.423556)

LINESTRING (95.261595 47.232909, 74.019157 77.619941)

LINESTRING (95.261595 47.232909, 33.054472 25.331611)

LINESTRING (95.261595 47.232909, 28.586524 88.542676)

LINESTRING (95.261595 47.232909, 68.169204 94.539696)

LINESTRING (95.261595 47.232909, 76.957701 41.311429)

LINESTRING (95.261595 47.232909, 66.426388 36.417918)

LINESTRING (69.275826 61.423556, 74.019157 77.619941)

LINESTRING (69.275826 61.423556, 33.054472 25.331611)

LINESTRING (69.275826 61.423556, 28.586524 88.542676)

LINESTRING (69.275826 61.423556, 68.169204 94.539696)

LINESTRING (69.275826 61.423556, 76.957701 41.311429)

LINESTRING (69.275826 61.423556, 52.535185 40.017560)

LINESTRING (69.275826 61.423556, 66.426388 36.417918)

LINESTRING (74.019157 77.619941, 33.054472 25.331611)

LINESTRING (74.019157 77.619941, 28.586524 88.542676)

LINESTRING (74.019157 77.619941, 68.169204 94.539696)

LINESTRING (74.019157 77.619941, 76.957701 41.311429)

LINESTRING (74.019157 77.619941, 52.535185 40.017560)

LINESTRING (74.019157 77.619941, 66.426388 36.417918)

LINESTRING (33.054472 25.331611, 28.586524 88.542676)

LINESTRING (33.054472 25.331611, 68.169204 94.539696)

LINESTRING (33.054472 25.331611, 76.957701 41.311429)

LINESTRING (33.054472 25.331611, 52.535185 40.017560)

LINESTRING (33.054472 25.331611, 66.426388 36.417918)

LINESTRING (28.586524 88.542676, 68.169204 94.539696)

LINESTRING (28.586524 88.542676, 52.535185 40.017560)

LINESTRING (28.586524 88.542676, 66.426388 36.417918)

LINESTRING (68.169204 94.539696, 76.957701 41.311429)

LINESTRING (68.169204 94.539696, 52.535185 40.017560)

LINESTRING (68.169204 94.539696, 66.426388 36.417918)

LINESTRING (76.957701 41.311429, 52.535185 40.017560)

LINESTRING (76.957701 41.311429, 66.426388 36.417918)

LINESTRING (52.535185 40.017560, 66.426388 36.417918)

LINESTRING (360.000000 60.000000, 390.650614 27.391395)

LINESTRING (360.000000 60.000000, 333.317074 56.000539)

LINESTRING (360.000000 60.000000, 384.785835 34.677328)

LINESTRING (360.000000 60.000000, 358.145349 84.031046)

LINESTRING (360.000000 60.000000, 382.523327 24.791851)

LINESTRING (360.000000 60.000000, 378.271875 61.893044)

LINESTRING (360.000000 60.000000, 360.745561 63.234751)

LINESTRING (360.000000 60.000000, 348.496084 66.370828)

LINESTRING (360.000000 60.000000, 358.807870 77.042130)

LINESTRING (360.000000 60.000000, 358.621655 87.795136)

LINESTRING (360.000000 60.000000, 334.678811 42.426991)

LINESTRING (360.000000 60.000000, 371.878925 54.770673)

LINESTRING (390.650614 27.391395, 333.317074 56.000539)

LINESTRING (390.650614 27.391395, 384.785835 34.677328)

LINESTRING (390.650614 27.391395, 358.145349 84.031046)

LINESTRING (390.650614 27.391395, 378.271875 61.893044)

LINESTRING (390.650614 27.391395, 360.745561 63.234751)

LINESTRING (390.650614 27.391395, 348.496084 66.370828)

LINESTRING (390.650614 27.391395, 358.807870 77.042130)

LINESTRING (390.650614 27.391395, 358.621655 87.795136)

LINESTRING (390.650614 27.391395, 334.678811 42.426991)

LINESTRING (390.650614 27.391395, 371.878925 54.770673)

LINESTRING (333.317074 56.000539, 384.785835 34.677328)

LINESTRING (333.317074 56.000539, 358.145349 84.031046)

LINESTRING (333.317074 56.000539, 382.523327 24.791851)

LINESTRING (333.317074 56.000539, 378.271875 61.893044)

LINESTRING (333.317074 56.000539, 360.745561 63.234751)

LINESTRING (333.317074 56.000539, 348.496084 66.370828)

LINESTRING (333.317074 56.000539, 358.807870 77.042130)

LINESTRING (333.317074 56.000539, 358.621655 87.795136)

LINESTRING (333.317074 56.000539, 334.678811 42.426991)

LINESTRING (333.317074 56.000539, 371.878925 54.770673)

LINESTRING (384.785835 34.677328, 358.145349 84.031046)

LINESTRING (384.785835 34.677328, 382.523327 24.791851)

LINESTRING (384.785835 34.677328, 378.271875 61.893044)

LINESTRING (384.785835 34.677328, 348.496084 66.370828)

LINESTRING (384.785835 34.677328, 358.621655 87.795136)

LINESTRING (384.785835 34.677328, 334.678811 42.426991)

LINESTRING (384.785835 34.677328, 371.878925 54.770673)

LINESTRING (358.145349 84.031046, 382.523327 24.791851)

LINESTRING (358.145349 84.031046, 360.745561 63.234751)

LINESTRING (358.145349 84.031046, 348.496084 66.370828)

LINESTRING (358.145349 84.031046, 358.807870 77.042130)

LINESTRING (358.145349 84.031046, 358.621655 87.795136)

LINESTRING (358.145349 84.031046, 334.678811 42.426991)

LINESTRING (382.523327 24.791851, 378.271875 61.893044)

LINESTRING (382.523327 24.791851, 360.745561 63.234751)

LINESTRING (382.523327 24.791851, 348.496084 66.370828)

LINESTRING (382.523327 24.791851, 358.807870 77.042130)

LINESTRING (382.523327 24.791851, 358.621655 87.795136)

LINESTRING (382.523327 24.791851, 334.678811 42.426991)

LINESTRING (382.523327 24.791851, 371.878925 54.770673)

LINESTRING (378.271875 61.893044, 360.745561 63.234751)

LINESTRING (378.271875 61.893044, 348.496084 66.370828)

LINESTRING (378.271875 61.893044, 358.807870 77.042130)

LINESTRING (378.271875 61.893044, 358.621655 87.795136)

LINESTRING (378.271875 61.893044, 334.678811 42.426991)

LINESTRING (378.271875 61.893044, 371.878925 54.770673)

LINESTRING (360.745561 63.234751, 348.496084 66.370828)

LINESTRING (360.745561 63.234751, 358.807870 77.042130)

LINESTRING (360.745561 63.234751, 358.621655 87.795136)

LINESTRING (360.745561 63.234751, 334.678811 42.426991)

LINESTRING (360.745561 63.234751, 371.878925 54.770673)

LINESTRING (348.496084 66.370828, 358.807870 77.042130)

LINESTRING (348.496084 66.370828, 358.621655 87.795136)

LINESTRING (348.496084 66.370828, 334.678811 42.426991)

LINESTRING (348.496084 66.370828, 371.878925 54.770673)

LINESTRING (358.807870 77.042130, 358.621655 87.795136)

LINESTRING (358.807870 77.042130, 334.678811 42.426991)

LINESTRING (358.807870 77.042130, 371.878925 54.770673)

LINESTRING (358.621655 87.795136, 334.678811 42.426991)

LINESTRING (358.621655 87.795136, 371.878925 54.770673)

LINESTRING (334.678811 42.426991, 371.878925 54.770673)

LINESTRING (60.000000 360.000000, 73.707298 385.388639)

LINESTRING (60.000000 360.000000, 79.831363 339.969984)

LINESTRING (60.000000 360.000000, 42.648098 368.517939)

LINESTRING (60.000000 360.000000, 91.114501 371.171144)

LINESTRING (60.000000 360.000000, 49.410629 362.008228)

LINESTRING (60.000000 360.000000, 63.026861 395.144863)

LINESTRING (60.000000 360.000000, 61.458216 326.087194)

LINESTRING (60.000000 360.000000, 54.800118 325.528162)

LINESTRING (60.000000 360.000000, 73.332996 354.754493)

LINESTRING (60.000000 360.000000, 24.693888 386.555367)

LINESTRING (60.000000 360.000000, 66.693039 325.681219)

LINESTRING (60.000000 360.000000, 55.177581 383.622443)

LINESTRING (73.707298 385.388639, 79.831363 339.969984)

LINESTRING (73.707298 385.388639, 42.648098 368.517939)

LINESTRING (73.707298 385.388639, 91.114501 371.171144)

LINESTRING (73.707298 385.388639, 49.410629 362.008228)

LINESTRING (73.707298 385.388639, 63.026861 395.144863)

LINESTRING (73.707298 385.388639, 61.458216 326.087194)

LINESTRING (73.707298 385.388639, 54.800118 325.528162)

LINESTRING (73.707298 385.388639, 73.332996 354.754493)

LINESTRING (73.707298 385.388639, 66.693039 325.681219)

LINESTRING (73.707298 385.388639, 55.177581 383.622443)

LINESTRING (79.831363 339.969984, 42.648098 368.517939)

LINESTRING (79.831363 339.969984, 91.114501 371.171144)

LINESTRING (79.831363 339.969984, 49.410629 362.008228)

LINESTRING (79.831363 339.969984, 63.026861 395.144863)

LINESTRING (79.831363 339.969984, 61.458216 326.087194)

LINESTRING (79.831363 339.969984, 54.800118 325.528162)

LINESTRING (79.831363 339.969984, 73.332996 354.754493)

LINESTRING (79.831363 339.969984, 66.693039 325.681219)

LINESTRING (79.831363 339.969984, 55.177581 383.622443)

LINESTRING (42.648098 368.517939, 91.114501 371.171144)

LINESTRING (42.648098 368.517939, 49.410629 362.008228)

LINESTRING (42.648098 368.517939, 63.026861 395.144863)

LINESTRING (42.648098 368.517939, 61.458216 326.087194)

LINESTRING (42.648098 368.517939, 54.800118 325.528162)

LINESTRING (42.648098 368.517939, 73.332996 354.754493)

LINESTRING (42.648098 368.517939, 24.693888 386.555367)

LINESTRING (42.648098 368.517939, 66.693039 325.681219)

LINESTRING (42.648098 368.517939, 55.177581 383.622443)

LINESTRING (91.114501 371.171144, 49.410629 362.008228)

LINESTRING (91.114501 371.171144, 63.026861 395.144863)

LINESTRING (91.114501 371.171144, 61.458216 326.087194)

LINESTRING (91.114501 371.171144, 24.693888 386.555367)

LINESTRING (91.114501 371.171144, 66.693039 325.681219)

LINESTRING (91.114501 371.171144, 55.177581 383.622443)

LINESTRING (49.410629 362.008228, 63.026861 395.144863)

LINESTRING (49.410629 362.008228, 61.458216 326.087194)

LINESTRING (49.410629 362.008228, 54.800118 325.528162)

LINESTRING (49.410629 362.008228, 73.332996 354.754493)

LINESTRING (49.410629 362.008228, 24.693888 386.555367)

LINESTRING (49.410629 362.008228, 55.177581 383.622443)

LINESTRING (63.026861 395.144863, 54.800118 325.528162)

LINESTRING (63.026861 395.144863, 73.332996 354.754493)

LINESTRING (63.026861 395.144863, 24.693888 386.555367)

LINESTRING (63.026861 395.144863, 66.693039 325.681219)

LINESTRING (61.458216 326.087194, 54.800118 325.528162)

LINESTRING (61.458216 326.087194, 24.693888 386.555367)

LINESTRING (61.458216 326.087194, 66.693039 325.681219)

LINESTRING (61.458216 326.087194, 55.177581 383.622443)

LINESTRING (54.800118 325.528162, 73.332996 354.754493)

LINESTRING (54.800118 325.528162, 24.693888 386.555367)

LINESTRING (54.800118 325.528162, 66.693039 325.681219)

LINESTRING (54.800118 325.528162, 55.177581 383.622443)

LINESTRING (73.332996 354.754493, 24.693888 386.555367)

LINESTRING (73.332996 354.754493, 66.693039 325.681219)

LINESTRING (73.332996 354.754493, 55.177581 383.622443)

LINESTRING (24.693888 386.555367, 66.693039 325.681219)

LINESTRING (66.693039 325.681219, 55.177581 383.622443)

LINESTRING (360.000000 360.000000, 362.410806 361.529497)

LINESTRING (360.000000 360.000000, 379.868884 349.173593)

LINESTRING (360.000000 360.000000, 369.720155 327.245711)

LINESTRING (360.000000 360.000000, 368.357525 338.977705)

LINESTRING (360.000000 360.000000, 352.803434 358.195472)

LINESTRING (360.000000 360.000000, 393.358241 379.845812)

LINESTRING (360.000000 360.000000, 360.513075 343.083217)

LINESTRING (360.000000 360.000000, 381.800341 373.100612)

LINESTRING (360.000000 360.000000, 361.245874 361.395566)

LINESTRING (360.000000 360.000000, 385.317711 359.347634)

LINESTRING (360.000000 360.000000, 342.776672 372.528748)

LINESTRING (360.000000 360.000000, 389.441289 387.987259)

LINESTRING (362.410806 361.529497, 379.868884 349.173593)

LINESTRING (362.410806 361.529497, 369.720155 327.245711)

LINESTRING (362.410806 361.529497, 368.357525 338.977705)

LINESTRING (362.410806 361.529497, 352.803434 358.195472)

LINESTRING (362.410806 361.529497, 393.358241 379.845812)

LINESTRING (362.410806 361.529497, 381.800341 373.100612)

LINESTRING (362.410806 361.529497, 361.245874 361.395566)

LINESTRING (362.410806 361.529497, 342.776672 372.528748)

LINESTRING (362.410806 361.529497, 389.441289 387.987259)

LINESTRING (379.868884 349.173593, 369.720155 327.245711)

LINESTRING (379.868884 349.173593, 368.357525 338.977705)

LINESTRING (379.868884 349.173593, 352.803434 358.195472)

LINESTRING (379.868884 349.173593, 393.358241 379.845812)

LINESTRING (379.868884 349.173593, 360.513075 343.083217)

LINESTRING (379.868884 349.173593, 381.800341 373.100612)

LINESTRING (379.868884 349.173593, 361.245874 361.395566)

LINESTRING (379.868884 349.173593, 385.317711 359.347634)

LINESTRING (379.868884 349.173593, 342.776672 372.528748)

LINESTRING (379.868884 349.173593, 389.441289 387.987259)

LINESTRING (369.720155 327.245711, 368.357525 338.977705)

LINESTRING (369.720155 327.245711, 352.803434 358.195472)

LINESTRING (369.720155 327.245711, 393.358241 379.845812)

LINESTRING (369.720155 327.245711, 360.513075 343.083217)

LINESTRING (369.720155 327.245711, 381.800341 373.100612)

LINESTRING (369.720155 327.245711, 361.245874 361.395566)

LINESTRING (369.720155 327.245711, 385.317711 359.347634)

LINESTRING (369.720155 327.245711, 342.776672 372.528748)

LINESTRING (369.720155 327.245711, 389.441289 387.987259)

LINESTRING (368.357525 338.977705, 352.803434 358.195472)

LINESTRING (368.357525 338.977705, 393.358241 379.845812)

LINESTRING (368.357525 338.977705, 360.513075 343.083217)

LINESTRING (368.357525 338.977705, 381.800341 373.100612)

LINESTRING (368.357525 338.977705, 361.245874 361.395566)

LINESTRING (368.357525 338.977705, 342.776672 372.528748)

LINESTRING (368.357525 338.977705, 389.441289 387.987259)

LINESTRING (352.803434 358.195472, 393.358241 379.845812)

LINESTRING (352.803434 358.195472, 360.513075 343.083217)

LINESTRING (352.803434 358.195472, 381.800341 373.100612)

LINESTRING (352.803434 358.195472, 361.245874 361.395566)

LINESTRING (352.803434 358.195472, 385.317711 359.347634)

LINESTRING (352.803434 358.195472, 342.776672 372.528748)

LINESTRING (352.803434 358.195472, 389.441289 387.987259)

LINESTRING (393.358241 379.845812, 360.513075 343.083217)

LINESTRING (393.358241 379.845812, 381.800341 373.100612)

LINESTRING (393.358241 379.845812, 361.245874 361.395566)

LINESTRING (393.358241 379.845812, 385.317711 359.347634)

LINESTRING (393.358241 379.845812, 342.776672 372.528748)

LINESTRING (393.358241 379.845812, 389.441289 387.987259)

LINESTRING (360.513075 343.083217, 381.800341 373.100612)

LINESTRING (360.513075 343.083217, 361.245874 361.395566)

LINESTRING (360.513075 343.083217, 385.317711 359.347634)

LINESTRING (360.513075 343.083217, 342.776672 372.528748)

LINESTRING (360.513075 343.083217, 389.441289 387.987259)

LINESTRING (381.800341 373.100612, 361.245874 361.395566)

LINESTRING (381.800341 373.100612, 385.317711 359.347634)

LINESTRING (381.800341 373.100612, 342.776672 372.528748)

LINESTRING (381.800341 373.100612, 389.441289 387.987259)

LINESTRING (361.245874 361.395566, 385.317711 359.347634)

LINESTRING (361.245874 361.395566, 342.776672 372.528748)

LINESTRING (361.245874 361.395566, 389.441289 387.987259)

LINESTRING (385.317711 359.347634, 342.776672 372.528748)

LINESTRING (385.317711 359.347634, 389.441289 387.987259)

LINESTRING (342.776672 372.528748, 389.441289 387.987259)

LINESTRING (74.019157 77.619941, 358.621655 87.795136)

LINESTRING (33.054472 25.331611, 333.317074 56.000539)

LINESTRING (60.000000 60.000000, 360.000000 60.000000)

LINESTRING (333.317074 56.000539, 49.410629 362.008228)

LINESTRING (378.271875 61.893044, 42.648098 368.517939)

LINESTRING (360.000000 60.000000, 60.000000 360.000000)

LINESTRING (49.410629 362.008228, 362.410806 361.529497)

LINESTRING (49.410629 362.008228, 381.800341 373.100612)

LINESTRING (60.000000 360.000000, 360.000000 360.000000)

