LINESTRING (80.000000 80.000000, 400.384482 135.669928)

LINESTRING (400.384482 135.669928, 670.359601 73.356826)

LINESTRING (670.359601 73.356826, 875.920869 -175.370191)

LINESTRING (875.920869 -175.370191, 956.382230 -460.518550)

LINESTRING (956.382230 -460.518550, 882.518394 -720.165218)

LINESTRING (882.518394 -720.165218, 702.368219 -956.338386)

LINESTRING (882.518394 -720.165218, 836.693391 -1047.753011)

LINESTRING (882.518394 -720.165218, 928.716140 -977.665793)

LINESTRING (956.382230 -460.518550, 1055.809323 -755.062905)

LINESTRING (1055.809323 -755.062905, 986.842817 -1008.825893)

LINESTRING (1055.809323 -755.062905, 1114.078192 -1010.921773)

LINESTRING (1055.809323 -755.062905, 1305.736103 -969.126307)

LINESTRING (956.382230 -460.518550, 1132.818966 -664.055753)

LINESTRING (1132.818966 -664.055753, 1177.869567 -979.465891)

LINESTRING (1132.818966 -664.055753, 1319.102593 -850.137854)

LINESTRING (1132.818966 -664.055753, 1386.394602 -745.869289)

LINESTRING (875.920869 -175.370191, 1077.080235 -368.939007)

LINESTRING (1077.080235 -368.939007, 1123.276307 -677.235370)

LINESTRING (1123.276307 -677.235370, 1007.983425 -963.860727)

LINESTRING (1123.276307 -677.235370, 1161.196634 -940.350099)

LINESTRING (1123.276307 -677.235370, 1372.954911 -915.264628)

LINESTRING (1077.080235 -368.939007, 1284.344157 -607.878478)

LINESTRING (1284.344157 -607.878478, 1394.616684 -893.467986)

LINESTRING (1284.344157 -607.878478, 1501.153788 -836.270535)

LINESTRING (1284.344157 -607.878478, 1578.645698 -683.343592)

LINESTRING (1077.080235 -368.939007, 1380.223959 -409.309349)

LINESTRING (1380.223959 -409.309349, 1626.905439 -622.920684)

LINESTRING (1380.223959 -409.309349, 1706.786670 -448.827264)

LINESTRING (1380.223959 -409.309349, 1632.018367 -295.497333)

LINESTRING (875.920869 -175.370191, 1146.373767 -236.687265)

LINESTRING (1146.373767 -236.687265, 1347.962558 -447.551383)

LINESTRING (1347.962558 -447.551383, 1387.971282 -769.582483)

LINESTRING (1347.962558 -447.551383, 1554.341412 -699.301875)

LINESTRING (1347.962558 -447.551383, 1606.486098 -548.385066)

LINESTRING (1146.373767 -236.687265, 1434.531067 -330.452442)

LINESTRING (1434.531067 -330.452442, 1681.426008 -536.728617)

LINESTRING (1434.531067 -330.452442, 1744.924795 -421.869229)

LINESTRING (1434.531067 -330.452442, 1715.100611 -213.036362)

LINESTRING (1146.373767 -236.687265, 1433.428070 -127.460683)

LINESTRING (1433.428070 -127.460683, 1750.702568 -226.808453)

LINESTRING (1433.428070 -127.460683, 1703.969632 -16.270566)

LINESTRING (1433.428070 -127.460683, 1645.264661 89.624074)

LINESTRING (670.359601 73.356826, 940.163992 -37.688550)

LINESTRING (940.163992 -37.688550, 1126.267219 -250.142920)

LINESTRING (1126.267219 -250.142920, 1170.408502 -547.678707)

LINESTRING (1170.408502 -547.678707, 1063.732311 -830.103742)

LINESTRING (1170.408502 -547.678707, 1232.267117 -871.135289)

LINESTRING (1170.408502 -547.678707, 1391.014542 -779.355952)

LINESTRING (1126.267219 -250.142920, 1320.880853 -434.703169)

LINESTRING (1320.880853 -434.703169, 1407.672772 -721.886402)

LINESTRING (1320.880853 -434.703169, 1564.213475 -651.544589)

LINESTRING (1320.880853 -434.703169, 1593.804162 -526.183816)

LINESTRING (1126.267219 -250.142920, 1433.114603 -357.816083)

LINESTRING (1433.114603 -357.816083, 1671.088201 -567.457800)

LINESTRING (1433.114603 -357.816083, 1694.275059 -465.618510)

LINESTRING (1433.114603 -357.816083, 1703.006021 -251.670995)

LINESTRING (940.163992 -37.688550, 1253.400679 -100.781494)

LINESTRING (1253.400679 -100.781494, 1448.678315 -322.915077)

LINESTRING (1448.678315 -322.915077, 1510.356555 -590.524279)

LINESTRING (1448.678315 -322.915077, 1633.684435 -540.988164)

LINESTRING (1448.678315 -322.915077, 1714.551073 -395.021299)

LINESTRING (1253.400679 -100.781494, 1580.366866 -165.365791)

LINESTRING (1580.366866 -165.365791, 1819.873640 -411.479992)

LINESTRING (1580.366866 -165.365791, 1861.160296 -228.489669)

LINESTRING (1580.366866 -165.365791, 1902.697966 -104.244586)

LINESTRING (1253.400679 -100.781494, 1525.680662 -2.355535)

LINESTRING (1525.680662 -2.355535, 1793.721713 -67.788838)

LINESTRING (1525.680662 -2.355535, 1799.814032 113.837468)

LINESTRING (1525.680662 -2.355535, 1770.048951 217.462781)

LINESTRING (940.163992 -37.688550, 1264.294665 5.857352)

LINESTRING (1264.294665 5.857352, 1576.381500 -95.408526)

LINESTRING (1576.381500 -95.408526, 1761.748716 -275.660485)

LINESTRING (1576.381500 -95.408526, 1903.165942 -169.464572)

LINESTRING (1576.381500 -95.408526, 1902.995805 -30.000319)

LINESTRING (1264.294665 5.857352, 1575.108328 103.371518)

LINESTRING (1575.108328 103.371518, 1828.258210 10.627084)

LINESTRING (1575.108328 103.371518, 1894.725950 200.169110)

LINESTRING (1575.108328 103.371518, 1812.372055 337.070899)

LINESTRING (1264.294665 5.857352, 1484.197753 205.093380)

LINESTRING (1484.197753 205.093380, 1739.840226 261.980992)

LINESTRING (1484.197753 205.093380, 1656.861807 422.806759)

LINESTRING (1484.197753 205.093380, 1578.852388 475.029822)

LINESTRING (670.359601 73.356826, 967.327823 178.229554)

LINESTRING (967.327823 178.229554, 1231.138837 65.247648)

LINESTRING (1231.138837 65.247648, 1432.838079 -117.859759)

LINESTRING (1432.838079 -117.859759, 1537.046484 -431.449380)

LINESTRING (1432.838079 -117.859759, 1615.691914 -350.706506)

LINESTRING (1432.838079 -117.859759, 1734.162628 -232.754012)

LINESTRING (1231.138837 65.247648, 1547.511457 -30.443231)

LINESTRING (1547.511457 -30.443231, 1788.255480 -243.469805)

LINESTRING (1547.511457 -30.443231, 1800.562021 -110.830223)

LINESTRING (1547.511457 -30.443231, 1813.682846 38.527784)

LINESTRING (1231.138837 65.247648, 1520.186252 138.797492)

LINESTRING (1520.186252 138.797492, 1847.812870 83.876631)

LINESTRING (1520.186252 138.797492, 1819.718899 203.226038)

LINESTRING (1520.186252 138.797492, 1759.063989 348.350423)

LINESTRING (967.327823 178.229554, 1230.322411 278.372164)

LINESTRING (1230.322411 278.372164, 1497.070789 202.460417)

LINESTRING (1497.070789 202.460417, 1702.163115 -34.155850)

LINESTRING (1497.070789 202.460417, 1785.777344 124.408964)

LINESTRING (1497.070789 202.460417, 1780.829696 281.329350)

LINESTRING (1230.322411 278.372164, 1523.783072 386.255941)

LINESTRING (1523.783072 386.255941, 1789.317396 334.060492)

LINESTRING (1523.783072 386.255941, 1831.264083 477.783064)

LINESTRING (1523.783072 386.255941, 1743.071343 623.712721)

LINESTRING (1230.322411 278.372164, 1469.752599 486.152101)

LINESTRING (1469.752599 486.152101, 1751.247140 533.234975)

LINESTRING (1469.752599 486.152101, 1653.288168 721.455406)

LINESTRING (1469.752599 486.152101, 1518.746902 775.810194)

LINESTRING (967.327823 178.229554, 1214.650138 400.035017)

LINESTRING (1214.650138 400.035017, 1536.143973 483.492958)

LINESTRING (1536.143973 483.492958, 1794.933266 414.040117)

LINESTRING (1536.143973 483.492958, 1864.180653 556.944133)

LINESTRING (1536.143973 483.492958, 1714.620573 690.135314)

LINESTRING (1214.650138 400.035017, 1454.655514 590.246286)

LINESTRING (1454.655514 590.246286, 1771.050181 658.326007)

LINESTRING (1454.655514 590.246286, 1668.711030 808.584819)

LINESTRING (1454.655514 590.246286, 1503.423067 911.211688)

LINESTRING (1214.650138 400.035017, 1271.278209 675.794126)

LINESTRING (1271.278209 675.794126, 1483.056292 914.051229)

LINESTRING (1271.278209 675.794126, 1359.741516 961.907908)

LINESTRING (1271.278209 675.794126, 1191.351976 1004.421125)

LINESTRING (400.384482 135.669928, 723.178802 192.798839)

LINESTRING (723.178802 192.798839, 989.012077 147.739697)

LINESTRING (989.012077 147.739697, 1205.172255 -76.228584)

LINESTRING (1205.172255 -76.228584, 1259.168353 -342.700052)

LINESTRING (1259.168353 -342.700052, 1186.195922 -624.332986)

LINESTRING (1259.168353 -342.700052, 1325.924488 -608.324424)

LINESTRING (1259.168353 -342.700052, 1443.311675 -548.873168)

LINESTRING (1205.172255 -76.228584, 1414.682685 -267.900004)

LINESTRING (1414.682685 -267.900004, 1504.045057 -523.130614)

LINESTRING (1414.682685 -267.900004, 1601.505065 -478.535889)

LINESTRING (1414.682685 -267.900004, 1695.740699 -330.195201)

LINESTRING (1205.172255 -76.228584, 1529.438928 -141.454240)

LINESTRING (1529.438928 -141.454240, 1726.409026 -379.554262)

LINESTRING (1529.438928 -141.454240, 1790.742550 -243.401504)

LINESTRING (1529.438928 -141.454240, 1822.639558 -32.808346)

LINESTRING (989.012077 147.739697, 1276.062018 65.428543)

LINESTRING (1276.062018 65.428543, 1459.764780 -164.239056)

LINESTRING (1459.764780 -164.239056, 1533.696662 -414.130825)

LINESTRING (1459.764780 -164.239056, 1644.879820 -350.089801)

LINESTRING (1459.764780 -164.239056, 1727.795925 -226.964772)

LINESTRING (1276.062018 65.428543, 1526.921837 -23.646384)

LINESTRING (1526.921837 -23.646384, 1752.033649 -201.934661)

LINESTRING (1526.921837 -23.646384, 1835.402155 -135.754320)

LINESTRING (1526.921837 -23.646384, 1841.999752 21.064211)

LINESTRING (1276.062018 65.428543, 1600.349207 168.373548)

LINESTRING (1600.349207 168.373548, 1896.900377 122.182995)

LINESTRING (1600.349207 168.373548, 1898.120310 259.435342)

LINESTRING (1600.349207 168.373548, 1822.818819 365.412650)

LINESTRING (989.012077 147.739697, 1298.409510 256.192722)

LINESTRING (1298.409510 256.192722, 1596.624394 177.137795)

LINESTRING (1596.624394 177.137795, 1829.935953 -38.381635)

LINESTRING (1596.624394 177.137795, 1889.056428 72.941981)

LINESTRING (1596.624394 177.137795, 1916.141421 243.711236)

LINESTRING (1298.409510 256.192722, 1557.687536 370.872771)

LINESTRING (1557.687536 370.872771, 1831.063411 277.167267)

LINESTRING (1557.687536 370.872771, 1879.479705 485.648185)

LINESTRING (1557.687536 370.872771, 1788.249601 560.266801)

LINESTRING (1298.409510 256.192722, 1514.007177 441.529920)

LINESTRING (1514.007177 441.529920, 1790.637576 499.504740)

LINESTRING (1514.007177 441.529920, 1717.257048 648.513183)

LINESTRING (1514.007177 441.529920, 1558.156535 756.773504)

LINESTRING (723.178802 192.798839, 976.959595 236.092549)

LINESTRING (976.959595 236.092549, 1246.975430 160.009295)

LINESTRING (1246.975430 160.009295, 1462.904046 -46.521991)

LINESTRING (1462.904046 -46.521991, 1553.369882 -302.639744)

LINESTRING (1462.904046 -46.521991, 1655.798720 -260.948161)

LINESTRING (1462.904046 -46.521991, 1755.315127 -90.543060)

LINESTRING (1246.975430 160.009295, 1500.125685 95.396254)

LINESTRING (1500.125685 95.396254, 1698.670777 -96.145313)

LINESTRING (1500.125685 95.396254, 1821.760472 45.232737)

LINESTRING (1500.125685 95.396254, 1808.341190 185.062587)

LINESTRING (1246.975430 160.009295, 1549.373487 255.024786)

LINESTRING (1549.373487 255.024786, 1809.063697 189.788840)

LINESTRING (1549.373487 255.024786, 1870.102448 335.248487)

LINESTRING (1549.373487 255.024786, 1777.471744 506.655796)

LINESTRING (976.959595 236.092549, 1285.602708 349.520707)

LINESTRING (1285.602708 349.520707, 1594.444555 241.792109)

LINESTRING (1594.444555 241.792109, 1770.618316 8.057574)

LINESTRING (1594.444555 241.792109, 1883.833604 140.348431)

LINESTRING (1594.444555 241.792109, 1874.903536 338.692220)

LINESTRING (1285.602708 349.520707, 1548.529983 429.052021)

LINESTRING (1548.529983 429.052021, 1807.171162 366.821202)

LINESTRING (1548.529983 429.052021, 1836.004676 474.253767)

LINESTRING (1548.529983 429.052021, 1727.414384 667.583485)

LINESTRING (1285.602708 349.520707, 1520.834139 593.963726)

LINESTRING (1520.834139 593.963726, 1847.491545 673.718416)

LINESTRING (1520.834139 593.963726, 1708.026014 839.539853)

LINESTRING (1520.834139 593.963726, 1585.914834 892.808897)

LINESTRING (976.959595 236.092549, 1163.927334 454.146384)

LINESTRING (1163.927334 454.146384, 1467.219960 565.549023)

LINESTRING (1467.219960 565.549023, 1746.076429 448.263287)

LINESTRING (1467.219960 565.549023, 1776.150510 629.590180)

LINESTRING (1467.219960 565.549023, 1673.041013 784.482351)

LINESTRING (1163.927334 454.146384, 1363.533706 697.743731)

LINESTRING (1363.533706 697.743731, 1671.519747 814.213437)

LINESTRING (1363.533706 697.743731, 1569.378858 941.296495)

LINESTRING (1363.533706 697.743731, 1402.542154 967.178274)

LINESTRING (1163.927334 454.146384, 1224.577778 758.480081)

LINESTRING (1224.577778 758.480081, 1406.643034 1003.014929)

LINESTRING (1224.577778 758.480081, 1308.672322 1058.349912)

LINESTRING (1224.577778 758.480081, 1177.027900 1050.722643)

LINESTRING (723.178802 192.798839, 932.479454 388.906832)

LINESTRING (932.479454 388.906832, 1205.856870 474.598792)

LINESTRING (1205.856870 474.598792, 1494.608280 394.887917)

LINESTRING (1494.608280 394.887917, 1689.697908 188.244056)

LINESTRING (1494.608280 394.887917, 1757.975088 288.707010)

LINESTRING (1494.608280 394.887917, 1755.941617 447.159314)

LINESTRING (1205.856870 474.598792, 1529.148880 529.153653)

LINESTRING (1529.148880 529.153653, 1842.463689 460.019511)

LINESTRING (1529.148880 529.153653, 1847.617731 576.941167)

LINESTRING (1529.148880 529.153653, 1772.855163 749.050397)

LINESTRING (1205.856870 474.598792, 1414.021210 655.969669)

LINESTRING (1414.021210 655.969669, 1705.749307 752.798584)

LINESTRING (1414.021210 655.969669, 1635.646634 890.371878)

LINESTRING (1414.021210 655.969669, 1485.316105 920.685039)

LINESTRING (932.479454 388.906832, 1151.738793 636.317971)

LINESTRING (1151.738793 636.317971, 1421.317013 707.773411)

LINESTRING (1421.317013 707.773411, 1675.019909 639.030086)

LINESTRING (1421.317013 707.773411, 1750.383606 790.581240)

LINESTRING (1421.317013 707.773411, 1617.784823 908.175195)

LINESTRING (1151.738793 636.317971, 1398.960924 814.820529)

LINESTRING (1398.960924 814.820529, 1675.506781 868.911972)

LINESTRING (1398.960924 814.820529, 1614.455446 993.960049)

LINESTRING (1398.960924 814.820529, 1491.411581 1089.126914)

LINESTRING (1151.738793 636.317971, 1229.800142 892.817108)

LINESTRING (1229.800142 892.817108, 1459.236539 1099.611904)

LINESTRING (1229.800142 892.817108, 1342.241216 1157.059002)

LINESTRING (1229.800142 892.817108, 1176.450921 1160.518202)

LINESTRING (932.479454 388.906832, 985.346017 693.198893)

LINESTRING (985.346017 693.198893, 1221.877272 936.890696)

LINESTRING (1221.877272 936.890696, 1503.916074 979.237238)

LINESTRING (1221.877272 936.890696, 1410.464369 1116.942647)

LINESTRING (1221.877272 936.890696, 1318.618270 1259.836420)

LINESTRING (985.346017 693.198893, 1092.005688 970.238238)

LINESTRING (1092.005688 970.238238, 1272.117048 1148.893507)

LINESTRING (1092.005688 970.238238, 1189.558469 1292.279357)

LINESTRING (1092.005688 970.238238, 1030.603682 1247.943398)

LINESTRING (985.346017 693.198893, 880.041796 979.040700)

LINESTRING (880.041796 979.040700, 943.003365 1252.150097)

LINESTRING (880.041796 979.040700, 841.939729 1267.579085)

LINESTRING (880.041796 979.040700, 662.224155 1201.511207)

LINESTRING (400.384482 135.669928, 620.823797 385.163017)

LINESTRING (620.823797 385.163017, 948.400916 432.859089)

LINESTRING (948.400916 432.859089, 1278.074584 349.203953)

LINESTRING (1278.074584 349.203953, 1461.625378 169.741623)

LINESTRING (1461.625378 169.741623, 1508.599735 -104.558226)

LINESTRING (1461.625378 169.741623, 1712.216389 -41.282751)

LINESTRING (1461.625378 169.741623, 1749.963345 58.201808)

LINESTRING (1278.074584 349.203953, 1597.140361 263.891911)

LINESTRING (1597.140361 263.891911, 1785.447651 87.164422)

LINESTRING (1597.140361 263.891911, 1898.203441 207.082772)

LINESTRING (1597.140361 263.891911, 1880.349745 342.717825)

LINESTRING (1278.074584 349.203953, 1545.813722 458.860066)

LINESTRING (1545.813722 458.860066, 1833.741475 392.257246)

LINESTRING (1545.813722 458.860066, 1839.084261 504.126358)

LINESTRING (1545.813722 458.860066, 1728.966656 665.798202)

LINESTRING (948.400916 432.859089, 1236.761920 483.131557)

LINESTRING (1236.761920 483.131557, 1495.720335 422.432517)

LINESTRING (1495.720335 422.432517, 1700.492713 247.711138)

LINESTRING (1495.720335 422.432517, 1749.219887 366.873992)

LINESTRING (1495.720335 422.432517, 1756.173597 474.543974)

LINESTRING (1236.761920 483.131557, 1546.390794 586.816387)

LINESTRING (1546.390794 586.816387, 1817.980613 503.136402)

LINESTRING (1546.390794 586.816387, 1846.294285 695.222898)

LINESTRING (1546.390794 586.816387, 1767.566246 806.591656)

LINESTRING (1236.761920 483.131557, 1476.215545 659.672881)

LINESTRING (1476.215545 659.672881, 1734.815719 772.223268)

LINESTRING (1476.215545 659.672881, 1687.819023 909.883606)

LINESTRING (1476.215545 659.672881, 1566.774227 940.940833)

LINESTRING (948.400916 432.859089, 1160.885977 608.671012)

LINESTRING (1160.885977 608.671012, 1419.193786 663.626618)

LINESTRING (1419.193786 663.626618, 1690.352913 578.873638)

LINESTRING (1419.193786 663.626618, 1717.818655 703.832617)

LINESTRING (1419.193786 663.626618, 1644.463853 878.856652)

LINESTRING (1160.885977 608.671012, 1375.960220 846.089128)

LINESTRING (1375.960220 846.089128, 1679.793660 944.455067)

LINESTRING (1375.960220 846.089128, 1569.924969 1079.377888)

LINESTRING (1375.960220 846.089128, 1453.997035 1124.870255)

LINESTRING (1160.885977 608.671012, 1272.358888 879.488807)

LINESTRING (1272.358888 879.488807, 1493.590897 1083.595562)

LINESTRING (1272.358888 879.488807, 1330.622031 1137.448310)

LINESTRING (1272.358888 879.488807, 1174.004771 1141.849560)

LINESTRING (620.823797 385.163017, 817.096969 571.723621)

LINESTRING (817.096969 571.723621, 1128.315696 623.728237)

LINESTRING (1128.315696 623.728237, 1418.186448 511.799447)

LINESTRING (1418.186448 511.799447, 1635.922741 319.924832)

LINESTRING (1418.186448 511.799447, 1727.212655 456.225787)

LINESTRING (1418.186448 511.799447, 1707.606692 612.963811)

LINESTRING (1128.315696 623.728237, 1394.091704 703.276578)

LINESTRING (1394.091704 703.276578, 1705.935741 599.242324)

LINESTRING (1394.091704 703.276578, 1701.316367 752.579463)

LINESTRING (1394.091704 703.276578, 1585.285388 913.793387)

LINESTRING (1128.315696 623.728237, 1379.365215 819.073393)

LINESTRING (1379.365215 819.073393, 1665.486086 871.986073)

LINESTRING (1379.365215 819.073393, 1591.231094 1025.908228)

LINESTRING (1379.365215 819.073393, 1429.004333 1139.713501)

LINESTRING (817.096969 571.723621, 1042.767505 763.250148)

LINESTRING (1042.767505 763.250148, 1309.358005 834.389503)

LINESTRING (1309.358005 834.389503, 1612.034917 754.608172)

LINESTRING (1309.358005 834.389503, 1579.715852 910.708318)

LINESTRING (1309.358005 834.389503, 1557.175759 1068.498106)

LINESTRING (1042.767505 763.250148, 1232.970335 946.290763)

LINESTRING (1232.970335 946.290763, 1488.452309 986.571303)

LINESTRING (1232.970335 946.290763, 1413.571496 1173.801104)

LINESTRING (1232.970335 946.290763, 1338.847395 1269.713947)

LINESTRING (1042.767505 763.250148, 1146.629657 1043.874254)

LINESTRING (1146.629657 1043.874254, 1344.686442 1236.795913)

LINESTRING (1146.629657 1043.874254, 1241.717887 1325.987853)

LINESTRING (1146.629657 1043.874254, 1089.887041 1302.778466)

LINESTRING (817.096969 571.723621, 857.179996 845.313397)

LINESTRING (857.179996 845.313397, 1057.188941 1037.697886)

LINESTRING (1057.188941 1037.697886, 1334.783508 1112.467747)

LINESTRING (1057.188941 1037.697886, 1275.052415 1239.146868)

LINESTRING (1057.188941 1037.697886, 1138.215677 1289.209594)

LINESTRING (857.179996 845.313397, 955.557450 1167.690744)

LINESTRING (955.557450 1167.690744, 1203.734816 1368.324544)

LINESTRING (955.557450 1167.690744, 1057.052544 1478.221322)

LINESTRING (955.557450 1167.690744, 895.146645 1475.775064)

LINESTRING (857.179996 845.313397, 798.014434 1124.811226)

LINESTRING (798.014434 1124.811226, 901.904972 1404.855476)

LINESTRING (798.014434 1124.811226, 721.080050 1399.120850)

LINESTRING (798.014434 1124.811226, 590.752278 1341.936640)

LINESTRING (620.823797 385.163017, 687.720527 677.615061)

LINESTRING (687.720527 677.615061, 886.231733 918.710686)

LINESTRING (886.231733 918.710686, 1165.106721 959.325003)

LINESTRING (1165.106721 959.325003, 1487.549429 876.713238)

LINESTRING (1165.106721 959.325003, 1491.799284 1015.656106)

LINESTRING (1165.106721 959.325003, 1403.382320 1196.077841)

LINESTRING (886.231733 918.710686, 1119.439898 1107.927862)

LINESTRING (1119.439898 1107.927862, 1427.642282 1185.538563)

LINESTRING (1119.439898 1107.927862, 1308.241944 1306.677873)

LINESTRING (1119.439898 1107.927862, 1221.000480 1394.915685)

LINESTRING (886.231733 918.710686, 942.184597 1224.668887)

LINESTRING (942.184597 1224.668887, 1159.871894 1423.260031)

LINESTRING (942.184597 1224.668887, 981.093352 1549.145163)

LINESTRING (942.184597 1224.668887, 840.975526 1529.198712)

LINESTRING (687.720527 677.615061, 781.264225 1001.130846)

LINESTRING (781.264225 1001.130846, 987.893767 1240.431362)

LINESTRING (987.893767 1240.431362, 1308.677989 1299.403412)

LINESTRING (987.893767 1240.431362, 1177.902898 1482.564172)

LINESTRING (987.893767 1240.431362, 1043.821504 1501.634266)

LINESTRING (781.264225 1001.130846, 877.250349 1295.556053)

LINESTRING (877.250349 1295.556053, 1082.414720 1531.827468)

LINESTRING (877.250349 1295.556053, 933.563633 1561.945924)

LINESTRING (877.250349 1295.556053, 762.264036 1613.618669)

LINESTRING (781.264225 1001.130846, 689.959094 1292.996290)

LINESTRING (689.959094 1292.996290, 770.425018 1589.128137)

LINESTRING (689.959094 1292.996290, 598.488968 1554.382155)

LINESTRING (689.959094 1292.996290, 457.032737 1507.650352)

LINESTRING (687.720527 677.615061, 625.907087 965.795006)

LINESTRING (625.907087 965.795006, 685.345204 1227.645257)

LINESTRING (685.345204 1227.645257, 919.517951 1478.826262)

LINESTRING (685.345204 1227.645257, 732.328546 1482.863827)

LINESTRING (685.345204 1227.645257, 588.956511 1488.200351)

LINESTRING (625.907087 965.795006, 546.601358 1235.195530)

LINESTRING (546.601358 1235.195530, 622.095298 1527.965734)

LINESTRING (546.601358 1235.195530, 460.335402 1535.353905)

LINESTRING (546.601358 1235.195530, 335.270179 1461.297545)

LINESTRING (625.907087 965.795006, 431.141663 1160.968921)

LINESTRING (431.141663 1160.968921, 340.105870 1435.815479)

LINESTRING (431.141663 1160.968921, 208.046833 1398.677468)

LINESTRING (431.141663 1160.968921, 170.266028 1258.305251)

LINESTRING (80.000000 80.000000, 313.485105 295.293245)

LINESTRING (313.485105 295.293245, 592.045567 345.968420)

LINESTRING (592.045567 345.968420, 876.866416 245.128300)

LINESTRING (876.866416 245.128300, 1054.252070 66.505067)

LINESTRING (1054.252070 66.505067, 1132.207079 -233.149021)

LINESTRING (1132.207079 -233.149021, 1040.450762 -557.341180)

LINESTRING (1132.207079 -233.149021, 1200.384440 -524.487724)

LINESTRING (1132.207079 -233.149021, 1318.309105 -430.098430)

LINESTRING (1054.252070 66.505067, 1232.617585 -136.384374)

LINESTRING (1232.617585 -136.384374, 1346.291135 -395.570682)

LINESTRING (1232.617585 -136.384374, 1420.550812 -364.767424)

LINESTRING (1232.617585 -136.384374, 1549.908779 -194.537403)

LINESTRING (1054.252070 66.505067, 1331.546440 -24.589427)

LINESTRING (1331.546440 -24.589427, 1540.305101 -250.513063)

LINESTRING (1331.546440 -24.589427, 1658.827242 -70.079035)

LINESTRING (1331.546440 -24.589427, 1586.828223 82.553866)

LINESTRING (876.866416 245.128300, 1157.632976 206.437658)

LINESTRING (1157.632976 206.437658, 1384.850988 -24.153648)

LINESTRING (1384.850988 -24.153648, 1433.776433 -293.915025)

LINESTRING (1384.850988 -24.153648, 1624.889857 -251.908133)

LINESTRING (1384.850988 -24.153648, 1680.616345 -83.859555)

LINESTRING (1157.632976 206.437658, 1441.983886 154.607400)

LINESTRING (1441.983886 154.607400, 1632.442359 -54.207573)

LINESTRING (1441.983886 154.607400, 1713.229119 44.904873)

LINESTRING (1441.983886 154.607400, 1714.015885 252.743025)

LINESTRING (1157.632976 206.437658, 1469.634000 247.799075)

LINESTRING (1469.634000 247.799075, 1794.770821 171.851957)

LINESTRING (1469.634000 247.799075, 1776.782813 364.409370)

LINESTRING (1469.634000 247.799075, 1706.740545 498.887229)

LINESTRING (876.866416 245.128300, 1131.022279 300.097987)

LINESTRING (1131.022279 300.097987, 1430.069715 236.867555)

LINESTRING (1430.069715 236.867555, 1682.168056 38.021631)

LINESTRING (1430.069715 236.867555, 1726.085728 180.318661)

LINESTRING (1430.069715 236.867555, 1684.977156 297.520940)

LINESTRING (1131.022279 300.097987, 1385.244999 398.176422)

LINESTRING (1385.244999 398.176422, 1637.791838 311.601253)

LINESTRING (1385.244999 398.176422, 1681.993507 476.727506)

LINESTRING (1385.244999 398.176422, 1633.366599 573.236915)

LINESTRING (1131.022279 300.097987, 1354.503375 501.896569)

LINESTRING (1354.503375 501.896569, 1618.377753 581.905060)

LINESTRING (1354.503375 501.896569, 1568.717725 753.865781)

LINESTRING (1354.503375 501.896569, 1433.653892 779.456225)

LINESTRING (592.045567 345.968420, 892.731767 409.982583)

LINESTRING (892.731767 409.982583, 1192.661426 316.195627)

LINESTRING (1192.661426 316.195627, 1437.649988 75.732384)

LINESTRING (1437.649988 75.732384, 1535.236541 -200.777714)

LINESTRING (1437.649988 75.732384, 1662.217936 -140.191250)

LINESTRING (1437.649988 75.732384, 1738.347237 -25.624726)

LINESTRING (1192.661426 316.195627, 1446.390271 273.669798)

LINESTRING (1446.390271 273.669798, 1649.932399 101.135646)

LINESTRING (1446.390271 273.669798, 1765.274005 197.392355)

LINESTRING (1446.390271 273.669798, 1722.735300 325.978600)

LINESTRING (1192.661426 316.195627, 1499.730004 376.522259)

LINESTRING (1499.730004 376.522259, 1764.117959 322.758485)

LINESTRING (1499.730004 376.522259, 1819.729806 490.452003)

LINESTRING (1499.730004 376.522259, 1714.350215 628.543406)

LINESTRING (892.731767 409.982583, 1145.666055 449.210458)

LINESTRING (1145.666055 449.210458, 1421.020288 390.579703)

LINESTRING (1421.020288 390.579703, 1632.119426 168.420624)

LINESTRING (1421.020288 390.579703, 1728.727772 347.902782)

LINESTRING (1421.020288 390.579703, 1726.605520 437.432461)

LINESTRING (1145.666055 449.210458, 1396.406838 550.665207)

LINESTRING (1396.406838 550.665207, 1695.682335 500.397179)

LINESTRING (1396.406838 550.665207, 1692.589970 602.032206)

LINESTRING (1396.406838 550.665207, 1630.726453 757.215337)

LINESTRING (1145.666055 449.210458, 1374.974464 682.167679)

LINESTRING (1374.974464 682.167679, 1656.396882 771.068627)

LINESTRING (1374.974464 682.167679, 1555.222688 878.248872)

LINESTRING (1374.974464 682.167679, 1468.984189 944.429899)

LINESTRING (892.731767 409.982583, 1103.269915 631.835878)

LINESTRING (1103.269915 631.835878, 1431.720956 694.491676)

LINESTRING (1431.720956 694.491676, 1704.301416 582.314994)

LINESTRING (1431.720956 694.491676, 1755.266203 784.204864)

LINESTRING (1431.720956 694.491676, 1643.029391 894.146225)

LINESTRING (1103.269915 631.835878, 1330.694919 849.408548)

LINESTRING (1330.694919 849.408548, 1646.868221 954.503237)

LINESTRING (1330.694919 849.408548, 1547.874845 1082.565281)

LINESTRING (1330.694919 849.408548, 1434.502917 1174.647436)

LINESTRING (1103.269915 631.835878, 1146.274273 937.727935)

LINESTRING (1146.274273 937.727935, 1319.173310 1163.766218)

LINESTRING (1146.274273 937.727935, 1217.206293 1242.531589)

LINESTRING (1146.274273 937.727935, 1048.197533 1238.124450)

LINESTRING (592.045567 345.968420, 808.021994 592.302889)

LINESTRING (808.021994 592.302889, 1066.432102 671.122356)

LINESTRING (1066.432102 671.122356, 1362.098942 559.177883)

LINESTRING (1362.098942 559.177883, 1558.809265 332.024316)

LINESTRING (1362.098942 559.177883, 1658.931115 482.980460)

LINESTRING (1362.098942 559.177883, 1647.491774 628.673263)

LINESTRING (1066.432102 671.122356, 1364.434485 772.666251)

LINESTRING (1364.434485 772.666251, 1631.689982 701.103693)

LINESTRING (1364.434485 772.666251, 1661.267238 866.711002)

LINESTRING (1364.434485 772.666251, 1580.411483 951.758670)

LINESTRING (1066.432102 671.122356, 1247.103048 885.292783)

LINESTRING (1247.103048 885.292783, 1498.768599 953.753100)

LINESTRING (1247.103048 885.292783, 1448.921378 1064.466488)

LINESTRING (1247.103048 885.292783, 1302.765067 1172.662790)

LINESTRING (808.021994 592.302889, 1000.982934 832.573537)

LINESTRING (1000.982934 832.573537, 1309.974003 872.414566)

LINESTRING (1309.974003 872.414566, 1582.225094 759.215848)

LINESTRING (1309.974003 872.414566, 1588.076250 918.090404)

LINESTRING (1309.974003 872.414566, 1530.985475 1085.028007)

LINESTRING (1000.982934 832.573537, 1182.011174 1023.850817)

LINESTRING (1182.011174 1023.850817, 1439.634621 1105.359297)

LINESTRING (1182.011174 1023.850817, 1421.444361 1245.364116)

LINESTRING (1182.011174 1023.850817, 1257.089717 1311.685822)

LINESTRING (1000.982934 832.573537, 1089.138039 1115.561632)

LINESTRING (1089.138039 1115.561632, 1272.967345 1303.611422)

LINESTRING (1089.138039 1115.561632, 1192.122809 1382.875284)

LINESTRING (1089.138039 1115.561632, 1008.823057 1384.861611)

LINESTRING (808.021994 592.302889, 847.133803 912.344960)

LINESTRING (847.133803 912.344960, 1092.686178 1139.420149)

LINESTRING (1092.686178 1139.420149, 1394.649708 1226.341928)

LINESTRING (1092.686178 1139.420149, 1320.509980 1389.586678)

LINESTRING (1092.686178 1139.420149, 1171.575492 1424.319104)

LINESTRING (847.133803 912.344960, 939.962577 1199.162438)

LINESTRING (939.962577 1199.162438, 1182.514485 1380.083375)

LINESTRING (939.962577 1199.162438, 977.944203 1475.599370)

LINESTRING (939.962577 1199.162438, 837.925798 1456.912302)

LINESTRING (847.133803 912.344960, 769.170894 1165.627799)

LINESTRING (769.170894 1165.627799, 884.356048 1486.908491)

LINESTRING (769.170894 1165.627799, 701.508613 1469.557388)

LINESTRING (769.170894 1165.627799, 550.934609 1415.888530)

LINESTRING (313.485105 295.293245, 532.515360 476.845600)

LINESTRING (532.515360 476.845600, 833.978453 566.838795)

LINESTRING (833.978453 566.838795, 1120.849730 528.876230)

LINESTRING (1120.849730 528.876230, 1331.986879 335.256450)

LINESTRING (1331.986879 335.256450, 1448.228151 85.448557)

LINESTRING (1331.986879 335.256450, 1505.653511 89.817017)

LINESTRING (1331.986879 335.256450, 1653.671268 271.470946)

LINESTRING (1120.849730 528.876230, 1377.195561 419.641820)

LINESTRING (1377.195561 419.641820, 1581.068183 186.762333)

LINESTRING (1377.195561 419.641820, 1651.741992 336.401758)

LINESTRING (1377.195561 419.641820, 1685.393484 490.076861)

LINESTRING (1120.849730 528.876230, 1449.811994 621.365516)

LINESTRING (1449.811994 621.365516, 1720.305684 546.244031)

LINESTRING (1449.811994 621.365516, 1753.701346 701.616147)

LINESTRING (1449.811994 621.365516, 1695.271724 816.365597)

LINESTRING (833.978453 566.838795, 1091.262995 657.362443)

LINESTRING (1091.262995 657.362443, 1357.584008 604.089077)

LINESTRING (1357.584008 604.089077, 1533.420023 385.155970)

LINESTRING (1357.584008 604.089077, 1619.826629 532.473419)

LINESTRING (1357.584008 604.089077, 1642.058874 675.324151)

LINESTRING (1091.262995 657.362443, 1377.047647 751.356191)

LINESTRING (1377.047647 751.356191, 1631.129361 638.186000)

LINESTRING (1377.047647 751.356191, 1638.036893 793.831175)

LINESTRING (1377.047647 751.356191, 1603.574945 950.501814)

LINESTRING (1091.262995 657.362443, 1279.792822 856.644715)

LINESTRING (1279.792822 856.644715, 1574.998177 973.454729)

LINESTRING (1279.792822 856.644715, 1510.610998 1070.421622)

LINESTRING (1279.792822 856.644715, 1354.849923 1172.276751)

LINESTRING (833.978453 566.838795, 1059.469854 818.869877)

LINESTRING (1059.469854 818.869877, 1333.308832 859.886866)

LINESTRING (1333.308832 859.886866, 1639.827560 754.023249)

LINESTRING (1333.308832 859.886866, 1639.637526 920.807521)

LINESTRING (1333.308832 859.886866, 1569.073233 1090.164878)

LINESTRING (1059.469854 818.869877, 1260.072165 998.412927)

LINESTRING (1260.072165 998.412927, 1518.260962 1095.579005)

LINESTRING (1260.072165 998.412927, 1463.907052 1215.967595)

LINESTRING (1260.072165 998.412927, 1326.942956 1272.068027)

LINESTRING (1059.469854 818.869877, 1152.335665 1077.963767)

LINESTRING (1152.335665 1077.963767, 1386.833999 1285.496565)

LINESTRING (1152.335665 1077.963767, 1197.423125 1339.215360)

LINESTRING (1152.335665 1077.963767, 1073.759360 1386.684273)

LINESTRING (532.515360 476.845600, 769.321429 693.188155)

LINESTRING (769.321429 693.188155, 1022.973599 772.294907)

LINESTRING (1022.973599 772.294907, 1311.256792 706.808738)

LINESTRING (1311.256792 706.808738, 1487.703524 492.645937)

LINESTRING (1311.256792 706.808738, 1609.712411 620.661780)

LINESTRING (1311.256792 706.808738, 1615.497131 809.071997)

LINESTRING (1022.973599 772.294907, 1312.677730 871.183428)

LINESTRING (1312.677730 871.183428, 1637.988102 777.993683)

LINESTRING (1312.677730 871.183428, 1562.559461 911.953694)

LINESTRING (1312.677730 871.183428, 1554.670719 1063.713704)

LINESTRING (1022.973599 772.294907, 1237.323370 1001.479126)

LINESTRING (1237.323370 1001.479126, 1496.863905 1085.773943)

LINESTRING (1237.323370 1001.479126, 1429.151530 1177.264358)

LINESTRING (1237.323370 1001.479126, 1346.851476 1315.407126)

LINESTRING (769.321429 693.188155, 963.296753 902.071004)

LINESTRING (963.296753 902.071004, 1246.234116 942.346703)

LINESTRING (1246.234116 942.346703, 1561.151058 830.859436)

LINESTRING (1246.234116 942.346703, 1517.658433 1014.148807)

LINESTRING (1246.234116 942.346703, 1427.274597 1168.264275)

LINESTRING (963.296753 902.071004, 1187.702883 1144.228040)

LINESTRING (1187.702883 1144.228040, 1514.243636 1192.482798)

LINESTRING (1187.702883 1144.228040, 1391.406801 1353.218369)

LINESTRING (1187.702883 1144.228040, 1274.152707 1412.825415)

LINESTRING (963.296753 902.071004, 1008.244477 1156.546033)

LINESTRING (1008.244477 1156.546033, 1250.272997 1345.697452)

LINESTRING (1008.244477 1156.546033, 1087.064404 1446.652735)

LINESTRING (1008.244477 1156.546033, 929.099918 1436.827942)

LINESTRING (769.321429 693.188155, 859.457532 962.812416)

LINESTRING (859.457532 962.812416, 1045.254390 1202.917968)

LINESTRING (1045.254390 1202.917968, 1309.050606 1253.362431)

LINESTRING (1045.254390 1202.917968, 1284.454456 1452.127697)

LINESTRING (1045.254390 1202.917968, 1141.014587 1489.695151)

LINESTRING (859.457532 962.812416, 940.494307 1268.463238)

LINESTRING (940.494307 1268.463238, 1162.994959 1465.334787)

LINESTRING (940.494307 1268.463238, 1001.258383 1539.520012)

LINESTRING (940.494307 1268.463238, 859.061750 1525.675938)

LINESTRING (859.457532 962.812416, 796.715625 1242.273657)

LINESTRING (796.715625 1242.273657, 860.572632 1531.069593)

LINESTRING (796.715625 1242.273657, 718.269766 1526.435896)

LINESTRING (796.715625 1242.273657, 564.127220 1483.087212)

LINESTRING (532.515360 476.845600, 614.922579 739.259274)

LINESTRING (614.922579 739.259274, 795.418021 989.747088)

LINESTRING (795.418021 989.747088, 1080.350177 1051.160880)

LINESTRING (1080.350177 1051.160880, 1335.741982 949.103978)

LINESTRING (1080.350177 1051.160880, 1352.782634 1098.877629)

LINESTRING (1080.350177 1051.160880, 1273.105538 1289.179097)

LINESTRING (795.418021 989.747088, 999.099087 1165.712198)

LINESTRING (999.099087 1165.712198, 1267.607750 1258.823653)

LINESTRING (999.099087 1165.712198, 1215.822263 1410.718443)

LINESTRING (999.099087 1165.712198, 1098.492188 1465.508012)

LINESTRING (795.418021 989.747088, 865.847550 1252.845366)

LINESTRING (865.847550 1252.845366, 1087.929880 1464.771000)

LINESTRING (865.847550 1252.845366, 928.799119 1534.154950)

LINESTRING (865.847550 1252.845366, 797.593765 1552.615300)

LINESTRING (614.922579 739.259274, 662.392550 1002.724072)

LINESTRING (662.392550 1002.724072, 846.528282 1220.104025)

LINESTRING (846.528282 1220.104025, 1126.489847 1279.982764)

LINESTRING (846.528282 1220.104025, 1048.311619 1395.205840)

LINESTRING (846.528282 1220.104025, 892.340239 1499.388572)

LINESTRING (662.392550 1002.724072, 713.123087 1280.379931)

LINESTRING (713.123087 1280.379931, 909.284085 1470.192463)

LINESTRING (713.123087 1280.379931, 808.920289 1599.099136)

LINESTRING (713.123087 1280.379931, 599.345902 1605.975427)

LINESTRING (662.392550 1002.724072, 601.314125 1325.121175)

LINESTRING (601.314125 1325.121175, 673.597854 1638.990647)

LINESTRING (601.314125 1325.121175, 544.762877 1639.127140)

LINESTRING (601.314125 1325.121175, 371.769901 1506.668220)

LINESTRING (614.922579 739.259274, 516.711575 1037.036059)

LINESTRING (516.711575 1037.036059, 594.755008 1339.426828)

LINESTRING (594.755008 1339.426828, 772.822666 1583.375335)

LINESTRING (594.755008 1339.426828, 687.059371 1633.574356)

LINESTRING (594.755008 1339.426828, 542.342023 1654.640068)

LINESTRING (516.711575 1037.036059, 435.039823 1365.208599)

LINESTRING (435.039823 1365.208599, 488.885363 1694.250420)

LINESTRING (435.039823 1365.208599, 331.877336 1624.999632)

LINESTRING (435.039823 1365.208599, 259.862759 1554.371950)

LINESTRING (516.711575 1037.036059, 283.100903 1264.117488)

LINESTRING (283.100903 1264.117488, 205.775008 1581.906117)

LINESTRING (283.100903 1264.117488, 91.315951 1478.650818)

LINESTRING (283.100903 1264.117488, 33.304001 1323.403561)

LINESTRING (313.485105 295.293245, 426.453524 604.349219)

LINESTRING (426.453524 604.349219, 671.004072 853.829966)

LINESTRING (671.004072 853.829966, 923.118017 971.330383)

LINESTRING (923.118017 971.330383, 1189.002856 889.328103)

LINESTRING (1189.002856 889.328103, 1436.745493 715.216693)

LINESTRING (1189.002856 889.328103, 1482.218398 822.967047)

LINESTRING (1189.002856 889.328103, 1475.955948 950.253008)

LINESTRING (923.118017 971.330383, 1241.933472 1080.148109)

LINESTRING (1241.933472 1080.148109, 1501.334829 1025.097765)

LINESTRING (1241.933472 1080.148109, 1506.030543 1168.110985)

LINESTRING (1241.933472 1080.148109, 1484.714658 1298.074658)

LINESTRING (923.118017 971.330383, 1166.645383 1159.041105)

LINESTRING (1166.645383 1159.041105, 1422.398655 1197.227443)

LINESTRING (1166.645383 1159.041105, 1414.696576 1359.591655)

LINESTRING (1166.645383 1159.041105, 1245.927284 1451.291067)

LINESTRING (671.004072 853.829966, 894.427135 1087.969645)

LINESTRING (894.427135 1087.969645, 1161.796994 1138.428023)

LINESTRING (1161.796994 1138.428023, 1445.474379 1085.758674)

LINESTRING (1161.796994 1138.428023, 1471.831298 1255.958949)

LINESTRING (1161.796994 1138.428023, 1394.255459 1314.054054)

LINESTRING (894.427135 1087.969645, 1139.687855 1325.968058)

LINESTRING (1139.687855 1325.968058, 1453.940325 1367.216053)

LINESTRING (1139.687855 1325.968058, 1341.927943 1557.685006)

LINESTRING (1139.687855 1325.968058, 1235.269645 1621.144363)

LINESTRING (894.427135 1087.969645, 976.457618 1343.168095)

LINESTRING (976.457618 1343.168095, 1171.934344 1533.500750)

LINESTRING (976.457618 1343.168095, 1082.725111 1655.391363)

LINESTRING (976.457618 1343.168095, 920.222950 1624.146887)

LINESTRING (671.004072 853.829966, 762.208503 1165.470567)

LINESTRING (762.208503 1165.470567, 939.111635 1378.803947)

LINESTRING (939.111635 1378.803947, 1225.240005 1483.582410)

LINESTRING (939.111635 1378.803947, 1128.976204 1554.401954)

LINESTRING (939.111635 1378.803947, 1052.507927 1665.351529)

LINESTRING (762.208503 1165.470567, 878.889193 1436.270341)

LINESTRING (878.889193 1436.270341, 1073.581213 1647.521140)

LINESTRING (878.889193 1436.270341, 957.767384 1714.805987)

LINESTRING (878.889193 1436.270341, 824.336208 1709.832586)

LINESTRING (762.208503 1165.470567, 673.786077 1457.743961)

LINESTRING (673.786077 1457.743961, 790.534789 1718.515891)

LINESTRING (673.786077 1457.743961, 604.460600 1765.225804)

LINESTRING (673.786077 1457.743961, 447.025434 1681.699679)

LINESTRING (426.453524 604.349219, 543.932270 876.598911)

LINESTRING (543.932270 876.598911, 745.479633 1067.116321)

LINESTRING (745.479633 1067.116321, 1074.596722 1159.520725)

LINESTRING (1074.596722 1159.520725, 1385.104619 1068.588351)

LINESTRING (1074.596722 1159.520725, 1359.248985 1231.617915)

LINESTRING (1074.596722 1159.520725, 1263.239481 1411.085085)

LINESTRING (745.479633 1067.116321, 984.492412 1298.592175)

LINESTRING (984.492412 1298.592175, 1301.855544 1410.305805)

LINESTRING (984.492412 1298.592175, 1189.678080 1545.560951)

LINESTRING (984.492412 1298.592175, 1076.233976 1623.202465)

LINESTRING (745.479633 1067.116321, 863.011205 1362.166572)

LINESTRING (863.011205 1362.166572, 1064.193103 1538.819865)

LINESTRING (863.011205 1362.166572, 967.202910 1629.623377)

LINESTRING (863.011205 1362.166572, 811.773710 1641.007062)

LINESTRING (543.932270 876.598911, 625.420946 1180.984753)

LINESTRING (625.420946 1180.984753, 857.175718 1363.544419)

LINESTRING (857.175718 1363.544419, 1162.544685 1428.522544)

LINESTRING (857.175718 1363.544419, 1091.001602 1597.441135)

LINESTRING (857.175718 1363.544419, 912.968542 1678.119415)

LINESTRING (625.420946 1180.984753, 726.562875 1443.572048)

LINESTRING (726.562875 1443.572048, 917.390172 1661.353205)

LINESTRING (726.562875 1443.572048, 781.715107 1719.589359)

LINESTRING (726.562875 1443.572048, 631.258610 1742.452746)

LINESTRING (625.420946 1180.984753, 582.927843 1495.532712)

LINESTRING (582.927843 1495.532712, 679.867326 1770.987585)

LINESTRING (582.927843 1495.532712, 521.226330 1778.506100)

LINESTRING (582.927843 1495.532712, 372.037448 1721.179823)

LINESTRING (543.932270 876.598911, 436.367285 1200.200359)

LINESTRING (436.367285 1200.200359, 500.617998 1487.019361)

LINESTRING (500.617998 1487.019361, 685.497578 1728.183009)

LINESTRING (500.617998 1487.019361, 567.220865 1772.518703)

LINESTRING (500.617998 1487.019361, 428.838897 1737.807717)

LINESTRING (436.367285 1200.200359, 347.425889 1498.991141)

LINESTRING (347.425889 1498.991141, 390.249481 1815.818207)

LINESTRING (347.425889 1498.991141, 284.882800 1827.422589)

LINESTRING (347.425889 1498.991141, 139.148374 1712.639889)

LINESTRING (436.367285 1200.200359, 212.632771 1373.767791)

LINESTRING (212.632771 1373.767791, 139.475127 1656.590817)

LINESTRING (212.632771 1373.767791, 21.973453 1620.354784)

LINESTRING (212.632771 1373.767791, -41.035388 1472.823242)

LINESTRING (426.453524 604.349219, 366.982241 878.911895)

LINESTRING (366.982241 878.911895, 431.076713 1129.793671)

LINESTRING (431.076713 1129.793671, 665.511740 1337.620281)

LINESTRING (665.511740 1337.620281, 963.704216 1442.932978)

LINESTRING (665.511740 1337.620281, 879.945311 1528.539079)

LINESTRING (665.511740 1337.620281, 755.129278 1622.756805)

LINESTRING (431.076713 1129.793671, 538.173245 1390.430898)

LINESTRING (538.173245 1390.430898, 756.385408 1594.712200)

LINESTRING (538.173245 1390.430898, 621.045504 1715.561996)

LINESTRING (538.173245 1390.430898, 439.847297 1698.552715)

LINESTRING (431.076713 1129.793671, 367.856217 1406.287791)

LINESTRING (367.856217 1406.287791, 437.061025 1704.811677)

LINESTRING (367.856217 1406.287791, 289.423619 1681.604227)

LINESTRING (367.856217 1406.287791, 161.205753 1614.612287)

LINESTRING (366.982241 878.911895, 324.386616 1193.256451)

LINESTRING (324.386616 1193.256451, 367.158522 1460.984731)

LINESTRING (367.158522 1460.984731, 574.004033 1687.834104)

LINESTRING (367.158522 1460.984731, 425.265323 1718.678276)

LINESTRING (367.158522 1460.984731, 273.441038 1734.692142)

LINESTRING (324.386616 1193.256451, 230.902457 1465.043709)

LINESTRING (230.902457 1465.043709, 276.422138 1726.076541)

LINESTRING (230.902457 1465.043709, 184.246996 1788.456546)

LINESTRING (230.902457 1465.043709, 19.582884 1651.445069)

LINESTRING (324.386616 1193.256451, 117.437098 1405.271394)

LINESTRING (117.437098 1405.271394, 66.840592 1684.877842)

LINESTRING (117.437098 1405.271394, -125.527064 1604.396169)

LINESTRING (117.437098 1405.271394, -164.285086 1501.213811)

LINESTRING (366.982241 878.911895, 127.123168 1112.503571)

LINESTRING (127.123168 1112.503571, 72.575093 1373.879608)

LINESTRING (72.575093 1373.879608, 165.690990 1635.838478)

LINESTRING (72.575093 1373.879608, -14.290593 1675.264485)

LINESTRING (72.575093 1373.879608, -145.067784 1592.634298)

LINESTRING (127.123168 1112.503571, -116.932319 1306.077317)

LINESTRING (-116.932319 1306.077317, -155.821210 1625.451632)

LINESTRING (-116.932319 1306.077317, -294.282065 1515.210201)

LINESTRING (-116.932319 1306.077317, -373.668561 1358.323026)

LINESTRING (127.123168 1112.503571, -162.476455 1177.152297)

LINESTRING (-162.476455 1177.152297, -384.288129 1420.793524)

LINESTRING (-162.476455 1177.152297, -459.956610 1269.818507)

LINESTRING (-162.476455 1177.152297, -415.202878 1082.975739)

LINESTRING (80.000000 80.000000, 181.548074 335.797451)

LINESTRING (181.548074 335.797451, 413.742538 562.233550)

LINESTRING (413.742538 562.233550, 699.492959 640.291315)

LINESTRING (699.492959 640.291315, 964.495823 563.885747)

LINESTRING (964.495823 563.885747, 1173.530141 361.681411)

LINESTRING (1173.530141 361.681411, 1253.497477 63.584732)

LINESTRING (1173.530141 361.681411, 1424.799374 151.544419)

LINESTRING (1173.530141 361.681411, 1499.425613 310.781313)

LINESTRING (964.495823 563.885747, 1240.025584 452.315197)

LINESTRING (1240.025584 452.315197, 1470.728534 264.701964)

LINESTRING (1240.025584 452.315197, 1553.759351 406.270341)

LINESTRING (1240.025584 452.315197, 1568.229106 520.005507)

LINESTRING (964.495823 563.885747, 1240.689636 633.453587)

LINESTRING (1240.689636 633.453587, 1543.621763 569.418385)

LINESTRING (1240.689636 633.453587, 1543.901625 735.208029)

LINESTRING (1240.689636 633.453587, 1422.435647 859.486842)

LINESTRING (699.492959 640.291315, 951.249201 730.207575)

LINESTRING (951.249201 730.207575, 1222.153671 627.263944)

LINESTRING (1222.153671 627.263944, 1416.412326 408.903193)

LINESTRING (1222.153671 627.263944, 1501.504427 573.956275)

LINESTRING (1222.153671 627.263944, 1544.279955 702.626909)

LINESTRING (951.249201 730.207575, 1226.675332 815.733638)

LINESTRING (1226.675332 815.733638, 1527.934504 765.339963)

LINESTRING (1226.675332 815.733638, 1499.947759 853.939257)

LINESTRING (1226.675332 815.733638, 1411.892701 1064.486160)

LINESTRING (951.249201 730.207575, 1167.147782 911.572254)

LINESTRING (1167.147782 911.572254, 1447.933546 952.806696)

LINESTRING (1167.147782 911.572254, 1347.584175 1131.138650)

LINESTRING (1167.147782 911.572254, 1226.593374 1203.875915)

LINESTRING (699.492959 640.291315, 889.212432 846.605406)

LINESTRING (889.212432 846.605406, 1181.750338 924.520101)

LINESTRING (1181.750338 924.520101, 1450.420398 824.315284)

LINESTRING (1181.750338 924.520101, 1501.672661 987.828965)

LINESTRING (1181.750338 924.520101, 1379.841665 1128.115343)

LINESTRING (889.212432 846.605406, 1114.623782 1018.977276)

LINESTRING (1114.623782 1018.977276, 1374.303061 1099.038362)

LINESTRING (1114.623782 1018.977276, 1316.795774 1193.433494)

LINESTRING (1114.623782 1018.977276, 1216.227497 1306.755671)

LINESTRING (889.212432 846.605406, 989.919792 1100.807145)

LINESTRING (989.919792 1100.807145, 1221.677376 1287.462912)

LINESTRING (989.919792 1100.807145, 1039.816767 1407.168714)

LINESTRING (989.919792 1100.807145, 924.272014 1426.404901)

LINESTRING (413.742538 562.233550, 647.752826 801.422093)

LINESTRING (647.752826 801.422093, 950.984774 873.131000)

LINESTRING (950.984774 873.131000, 1248.431545 824.011869)

LINESTRING (1248.431545 824.011869, 1451.814822 599.587727)

LINESTRING (1248.431545 824.011869, 1516.007238 727.110975)

LINESTRING (1248.431545 824.011869, 1529.407680 879.631311)

LINESTRING (950.984774 873.131000, 1222.100427 936.279590)

LINESTRING (1222.100427 936.279590, 1544.413112 823.834287)

LINESTRING (1222.100427 936.279590, 1502.580625 1000.219711)

LINESTRING (1222.100427 936.279590, 1443.203695 1140.715604)

LINESTRING (950.984774 873.131000, 1129.042072 1047.207203)

LINESTRING (1129.042072 1047.207203, 1455.286588 1157.717340)

LINESTRING (1129.042072 1047.207203, 1315.739249 1284.161379)

LINESTRING (1129.042072 1047.207203, 1195.933567 1321.986533)

LINESTRING (647.752826 801.422093, 868.738042 1013.897209)

LINESTRING (868.738042 1013.897209, 1183.600866 1076.517545)

LINESTRING (1183.600866 1076.517545, 1466.270735 982.359054)

LINESTRING (1183.600866 1076.517545, 1444.946573 1177.542917)

LINESTRING (1183.600866 1076.517545, 1357.991542 1290.582191)

LINESTRING (868.738042 1013.897209, 1057.311739 1242.106054)

LINESTRING (1057.311739 1242.106054, 1349.602762 1315.468543)

LINESTRING (1057.311739 1242.106054, 1253.867257 1443.467786)

LINESTRING (1057.311739 1242.106054, 1146.421773 1544.286147)

LINESTRING (868.738042 1013.897209, 917.396701 1299.444724)

LINESTRING (917.396701 1299.444724, 1138.663788 1543.353189)

LINESTRING (917.396701 1299.444724, 993.801163 1555.466672)

LINESTRING (917.396701 1299.444724, 806.888041 1594.076658)

LINESTRING (647.752826 801.422093, 736.219926 1093.171961)

LINESTRING (736.219926 1093.171961, 909.934285 1308.674782)

LINESTRING (909.934285 1308.674782, 1189.172641 1368.314621)

LINESTRING (909.934285 1308.674782, 1083.059279 1559.654235)

LINESTRING (909.934285 1308.674782, 960.908439 1574.440402)

LINESTRING (736.219926 1093.171961, 807.250080 1369.594428)

LINESTRING (807.250080 1369.594428, 1024.365249 1569.195156)

LINESTRING (807.250080 1369.594428, 861.576376 1623.591899)

LINESTRING (807.250080 1369.594428, 769.449313 1636.215302)

LINESTRING (736.219926 1093.171961, 667.572162 1403.110148)

LINESTRING (667.572162 1403.110148, 778.235250 1724.644360)

LINESTRING (667.572162 1403.110148, 559.821863 1725.608512)

LINESTRING (667.572162 1403.110148, 476.254192 1584.044620)

LINESTRING (413.742538 562.233550, 513.999051 880.300774)

LINESTRING (513.999051 880.300774, 741.649347 1096.336305)

LINESTRING (741.649347 1096.336305, 1001.352606 1183.911430)

LINESTRING (1001.352606 1183.911430, 1315.746353 1106.231752)

LINESTRING (1001.352606 1183.911430, 1330.794418 1296.725945)

LINESTRING (1001.352606 1183.911430, 1190.175609 1365.944797)

LINESTRING (741.649347 1096.336305, 955.349994 1274.364166)

LINESTRING (955.349994 1274.364166, 1211.923849 1380.767815)

LINESTRING (955.349994 1274.364166, 1181.443750 1453.436539)

LINESTRING (955.349994 1274.364166, 1054.993022 1535.965681)

LINESTRING (741.649347 1096.336305, 826.733747 1360.764764)

LINESTRING (826.733747 1360.764764, 1043.339560 1586.615912)

LINESTRING (826.733747 1360.764764, 923.123487 1635.951449)

LINESTRING (826.733747 1360.764764, 740.590092 1675.938011)

LINESTRING (513.999051 880.300774, 612.379092 1174.989868)

LINESTRING (612.379092 1174.989868, 798.155793 1392.822320)

LINESTRING (798.155793 1392.822320, 1097.546059 1467.595710)

LINESTRING (798.155793 1392.822320, 1014.654824 1617.912550)

LINESTRING (798.155793 1392.822320, 851.740215 1700.613787)

LINESTRING (612.379092 1174.989868, 715.773844 1476.984586)

LINESTRING (715.773844 1476.984586, 904.549960 1727.379387)

LINESTRING (715.773844 1476.984586, 805.288729 1778.232188)

LINESTRING (715.773844 1476.984586, 660.671477 1788.775888)

LINESTRING (612.379092 1174.989868, 497.833902 1483.277684)

LINESTRING (497.833902 1483.277684, 559.279132 1743.228071)

LINESTRING (497.833902 1483.277684, 395.828894 1752.825397)

LINESTRING (497.833902 1483.277684, 307.849051 1714.140821)

LINESTRING (513.999051 880.300774, 457.202841 1204.244822)

LINESTRING (457.202841 1204.244822, 569.544608 1534.013313)

LINESTRING (569.544608 1534.013313, 774.017190 1713.648463)

LINESTRING (569.544608 1534.013313, 667.009605 1806.227816)

LINESTRING (569.544608 1534.013313, 457.593379 1800.316360)

LINESTRING (457.202841 1204.244822, 416.772575 1529.685125)

LINESTRING (416.772575 1529.685125, 460.750968 1785.138417)

LINESTRING (416.772575 1529.685125, 355.365433 1835.768066)

LINESTRING (416.772575 1529.685125, 183.558475 1737.764525)

LINESTRING (457.202841 1204.244822, 282.971916 1416.333215)

LINESTRING (282.971916 1416.333215, 189.683821 1745.119406)

LINESTRING (282.971916 1416.333215, 95.409044 1665.451713)

LINESTRING (282.971916 1416.333215, -12.641549 1489.644428)

LINESTRING (181.548074 335.797451, 227.125496 636.126431)

LINESTRING (227.125496 636.126431, 422.094818 855.346252)

LINESTRING (422.094818 855.346252, 724.505350 942.389224)

LINESTRING (724.505350 942.389224, 1048.633879 871.103010)

LINESTRING (1048.633879 871.103010, 1245.604174 690.739838)

LINESTRING (1048.633879 871.103010, 1305.237592 773.282254)

LINESTRING (1048.633879 871.103010, 1368.135921 987.200272)

LINESTRING (724.505350 942.389224, 1043.316244 1043.346507)

LINESTRING (1043.316244 1043.346507, 1365.683183 973.141184)

LINESTRING (1043.316244 1043.346507, 1369.589042 1123.046850)

LINESTRING (1043.316244 1043.346507, 1219.643424 1260.094420)

LINESTRING (724.505350 942.389224, 940.690051 1181.870818)

LINESTRING (940.690051 1181.870818, 1266.647622 1283.160699)

LINESTRING (940.690051 1181.870818, 1183.363237 1433.575170)

LINESTRING (940.690051 1181.870818, 1010.047692 1506.743019)

LINESTRING (422.094818 855.346252, 670.546552 1093.748318)

LINESTRING (670.546552 1093.748318, 936.685646 1148.272356)

LINESTRING (936.685646 1148.272356, 1192.707700 1044.243535)

LINESTRING (936.685646 1148.272356, 1251.197470 1263.766933)

LINESTRING (936.685646 1148.272356, 1177.617929 1396.953239)

LINESTRING (670.546552 1093.748318, 876.590197 1288.424651)

LINESTRING (876.590197 1288.424651, 1127.005918 1386.801819)

LINESTRING (876.590197 1288.424651, 1128.620173 1468.792351)

LINESTRING (876.590197 1288.424651, 969.712419 1595.667335)

LINESTRING (670.546552 1093.748318, 767.505639 1372.233064)

LINESTRING (767.505639 1372.233064, 952.077274 1585.122769)

LINESTRING (767.505639 1372.233064, 850.414358 1651.846170)

LINESTRING (767.505639 1372.233064, 713.053724 1699.998000)

LINESTRING (422.094818 855.346252, 512.212381 1114.008870)

LINESTRING (512.212381 1114.008870, 732.441340 1327.216772)

LINESTRING (732.441340 1327.216772, 1016.389168 1401.116997)

LINESTRING (732.441340 1327.216772, 971.457920 1502.141058)

LINESTRING (732.441340 1327.216772, 783.010773 1577.708546)

LINESTRING (512.212381 1114.008870, 582.665822 1439.803603)

LINESTRING (582.665822 1439.803603, 817.284211 1635.125611)

LINESTRING (582.665822 1439.803603, 647.250761 1708.938431)

LINESTRING (582.665822 1439.803603, 493.051005 1743.550126)

LINESTRING (512.212381 1114.008870, 470.699512 1401.146583)

LINESTRING (470.699512 1401.146583, 552.308201 1704.390672)

LINESTRING (470.699512 1401.146583, 355.981377 1660.400653)

LINESTRING (470.699512 1401.146583, 218.584587 1575.125027)

LINESTRING (227.125496 636.126431, 336.138001 929.819490)

LINESTRING (336.138001 929.819490, 535.080447 1155.766145)

LINESTRING (535.080447 1155.766145, 856.866583 1229.121978)

LINESTRING (856.866583 1229.121978, 1166.387424 1160.101372)

LINESTRING (856.866583 1229.121978, 1173.278903 1283.622312)

LINESTRING (856.866583 1229.121978, 1091.775268 1417.170256)

LINESTRING (535.080447 1155.766145, 765.281474 1391.884178)

LINESTRING (765.281474 1391.884178, 1054.373612 1434.727282)

LINESTRING (765.281474 1391.884178, 1010.363833 1569.924185)

LINESTRING (765.281474 1391.884178, 814.215392 1687.921537)

LINESTRING (535.080447 1155.766145, 590.514014 1450.627966)

LINESTRING (590.514014 1450.627966, 826.568613 1668.861973)

LINESTRING (590.514014 1450.627966, 672.780056 1713.259088)

LINESTRING (590.514014 1450.627966, 493.151218 1775.018656)

LINESTRING (336.138001 929.819490, 413.724310 1197.809647)

LINESTRING (413.724310 1197.809647, 626.033940 1402.167620)

LINESTRING (626.033940 1402.167620, 886.685655 1480.725121)

LINESTRING (626.033940 1402.167620, 814.841613 1608.972133)

LINESTRING (626.033940 1402.167620, 734.953954 1704.699266)

LINESTRING (413.724310 1197.809647, 485.608022 1520.652277)

LINESTRING (485.608022 1520.652277, 665.043212 1746.685545)

LINESTRING (485.608022 1520.652277, 531.218496 1849.996649)

LINESTRING (485.608022 1520.652277, 378.508738 1784.424201)

LINESTRING (413.724310 1197.809647, 307.884789 1469.240981)

LINESTRING (307.884789 1469.240981, 404.999543 1771.948118)

LINESTRING (307.884789 1469.240981, 196.333013 1728.078564)

LINESTRING (307.884789 1469.240981, 57.402349 1693.431536)

LINESTRING (336.138001 929.819490, 276.820298 1247.121635)

LINESTRING (276.820298 1247.121635, 392.873766 1548.973446)

LINESTRING (392.873766 1548.973446, 614.002924 1797.699612)

LINESTRING (392.873766 1548.973446, 456.589707 1836.831943)

LINESTRING (392.873766 1548.973446, 335.008179 1822.802404)

LINESTRING (276.820298 1247.121635, 217.872772 1508.634266)

LINESTRING (217.872772 1508.634266, 333.836556 1797.252291)

LINESTRING (217.872772 1508.634266, 128.030532 1780.440025)

LINESTRING (217.872772 1508.634266, -3.967451 1693.711127)

LINESTRING (276.820298 1247.121635, 83.054463 1421.173777)

LINESTRING (83.054463 1421.173777, 2.122683 1712.231103)

LINESTRING (83.054463 1421.173777, -162.606013 1672.423079)

LINESTRING (83.054463 1421.173777, -168.998981 1500.330595)

LINESTRING (227.125496 636.126431, 174.167581 929.522435)

LINESTRING (174.167581 929.522435, 280.138440 1189.858718)

LINESTRING (280.138440 1189.858718, 455.170640 1393.653671)

LINESTRING (455.170640 1393.653671, 752.467426 1481.953276)

LINESTRING (455.170640 1393.653671, 707.101112 1607.568089)

LINESTRING (455.170640 1393.653671, 493.723262 1716.469856)

LINESTRING (280.138440 1189.858718, 358.743147 1466.349055)

LINESTRING (358.743147 1466.349055, 590.664977 1641.551665)

LINESTRING (358.743147 1466.349055, 411.290629 1784.386846)

LINESTRING (358.743147 1466.349055, 243.749127 1792.444398)

LINESTRING (280.138440 1189.858718, 202.233648 1486.811911)

LINESTRING (202.233648 1486.811911, 309.620064 1754.974936)

LINESTRING (202.233648 1486.811911, 105.040149 1788.309984)

LINESTRING (202.233648 1486.811911, -12.161189 1709.909047)

LINESTRING (174.167581 929.522435, 88.343938 1222.829122)

LINESTRING (88.343938 1222.829122, 149.888605 1478.832973)

LINESTRING (149.888605 1478.832973, 357.732930 1662.983553)

LINESTRING (149.888605 1478.832973, 210.215265 1791.361557)

LINESTRING (149.888605 1478.832973, 66.696374 1790.153004)

LINESTRING (88.343938 1222.829122, 41.870244 1495.441522)

LINESTRING (41.870244 1495.441522, 133.035848 1785.312698)

LINESTRING (41.870244 1495.441522, -19.003012 1761.065077)

LINESTRING (41.870244 1495.441522, -206.757978 1681.644220)

LINESTRING (88.343938 1222.829122, -103.741960 1401.119391)

LINESTRING (-103.741960 1401.119391, -153.736364 1694.851353)

LINESTRING (-103.741960 1401.119391, -284.938804 1639.539269)

LINESTRING (-103.741960 1401.119391, -424.165524 1490.740919)

LINESTRING (174.167581 929.522435, -14.212340 1108.520152)

LINESTRING (-14.212340 1108.520152, -101.236537 1414.943443)

LINESTRING (-101.236537 1414.943443, -38.347610 1710.865487)

LINESTRING (-101.236537 1414.943443, -184.649765 1679.421239)

LINESTRING (-101.236537 1414.943443, -333.650085 1651.901279)

LINESTRING (-14.212340 1108.520152, -264.308213 1357.023149)

LINESTRING (-264.308213 1357.023149, -355.629445 1607.615391)

LINESTRING (-264.308213 1357.023149, -486.555469 1568.431660)

LINESTRING (-264.308213 1357.023149, -580.172867 1456.571406)

LINESTRING (-14.212340 1108.520152, -301.907603 1200.009092)

LINESTRING (-301.907603 1200.009092, -530.278989 1436.080319)

LINESTRING (-301.907603 1200.009092, -610.247118 1296.149848)

LINESTRING (-301.907603 1200.009092, -621.343923 1125.260808)

LINESTRING (181.548074 335.797451, 124.684390 649.219657)

LINESTRING (124.684390 649.219657, 188.407311 916.755871)

LINESTRING (188.407311 916.755871, 384.336791 1153.996635)

LINESTRING (384.336791 1153.996635, 659.211727 1265.669800)

LINESTRING (659.211727 1265.669800, 930.105986 1186.473784)

LINESTRING (659.211727 1265.669800, 949.806597 1305.376447)

LINESTRING (659.211727 1265.669800, 887.383583 1444.487822)

LINESTRING (384.336791 1153.996635, 615.241240 1389.855265)

LINESTRING (615.241240 1389.855265, 896.209736 1505.695254)

LINESTRING (615.241240 1389.855265, 817.429217 1589.020215)

LINESTRING (615.241240 1389.855265, 724.853585 1641.533773)

LINESTRING (384.336791 1153.996635, 433.290679 1454.880928)

LINESTRING (433.290679 1454.880928, 607.201417 1700.135919)

LINESTRING (433.290679 1454.880928, 486.048388 1750.657566)

LINESTRING (433.290679 1454.880928, 346.709950 1764.242884)

LINESTRING (188.407311 916.755871, 304.069608 1172.298004)

LINESTRING (304.069608 1172.298004, 528.022638 1374.840649)

LINESTRING (528.022638 1374.840649, 851.054760 1434.084821)

LINESTRING (528.022638 1374.840649, 763.933083 1584.982227)

LINESTRING (528.022638 1374.840649, 572.575890 1630.596499)

LINESTRING (304.069608 1172.298004, 382.132385 1436.592895)

LINESTRING (382.132385 1436.592895, 620.774860 1649.661751)

LINESTRING (382.132385 1436.592895, 489.553734 1693.479959)

LINESTRING (382.132385 1436.592895, 285.454232 1742.934572)

LINESTRING (304.069608 1172.298004, 205.655150 1495.419490)

LINESTRING (205.655150 1495.419490, 315.534729 1777.808883)

LINESTRING (205.655150 1495.419490, 139.400342 1757.099962)

LINESTRING (205.655150 1495.419490, -15.432793 1687.991584)

LINESTRING (188.407311 916.755871, 144.819248 1187.961180)

LINESTRING (144.819248 1187.961180, 261.904192 1516.007914)

LINESTRING (261.904192 1516.007914, 447.894653 1757.637459)

LINESTRING (261.904192 1516.007914, 317.264740 1774.329819)

LINESTRING (261.904192 1516.007914, 164.547982 1783.582059)

LINESTRING (144.819248 1187.961180, 48.839615 1456.361715)

LINESTRING (48.839615 1456.361715, 100.506785 1717.006836)

LINESTRING (48.839615 1456.361715, -6.293084 1754.756331)

LINESTRING (48.839615 1456.361715, -143.703187 1668.113815)

LINESTRING (144.819248 1187.961180, -90.594817 1380.188759)

LINESTRING (-90.594817 1380.188759, -198.862950 1675.288628)

LINESTRING (-90.594817 1380.188759, -296.974977 1569.622381)

LINESTRING (-90.594817 1380.188759, -366.182259 1488.540596)

LINESTRING (124.684390 649.219657, 15.693942 928.998237)

LINESTRING (15.693942 928.998237, 61.084280 1236.424787)

LINESTRING (61.084280 1236.424787, 285.259780 1433.732661)

LINESTRING (285.259780 1433.732661, 546.360680 1536.364794)

LINESTRING (285.259780 1433.732661, 467.658022 1682.457175)

LINESTRING (285.259780 1433.732661, 400.812217 1703.455530)

LINESTRING (61.084280 1236.424787, 110.082987 1487.137018)

LINESTRING (110.082987 1487.137018, 318.448852 1702.241364)

LINESTRING (110.082987 1487.137018, 148.316141 1774.978379)

LINESTRING (110.082987 1487.137018, -0.306271 1761.842162)

LINESTRING (61.084280 1236.424787, -36.704060 1548.297034)

LINESTRING (-36.704060 1548.297034, 19.377947 1825.631744)

LINESTRING (-36.704060 1548.297034, -92.636944 1824.360748)

LINESTRING (-36.704060 1548.297034, -274.314240 1749.525947)

LINESTRING (15.693942 928.998237, -35.246052 1252.397227)

LINESTRING (-35.246052 1252.397227, 23.023742 1560.689034)

LINESTRING (23.023742 1560.689034, 273.261170 1747.608283)

LINESTRING (23.023742 1560.689034, 66.709338 1828.683771)

LINESTRING (23.023742 1560.689034, -73.335406 1852.924707)

LINESTRING (-35.246052 1252.397227, -98.693404 1547.710984)

LINESTRING (-98.693404 1547.710984, -2.116813 1824.677054)

LINESTRING (-98.693404 1547.710984, -169.615913 1862.325900)

LINESTRING (-98.693404 1547.710984, -344.091035 1723.024816)

LINESTRING (-35.246052 1252.397227, -214.287505 1425.065441)

LINESTRING (-214.287505 1425.065441, -321.104475 1693.800072)

LINESTRING (-214.287505 1425.065441, -436.692480 1612.048675)

LINESTRING (-214.287505 1425.065441, -473.397282 1509.145126)

LINESTRING (15.693942 928.998237, -157.443811 1109.056806)

LINESTRING (-157.443811 1109.056806, -244.115803 1372.904595)

LINESTRING (-244.115803 1372.904595, -152.282261 1650.146897)

LINESTRING (-244.115803 1372.904595, -328.425398 1647.676642)

LINESTRING (-244.115803 1372.904595, -479.615069 1617.091929)

LINESTRING (-157.443811 1109.056806, -370.385515 1282.865767)

LINESTRING (-370.385515 1282.865767, -440.733862 1570.181098)

LINESTRING (-370.385515 1282.865767, -604.831934 1497.076157)

LINESTRING (-370.385515 1282.865767, -634.389361 1350.133956)

LINESTRING (-157.443811 1109.056806, -470.666811 1185.226138)

LINESTRING (-470.666811 1185.226138, -671.285366 1421.754733)

LINESTRING (-470.666811 1185.226138, -759.628515 1250.913157)

LINESTRING (-470.666811 1185.226138, -797.057954 1112.498780)

LINESTRING (124.684390 649.219657, -71.212393 879.514451)

LINESTRING (-71.212393 879.514451, -134.610236 1148.126495)

LINESTRING (-134.610236 1148.126495, -21.350580 1415.689134)

LINESTRING (-21.350580 1415.689134, 158.664765 1615.557102)

LINESTRING (-21.350580 1415.689134, 83.958128 1724.418117)

LINESTRING (-21.350580 1415.689134, -77.839108 1725.010619)

LINESTRING (-134.610236 1148.126495, -202.346523 1422.840751)

LINESTRING (-202.346523 1422.840751, -86.806426 1738.906405)

LINESTRING (-202.346523 1422.840751, -241.122943 1749.075364)

LINESTRING (-202.346523 1422.840751, -393.668492 1672.882242)

LINESTRING (-134.610236 1148.126495, -384.956530 1325.482099)

LINESTRING (-384.956530 1325.482099, -426.928901 1586.725431)

LINESTRING (-384.956530 1325.482099, -629.265245 1571.875144)

LINESTRING (-384.956530 1325.482099, -636.939357 1427.360617)

LINESTRING (-71.212393 879.514451, -267.805236 1072.861864)

LINESTRING (-267.805236 1072.861864, -315.646234 1352.438660)

LINESTRING (-315.646234 1352.438660, -241.958896 1623.813015)

LINESTRING (-315.646234 1352.438660, -360.611100 1665.345832)

LINESTRING (-315.646234 1352.438660, -515.157052 1591.682718)

LINESTRING (-267.805236 1072.861864, -466.281364 1316.009823)

LINESTRING (-466.281364 1316.009823, -551.637858 1590.524227)

LINESTRING (-466.281364 1316.009823, -691.870374 1557.364946)

LINESTRING (-466.281364 1316.009823, -737.362948 1393.392530)

LINESTRING (-267.805236 1072.861864, -584.258513 1157.050810)

LINESTRING (-584.258513 1157.050810, -775.238874 1399.690858)

LINESTRING (-584.258513 1157.050810, -890.120938 1207.179848)

LINESTRING (-584.258513 1157.050810, -852.914973 1054.049332)

LINESTRING (-71.212393 879.514451, -339.732724 936.449255)

LINESTRING (-339.732724 936.449255, -554.946133 1177.069796)

LINESTRING (-554.946133 1177.069796, -661.837316 1443.246789)

LINESTRING (-554.946133 1177.069796, -784.513266 1354.945580)

LINESTRING (-554.946133 1177.069796, -808.075887 1284.640140)

LINESTRING (-339.732724 936.449255, -626.420923 1003.275340)

LINESTRING (-626.420923 1003.275340, -841.647267 1194.146916)

LINESTRING (-626.420923 1003.275340, -899.347390 1084.776085)

LINESTRING (-626.420923 1003.275340, -919.791271 908.714183)

LINESTRING (-339.732724 936.449255, -602.106311 839.870535)

LINESTRING (-602.106311 839.870535, -852.412513 904.353172)

LINESTRING (-602.106311 839.870535, -868.746673 767.457753)

LINESTRING (-602.106311 839.870535, -776.173957 616.905168)

