LINESTRING (80.000000 80.000000, 229.930777 84.556536)

LINESTRING (80.000000 80.000000, 162.461928 82.506095)

LINESTRING (162.461928 82.506095, 229.930777 84.556536)

LINESTRING (80.000000 80.000000, 194.044111 177.436855)

LINESTRING (80.000000 80.000000, 142.724261 133.590270)

LINESTRING (142.724261 133.590270, 194.044111 177.436855)

LINESTRING (80.000000 80.000000, 114.841886 225.897371)

LINESTRING (80.000000 80.000000, 99.163037 160.243554)

LINESTRING (99.163037 160.243554, 114.841886 225.897371)

LINESTRING (80.000000 80.000000, 28.313354 220.813673)

LINESTRING (80.000000 80.000000, 51.572345 157.447520)

LINESTRING (51.572345 157.447520, 28.313354 220.813673)

LINESTRING (80.000000 80.000000, -36.892336 174.000967)

LINESTRING (80.000000 80.000000, 15.709215 131.700532)

LINESTRING (15.709215 131.700532, -36.892336 174.000967)

LINESTRING (80.000000 80.000000, -69.999613 80.340585)

LINESTRING (80.000000 80.000000, -2.499787 80.187322)

LINESTRING (-2.499787 80.187322, -69.999613 80.340585)

LINESTRING (80.000000 80.000000, -40.529165 -9.290092)

LINESTRING (80.000000 80.000000, 13.708959 30.890450)

LINESTRING (13.708959 30.890450, -40.529165 -9.290092)

LINESTRING (80.000000 80.000000, 26.874246 -60.277062)

LINESTRING (80.000000 80.000000, 50.780835 2.847616)

LINESTRING (50.780835 2.847616, 26.874246 -60.277062)

LINESTRING (80.000000 80.000000, 130.545064 -61.227464)

LINESTRING (80.000000 80.000000, 107.799785 2.324895)

LINESTRING (107.799785 2.324895, 130.545064 -61.227464)

LINESTRING (80.000000 80.000000, 197.035075 -13.823191)

LINESTRING (80.000000 80.000000, 144.369291 28.397245)

LINESTRING (144.369291 28.397245, 197.035075 -13.823191)

LINESTRING (229.930777 84.556536, 194.044111 177.436855)

LINESTRING (194.044111 177.436855, 114.841886 225.897371)

LINESTRING (114.841886 225.897371, 28.313354 220.813673)

LINESTRING (28.313354 220.813673, -36.892336 174.000967)

LINESTRING (-36.892336 174.000967, -69.999613 80.340585)

LINESTRING (-69.999613 80.340585, -40.529165 -9.290092)

LINESTRING (-40.529165 -9.290092, 26.874246 -60.277062)

LINESTRING (26.874246 -60.277062, 130.545064 -61.227464)

LINESTRING (130.545064 -61.227464, 197.035075 -13.823191)

LINESTRING (197.035075 -13.823191, 229.930777 84.556536)

LINESTRING (280.000000 80.000000, 429.998873 80.581452)

LINESTRING (280.000000 80.000000, 362.499380 80.319799)

LINESTRING (362.499380 80.319799, 429.998873 80.581452)

LINESTRING (280.000000 80.000000, 407.824207 158.491861)

LINESTRING (280.000000 80.000000, 350.303314 123.170524)

LINESTRING (350.303314 123.170524, 407.824207 158.491861)

LINESTRING (280.000000 80.000000, 324.732497 223.174731)

LINESTRING (280.000000 80.000000, 304.602873 158.746102)

LINESTRING (304.602873 158.746102, 324.732497 223.174731)

LINESTRING (280.000000 80.000000, 241.293851 224.920095)

LINESTRING (280.000000 80.000000, 258.711618 159.706052)

LINESTRING (258.711618 159.706052, 241.293851 224.920095)

LINESTRING (280.000000 80.000000, 156.074666 164.513381)

LINESTRING (280.000000 80.000000, 211.841066 126.482360)

LINESTRING (211.841066 126.482360, 156.074666 164.513381)

LINESTRING (280.000000 80.000000, 130.133659 73.669145)

LINESTRING (280.000000 80.000000, 197.573512 76.518030)

LINESTRING (197.573512 76.518030, 130.133659 73.669145)

LINESTRING (280.000000 80.000000, 161.192196 -11.568038)

LINESTRING (280.000000 80.000000, 214.655708 29.637579)

LINESTRING (214.655708 29.637579, 161.192196 -11.568038)

LINESTRING (280.000000 80.000000, 224.913421 -59.518704)

LINESTRING (280.000000 80.000000, 249.702381 3.264713)

LINESTRING (249.702381 3.264713, 224.913421 -59.518704)

LINESTRING (280.000000 80.000000, 330.081976 -61.392347)

LINESTRING (280.000000 80.000000, 307.545087 2.234209)

LINESTRING (307.545087 2.234209, 330.081976 -61.392347)

LINESTRING (280.000000 80.000000, 398.192687 -12.360644)

LINESTRING (280.000000 80.000000, 345.005978 29.201646)

LINESTRING (345.005978 29.201646, 398.192687 -12.360644)

LINESTRING (429.998873 80.581452, 407.824207 158.491861)

LINESTRING (407.824207 158.491861, 324.732497 223.174731)

LINESTRING (324.732497 223.174731, 241.293851 224.920095)

LINESTRING (241.293851 224.920095, 156.074666 164.513381)

LINESTRING (156.074666 164.513381, 130.133659 73.669145)

LINESTRING (130.133659 73.669145, 161.192196 -11.568038)

LINESTRING (161.192196 -11.568038, 224.913421 -59.518704)

LINESTRING (224.913421 -59.518704, 330.081976 -61.392347)

LINESTRING (330.081976 -61.392347, 398.192687 -12.360644)

LINESTRING (398.192687 -12.360644, 429.998873 80.581452)

LINESTRING (480.000000 80.000000, 629.982430 77.704214)

LINESTRING (480.000000 80.000000, 562.490337 78.737318)

LINESTRING (562.490337 78.737318, 629.982430 77.704214)

LINESTRING (480.000000 80.000000, 603.315084 165.401347)

LINESTRING (480.000000 80.000000, 547.823296 126.970741)

LINESTRING (547.823296 126.970741, 603.315084 165.401347)

LINESTRING (480.000000 80.000000, 529.171327 221.711611)

LINESTRING (480.000000 80.000000, 507.044230 157.941386)

LINESTRING (507.044230 157.941386, 529.171327 221.711611)

LINESTRING (480.000000 80.000000, 424.828490 219.485141)

LINESTRING (480.000000 80.000000, 449.655670 156.716827)

LINESTRING (449.655670 156.716827, 424.828490 219.485141)

LINESTRING (480.000000 80.000000, 365.578874 176.993845)

LINESTRING (480.000000 80.000000, 417.068381 133.346615)

LINESTRING (417.068381 133.346615, 365.578874 176.993845)

LINESTRING (480.000000 80.000000, 330.350291 90.245220)

LINESTRING (480.000000 80.000000, 397.692660 85.634871)

LINESTRING (397.692660 85.634871, 330.350291 90.245220)

LINESTRING (480.000000 80.000000, 353.228348 -0.180723)

LINESTRING (480.000000 80.000000, 410.275592 35.900602)

LINESTRING (410.275592 35.900602, 353.228348 -0.180723)

LINESTRING (480.000000 80.000000, 426.075595 -59.971992)

LINESTRING (480.000000 80.000000, 450.341577 3.015404)

LINESTRING (450.341577 3.015404, 426.075595 -59.971992)

LINESTRING (480.000000 80.000000, 530.105372 -61.384058)

LINESTRING (480.000000 80.000000, 507.557954 2.238768)

LINESTRING (507.557954 2.238768, 530.105372 -61.384058)

LINESTRING (480.000000 80.000000, 606.476683 -0.645203)

LINESTRING (480.000000 80.000000, 549.562175 35.645138)

LINESTRING (549.562175 35.645138, 606.476683 -0.645203)

LINESTRING (629.982430 77.704214, 603.315084 165.401347)

LINESTRING (603.315084 165.401347, 529.171327 221.711611)

LINESTRING (529.171327 221.711611, 424.828490 219.485141)

LINESTRING (424.828490 219.485141, 365.578874 176.993845)

LINESTRING (365.578874 176.993845, 330.350291 90.245220)

LINESTRING (330.350291 90.245220, 353.228348 -0.180723)

LINESTRING (353.228348 -0.180723, 426.075595 -59.971992)

LINESTRING (426.075595 -59.971992, 530.105372 -61.384058)

LINESTRING (530.105372 -61.384058, 606.476683 -0.645203)

LINESTRING (606.476683 -0.645203, 629.982430 77.704214)

LINESTRING (80.000000 80.000000, 280.000000 80.000000)

LINESTRING (280.000000 80.000000, 480.000000 80.000000)

