LINESTRING (2921.707924 6519.870822, 3718.495775 5987.530205)

LINESTRING (2921.707924 6519.870822, 1309.788930 6282.076584)

LINESTRING (2921.707924 6519.870822, 1738.081202 5517.612409)

LINESTRING (3379.961044 1507.572816, 3379.342710 3084.261034)

LINESTRING (3379.961044 1507.572816, 3957.325745 3184.760220)

LINESTRING (3379.961044 1507.572816, 4625.456999 447.104740)

LINESTRING (3379.961044 1507.572816, 3712.674193 2293.539790)

LINESTRING (3379.961044 1507.572816, 3087.120952 1937.121757)

LINESTRING (3947.095222 1040.586977, 5316.954176 703.165089)

LINESTRING (3947.095222 1040.586977, 5218.518663 2044.651042)

LINESTRING (3947.095222 1040.586977, 4625.456999 447.104740)

LINESTRING (3947.095222 1040.586977, 2346.320196 491.578141)

LINESTRING (3947.095222 1040.586977, 4331.515912 1228.985025)

LINESTRING (3947.095222 1040.586977, 2787.402769 1146.205322)

LINESTRING (6529.403364 5948.318794, 6365.017385 5649.419334)

LINESTRING (6529.403364 5948.318794, 5393.546264 6434.180791)

LINESTRING (6529.403364 5948.318794, 6382.189123 5846.607386)

LINESTRING (3379.342710 3084.261034, 3060.285279 3668.160821)

LINESTRING (3379.342710 3084.261034, 4565.531506 3613.387558)

LINESTRING (3379.342710 3084.261034, 3957.325745 3184.760220)

LINESTRING (3379.342710 3084.261034, 3712.674193 2293.539790)

LINESTRING (3379.342710 3084.261034, 2822.072639 3544.253203)

LINESTRING (1315.063103 2075.817003, 925.747853 534.801615)

LINESTRING (1315.063103 2075.817003, 708.269091 3113.149404)

LINESTRING (1315.063103 2075.817003, 1122.181010 3561.411536)

LINESTRING (1315.063103 2075.817003, 642.418634 3136.650273)

LINESTRING (5316.954176 703.165089, 5798.431815 973.916175)

LINESTRING (5316.954176 703.165089, 4895.938253 150.078246)

LINESTRING (5316.954176 703.165089, 4331.515912 1228.985025)

LINESTRING (5316.954176 703.165089, 5866.311201 599.230297)

LINESTRING (4586.261278 2811.282471, 4565.531506 3613.387558)

LINESTRING (4586.261278 2811.282471, 4444.099552 3039.702342)

LINESTRING (4586.261278 2811.282471, 4331.515912 1228.985025)

LINESTRING (4586.261278 2811.282471, 3712.674193 2293.539790)

LINESTRING (4586.261278 2811.282471, 5145.920450 4429.086075)

LINESTRING (5798.431815 973.916175, 4625.456999 447.104740)

LINESTRING (5798.431815 973.916175, 5866.311201 599.230297)

LINESTRING (328.517974 3969.621024, 751.826171 2587.082162)

LINESTRING (328.517974 3969.621024, 1122.181010 3561.411536)

LINESTRING (328.517974 3969.621024, 520.201566 4016.780005)

LINESTRING (328.517974 3969.621024, 758.459099 4635.330943)

LINESTRING (6391.159272 3722.240642, 6509.895962 3950.597970)

LINESTRING (6365.017385 5649.419334, 6382.189123 5846.607386)

LINESTRING (6365.017385 5649.419334, 4726.203806 5731.961525)

LINESTRING (3060.285279 3668.160821, 4565.531506 3613.387558)

LINESTRING (3060.285279 3668.160821, 4444.099552 3039.702342)

LINESTRING (3060.285279 3668.160821, 2922.662585 4432.195467)

LINESTRING (3060.285279 3668.160821, 3712.674193 2293.539790)

LINESTRING (3060.285279 3668.160821, 2095.026232 4507.446749)

LINESTRING (3060.285279 3668.160821, 2822.072639 3544.253203)

LINESTRING (925.747853 534.801615, 2346.320196 491.578141)

LINESTRING (5218.518663 2044.651042, 3957.325745 3184.760220)

LINESTRING (5218.518663 2044.651042, 4444.099552 3039.702342)

LINESTRING (4895.938253 150.078246, 4625.456999 447.104740)

LINESTRING (4565.531506 3613.387558, 4444.099552 3039.702342)

LINESTRING (4565.531506 3613.387558, 3712.674193 2293.539790)

LINESTRING (3718.495775 5987.530205, 4954.321545 5184.317436)

LINESTRING (3718.495775 5987.530205, 2922.662585 4432.195467)

LINESTRING (3718.495775 5987.530205, 4726.203806 5731.961525)

LINESTRING (1309.788930 6282.076584, 1738.081202 5517.612409)

LINESTRING (1309.788930 6282.076584, 116.012529 5996.155314)

LINESTRING (1309.788930 6282.076584, 1834.595891 6383.975990)

LINESTRING (393.680818 2714.494444, 708.269091 3113.149404)

LINESTRING (393.680818 2714.494444, 751.826171 2587.082162)

LINESTRING (393.680818 2714.494444, 1122.181010 3561.411536)

LINESTRING (393.680818 2714.494444, 642.418634 3136.650273)

LINESTRING (708.269091 3113.149404, 751.826171 2587.082162)

LINESTRING (708.269091 3113.149404, 642.418634 3136.650273)

LINESTRING (708.269091 3113.149404, 790.942303 3242.051096)

LINESTRING (3957.325745 3184.760220, 4444.099552 3039.702342)

LINESTRING (3957.325745 3184.760220, 3087.120952 1937.121757)

LINESTRING (4625.456999 447.104740, 4331.515912 1228.985025)

LINESTRING (4625.456999 447.104740, 5866.311201 599.230297)

LINESTRING (741.715173 5854.930644, 1738.081202 5517.612409)

LINESTRING (741.715173 5854.930644, 116.012529 5996.155314)

LINESTRING (741.715173 5854.930644, 758.459099 4635.330943)

LINESTRING (751.826171 2587.082162, 1122.181010 3561.411536)

LINESTRING (751.826171 2587.082162, 642.418634 3136.650273)

LINESTRING (1122.181010 3561.411536, 790.942303 3242.051096)

LINESTRING (1122.181010 3561.411536, 758.459099 4635.330943)

LINESTRING (4954.321545 5184.317436, 6382.189123 5846.607386)

LINESTRING (4954.321545 5184.317436, 4726.203806 5731.961525)

LINESTRING (2346.320196 491.578141, 2787.402769 1146.205322)

LINESTRING (4331.515912 1228.985025, 5866.311201 599.230297)

LINESTRING (6382.189123 5846.607386, 4726.203806 5731.961525)

LINESTRING (2922.662585 4432.195467, 1738.081202 5517.612409)

LINESTRING (2922.662585 4432.195467, 2822.072639 3544.253203)

LINESTRING (520.201566 4016.780005, 790.942303 3242.051096)

LINESTRING (3712.674193 2293.539790, 2787.402769 1146.205322)

LINESTRING (3712.674193 2293.539790, 2822.072639 3544.253203)

LINESTRING (2765.204294 1448.726192, 2787.402769 1146.205322)

LINESTRING (2765.204294 1448.726192, 3087.120952 1937.121757)

LINESTRING (5145.920450 4429.086075, 4726.203806 5731.961525)

LINESTRING (642.418634 3136.650273, 790.942303 3242.051096)

LINESTRING (642.418634 3136.650273, 758.459099 4635.330943)

LINESTRING (2787.402769 1146.205322, 3087.120952 1937.121757)

LINESTRING (116.012529 5996.155314, 758.459099 4635.330943)

LINESTRING (2095.026232 4507.446749, 2822.072639 3544.253203)

LINESTRING (2822.072639 3544.253203, 3087.120952 1937.121757)

