LINESTRING (60.000000 60.000000, 140.000000 60.000000)

LINESTRING (60.000000 60.000000, 220.000000 60.000000)

LINESTRING (60.000000 60.000000, 300.000000 60.000000)

LINESTRING (60.000000 60.000000, 60.000000 140.000000)

LINESTRING (60.000000 60.000000, 140.000000 140.000000)

LINESTRING (60.000000 60.000000, 220.000000 140.000000)

LINESTRING (60.000000 60.000000, 300.000000 140.000000)

LINESTRING (60.000000 60.000000, 60.000000 220.000000)

LINESTRING (60.000000 60.000000, 140.000000 220.000000)

LINESTRING (60.000000 60.000000, 300.000000 220.000000)

LINESTRING (60.000000 60.000000, 140.000000 300.000000)

LINESTRING (60.000000 60.000000, 220.000000 300.000000)

LINESTRING (140.000000 60.000000, 220.000000 140.000000)

LINESTRING (140.000000 60.000000, 300.000000 140.000000)

LINESTRING (140.000000 60.000000, 140.000000 220.000000)

LINESTRING (140.000000 60.000000, 140.000000 300.000000)

LINESTRING (140.000000 60.000000, 220.000000 300.000000)

LINESTRING (220.000000 60.000000, 300.000000 60.000000)

LINESTRING (220.000000 60.000000, 220.000000 140.000000)

LINESTRING (220.000000 60.000000, 140.000000 220.000000)

LINESTRING (220.000000 60.000000, 220.000000 220.000000)

LINESTRING (300.000000 60.000000, 60.000000 140.000000)

LINESTRING (300.000000 60.000000, 300.000000 140.000000)

LINESTRING (300.000000 60.000000, 60.000000 220.000000)

LINESTRING (300.000000 60.000000, 60.000000 300.000000)

LINESTRING (300.000000 60.000000, 220.000000 300.000000)

LINESTRING (60.000000 140.000000, 140.000000 140.000000)

LINESTRING (60.000000 140.000000, 300.000000 140.000000)

LINESTRING (60.000000 140.000000, 140.000000 220.000000)

LINESTRING (60.000000 140.000000, 220.000000 220.000000)

LINESTRING (60.000000 140.000000, 300.000000 220.000000)

LINESTRING (60.000000 140.000000, 60.000000 300.000000)

LINESTRING (60.000000 140.000000, 220.000000 300.000000)

LINESTRING (140.000000 140.000000, 220.000000 140.000000)

LINESTRING (140.000000 140.000000, 60.000000 220.000000)

LINESTRING (140.000000 140.000000, 140.000000 220.000000)

LINESTRING (140.000000 140.000000, 60.000000 300.000000)

LINESTRING (140.000000 140.000000, 220.000000 300.000000)

LINESTRING (220.000000 140.000000, 60.000000 220.000000)

LINESTRING (220.000000 140.000000, 140.000000 220.000000)

LINESTRING (220.000000 140.000000, 300.000000 220.000000)

LINESTRING (220.000000 140.000000, 60.000000 300.000000)

LINESTRING (220.000000 140.000000, 140.000000 300.000000)

LINESTRING (220.000000 140.000000, 220.000000 300.000000)

LINESTRING (300.000000 140.000000, 60.000000 220.000000)

LINESTRING (300.000000 140.000000, 220.000000 220.000000)

LINESTRING (300.000000 140.000000, 220.000000 300.000000)

LINESTRING (60.000000 220.000000, 140.000000 220.000000)

LINESTRING (60.000000 220.000000, 220.000000 220.000000)

LINESTRING (60.000000 220.000000, 60.000000 300.000000)

LINESTRING (140.000000 220.000000, 220.000000 220.000000)

LINESTRING (140.000000 220.000000, 60.000000 300.000000)

LINESTRING (140.000000 220.000000, 220.000000 300.000000)

LINESTRING (220.000000 220.000000, 300.000000 220.000000)

LINESTRING (300.000000 220.000000, 140.000000 300.000000)

LINESTRING (300.000000 220.000000, 220.000000 300.000000)

LINESTRING (60.000000 300.000000, 140.000000 300.000000)

LINESTRING (60.000000 300.000000, 220.000000 300.000000)

LINESTRING (140.000000 300.000000, 220.000000 300.000000)

LINESTRING (380.000000 180.000000, 321.421356 321.421356)

LINESTRING (380.000000 180.000000, 60.000000 60.000000)

LINESTRING (321.421356 321.421356, 180.000000 380.000000)

LINESTRING (321.421356 321.421356, 140.000000 60.000000)

LINESTRING (180.000000 380.000000, 38.578644 321.421356)

LINESTRING (180.000000 380.000000, 220.000000 60.000000)

LINESTRING (38.578644 321.421356, -20.000000 180.000000)

LINESTRING (38.578644 321.421356, 300.000000 60.000000)

LINESTRING (-20.000000 180.000000, 38.578644 38.578644)

LINESTRING (-20.000000 180.000000, 60.000000 140.000000)

LINESTRING (38.578644 38.578644, 180.000000 -20.000000)

LINESTRING (38.578644 38.578644, 140.000000 140.000000)

LINESTRING (180.000000 -20.000000, 321.421356 38.578644)

LINESTRING (180.000000 -20.000000, 220.000000 140.000000)

LINESTRING (321.421356 38.578644, 380.000000 180.000000)

LINESTRING (321.421356 38.578644, 300.000000 140.000000)

