LINESTRING (47.823971 51.365606, 119.981823 57.353479)

LINESTRING (119.981823 57.353479, 213.809592 32.218658)

LINESTRING (213.809592 32.218658, 307.311040 48.920042)

LINESTRING (307.311040 48.920042, 382.608318 46.373105)

LINESTRING (382.608318 46.373105, 443.154944 54.020839)

LINESTRING (443.154944 54.020839, 556.375098 27.786174)

LINESTRING (556.375098 27.786174, 623.406147 43.008533)

LINESTRING (623.406147 43.008533, 703.853646 44.363691)

LINESTRING (703.853646 44.363691, 764.967247 33.920163)

LINESTRING (764.967247 33.920163, 839.710839 64.744777)

LINESTRING (839.710839 64.744777, 929.949302 20.491813)

LINESTRING (929.949302 20.491813, 980.340417 35.245958)

LINESTRING (980.340417 35.245958, 1085.381137 66.015932)

LINESTRING (1085.381137 66.015932, 1165.788026 56.300573)

LINESTRING (1165.788026 56.300573, 1258.133428 30.237635)

LINESTRING (47.703970 107.469972, 115.330825 131.339820)

LINESTRING (115.330825 131.339820, 182.008735 124.795521)

LINESTRING (182.008735 124.795521, 289.298278 153.926840)

LINESTRING (289.298278 153.926840, 361.488196 142.066396)

LINESTRING (361.488196 142.066396, 476.879060 152.757224)

LINESTRING (476.879060 152.757224, 528.576949 137.757569)

LINESTRING (528.576949 137.757569, 609.802784 108.899374)

LINESTRING (609.802784 108.899374, 712.780538 117.275943)

LINESTRING (712.780538 117.275943, 795.814132 105.643923)

LINESTRING (795.814132 105.643923, 844.670651 124.040934)

LINESTRING (844.670651 124.040934, 933.924200 158.480885)

LINESTRING (933.924200 158.480885, 998.903547 148.792183)

LINESTRING (998.903547 148.792183, 1072.604977 101.755540)

LINESTRING (1072.604977 101.755540, 1199.102503 114.239771)

LINESTRING (1199.102503 114.239771, 1234.199607 116.774552)

LINESTRING (29.671717 185.419838, 137.425717 191.661921)

LINESTRING (137.425717 191.661921, 209.107496 204.141739)

LINESTRING (209.107496 204.141739, 305.045813 195.671653)

LINESTRING (305.045813 195.671653, 374.727974 213.228054)

LINESTRING (374.727974 213.228054, 436.831716 197.784240)

LINESTRING (436.831716 197.784240, 529.777337 191.450168)

LINESTRING (529.777337 191.450168, 583.127436 181.880882)

LINESTRING (583.127436 181.880882, 688.811859 237.940373)

LINESTRING (688.811859 237.940373, 744.159022 193.089804)

LINESTRING (744.159022 193.089804, 863.253515 204.217515)

LINESTRING (863.253515 204.217515, 944.785065 207.991770)

LINESTRING (944.785065 207.991770, 1001.823680 227.154330)

LINESTRING (1001.823680 227.154330, 1087.135493 218.371659)

LINESTRING (1087.135493 218.371659, 1164.403761 195.824275)

LINESTRING (1164.403761 195.824275, 1276.124338 182.263680)

LINESTRING (35.454860 267.959632, 126.966717 276.855352)

LINESTRING (126.966717 276.855352, 235.946893 293.335720)

LINESTRING (235.946893 293.335720, 287.154334 290.862843)

LINESTRING (287.154334 290.862843, 352.948651 262.525811)

LINESTRING (352.948651 262.525811, 467.274996 307.025447)

LINESTRING (467.274996 307.025447, 557.921392 286.287408)

LINESTRING (557.921392 286.287408, 598.859426 269.617282)

LINESTRING (598.859426 269.617282, 703.634559 287.940995)

LINESTRING (703.634559 287.940995, 765.120583 272.125057)

LINESTRING (765.120583 272.125057, 873.349892 265.501364)

LINESTRING (873.349892 265.501364, 950.317513 293.916995)

LINESTRING (950.317513 293.916995, 1015.713634 313.626100)

LINESTRING (1015.713634 313.626100, 1074.661869 310.161663)

LINESTRING (1074.661869 310.161663, 1178.415255 271.798594)

LINESTRING (1178.415255 271.798594, 1258.716539 309.740571)

LINESTRING (79.663891 388.940136, 139.168660 394.662384)

LINESTRING (139.168660 394.662384, 196.285360 360.619670)

LINESTRING (196.285360 360.619670, 261.063768 365.987989)

LINESTRING (261.063768 365.987989, 388.445197 372.650206)

LINESTRING (388.445197 372.650206, 452.688508 372.145570)

LINESTRING (452.688508 372.145570, 540.236466 373.370400)

LINESTRING (540.236466 373.370400, 615.091031 344.334999)

LINESTRING (615.091031 344.334999, 688.199928 366.387597)

LINESTRING (688.199928 366.387597, 762.108894 380.512604)

LINESTRING (762.108894 380.512604, 873.181453 379.175070)

LINESTRING (873.181453 379.175070, 951.336622 393.463451)

LINESTRING (951.336622 393.463451, 1016.776291 399.148701)

LINESTRING (1016.776291 399.148701, 1102.009883 386.159496)

LINESTRING (1102.009883 386.159496, 1186.882144 374.200925)

LINESTRING (1186.882144 374.200925, 1221.967217 397.607515)

LINESTRING (42.331774 472.129691, 109.841448 439.226415)

LINESTRING (109.841448 439.226415, 181.530468 447.507746)

LINESTRING (181.530468 447.507746, 285.897131 473.172984)

LINESTRING (285.897131 473.172984, 378.303991 439.068244)

LINESTRING (378.303991 439.068244, 476.877590 436.701099)

LINESTRING (476.877590 436.701099, 508.271374 436.428200)

LINESTRING (508.271374 436.428200, 633.595703 447.052743)

LINESTRING (633.595703 447.052743, 709.183836 467.472246)

LINESTRING (709.183836 467.472246, 787.461469 470.965984)

LINESTRING (787.461469 470.965984, 862.941945 420.445302)

LINESTRING (862.941945 420.445302, 941.074610 431.816838)

LINESTRING (941.074610 431.816838, 1006.062083 475.094057)

LINESTRING (1006.062083 475.094057, 1110.339611 432.941280)

LINESTRING (1110.339611 432.941280, 1143.914415 456.952017)

LINESTRING (1143.914415 456.952017, 1247.508648 436.507420)

LINESTRING (22.122907 542.572458, 156.212316 520.057507)

LINESTRING (156.212316 520.057507, 190.114091 538.229561)

LINESTRING (190.114091 538.229561, 311.095550 535.920076)

LINESTRING (311.095550 535.920076, 342.448476 547.859668)

LINESTRING (342.448476 547.859668, 426.290913 553.303637)

LINESTRING (426.290913 553.303637, 532.466467 546.770366)

LINESTRING (532.466467 546.770366, 583.097865 519.023551)

LINESTRING (583.097865 519.023551, 708.607945 521.350048)

LINESTRING (708.607945 521.350048, 774.041733 550.704851)

LINESTRING (774.041733 550.704851, 875.584263 524.443624)

LINESTRING (875.584263 524.443624, 945.473411 558.455220)

LINESTRING (945.473411 558.455220, 986.175461 504.541319)

LINESTRING (986.175461 504.541319, 1094.716715 550.958839)

LINESTRING (1094.716715 550.958839, 1177.443150 559.529409)

LINESTRING (1177.443150 559.529409, 1234.183685 538.696533)

LINESTRING (36.923971 638.924839, 102.164159 627.712465)

LINESTRING (102.164159 627.712465, 222.501839 584.639473)

LINESTRING (222.501839 584.639473, 306.941170 622.819955)

LINESTRING (306.941170 622.819955, 360.948675 593.253697)

LINESTRING (360.948675 593.253697, 422.881239 616.816707)

LINESTRING (422.881239 616.816707, 505.569826 626.010212)

LINESTRING (505.569826 626.010212, 589.229661 635.959636)

LINESTRING (589.229661 635.959636, 660.531408 616.012310)

LINESTRING (660.531408 616.012310, 770.530888 635.375627)

LINESTRING (770.530888 635.375627, 875.627196 634.271721)

LINESTRING (875.627196 634.271721, 950.133325 626.901545)

LINESTRING (950.133325 626.901545, 1003.844748 631.867551)

LINESTRING (1003.844748 631.867551, 1111.257745 618.723403)

LINESTRING (1111.257745 618.723403, 1161.345022 595.994209)

LINESTRING (1161.345022 595.994209, 1268.007501 581.544260)

LINESTRING (75.573940 682.729323, 105.636372 678.416553)

LINESTRING (105.636372 678.416553, 225.135037 663.724453)

LINESTRING (225.135037 663.724453, 268.902199 694.966124)

LINESTRING (268.902199 694.966124, 399.903313 666.359769)

LINESTRING (399.903313 666.359769, 455.015441 717.056865)

LINESTRING (455.015441 717.056865, 551.026494 689.639556)

LINESTRING (551.026494 689.639556, 626.071641 694.564101)

LINESTRING (626.071641 694.564101, 682.679531 695.437972)

LINESTRING (682.679531 695.437972, 751.292619 712.877872)

LINESTRING (751.292619 712.877872, 862.561250 698.715686)

LINESTRING (862.561250 698.715686, 932.969529 687.585919)

LINESTRING (932.969529 687.585919, 980.496662 708.878900)

LINESTRING (980.496662 708.878900, 1083.012461 678.751448)

LINESTRING (1083.012461 678.751448, 1141.317622 719.624400)

LINESTRING (1141.317622 719.624400, 1243.759005 695.368496)

LINESTRING (64.897379 785.532692, 154.290562 746.296704)

LINESTRING (154.290562 746.296704, 233.602499 785.379374)

LINESTRING (233.602499 785.379374, 307.503821 792.395990)

LINESTRING (307.503821 792.395990, 378.457440 752.202121)

LINESTRING (378.457440 752.202121, 437.897252 746.943749)

LINESTRING (437.897252 746.943749, 535.146326 746.350611)

LINESTRING (535.146326 746.350611, 632.617514 756.405573)

LINESTRING (632.617514 756.405573, 687.010365 798.830789)

LINESTRING (687.010365 798.830789, 757.465487 781.157702)

LINESTRING (757.465487 781.157702, 872.754259 769.656878)

LINESTRING (872.754259 769.656878, 938.606255 740.237478)

LINESTRING (938.606255 740.237478, 986.672313 746.790438)

LINESTRING (986.672313 746.790438, 1108.370028 775.032989)

LINESTRING (1108.370028 775.032989, 1177.212040 754.741404)

LINESTRING (1177.212040 754.741404, 1245.294677 786.607432)

LINESTRING (75.403657 872.388247, 125.940358 830.086193)

LINESTRING (125.940358 830.086193, 228.815726 879.125218)

LINESTRING (228.815726 879.125218, 305.180036 835.994357)

LINESTRING (305.180036 835.994357, 351.208189 867.260681)

LINESTRING (351.208189 867.260681, 447.228132 866.941807)

LINESTRING (447.228132 866.941807, 536.281183 824.353484)

LINESTRING (536.281183 824.353484, 581.440821 849.416525)

LINESTRING (581.440821 849.416525, 719.997180 872.680535)

LINESTRING (719.997180 872.680535, 762.587249 830.153509)

LINESTRING (762.587249 830.153509, 847.505784 830.029506)

LINESTRING (847.505784 830.029506, 932.596280 851.795946)

LINESTRING (932.596280 851.795946, 1027.101855 821.973930)

LINESTRING (1027.101855 821.973930, 1081.233653 853.313409)

LINESTRING (1081.233653 853.313409, 1157.201921 824.936071)

LINESTRING (1157.201921 824.936071, 1249.206557 866.437358)

LINESTRING (54.970938 923.515935, 140.375697 906.936345)

LINESTRING (140.375697 906.936345, 212.928574 952.969038)

LINESTRING (212.928574 952.969038, 271.538497 911.546888)

LINESTRING (271.538497 911.546888, 353.735492 923.905543)

LINESTRING (353.735492 923.905543, 465.408953 946.139491)

LINESTRING (465.408953 946.139491, 506.885087 949.690521)

LINESTRING (506.885087 949.690521, 616.675469 902.138104)

LINESTRING (616.675469 902.138104, 662.848953 951.574827)

LINESTRING (662.848953 951.574827, 750.125602 940.970168)

LINESTRING (750.125602 940.970168, 845.997989 917.498552)

LINESTRING (845.997989 917.498552, 902.407555 957.129073)

LINESTRING (902.407555 957.129073, 1032.685994 953.494948)

LINESTRING (1032.685994 953.494948, 1100.778815 944.319975)

LINESTRING (1100.778815 944.319975, 1150.649706 958.901954)

LINESTRING (1150.649706 958.901954, 1260.785052 932.535633)

LINESTRING (32.314281 1008.759661, 115.445087 1020.505081)

LINESTRING (115.445087 1020.505081, 215.061130 1035.432981)

LINESTRING (215.061130 1035.432981, 284.310166 1008.386365)

LINESTRING (284.310166 1008.386365, 394.560151 991.574625)

LINESTRING (394.560151 991.574625, 452.880191 1007.901933)

LINESTRING (452.880191 1007.901933, 546.445757 1017.950656)

LINESTRING (546.445757 1017.950656, 605.785991 1037.104020)

LINESTRING (605.785991 1037.104020, 719.840427 1021.897695)

LINESTRING (719.840427 1021.897695, 783.300145 1019.203894)

LINESTRING (783.300145 1019.203894, 864.297081 986.312853)

LINESTRING (864.297081 986.312853, 946.815323 982.710398)

LINESTRING (946.815323 982.710398, 1012.567974 1006.918492)

LINESTRING (1012.567974 1006.918492, 1069.591219 995.737054)

LINESTRING (1069.591219 995.737054, 1144.874347 1035.590900)

LINESTRING (1144.874347 1035.590900, 1259.015152 1018.328629)

LINESTRING (29.597652 1119.619172, 109.062587 1114.994237)

LINESTRING (109.062587 1114.994237, 224.541798 1072.337519)

LINESTRING (224.541798 1072.337519, 303.042649 1110.446418)

LINESTRING (303.042649 1110.446418, 365.312085 1112.475009)

LINESTRING (365.312085 1112.475009, 465.293296 1069.287054)

LINESTRING (465.293296 1069.287054, 538.512325 1119.502662)

LINESTRING (538.512325 1119.502662, 611.434774 1089.392983)

LINESTRING (611.434774 1089.392983, 661.957873 1083.032439)

LINESTRING (661.957873 1083.032439, 789.098691 1092.270352)

LINESTRING (789.098691 1092.270352, 875.696411 1101.197668)

LINESTRING (875.696411 1101.197668, 909.639946 1083.938928)

LINESTRING (909.639946 1083.938928, 1029.179655 1078.948831)

LINESTRING (1029.179655 1078.948831, 1101.043533 1067.809165)

LINESTRING (1101.043533 1067.809165, 1153.184704 1089.647130)

LINESTRING (1153.184704 1089.647130, 1277.718449 1115.713560)

LINESTRING (48.143091 1183.234996, 132.144612 1197.322516)

LINESTRING (132.144612 1197.322516, 210.354569 1195.204732)

LINESTRING (210.354569 1195.204732, 304.160046 1186.039250)

LINESTRING (304.160046 1186.039250, 347.353463 1147.565178)

LINESTRING (347.353463 1147.565178, 445.914554 1187.313492)

LINESTRING (445.914554 1187.313492, 520.628768 1186.652660)

LINESTRING (520.628768 1186.652660, 603.857042 1185.257229)

LINESTRING (603.857042 1185.257229, 703.761912 1153.288624)

LINESTRING (703.761912 1153.288624, 748.791433 1160.428046)

LINESTRING (748.791433 1160.428046, 860.628989 1163.416048)

LINESTRING (860.628989 1163.416048, 940.090598 1145.615048)

LINESTRING (940.090598 1145.615048, 993.778462 1159.439867)

LINESTRING (993.778462 1159.439867, 1084.922397 1158.637106)

LINESTRING (1084.922397 1158.637106, 1162.505079 1161.870436)

LINESTRING (1162.505079 1161.870436, 1235.040541 1192.129689)

LINESTRING (33.097330 1234.924878, 132.809821 1247.226051)

LINESTRING (132.809821 1247.226051, 226.608213 1230.252510)

LINESTRING (226.608213 1230.252510, 284.031313 1231.631893)

LINESTRING (284.031313 1231.631893, 352.700146 1250.366612)

LINESTRING (352.700146 1250.366612, 472.011471 1267.121143)

LINESTRING (472.011471 1267.121143, 508.108682 1228.081290)

LINESTRING (508.108682 1228.081290, 601.784058 1256.236383)

LINESTRING (601.784058 1256.236383, 710.357374 1278.913804)

LINESTRING (710.357374 1278.913804, 784.005221 1248.362641)

LINESTRING (784.005221 1248.362641, 838.484665 1231.117579)

LINESTRING (838.484665 1231.117579, 901.649746 1256.621388)

LINESTRING (901.649746 1256.621388, 994.205837 1241.714751)

LINESTRING (994.205837 1241.714751, 1077.299127 1248.605139)

LINESTRING (1077.299127 1248.605139, 1197.848239 1236.670355)

LINESTRING (1197.848239 1236.670355, 1243.514054 1226.443209)

LINESTRING (47.823971 51.365606, 47.703970 107.469972)

LINESTRING (119.981823 57.353479, 115.330825 131.339820)

LINESTRING (213.809592 32.218658, 182.008735 124.795521)

LINESTRING (307.311040 48.920042, 289.298278 153.926840)

LINESTRING (382.608318 46.373105, 361.488196 142.066396)

LINESTRING (443.154944 54.020839, 476.879060 152.757224)

LINESTRING (556.375098 27.786174, 528.576949 137.757569)

LINESTRING (623.406147 43.008533, 609.802784 108.899374)

LINESTRING (703.853646 44.363691, 712.780538 117.275943)

LINESTRING (764.967247 33.920163, 795.814132 105.643923)

LINESTRING (839.710839 64.744777, 844.670651 124.040934)

LINESTRING (929.949302 20.491813, 933.924200 158.480885)

LINESTRING (980.340417 35.245958, 998.903547 148.792183)

LINESTRING (1085.381137 66.015932, 1072.604977 101.755540)

LINESTRING (1165.788026 56.300573, 1199.102503 114.239771)

LINESTRING (1258.133428 30.237635, 1234.199607 116.774552)

LINESTRING (47.703970 107.469972, 29.671717 185.419838)

LINESTRING (115.330825 131.339820, 137.425717 191.661921)

LINESTRING (182.008735 124.795521, 209.107496 204.141739)

LINESTRING (289.298278 153.926840, 305.045813 195.671653)

LINESTRING (361.488196 142.066396, 374.727974 213.228054)

LINESTRING (476.879060 152.757224, 436.831716 197.784240)

LINESTRING (528.576949 137.757569, 529.777337 191.450168)

LINESTRING (609.802784 108.899374, 583.127436 181.880882)

LINESTRING (712.780538 117.275943, 688.811859 237.940373)

LINESTRING (795.814132 105.643923, 744.159022 193.089804)

LINESTRING (844.670651 124.040934, 863.253515 204.217515)

LINESTRING (933.924200 158.480885, 944.785065 207.991770)

LINESTRING (998.903547 148.792183, 1001.823680 227.154330)

LINESTRING (1072.604977 101.755540, 1087.135493 218.371659)

LINESTRING (1199.102503 114.239771, 1164.403761 195.824275)

LINESTRING (1234.199607 116.774552, 1276.124338 182.263680)

LINESTRING (29.671717 185.419838, 35.454860 267.959632)

LINESTRING (137.425717 191.661921, 126.966717 276.855352)

LINESTRING (209.107496 204.141739, 235.946893 293.335720)

LINESTRING (305.045813 195.671653, 287.154334 290.862843)

LINESTRING (374.727974 213.228054, 352.948651 262.525811)

LINESTRING (436.831716 197.784240, 467.274996 307.025447)

LINESTRING (529.777337 191.450168, 557.921392 286.287408)

LINESTRING (583.127436 181.880882, 598.859426 269.617282)

LINESTRING (688.811859 237.940373, 703.634559 287.940995)

LINESTRING (744.159022 193.089804, 765.120583 272.125057)

LINESTRING (863.253515 204.217515, 873.349892 265.501364)

LINESTRING (944.785065 207.991770, 950.317513 293.916995)

LINESTRING (1001.823680 227.154330, 1015.713634 313.626100)

LINESTRING (1087.135493 218.371659, 1074.661869 310.161663)

LINESTRING (1164.403761 195.824275, 1178.415255 271.798594)

LINESTRING (1276.124338 182.263680, 1258.716539 309.740571)

LINESTRING (35.454860 267.959632, 79.663891 388.940136)

LINESTRING (126.966717 276.855352, 139.168660 394.662384)

LINESTRING (235.946893 293.335720, 196.285360 360.619670)

LINESTRING (287.154334 290.862843, 261.063768 365.987989)

LINESTRING (352.948651 262.525811, 388.445197 372.650206)

LINESTRING (467.274996 307.025447, 452.688508 372.145570)

LINESTRING (557.921392 286.287408, 540.236466 373.370400)

LINESTRING (598.859426 269.617282, 615.091031 344.334999)

LINESTRING (703.634559 287.940995, 688.199928 366.387597)

LINESTRING (765.120583 272.125057, 762.108894 380.512604)

LINESTRING (873.349892 265.501364, 873.181453 379.175070)

LINESTRING (950.317513 293.916995, 951.336622 393.463451)

LINESTRING (1015.713634 313.626100, 1016.776291 399.148701)

LINESTRING (1074.661869 310.161663, 1102.009883 386.159496)

LINESTRING (1178.415255 271.798594, 1186.882144 374.200925)

LINESTRING (1258.716539 309.740571, 1221.967217 397.607515)

LINESTRING (79.663891 388.940136, 42.331774 472.129691)

LINESTRING (139.168660 394.662384, 109.841448 439.226415)

LINESTRING (196.285360 360.619670, 181.530468 447.507746)

LINESTRING (261.063768 365.987989, 285.897131 473.172984)

LINESTRING (388.445197 372.650206, 378.303991 439.068244)

LINESTRING (452.688508 372.145570, 476.877590 436.701099)

LINESTRING (540.236466 373.370400, 508.271374 436.428200)

LINESTRING (615.091031 344.334999, 633.595703 447.052743)

LINESTRING (688.199928 366.387597, 709.183836 467.472246)

LINESTRING (762.108894 380.512604, 787.461469 470.965984)

LINESTRING (873.181453 379.175070, 862.941945 420.445302)

LINESTRING (951.336622 393.463451, 941.074610 431.816838)

LINESTRING (1016.776291 399.148701, 1006.062083 475.094057)

LINESTRING (1102.009883 386.159496, 1110.339611 432.941280)

LINESTRING (1186.882144 374.200925, 1143.914415 456.952017)

LINESTRING (1221.967217 397.607515, 1247.508648 436.507420)

LINESTRING (42.331774 472.129691, 22.122907 542.572458)

LINESTRING (109.841448 439.226415, 156.212316 520.057507)

LINESTRING (181.530468 447.507746, 190.114091 538.229561)

LINESTRING (285.897131 473.172984, 311.095550 535.920076)

LINESTRING (378.303991 439.068244, 342.448476 547.859668)

LINESTRING (476.877590 436.701099, 426.290913 553.303637)

LINESTRING (508.271374 436.428200, 532.466467 546.770366)

LINESTRING (633.595703 447.052743, 583.097865 519.023551)

LINESTRING (709.183836 467.472246, 708.607945 521.350048)

LINESTRING (787.461469 470.965984, 774.041733 550.704851)

LINESTRING (862.941945 420.445302, 875.584263 524.443624)

LINESTRING (941.074610 431.816838, 945.473411 558.455220)

LINESTRING (1006.062083 475.094057, 986.175461 504.541319)

LINESTRING (1110.339611 432.941280, 1094.716715 550.958839)

LINESTRING (1143.914415 456.952017, 1177.443150 559.529409)

LINESTRING (1247.508648 436.507420, 1234.183685 538.696533)

LINESTRING (22.122907 542.572458, 36.923971 638.924839)

LINESTRING (156.212316 520.057507, 102.164159 627.712465)

LINESTRING (190.114091 538.229561, 222.501839 584.639473)

LINESTRING (311.095550 535.920076, 306.941170 622.819955)

LINESTRING (342.448476 547.859668, 360.948675 593.253697)

LINESTRING (426.290913 553.303637, 422.881239 616.816707)

LINESTRING (532.466467 546.770366, 505.569826 626.010212)

LINESTRING (583.097865 519.023551, 589.229661 635.959636)

LINESTRING (708.607945 521.350048, 660.531408 616.012310)

LINESTRING (774.041733 550.704851, 770.530888 635.375627)

LINESTRING (875.584263 524.443624, 875.627196 634.271721)

LINESTRING (945.473411 558.455220, 950.133325 626.901545)

LINESTRING (986.175461 504.541319, 1003.844748 631.867551)

LINESTRING (1094.716715 550.958839, 1111.257745 618.723403)

LINESTRING (1177.443150 559.529409, 1161.345022 595.994209)

LINESTRING (1234.183685 538.696533, 1268.007501 581.544260)

LINESTRING (36.923971 638.924839, 75.573940 682.729323)

LINESTRING (102.164159 627.712465, 105.636372 678.416553)

LINESTRING (222.501839 584.639473, 225.135037 663.724453)

LINESTRING (306.941170 622.819955, 268.902199 694.966124)

LINESTRING (360.948675 593.253697, 399.903313 666.359769)

LINESTRING (422.881239 616.816707, 455.015441 717.056865)

LINESTRING (505.569826 626.010212, 551.026494 689.639556)

LINESTRING (589.229661 635.959636, 626.071641 694.564101)

LINESTRING (660.531408 616.012310, 682.679531 695.437972)

LINESTRING (770.530888 635.375627, 751.292619 712.877872)

LINESTRING (875.627196 634.271721, 862.561250 698.715686)

LINESTRING (950.133325 626.901545, 932.969529 687.585919)

LINESTRING (1003.844748 631.867551, 980.496662 708.878900)

LINESTRING (1111.257745 618.723403, 1083.012461 678.751448)

LINESTRING (1161.345022 595.994209, 1141.317622 719.624400)

LINESTRING (1268.007501 581.544260, 1243.759005 695.368496)

LINESTRING (75.573940 682.729323, 64.897379 785.532692)

LINESTRING (105.636372 678.416553, 154.290562 746.296704)

LINESTRING (225.135037 663.724453, 233.602499 785.379374)

LINESTRING (268.902199 694.966124, 307.503821 792.395990)

LINESTRING (399.903313 666.359769, 378.457440 752.202121)

LINESTRING (455.015441 717.056865, 437.897252 746.943749)

LINESTRING (551.026494 689.639556, 535.146326 746.350611)

LINESTRING (626.071641 694.564101, 632.617514 756.405573)

LINESTRING (682.679531 695.437972, 687.010365 798.830789)

LINESTRING (751.292619 712.877872, 757.465487 781.157702)

LINESTRING (862.561250 698.715686, 872.754259 769.656878)

LINESTRING (932.969529 687.585919, 938.606255 740.237478)

LINESTRING (980.496662 708.878900, 986.672313 746.790438)

LINESTRING (1083.012461 678.751448, 1108.370028 775.032989)

LINESTRING (1141.317622 719.624400, 1177.212040 754.741404)

LINESTRING (1243.759005 695.368496, 1245.294677 786.607432)

LINESTRING (64.897379 785.532692, 75.403657 872.388247)

LINESTRING (154.290562 746.296704, 125.940358 830.086193)

LINESTRING (233.602499 785.379374, 228.815726 879.125218)

LINESTRING (307.503821 792.395990, 305.180036 835.994357)

LINESTRING (378.457440 752.202121, 351.208189 867.260681)

LINESTRING (437.897252 746.943749, 447.228132 866.941807)

LINESTRING (535.146326 746.350611, 536.281183 824.353484)

LINESTRING (632.617514 756.405573, 581.440821 849.416525)

LINESTRING (687.010365 798.830789, 719.997180 872.680535)

LINESTRING (757.465487 781.157702, 762.587249 830.153509)

LINESTRING (872.754259 769.656878, 847.505784 830.029506)

LINESTRING (938.606255 740.237478, 932.596280 851.795946)

LINESTRING (986.672313 746.790438, 1027.101855 821.973930)

LINESTRING (1108.370028 775.032989, 1081.233653 853.313409)

LINESTRING (1177.212040 754.741404, 1157.201921 824.936071)

LINESTRING (1245.294677 786.607432, 1249.206557 866.437358)

LINESTRING (75.403657 872.388247, 54.970938 923.515935)

LINESTRING (125.940358 830.086193, 140.375697 906.936345)

LINESTRING (228.815726 879.125218, 212.928574 952.969038)

LINESTRING (305.180036 835.994357, 271.538497 911.546888)

LINESTRING (351.208189 867.260681, 353.735492 923.905543)

LINESTRING (447.228132 866.941807, 465.408953 946.139491)

LINESTRING (536.281183 824.353484, 506.885087 949.690521)

LINESTRING (581.440821 849.416525, 616.675469 902.138104)

LINESTRING (719.997180 872.680535, 662.848953 951.574827)

LINESTRING (762.587249 830.153509, 750.125602 940.970168)

LINESTRING (847.505784 830.029506, 845.997989 917.498552)

LINESTRING (932.596280 851.795946, 902.407555 957.129073)

LINESTRING (1027.101855 821.973930, 1032.685994 953.494948)

LINESTRING (1081.233653 853.313409, 1100.778815 944.319975)

LINESTRING (1157.201921 824.936071, 1150.649706 958.901954)

LINESTRING (1249.206557 866.437358, 1260.785052 932.535633)

LINESTRING (54.970938 923.515935, 32.314281 1008.759661)

LINESTRING (140.375697 906.936345, 115.445087 1020.505081)

LINESTRING (212.928574 952.969038, 215.061130 1035.432981)

LINESTRING (271.538497 911.546888, 284.310166 1008.386365)

LINESTRING (353.735492 923.905543, 394.560151 991.574625)

LINESTRING (465.408953 946.139491, 452.880191 1007.901933)

LINESTRING (506.885087 949.690521, 546.445757 1017.950656)

LINESTRING (616.675469 902.138104, 605.785991 1037.104020)

LINESTRING (662.848953 951.574827, 719.840427 1021.897695)

LINESTRING (750.125602 940.970168, 783.300145 1019.203894)

LINESTRING (845.997989 917.498552, 864.297081 986.312853)

LINESTRING (902.407555 957.129073, 946.815323 982.710398)

LINESTRING (1032.685994 953.494948, 1012.567974 1006.918492)

LINESTRING (1100.778815 944.319975, 1069.591219 995.737054)

LINESTRING (1150.649706 958.901954, 1144.874347 1035.590900)

LINESTRING (1260.785052 932.535633, 1259.015152 1018.328629)

LINESTRING (32.314281 1008.759661, 29.597652 1119.619172)

LINESTRING (115.445087 1020.505081, 109.062587 1114.994237)

LINESTRING (215.061130 1035.432981, 224.541798 1072.337519)

LINESTRING (284.310166 1008.386365, 303.042649 1110.446418)

LINESTRING (394.560151 991.574625, 365.312085 1112.475009)

LINESTRING (452.880191 1007.901933, 465.293296 1069.287054)

LINESTRING (546.445757 1017.950656, 538.512325 1119.502662)

LINESTRING (605.785991 1037.104020, 611.434774 1089.392983)

LINESTRING (719.840427 1021.897695, 661.957873 1083.032439)

LINESTRING (783.300145 1019.203894, 789.098691 1092.270352)

LINESTRING (864.297081 986.312853, 875.696411 1101.197668)

LINESTRING (946.815323 982.710398, 909.639946 1083.938928)

LINESTRING (1012.567974 1006.918492, 1029.179655 1078.948831)

LINESTRING (1069.591219 995.737054, 1101.043533 1067.809165)

LINESTRING (1144.874347 1035.590900, 1153.184704 1089.647130)

LINESTRING (1259.015152 1018.328629, 1277.718449 1115.713560)

LINESTRING (29.597652 1119.619172, 48.143091 1183.234996)

LINESTRING (109.062587 1114.994237, 132.144612 1197.322516)

LINESTRING (224.541798 1072.337519, 210.354569 1195.204732)

LINESTRING (303.042649 1110.446418, 304.160046 1186.039250)

LINESTRING (365.312085 1112.475009, 347.353463 1147.565178)

LINESTRING (465.293296 1069.287054, 445.914554 1187.313492)

LINESTRING (538.512325 1119.502662, 520.628768 1186.652660)

LINESTRING (611.434774 1089.392983, 603.857042 1185.257229)

LINESTRING (661.957873 1083.032439, 703.761912 1153.288624)

LINESTRING (789.098691 1092.270352, 748.791433 1160.428046)

LINESTRING (875.696411 1101.197668, 860.628989 1163.416048)

LINESTRING (909.639946 1083.938928, 940.090598 1145.615048)

LINESTRING (1029.179655 1078.948831, 993.778462 1159.439867)

LINESTRING (1101.043533 1067.809165, 1084.922397 1158.637106)

LINESTRING (1153.184704 1089.647130, 1162.505079 1161.870436)

LINESTRING (1277.718449 1115.713560, 1235.040541 1192.129689)

LINESTRING (48.143091 1183.234996, 33.097330 1234.924878)

LINESTRING (132.144612 1197.322516, 132.809821 1247.226051)

LINESTRING (210.354569 1195.204732, 226.608213 1230.252510)

LINESTRING (304.160046 1186.039250, 284.031313 1231.631893)

LINESTRING (347.353463 1147.565178, 352.700146 1250.366612)

LINESTRING (445.914554 1187.313492, 472.011471 1267.121143)

LINESTRING (520.628768 1186.652660, 508.108682 1228.081290)

LINESTRING (603.857042 1185.257229, 601.784058 1256.236383)

LINESTRING (703.761912 1153.288624, 710.357374 1278.913804)

LINESTRING (748.791433 1160.428046, 784.005221 1248.362641)

LINESTRING (860.628989 1163.416048, 838.484665 1231.117579)

LINESTRING (940.090598 1145.615048, 901.649746 1256.621388)

LINESTRING (993.778462 1159.439867, 994.205837 1241.714751)

LINESTRING (1084.922397 1158.637106, 1077.299127 1248.605139)

LINESTRING (1162.505079 1161.870436, 1197.848239 1236.670355)

LINESTRING (1235.040541 1192.129689, 1243.514054 1226.443209)

