LINESTRING (471.912678 382.512663, 449.321395 451.437580)

LINESTRING (449.321395 451.437580, 429.537493 464.140556)

LINESTRING (429.537493 464.140556, 403.100047 473.738266)

LINESTRING (403.100047 473.738266, 379.142644 486.175053)

LINESTRING (379.142644 486.175053, 345.909900 424.748801)

LINESTRING (345.909900 424.748801, 303.527230 402.189788)

LINESTRING (303.527230 402.189788, 323.201724 369.742024)

LINESTRING (323.201724 369.742024, 367.488298 313.680876)

LINESTRING (367.488298 313.680876, 380.553843 334.814512)

LINESTRING (380.553843 334.814512, 429.779921 319.080094)

LINESTRING (429.779921 319.080094, 486.935236 360.104021)

LINESTRING (486.935236 360.104021, 471.912678 382.512663)

LINESTRING (568.740957 394.412189, 548.263301 488.231207)

LINESTRING (548.263301 488.231207, 479.728213 550.994577)

LINESTRING (479.728213 550.994577, 414.373015 548.710792)

LINESTRING (414.373015 548.710792, 304.451180 548.084942)

LINESTRING (304.451180 548.084942, 257.120730 481.168603)

LINESTRING (257.120730 481.168603, 231.848022 388.530161)

LINESTRING (231.848022 388.530161, 241.973570 338.020793)

LINESTRING (241.973570 338.020793, 320.263401 263.467787)

LINESTRING (320.263401 263.467787, 396.742467 222.475872)

LINESTRING (396.742467 222.475872, 488.327408 259.706855)

LINESTRING (488.327408 259.706855, 535.512235 320.278014)

LINESTRING (535.512235 320.278014, 568.740957 394.412189)

LINESTRING (643.572541 416.529633, 596.763654 514.649432)

LINESTRING (596.763654 514.649432, 507.473132 599.462864)

LINESTRING (507.473132 599.462864, 380.983124 638.695649)

LINESTRING (380.983124 638.695649, 266.094640 619.468594)

LINESTRING (266.094640 619.468594, 175.423462 516.389567)

LINESTRING (175.423462 516.389567, 164.616867 398.951206)

LINESTRING (164.616867 398.951206, 192.327038 291.784656)

LINESTRING (192.327038 291.784656, 286.496484 186.043642)

LINESTRING (286.496484 186.043642, 413.860826 164.342122)

LINESTRING (413.860826 164.342122, 515.348444 188.085491)

LINESTRING (515.348444 188.085491, 604.271131 289.215324)

LINESTRING (604.271131 289.215324, 643.572541 416.529633)

LINESTRING (725.305978 380.678058, 661.934943 578.791354)

LINESTRING (661.934943 578.791354, 550.659494 670.492685)

LINESTRING (550.659494 670.492685, 419.404028 709.165792)

LINESTRING (419.404028 709.165792, 247.681188 663.884435)

LINESTRING (247.681188 663.884435, 124.680178 572.432203)

LINESTRING (124.680178 572.432203, 93.447457 412.975330)

LINESTRING (93.447457 412.975330, 126.158622 236.232585)

LINESTRING (126.158622 236.232585, 225.012366 131.096218)

LINESTRING (225.012366 131.096218, 384.876503 91.803158)

LINESTRING (384.876503 91.803158, 573.812568 133.158055)

LINESTRING (573.812568 133.158055, 685.027229 227.774322)

LINESTRING (685.027229 227.774322, 725.305978 380.678058)

LINESTRING (807.535784 401.923184, 729.654455 583.415409)

LINESTRING (729.654455 583.415409, 605.530010 742.095740)

LINESTRING (605.530010 742.095740, 408.605670 817.254575)

LINESTRING (408.605670 817.254575, 196.065161 745.310246)

LINESTRING (196.065161 745.310246, 40.293340 590.451893)

LINESTRING (40.293340 590.451893, 4.988967 405.986166)

LINESTRING (4.988967 405.986166, 72.516010 206.601836)

LINESTRING (72.516010 206.601836, 183.454671 56.791989)

LINESTRING (183.454671 56.791989, 382.582529 12.819002)

LINESTRING (382.582529 12.819002, 610.671792 62.926402)

LINESTRING (610.671792 62.926402, 763.811595 205.800896)

LINESTRING (763.811595 205.800896, 807.535784 401.923184)

LINESTRING (877.215764 411.815457, 799.339038 657.345861)

LINESTRING (799.339038 657.345861, 623.692725 815.204430)

LINESTRING (623.692725 815.204430, 386.188306 869.109662)

LINESTRING (386.188306 869.109662, 176.819103 815.763244)

LINESTRING (176.819103 815.763244, -34.508501 651.585816)

LINESTRING (-34.508501 651.585816, -69.715190 391.933375)

LINESTRING (-69.715190 391.933375, -1.702350 159.820755)

LINESTRING (-1.702350 159.820755, 175.840734 -29.475725)

LINESTRING (175.840734 -29.475725, 419.962343 -81.577458)

LINESTRING (419.962343 -81.577458, 646.708385 -1.268658)

LINESTRING (646.708385 -1.268658, 796.814549 179.734335)

LINESTRING (796.814549 179.734335, 877.215764 411.815457)

LINESTRING (471.912678 382.512663, 568.740957 394.412189)

LINESTRING (568.740957 394.412189, 643.572541 416.529633)

LINESTRING (643.572541 416.529633, 725.305978 380.678058)

LINESTRING (725.305978 380.678058, 807.535784 401.923184)

LINESTRING (807.535784 401.923184, 877.215764 411.815457)

LINESTRING (449.321395 451.437580, 548.263301 488.231207)

LINESTRING (548.263301 488.231207, 596.763654 514.649432)

LINESTRING (596.763654 514.649432, 661.934943 578.791354)

LINESTRING (661.934943 578.791354, 729.654455 583.415409)

LINESTRING (729.654455 583.415409, 799.339038 657.345861)

LINESTRING (429.537493 464.140556, 479.728213 550.994577)

LINESTRING (479.728213 550.994577, 507.473132 599.462864)

LINESTRING (507.473132 599.462864, 550.659494 670.492685)

LINESTRING (550.659494 670.492685, 605.530010 742.095740)

LINESTRING (605.530010 742.095740, 623.692725 815.204430)

LINESTRING (403.100047 473.738266, 414.373015 548.710792)

LINESTRING (414.373015 548.710792, 380.983124 638.695649)

LINESTRING (380.983124 638.695649, 419.404028 709.165792)

LINESTRING (419.404028 709.165792, 408.605670 817.254575)

LINESTRING (408.605670 817.254575, 386.188306 869.109662)

LINESTRING (379.142644 486.175053, 304.451180 548.084942)

LINESTRING (304.451180 548.084942, 266.094640 619.468594)

LINESTRING (266.094640 619.468594, 247.681188 663.884435)

LINESTRING (247.681188 663.884435, 196.065161 745.310246)

LINESTRING (196.065161 745.310246, 176.819103 815.763244)

LINESTRING (345.909900 424.748801, 257.120730 481.168603)

LINESTRING (257.120730 481.168603, 175.423462 516.389567)

LINESTRING (175.423462 516.389567, 124.680178 572.432203)

LINESTRING (124.680178 572.432203, 40.293340 590.451893)

LINESTRING (40.293340 590.451893, -34.508501 651.585816)

LINESTRING (303.527230 402.189788, 231.848022 388.530161)

LINESTRING (231.848022 388.530161, 164.616867 398.951206)

LINESTRING (164.616867 398.951206, 93.447457 412.975330)

LINESTRING (93.447457 412.975330, 4.988967 405.986166)

LINESTRING (4.988967 405.986166, -69.715190 391.933375)

LINESTRING (323.201724 369.742024, 241.973570 338.020793)

LINESTRING (241.973570 338.020793, 192.327038 291.784656)

LINESTRING (192.327038 291.784656, 126.158622 236.232585)

LINESTRING (126.158622 236.232585, 72.516010 206.601836)

LINESTRING (72.516010 206.601836, -1.702350 159.820755)

LINESTRING (367.488298 313.680876, 320.263401 263.467787)

LINESTRING (320.263401 263.467787, 286.496484 186.043642)

LINESTRING (286.496484 186.043642, 225.012366 131.096218)

LINESTRING (225.012366 131.096218, 183.454671 56.791989)

LINESTRING (183.454671 56.791989, 175.840734 -29.475725)

LINESTRING (380.553843 334.814512, 396.742467 222.475872)

LINESTRING (396.742467 222.475872, 413.860826 164.342122)

LINESTRING (413.860826 164.342122, 384.876503 91.803158)

LINESTRING (384.876503 91.803158, 382.582529 12.819002)

LINESTRING (382.582529 12.819002, 419.962343 -81.577458)

LINESTRING (429.779921 319.080094, 488.327408 259.706855)

LINESTRING (488.327408 259.706855, 515.348444 188.085491)

LINESTRING (515.348444 188.085491, 573.812568 133.158055)

LINESTRING (573.812568 133.158055, 610.671792 62.926402)

LINESTRING (610.671792 62.926402, 646.708385 -1.268658)

LINESTRING (486.935236 360.104021, 535.512235 320.278014)

LINESTRING (535.512235 320.278014, 604.271131 289.215324)

LINESTRING (604.271131 289.215324, 685.027229 227.774322)

LINESTRING (685.027229 227.774322, 763.811595 205.800896)

LINESTRING (763.811595 205.800896, 796.814549 179.734335)

LINESTRING (400.000000 400.000000, 471.912678 382.512663)

