LINESTRING (80.000000 80.000000, 256.473381 139.041638)

LINESTRING (256.473381 139.041638, 468.861457 74.334303)

LINESTRING (468.861457 74.334303, 608.944511 -57.025443)

LINESTRING (608.944511 -57.025443, 659.071687 -241.844343)

LINESTRING (659.071687 -241.844343, 624.199249 -442.316727)

LINESTRING (659.071687 -241.844343, 787.939129 -390.251757)

LINESTRING (608.944511 -57.025443, 785.827521 -108.348914)

LINESTRING (785.827521 -108.348914, 923.684580 -265.358230)

LINESTRING (785.827521 -108.348914, 984.704999 -68.193053)

LINESTRING (468.861457 74.334303, 673.821314 129.367535)

LINESTRING (673.821314 129.367535, 870.409201 93.694154)

LINESTRING (870.409201 93.694154, 1015.622738 -56.494933)

LINESTRING (870.409201 93.694154, 1052.842078 141.558738)

LINESTRING (673.821314 129.367535, 831.883981 253.445168)

LINESTRING (831.883981 253.445168, 1030.959815 323.661784)

LINESTRING (831.883981 253.445168, 868.719506 439.170663)

LINESTRING (256.473381 139.041638, 401.484754 280.397191)

LINESTRING (401.484754 280.397191, 597.410582 339.434121)

LINESTRING (597.410582 339.434121, 793.109065 291.386558)

LINESTRING (793.109065 291.386558, 926.600308 140.805762)

LINESTRING (793.109065 291.386558, 1002.356675 325.155831)

LINESTRING (597.410582 339.434121, 738.757599 479.575624)

LINESTRING (738.757599 479.575624, 928.295589 533.084726)

LINESTRING (738.757599 479.575624, 793.186884 666.345558)

LINESTRING (401.484754 280.397191, 451.814276 487.852150)

LINESTRING (451.814276 487.852150, 607.531753 619.934521)

LINESTRING (607.531753 619.934521, 808.628647 689.699779)

LINESTRING (607.531753 619.934521, 679.254463 824.083818)

LINESTRING (451.814276 487.852150, 397.508575 666.255358)

LINESTRING (397.508575 666.255358, 451.057389 871.892216)

LINESTRING (397.508575 666.255358, 254.314272 813.919043)

LINESTRING (80.000000 80.000000, 121.933728 284.159579)

LINESTRING (121.933728 284.159579, 279.785245 406.348043)

LINESTRING (279.785245 406.348043, 491.197724 461.996140)

LINESTRING (491.197724 461.996140, 669.716004 415.966152)

LINESTRING (669.716004 415.966152, 818.388472 255.239358)

LINESTRING (669.716004 415.966152, 849.839844 477.276548)

LINESTRING (491.197724 461.996140, 615.176646 607.247173)

LINESTRING (615.176646 607.247173, 803.972923 640.370537)

LINESTRING (615.176646 607.247173, 683.009931 815.801275)

LINESTRING (279.785245 406.348043, 351.057135 589.137956)

LINESTRING (351.057135 589.137956, 486.318133 717.438980)

LINESTRING (486.318133 717.438980, 670.267965 774.594724)

LINESTRING (486.318133 717.438980, 525.424264 910.979916)

LINESTRING (351.057135 589.137956, 316.068799 799.987764)

LINESTRING (316.068799 799.987764, 378.285109 1005.933237)

LINESTRING (316.068799 799.987764, 158.112065 957.881884)

LINESTRING (121.933728 284.159579, 79.543126 468.573384)

LINESTRING (79.543126 468.573384, 125.559277 667.643875)

LINESTRING (125.559277 667.643875, 279.557134 798.769836)

LINESTRING (279.557134 798.769836, 463.828746 831.450297)

LINESTRING (279.557134 798.769836, 313.998470 987.527563)

LINESTRING (125.559277 667.643875, 55.908842 862.936151)

LINESTRING (55.908842 862.936151, 120.306135 1062.099061)

LINESTRING (55.908842 862.936151, -78.945901 994.346524)

LINESTRING (79.543126 468.573384, -61.474575 605.147110)

LINESTRING (-61.474575 605.147110, -101.213690 816.685766)

LINESTRING (-101.213690 816.685766, -65.855477 991.770762)

LINESTRING (-101.213690 816.685766, -229.642054 969.979263)

LINESTRING (-61.474575 605.147110, -251.193158 668.247505)

LINESTRING (-251.193158 668.247505, -380.054128 812.838590)

LINESTRING (-251.193158 668.247505, -428.414117 621.035833)

