LINESTRING (553632.445884 4182248.290847, 553650.562027 4182266.771814, 553678.877485 4182299.732280)

LINESTRING (553356.119883 4182156.478351, 553323.919631 4182124.825324, 553304.369845 4182104.560549)

LINESTRING (553356.119883 4182156.478351, 553370.588083 4182171.373416, 553392.231381 4182193.294054, 553397.042960 4182198.162862, 553404.557612 4182205.789775, 553410.427642 4182211.741713, 553423.340248 4182224.784943, 553430.391697 4182231.865200, 553436.804019 4182238.375448)

LINESTRING (553356.119883 4182156.478351, 553370.291628 4182154.617403, 553376.829410 4182154.016248, 553388.573563 4182153.082706, 553401.178921 4182152.421056, 553404.314582 4182152.297152, 553413.131530 4182151.932717, 553423.541467 4182151.700677, 553434.158990 4182152.046959, 553445.594191 4182152.587185, 553452.441557 4182153.130928, 553458.188751 4182153.589866, 553471.189885 4182155.715844, 553485.547707 4182159.104440, 553498.882000 4182162.808177, 553512.604448 4182167.757147, 553526.754882 4182173.241503, 553550.766180 4182185.735750, 553562.502877 4182192.713448, 553573.069091 4182199.583690)

LINESTRING (553304.369845 4182104.560549, 553296.725366 4182096.555647, 553292.010098 4182091.754096, 553289.166701 4182088.895266, 553286.227305 4182085.902670, 553283.436378 4182083.099658, 553279.735495 4182079.392031, 553264.826908 4182064.460998, 553257.153999 4182056.755527)

LINESTRING (553304.369845 4182104.560549, 553323.919631 4182124.825324, 553356.119883 4182156.478351)

LINESTRING (553436.804019 4182238.375448, 553440.745331 4182243.005631, 553447.441999 4182249.118298)

LINESTRING (553436.804019 4182238.375448, 553430.391697 4182231.865200, 553423.340248 4182224.784943, 553410.427642 4182211.741713, 553404.557612 4182205.789775, 553397.042960 4182198.162862, 553392.231381 4182193.294054, 553370.588083 4182171.373416, 553356.119883 4182156.478351)

LINESTRING (553573.069091 4182199.583690, 553583.974653 4182207.077497, 553594.640574 4182214.858241, 553604.591147 4182222.956109, 553614.197209 4182231.218178, 553632.445884 4182248.290847)

LINESTRING (552672.779387 4181467.425687, 552664.606678 4181459.207209, 552647.744910 4181442.256590, 552625.755762 4181420.091693)

LINESTRING (552672.779387 4181467.425687, 552664.824458 4181477.482720, 552642.546229 4181499.187121, 552625.177663 4181516.074265)

LINESTRING (552625.177663 4181516.074265, 552632.818005 4181523.534815, 552652.632092 4181542.878698, 552708.770482 4181596.928441, 552719.891589 4181608.139408, 552790.336425 4181679.124149, 552814.249912 4181703.143692, 552820.802961 4181709.820773)

LINESTRING (552625.177663 4181516.074265, 552642.546229 4181499.187121, 552664.824458 4181477.482720, 552672.779387 4181467.425687)

LINESTRING (552625.177663 4181516.074265, 552612.292237 4181527.353622, 552596.169131 4181543.671822, 552584.408339 4181555.368934)

LINESTRING (553090.950329 4181778.374541, 553071.648077 4181750.911028, 553036.504132 4181715.112727, 553008.258373 4181685.661176, 552978.702369 4181654.514795, 552840.811748 4181510.653513, 552816.164187 4181484.299166, 552805.222885 4181476.628657, 552798.752759 4181473.469367, 552794.556446 4181471.412007, 552781.680781 4181467.379516, 552768.488065 4181466.096672, 552745.879805 4181466.406756, 552695.766373 4181467.106730, 552672.779387 4181467.425687)

LINESTRING (552867.201080 4181663.484524, 552881.732851 4181656.410195, 552919.960914 4181619.419584)

LINESTRING (552867.201080 4181663.484524, 552855.310451 4181651.469543, 552843.796093 4181639.823144, 552814.607097 4181609.001489, 552755.722224 4181550.772641, 552738.108982 4181532.962669, 552700.279992 4181495.273540, 552689.247118 4181484.007691, 552685.362400 4181480.043972, 552672.779387 4181467.425687)

LINESTRING (552867.201080 4181663.484524, 552878.774966 4181646.649437, 552891.325700 4181634.036893, 552910.608858 4181615.265289)

LINESTRING (552919.960914 4181619.419584, 552923.817111 4181623.682810, 552941.228792 4181641.247797, 553094.658893 4181798.680864, 553101.280941 4181805.536146, 553109.521098 4181814.099468)

LINESTRING (552919.960914 4181619.419584, 552928.109043 4181614.956119, 552962.404374 4181581.557528)

LINESTRING (552910.608858 4181615.265289, 552919.960914 4181619.419584)

LINESTRING (552910.608858 4181615.265289, 552918.323953 4181604.186170, 552982.801621 4181541.601031, 552995.501424 4181527.769107)

LINESTRING (552995.501424 4181527.769107, 553001.108987 4181529.469505, 553004.751009 4181531.434640, 553009.884919 4181534.208250)

LINESTRING (552995.501424 4181527.769107, 553006.835492 4181515.426292, 553046.321938 4181476.036651)

LINESTRING (553009.884919 4181534.208250, 553012.415373 4181536.476905, 553019.799975 4181543.936175, 553034.639729 4181558.832998, 553093.130136 4181617.838011, 553111.372888 4181636.207591)

LINESTRING (553009.884919 4181534.208250, 553017.738447 4181526.281208, 553057.614080 4181486.627837)

LINESTRING (553046.321938 4181476.036651, 553043.461986 4181472.966994, 553018.170669 4181446.829798, 553002.778818 4181431.474546, 552984.177164 4181412.659098)

LINESTRING (553046.321938 4181476.036651, 553067.801381 4181454.106269, 553087.950500 4181433.643054)

LINESTRING (553528.439569 4182331.284660, 553536.647569 4182339.226880, 553556.742144 4182359.495777, 553568.307311 4182371.143551, 553587.036647 4182390.094382, 553623.900069 4182427.415338, 553655.911407 4182459.323558, 553658.780963 4182462.182691, 553674.886954 4182478.265107, 553682.060733 4182485.424055)

LINESTRING (553528.439569 4182331.284660, 553519.495809 4182322.738514, 553482.545695 4182285.062430, 553459.993686 4182262.125959, 553455.927823 4182257.694676)

LINESTRING (553528.439569 4182331.284660, 553519.652361 4182339.293914, 553510.756919 4182349.055551, 553481.273356 4182379.265461, 553438.370440 4182421.682100, 553399.424578 4182458.210758, 553390.732543 4182466.520340)

LINESTRING (553682.060733 4182485.424055, 553672.958268 4182494.518444, 553626.958717 4182540.486658, 553618.467965 4182548.963746, 553611.785221 4182555.644060, 553607.637399 4182559.777839, 553595.743188 4182571.672374, 553582.608231 4182584.801540, 553553.670767 4182613.716580, 553545.596521 4182621.808110)

LINESTRING (553682.060733 4182485.424055, 553674.886954 4182478.265107, 553658.780963 4182462.182691, 553655.911407 4182459.323558, 553623.900069 4182427.415338, 553587.036647 4182390.094382, 553568.307311 4182371.143551, 553556.742144 4182359.495777, 553536.647569 4182339.226880, 553528.439569 4182331.284660)

LINESTRING (553455.927823 4182257.694676, 553447.441999 4182249.118298)

LINESTRING (553455.927823 4182257.694676, 553459.993686 4182262.125959, 553482.545695 4182285.062430, 553519.495809 4182322.738514, 553528.439569 4182331.284660)

LINESTRING (553390.732543 4182466.520340, 553381.773281 4182475.305302, 553348.831193 4182508.067392)

LINESTRING (553390.732543 4182466.520340, 553382.468683 4182459.043911, 553358.053553 4182434.220502)

LINESTRING (553390.732543 4182466.520340, 553400.038146 4182474.935551, 553416.755347 4182491.886862)

LINESTRING (553390.732543 4182466.520340, 553399.424578 4182458.210758, 553438.370440 4182421.682100, 553481.273356 4182379.265461, 553510.756919 4182349.055551, 553519.652361 4182339.293914, 553528.439569 4182331.284660)

LINESTRING (553551.142648 4182187.424703, 553549.487164 4182186.071389)

LINESTRING (553551.142648 4182187.424703, 553521.773447 4182179.611183, 553474.722654 4182155.461401, 553464.263873 4182151.010790, 553451.732351 4182147.079316)

LINESTRING (553549.487164 4182186.071389, 553543.623328 4182171.054426, 553528.398037 4182158.883606, 553513.419334 4182148.056964, 553498.847371 4182136.966702, 553456.096605 4182104.201637, 553445.575620 4182095.756294, 553439.935933 4182090.937562, 553435.832087 4182086.916575, 553432.523826 4182082.423650, 553429.604442 4182077.711342, 553427.446359 4182072.382630, 553426.021722 4182066.659243, 553425.794702 4182060.932531, 553426.291319 4182054.966415, 553427.574291 4182048.594871, 553430.044138 4182042.519510, 553433.150386 4182037.435771, 553437.754082 4182032.284084, 553443.120986 4182027.581170, 553448.760527 4182024.289147, 553456.324598 4182021.608776, 553463.613487 4182020.624224, 553470.787920 4182020.992577, 553477.287367 4182022.244187, 553483.552606 4182024.304246, 553489.615184 4182027.738827, 553494.528135 4182031.920432, 553498.752159 4182036.419332, 553566.041435 4182115.767478, 553571.765331 4182122.517451, 553576.069957 4182128.148651, 553579.933872 4182133.843557, 553583.486126 4182140.069018, 553586.234410 4182146.699780, 553588.320840 4182153.548143, 553589.859165 4182160.725802, 553590.956423 4182168.022641, 553591.398113 4182174.571820, 553591.228621 4182181.671792, 553590.483097 4182189.333881, 553588.992728 4182196.436352, 553586.359829 4182204.552166, 553583.400345 4182211.434264, 553577.945916 4182222.827062, 553575.210766 4182229.067087, 553573.191595 4182234.890145, 553571.438678 4182241.746811, 553570.021376 4182248.450325, 553562.936703 4182278.983240, 553559.923423 4182290.081260, 553557.841341 4182296.103630, 553555.519787 4182301.037092, 553552.201006 4182306.308025, 553547.778472 4182312.048885, 553536.926190 4182323.462084, 553528.439569 4182331.284660)

LINESTRING (553549.487164 4182186.071389, 553477.266224 4182138.035910, 553458.631702 4182126.053894, 553440.432194 4182113.519973, 553422.099734 4182099.753638, 553404.750260 4182086.481920, 553387.897722 4182072.614309, 553370.140717 4182056.987794, 553241.893030 4181930.157968, 553217.349012 4181905.888968, 553090.950329 4181778.374541)

LINESTRING (553451.732351 4182147.079316, 553439.532348 4182144.980759, 553427.672078 4182143.450291, 553415.735890 4182142.762600, 553404.147096 4182142.820573, 553393.258275 4182143.571018, 553381.546381 4182144.959675, 553370.004918 4182147.225992, 553358.837277 4182150.238142, 553348.203539 4182153.753059, 553337.644819 4182157.923106, 553327.656017 4182162.474102, 553318.412380 4182167.540325, 553309.817839 4182172.999100, 553301.652402 4182178.826811, 553292.526087 4182186.179479, 553285.006457 4182192.910116, 553277.775908 4182199.875633, 553238.930943 4182238.458349, 553204.721540 4182272.422216, 553199.445767 4182278.057887, 553194.396645 4182284.050079, 553189.821795 4182290.233960, 553185.860238 4182296.898908, 553182.722940 4182304.101762, 553180.236948 4182311.353207, 553178.454519 4182318.742341, 553177.409510 4182326.480196, 553177.033985 4182334.177994, 553177.472123 4182341.326277, 553178.624483 4182348.323836, 553180.061546 4182354.868323, 553182.009665 4182361.360633, 553184.667786 4182366.992088, 553187.786065 4182372.271463, 553191.320190 4182377.242853, 553195.768541 4182382.453157, 553200.430935 4182387.243219, 553219.982724 4182407.130532, 553256.197799 4182442.825692, 553268.454128 4182455.209811, 553321.726015 4182508.402185)

LINESTRING (553451.732351 4182147.079316, 553432.748966 4182142.717651, 553412.178570 4182138.656407, 553406.635256 4182137.988011, 553401.476501 4182137.765929, 553389.083098 4182138.329095, 553378.378036 4182139.258277, 553368.930858 4182140.395345, 553361.905388 4182141.514831, 553355.961764 4182142.829955, 553348.993910 4182144.571169, 553342.633633 4182146.316325, 553333.816687 4182149.399214, 553325.585183 4182153.184916, 553318.595894 4182156.878811, 553311.400281 4182161.159434, 553303.575039 4182166.123903, 553270.113357 4182189.229926)

LINESTRING (553321.726015 4182508.402185, 553326.996311 4182510.400212, 553330.749516 4182511.434208, 553334.557850 4182512.113508, 553337.790156 4182512.001304, 553341.121617 4182511.534689, 553348.831193 4182508.067392)

LINESTRING (553321.726015 4182508.402185, 553324.170046 4182513.078095, 553325.764011 4182517.127156, 553326.969979 4182521.262467, 553327.211348 4182524.781282, 553326.871586 4182528.296332, 553325.865988 4182532.650322)

LINESTRING (553270.113357 4182189.229926, 553276.698012 4182171.852716, 553278.290211 4182168.024002, 553279.978624 4182164.295770, 553286.934072 4182150.859843, 553289.401345 4182145.161668, 553291.611110 4182139.794690, 553293.520847 4182134.525630, 553297.639438 4182119.950713, 553298.226873 4182117.624477, 553298.410092 4182116.527216, 553304.369845 4182104.560549)

LINESTRING (553270.113357 4182189.229926, 553279.857321 4182177.598397, 553288.681432 4182167.958102)

LINESTRING (553270.113357 4182189.229926, 553231.899709 4182228.227290, 553192.479299 4182268.703818, 553188.455684 4182272.705463, 553179.885444 4182281.249055)

LINESTRING (553202.775319 4182276.537137, 553206.127117 4182277.024804, 553209.603680 4182278.645012, 553214.211561 4182278.253166, 553217.255634 4182275.942802, 553218.806597 4182274.399467, 553248.222242 4182245.064732, 553310.120643 4182183.353091, 553339.812457 4182157.704144, 553356.119883 4182156.478351)

LINESTRING (553202.775319 4182276.537137, 553203.574781 4182279.549163, 553214.800949 4182290.606181, 553220.698113 4182296.458300, 553231.687642 4182307.336285, 553258.545618 4182334.427475, 553274.162054 4182350.117579, 553305.919467 4182382.056049, 553314.518685 4182390.799448)

LINESTRING (553202.775319 4182276.537137, 553126.152272 4182202.280022, 553117.843950 4182194.792488)

LINESTRING (553314.518685 4182390.799448, 553305.919467 4182382.056049, 553274.162054 4182350.117579, 553258.545618 4182334.427475, 553231.687642 4182307.336285, 553220.698113 4182296.458300, 553214.800949 4182290.606181, 553203.574781 4182279.549163, 553202.775319 4182276.537137)

LINESTRING (553314.518685 4182390.799448, 553323.407738 4182381.980673, 553364.779043 4182340.774014)

LINESTRING (553314.518685 4182390.799448, 553321.595778 4182397.990734, 553353.109009 4182429.506187, 553358.053553 4182434.220502)

LINESTRING (553117.843950 4182194.792488, 553126.152272 4182202.280022, 553202.775319 4182276.537137)

LINESTRING (553117.843950 4182194.792488, 553111.810643 4182200.467708, 553071.196605 4182239.039791)

LINESTRING (553117.843950 4182194.792488, 553127.457900 4182185.534363, 553148.049489 4182164.486098, 553189.260544 4182122.212373, 553200.879170 4182110.726008, 553207.543814 4182104.122916, 553227.277342 4182086.464498, 553247.599958 4182066.235799, 553257.153999 4182056.755527)

LINESTRING (553524.691366 4182047.716617, 553528.953449 4182046.357395, 553531.137501 4182044.973569, 553531.712457 4182044.577872, 553532.996327 4182043.498867, 553565.799797 4182010.780973, 553571.655354 4182005.426690)

LINESTRING (553524.691366 4182047.716617, 553521.239249 4182049.103296, 553518.656643 4182050.839587, 553513.586285 4182055.977102, 553487.971940 4182081.430011, 553480.427480 4182091.943851)

LINESTRING (553524.691366 4182047.716617, 553512.698249 4182036.798435, 553501.320190 4182026.083985, 553475.856883 4182001.153590, 553466.050836 4181992.435482)

LINESTRING (553571.655354 4182005.426690, 553542.062206 4181975.076844)

LINESTRING (553571.655354 4182005.426690, 553600.671017 4182035.173735, 553627.840794 4182063.022641, 553636.010860 4182071.408524)

LINESTRING (553571.655354 4182005.426690, 553565.799797 4182010.780973, 553532.996327 4182043.498867, 553531.712457 4182044.577872, 553531.137501 4182044.973569, 553528.953449 4182046.357395, 553524.691366 4182047.716617)

LINESTRING (553480.427480 4182091.943851, 553487.971940 4182081.430011, 553513.586285 4182055.977102, 553518.656643 4182050.839587, 553521.239249 4182049.103296, 553524.691366 4182047.716617)

LINESTRING (553466.050836 4181992.435482, 553475.856883 4182001.153590, 553501.320190 4182026.083985, 553512.698249 4182036.798435, 553524.691366 4182047.716617)

LINESTRING (553466.050836 4181992.435482, 553456.893574 4182000.431305, 553439.677400 4182015.442618, 553435.454081 4182021.684124, 553432.445573 4182027.988992, 553430.951550 4182034.314784, 553430.804293 4182042.080625, 553431.633729 4182049.963758, 553433.207577 4182057.119424, 553436.099347 4182063.373819, 553440.120808 4182069.236111, 553444.751282 4182074.880449, 553449.916057 4182079.607339, 553456.022220 4182084.462393, 553480.224042 4182101.573360, 553511.663730 4182124.168194, 553534.652698 4182140.883104, 553544.553978 4182148.459091, 553552.743166 4182155.258369, 553560.185397 4182161.819794, 553567.274462 4182168.523168, 553573.152486 4182174.586229, 553580.209699 4182182.121565, 553594.096078 4182198.400173, 553599.449779 4182205.192140, 553623.184227 4182237.179473, 553627.744689 4182242.723605, 553632.445884 4182248.290847)

LINESTRING (553395.222488 4181922.141306, 553401.913770 4181929.130431, 553452.458452 4181979.609690, 553457.754215 4181984.514960, 553466.050836 4181992.435482)

LINESTRING (553395.222488 4181922.141306, 553386.856216 4181930.375340, 553354.244617 4181962.085496, 553346.508154 4181969.624639)

LINESTRING (553395.222488 4181922.141306, 553402.296169 4181914.975154, 553423.585645 4181893.798944)

LINESTRING (553346.508154 4181969.624639, 553337.899282 4181960.947729, 553320.295257 4181943.402813, 553161.482805 4181783.234454, 553158.770554 4181780.498568, 553151.123623 4181772.804469)

LINESTRING (553346.508154 4181969.624639, 553340.508525 4181975.488536, 553297.660573 4182017.373681, 553286.228608 4182028.550449, 553281.992566 4182032.694915, 553264.030495 4182050.087277, 553257.153999 4182056.755527)

LINESTRING (553346.508154 4181969.624639, 553354.244617 4181962.085496, 553386.856216 4181930.375340, 553395.222488 4181922.141306)

LINESTRING (553423.585645 4181893.798944, 553413.670147 4181885.634964, 553328.038521 4181798.835272, 553324.319915 4181795.127513)

LINESTRING (553423.585645 4181893.798944, 553425.189912 4181892.200516, 553441.033443 4181874.339837)

LINESTRING (553423.585645 4181893.798944, 553402.296169 4181914.975154, 553395.222488 4181922.141306)

LINESTRING (553296.303645 4181822.939878, 553304.218395 4181815.080075, 553324.319915 4181795.127513)

LINESTRING (553296.303645 4181822.939878, 553341.454351 4181868.900966, 553385.928931 4181913.127044, 553395.222488 4181922.141306)

LINESTRING (553324.319915 4181795.127513, 553348.170614 4181771.460132, 553352.628835 4181767.028657)

LINESTRING (553324.319915 4181795.127513, 553304.218395 4181815.080075, 553296.303645 4181822.939878)

LINESTRING (553324.319915 4181795.127513, 553320.776991 4181791.487466, 553235.090565 4181704.688432, 553227.831809 4181696.885818)

LINESTRING (553324.319915 4181795.127513, 553328.038521 4181798.835272, 553413.670147 4181885.634964, 553423.585645 4181893.798944)

LINESTRING (553199.329286 4181724.994942, 553206.827666 4181732.510599, 553256.421814 4181781.917296, 553289.111119 4181815.814454, 553296.303645 4181822.939878)

LINESTRING (553199.329286 4181724.994942, 553190.759050 4181733.449762, 553163.876984 4181760.215833, 553151.123623 4181772.804469)

LINESTRING (553151.123623 4181772.804469, 553119.270136 4181804.442768)

LINESTRING (553151.123623 4181772.804469, 553158.770554 4181780.498568, 553161.482805 4181783.234454, 553320.295257 4181943.402813, 553337.899282 4181960.947729, 553346.508154 4181969.624639)

LINESTRING (553152.756736 4181678.049097, 553160.494146 4181670.376634, 553211.315130 4181619.965539, 553238.224075 4181593.221984, 553280.635151 4181551.089599, 553289.019948 4181542.755718)

LINESTRING (553152.756736 4181678.049097, 553191.831967 4181717.312867, 553199.329286 4181724.994942)

LINESTRING (553289.019948 4181542.755718, 553278.786915 4181531.860388, 553247.541298 4181500.591157)

LINESTRING (553289.019948 4181542.755718, 553327.030563 4181580.515353, 553335.956367 4181589.271960)

LINESTRING (553111.372888 4181636.207591, 553152.756736 4181678.049097)

LINESTRING (553159.075221 4181588.694159, 553155.575376 4181585.176514, 553059.950373 4181488.961829, 553057.614080 4181486.627837)

LINESTRING (553159.075221 4181588.694159, 553119.110297 4181628.535091, 553111.372888 4181636.207591)

LINESTRING (553057.614080 4181486.627837, 553098.427833 4181444.950244)

LINESTRING (552984.177164 4181412.659098, 553002.778818 4181431.474546, 553018.170669 4181446.829798, 553043.461986 4181472.966994, 553046.321938 4181476.036651)

LINESTRING (553087.950500 4181433.643054, 553118.311439 4181404.225179, 553126.881217 4181395.881234, 553135.574873 4181387.449333)

LINESTRING (552250.240540 4181497.143722, 552293.389845 4181454.511729)

LINESTRING (552293.389845 4181454.511729, 552250.240540 4181497.143722)

LINESTRING (552293.389845 4181454.511729, 552300.731765 4181461.870211, 552404.156368 4181565.481794, 552410.815598 4181572.148120, 552479.064389 4181641.340905, 552480.684014 4181642.838009, 552488.172894 4181650.574846)

LINESTRING (552293.389845 4181454.511729, 552303.032932 4181444.809023, 552319.660267 4181428.071837, 552331.980156 4181415.667800, 552340.790123 4181406.814189)

LINESTRING (552488.172894 4181650.574846, 552445.402999 4181693.086198)

LINESTRING (552488.172894 4181650.574846, 552511.499812 4181627.245700, 552514.123073 4181624.643914, 552523.862743 4181614.997556, 552526.884828 4181611.998883, 552533.284146 4181605.548896)

LINESTRING (552488.172894 4181650.574846, 552495.915082 4181658.635071, 552576.114231 4181739.965582, 552577.277899 4181741.149123, 552582.825094 4181746.776623)

LINESTRING (552340.790123 4181406.814189, 552344.866639 4181402.801376)

LINESTRING (552340.790123 4181406.814189, 552346.093038 4181412.140392, 552349.190753 4181415.255694, 552354.703666 4181420.794051, 552361.546644 4181427.672314, 552374.470242 4181440.824858, 552379.501394 4181445.949639, 552423.412050 4181490.000346, 552442.362713 4181513.643228)

LINESTRING (552340.790123 4181406.814189, 552331.980156 4181415.667800, 552319.660267 4181428.071837, 552303.032932 4181444.809023, 552293.389845 4181454.511729)

LINESTRING (552344.866639 4181402.801376, 552340.790123 4181406.814189)

LINESTRING (552442.362713 4181513.643228, 552489.386686 4181560.998366)

LINESTRING (552442.362713 4181513.643228, 552452.559353 4181504.155032, 552476.249462 4181480.539619, 552493.202204 4181463.915805)

LINESTRING (553461.200113 4181853.877637, 553452.973791 4181845.957581, 553424.778328 4181817.192804)

LINESTRING (553461.200113 4181853.877637, 553471.661220 4181845.823712, 553484.247877 4181833.201195)

LINESTRING (553461.200113 4181853.877637, 553456.568717 4181857.853018, 553441.033443 4181874.339837)

LINESTRING (553424.778328 4181817.192804, 553452.973791 4181845.957581, 553461.200113 4181853.877637)

LINESTRING (553424.778328 4181817.192804, 553422.602896 4181818.598904, 553418.123018 4181819.579526, 553416.044210 4181819.665899, 553411.574984 4181819.004471, 553407.205787 4181817.855496, 553402.973784 4181815.919638, 553399.150657 4181813.398376, 553352.628835 4181767.028657)

LINESTRING (553484.247877 4181833.201195, 553490.966225 4181840.090708, 553518.486658 4181868.340942, 553545.910688 4181896.490785)

LINESTRING (553484.247877 4181833.201195, 553504.695891 4181812.840786, 553521.271428 4181796.216605, 553522.609828 4181794.882758, 553530.932919 4181786.559815)

LINESTRING (553484.247877 4181833.201195, 553471.661220 4181845.823712, 553461.200113 4181853.877637)

LINESTRING (553441.033443 4181874.339837, 553449.044738 4181882.824353, 553496.131812 4181930.108142, 553504.477682 4181938.583793)

LINESTRING (553441.033443 4181874.339837, 553456.568717 4181857.853018, 553461.200113 4181853.877637)

LINESTRING (553441.033443 4181874.339837, 553425.189912 4181892.200516, 553423.585645 4181893.798944)

LINESTRING (553352.628835 4181767.028657, 553347.591399 4181761.636935, 553305.933272 4181718.849536, 553303.608604 4181714.740280, 553302.728170 4181710.629277, 553302.614566 4181706.412284, 553302.885332 4181702.674882, 553303.815706 4181697.710158, 553305.064689 4181695.221774)

LINESTRING (553352.628835 4181767.028657, 553348.170614 4181771.460132, 553324.319915 4181795.127513)

LINESTRING (553305.064689 4181695.221774, 553307.723954 4181693.896443, 553311.654688 4181693.411499, 553316.915257 4181692.912977, 553321.543999 4181693.431145, 553326.017579 4181694.791562, 553329.764405 4181696.868477, 553338.111077 4181703.923741, 553371.850742 4181738.804424, 553376.497380 4181743.350376)

LINESTRING (553305.064689 4181695.221774, 553275.319877 4181664.849765, 553267.691200 4181657.055818)

LINESTRING (553376.497380 4181743.350376, 553381.178372 4181748.029698, 553420.954090 4181789.052201, 553424.925889 4181794.448151, 553426.480699 4181799.118314, 553427.640853 4181804.895460, 553427.434504 4181809.554197, 553426.510041 4181813.598027, 553424.778328 4181817.192804)

LINESTRING (553376.497380 4181743.350376, 553380.600521 4181739.360431, 553381.734790 4181738.269337, 553405.015333 4181715.663581)

LINESTRING (553267.691200 4181657.055818, 553275.319877 4181664.849765, 553305.064689 4181695.221774)

LINESTRING (553267.691200 4181657.055818, 553257.835283 4181666.844800, 553227.831809 4181696.885818)

LINESTRING (553405.015333 4181715.663581, 553425.238607 4181696.022722, 553433.462599 4181688.042997)

LINESTRING (553405.015333 4181715.663581, 553381.734790 4181738.269337, 553380.600521 4181739.360431, 553376.497380 4181743.350376)

LINESTRING (553405.015333 4181715.663581, 553401.429890 4181711.790220, 553365.960358 4181676.143719, 553315.687957 4181625.400529, 553307.682276 4181617.348910)

LINESTRING (553227.831809 4181696.885818, 553235.090565 4181704.688432, 553320.776991 4181791.487466, 553324.319915 4181795.127513)

LINESTRING (553227.831809 4181696.885818, 553225.750592 4181698.703109, 553206.996178 4181717.333162, 553199.329286 4181724.994942)

LINESTRING (553472.454692 4181453.727886, 553463.538223 4181462.524139, 553415.598073 4181509.657055, 553400.893725 4181524.218738, 553367.565088 4181557.610704, 553343.960441 4181581.257436, 553335.956367 4181589.271960)

LINESTRING (553472.454692 4181453.727886, 553477.494402 4181458.786832, 553480.136712 4181461.444699, 553489.979926 4181471.316971, 553496.752058 4181478.106971, 553519.744741 4181501.312633, 553570.042016 4181550.870019, 553620.908611 4181602.162320)

LINESTRING (553472.454692 4181453.727886, 553463.390143 4181444.637370, 553453.203928 4181434.685237, 553425.985257 4181407.169524)

LINESTRING (553335.956367 4181589.271960, 553327.365222 4181598.192514, 553307.682276 4181617.348910)

LINESTRING (553335.956367 4181589.271960, 553344.234604 4181597.391944, 553367.971059 4181621.345396, 553380.052499 4181633.706323, 553417.362720 4181672.061006, 553433.462599 4181688.042997)

LINESTRING (553335.956367 4181589.271960, 553327.030563 4181580.515353, 553289.019948 4181542.755718)

LINESTRING (553620.908611 4181602.162320, 553612.462322 4181610.428895, 553570.295951 4181652.627763, 553559.021188 4181663.871757, 553493.583213 4181728.687492, 553491.472932 4181730.903964, 553483.653994 4181738.886262)

LINESTRING (553620.908611 4181602.162320, 553570.042016 4181550.870019, 553519.744741 4181501.312633, 553496.752058 4181478.106971, 553489.979926 4181471.316971, 553480.136712 4181461.444699, 553477.494402 4181458.786832, 553472.454692 4181453.727886)

LINESTRING (553620.908611 4181602.162320, 553627.391590 4181608.695355, 553659.824305 4181641.305249, 553667.908083 4181649.479776)

LINESTRING (553425.985257 4181407.169524, 553418.264822 4181414.864043, 553360.262835 4181472.250755, 553353.917678 4181478.378695, 553343.283492 4181488.628543, 553341.555448 4181490.292757, 553296.279715 4181535.446439, 553289.019948 4181542.755718)

LINESTRING (553425.985257 4181407.169524, 553453.203928 4181434.685237, 553463.390143 4181444.637370, 553472.454692 4181453.727886)

LINESTRING (553307.682276 4181617.348910, 553315.687957 4181625.400529, 553365.960358 4181676.143719, 553401.429890 4181711.790220, 553405.015333 4181715.663581)

LINESTRING (553307.682276 4181617.348910, 553303.764396 4181621.284612, 553274.196458 4181650.651464, 553267.691200 4181657.055818)

LINESTRING (553433.462599 4181688.042997, 553483.653994 4181738.886262)

LINESTRING (553433.462599 4181688.042997, 553425.238607 4181696.022722, 553405.015333 4181715.663581)

LINESTRING (553433.462599 4181688.042997, 553417.362720 4181672.061006, 553380.052499 4181633.706323, 553367.971059 4181621.345396, 553344.234604 4181597.391944, 553335.956367 4181589.271960)

LINESTRING (553119.270136 4181804.442768, 553116.061762 4181807.628647)

LINESTRING (553119.270136 4181804.442768, 553127.207513 4181812.160903, 553129.533670 4181814.683474, 553130.279157 4181820.613234)

LINESTRING (553109.521098 4181814.099468, 553117.413588 4181821.950449, 553158.906057 4181863.182466, 553181.323346 4181885.462566, 553204.878010 4181908.870715)

LINESTRING (553109.521098 4181814.099468, 553105.355413 4181818.255573, 553090.066262 4181833.546325, 553080.101521 4181843.889583, 553069.955674 4181853.643630, 553062.751580 4181860.587314)

LINESTRING (553204.878010 4181908.870715, 553181.323346 4181885.462566, 553158.906057 4181863.182466, 553117.413588 4181821.950449, 553109.521098 4181814.099468)

LINESTRING (553062.751580 4181860.587314, 553054.343542 4181852.111721, 553039.312567 4181836.914037, 553036.793307 4181834.290390, 553004.814632 4181802.029848, 552978.294058 4181775.474303)

LINESTRING (553062.751580 4181860.587314, 553053.295908 4181869.835439, 553046.736730 4181876.461525, 553021.726094 4181901.298408, 553011.958745 4181911.099344, 552994.553036 4181928.296149, 552964.837743 4181957.640948, 552933.270528 4181988.804690, 552924.413427 4181998.134476)

LINESTRING (553062.751580 4181860.587314, 553070.774365 4181868.716476, 553096.820406 4181895.025174, 553116.986956 4181915.393270, 553154.380049 4181953.170352, 553158.850783 4181957.681761)

LINESTRING (552978.294058 4181775.474303, 552969.492728 4181784.305107, 552930.343431 4181823.586316)

LINESTRING (552978.294058 4181775.474303, 552929.440704 4181725.641351, 552916.107553 4181712.019268, 552875.487503 4181671.759419, 552867.201080 4181663.484524)

LINESTRING (552924.413427 4181998.134476, 552921.463560 4182000.856083)

LINESTRING (552924.413427 4181998.134476, 552932.785475 4182005.355926, 552962.421792 4182034.794001, 552969.613241 4182044.837227)

LINESTRING (553158.850783 4181957.681761, 553154.380049 4181953.170352, 553116.986956 4181915.393270, 553096.820406 4181895.025174, 553070.774365 4181868.716476, 553062.751580 4181860.587314)

LINESTRING (553158.850783 4181957.681761, 553165.027502 4181963.923976, 553182.079133 4181981.143221, 553185.421154 4181984.526718, 553189.725408 4181988.903924, 553193.863570 4181993.091437, 553210.259180 4182009.607493)

LINESTRING (552921.463560 4182000.856083, 552928.363544 4182009.676903, 552938.031768 4182019.369872, 552941.382749 4182022.742231, 552960.209092 4182037.908675, 552969.613241 4182044.837227)

LINESTRING (552921.463560 4182000.856083, 552917.643834 4182004.648356, 552896.400274 4182025.781763, 552887.582395 4182034.501592, 552878.108225 4182043.949513)

LINESTRING (552969.613241 4182044.837227, 552999.938918 4182075.211892, 553015.801395 4182091.136071, 553019.717312 4182095.654929)

LINESTRING (552878.108225 4182043.949513, 552885.675401 4182051.720517, 552939.522391 4182105.280141, 552896.270596 4182148.773575)

LINESTRING (552878.108225 4182043.949513, 552863.697782 4182058.292113, 552854.631995 4182067.232293, 552845.415181 4182076.382326, 552844.386981 4182077.429791, 552798.488215 4182123.170207, 552789.980157 4182131.670216)

LINESTRING (552896.270596 4182148.773575, 552939.522391 4182105.280141, 552885.675401 4182051.720517, 552878.108225 4182043.949513)

LINESTRING (552789.980157 4182131.670216, 552779.718332 4182141.767827, 552725.210173 4182195.464346, 552698.764497 4182221.935120)

LINESTRING (552789.980157 4182131.670216, 552780.620144 4182123.344131, 552772.545352 4182115.081771, 552735.091357 4182077.039750, 552691.897725 4182033.158279, 552653.786893 4181994.435623, 552639.726990 4181980.165802, 552617.653007 4181957.722957, 552603.628555 4181943.397950, 552599.349608 4181939.143267, 552594.887156 4181934.665507)

LINESTRING (552698.764497 4182221.935120, 552706.490025 4182229.729167, 552712.395684 4182235.691923, 552726.254270 4182249.683208, 552749.290623 4182272.931409, 552783.683007 4182307.647460, 552786.640255 4182310.617799, 552824.435618 4182348.773235, 552830.979826 4182355.372615)

LINESTRING (552698.764497 4182221.935120, 552689.884547 4182230.787904, 552681.190664 4182239.464361, 552658.992233 4182261.391128, 552651.414478 4182269.042881)

LINESTRING (552594.887156 4181934.665507, 552600.968572 4181928.324496, 552654.707565 4181875.243584, 552663.551634 4181866.545868, 552683.209605 4181846.833031)

LINESTRING (552594.887156 4181934.665507, 552586.602002 4181926.191182, 552543.111282 4181881.698384, 552501.827180 4181841.857772, 552472.115754 4181812.787073, 552458.913991 4181800.564596)

LINESTRING (552830.979826 4182355.372615, 552873.297112 4182313.204298)

LINESTRING (552651.414478 4182269.042881, 552658.669133 4182276.112670, 552678.196772 4182295.887558, 552688.557218 4182306.106152, 552718.692696 4182335.934901)

LINESTRING (552651.414478 4182269.042881, 552643.528126 4182276.759240, 552624.609960 4182295.245304, 552604.317783 4182315.176130)

LINESTRING (552651.414478 4182269.042881, 552641.729410 4182261.979749, 552630.038531 4182250.487835, 552611.806339 4182231.897458, 552607.047227 4182227.018356, 552535.298305 4182155.294453, 552526.625526 4182146.873186, 552522.190840 4182142.195922, 552494.325138 4182113.858085, 552461.883462 4182080.864407, 552457.589711 4182070.640376)

LINESTRING (552718.692696 4182335.934901, 552778.785328 4182395.835700, 552785.505991 4182402.380699)

LINESTRING (552718.692696 4182335.934901, 552688.557218 4182306.106152, 552678.196772 4182295.887558, 552658.669133 4182276.112670, 552651.414478 4182269.042881)

LINESTRING (552604.317783 4182315.176130, 552564.788834 4182353.901840)

LINESTRING (552604.317783 4182315.176130, 552611.833473 4182322.735744, 552646.173240 4182357.473073, 552664.738602 4182376.232098, 552669.751736 4182381.301484)

LINESTRING (552457.589711 4182070.640376, 552467.564250 4182075.175375, 552510.557651 4182118.843567, 552523.641374 4182131.531396, 552528.182438 4182136.098385, 552550.416014 4182158.331206, 552592.949597 4182202.163345, 552646.410807 4182256.972365, 552651.414478 4182269.042881)

LINESTRING (552457.589711 4182070.640376, 552465.397111 4182062.878957, 552493.308837 4182035.695588, 552498.581158 4182030.547649, 552503.924000 4182025.389067)

LINESTRING (552457.589711 4182070.640376, 552448.219037 4182061.160687, 552438.682026 4182051.524614, 552404.059938 4182016.531213, 552362.967345 4181975.660635, 552354.330903 4181967.006786, 552317.349888 4181930.345555, 552301.450121 4181914.489089, 552279.792933 4181892.804304)

LINESTRING (552564.788834 4182353.901840, 552572.119757 4182361.438048, 552607.444650 4182397.723769, 552628.562377 4182419.428213, 552663.167128 4182385.131662, 552665.604087 4182382.717355, 552669.751736 4182381.301484)

LINESTRING (552564.788834 4182353.901840, 552556.889408 4182347.138688, 552509.314903 4182299.901563, 552507.425142 4182297.981101, 552497.634754 4182288.088140, 552485.871682 4182275.464241)

LINESTRING (552564.788834 4182353.901840, 552538.540326 4182381.372964, 552534.714651 4182386.152864, 552532.560514 4182389.789508, 552531.205524 4182393.764115, 552530.486840 4182397.376633, 552529.616047 4182404.128181, 552527.815488 4182422.734790, 552527.579646 4182425.196466, 552527.291115 4182427.635616, 552526.881959 4182431.039296, 552525.061297 4182441.756942, 552523.924137 4182447.474918, 552522.021306 4182457.271121)

LINESTRING (552669.751736 4182381.301484, 552674.376071 4182379.700042, 552691.171759 4182362.631816, 552710.928976 4182343.751840, 552718.692696 4182335.934901)

LINESTRING (552669.751736 4182381.301484, 552664.738602 4182376.232098, 552646.173240 4182357.473073, 552611.833473 4182322.735744, 552604.317783 4182315.176130)

LINESTRING (552669.751736 4182381.301484, 552673.435069 4182385.019820, 552732.315824 4182444.402143, 552738.168832 4182450.309107)

LINESTRING (552485.871682 4182275.464241, 552497.634754 4182288.088140, 552507.425142 4182297.981101, 552509.314903 4182299.901563, 552556.889408 4182347.138688, 552564.788834 4182353.901840)

LINESTRING (552522.021306 4182457.271121, 552512.143259 4182455.632563, 552489.581094 4182451.904870, 552392.796834 4182435.887967, 552384.836272 4182434.572436)

LINESTRING (552522.021306 4182457.271121, 552520.775545 4182464.830244, 552514.025286 4182505.695962, 552513.411500 4182509.431201)

LINESTRING (553487.281338 4182832.885865, 553492.500892 4182827.749306, 553525.813770 4182794.735003, 553549.520417 4182771.211512, 553568.201610 4182752.770382, 553575.601536 4182745.451166, 553578.570488 4182742.496911, 553590.143921 4182731.143941, 553592.545404 4182728.796246, 553613.740002 4182708.429878, 553621.868652 4182700.094668)

LINESTRING (553487.281338 4182832.885865, 553479.196700 4182824.999959, 553456.025688 4182802.702969, 553449.874299 4182796.760254, 553416.640954 4182764.645163, 553408.678152 4182756.959838)

LINESTRING (553621.868652 4182700.094668, 553629.227541 4182707.199303, 553675.187766 4182753.556014, 553688.221704 4182766.700343, 553690.102932 4182768.521169, 553692.185437 4182770.531931, 553695.387930 4182773.626256)

LINESTRING (553621.868652 4182700.094668, 553612.917242 4182691.448498, 553581.007633 4182658.908643, 553567.116973 4182643.406685, 553552.878467 4182628.579311, 553545.596521 4182621.808110)

LINESTRING (553408.678152 4182756.959838, 553401.023718 4182749.243236, 553394.671970 4182742.955306, 553385.470000 4182733.542175, 553372.234388 4182720.186215, 553350.820591 4182698.389126, 553339.558226 4182687.597958, 553329.515537 4182677.458243)

LINESTRING (553408.678152 4182756.959838, 553416.640954 4182764.645163, 553449.874299 4182796.760254, 553456.025688 4182802.702969, 553479.196700 4182824.999959, 553487.281338 4182832.885865)

LINESTRING (553695.387930 4182773.626256, 553692.185437 4182770.531931, 553690.102932 4182768.521169, 553688.221704 4182766.700343, 553675.187766 4182753.556014, 553629.227541 4182707.199303, 553621.868652 4182700.094668)

LINESTRING (553545.596521 4182621.808110, 553553.670767 4182613.716580, 553582.608231 4182584.801540, 553595.743188 4182571.672374, 553607.637399 4182559.777839, 553611.785221 4182555.644060, 553618.467965 4182548.963746, 553626.958717 4182540.486658, 553672.958268 4182494.518444, 553682.060733 4182485.424055)

LINESTRING (553545.596521 4182621.808110, 553537.439410 4182614.210163, 553530.244910 4182607.528309, 553522.256508 4182599.709566, 553491.893344 4182568.922111, 553475.962778 4182552.918861, 553467.215226 4182544.018986)

LINESTRING (553545.596521 4182621.808110, 553537.470110 4182629.799451, 553524.646539 4182642.464723, 553506.851456 4182660.024076, 553498.219278 4182668.622416, 553476.454588 4182690.028344, 553460.228105 4182706.066814)

LINESTRING (553545.596521 4182621.808110, 553552.878467 4182628.579311, 553567.116973 4182643.406685, 553581.007633 4182658.908643, 553612.917242 4182691.448498, 553621.868652 4182700.094668)

LINESTRING (552776.482783 4182712.428678, 552775.071436 4182721.062962, 552774.429780 4182725.008819, 552771.881623 4182740.659217, 552771.029139 4182745.901887, 552760.764115 4182808.824796, 552759.636908 4182815.718924)

LINESTRING (552776.482783 4182712.428678, 552786.518818 4182714.090764, 552790.221725 4182714.724757)

LINESTRING (552776.482783 4182712.428678, 552768.056389 4182711.032116, 552703.732781 4182700.323514, 552641.678531 4182689.962791, 552632.926456 4182688.542095)

LINESTRING (552759.636908 4182815.718924, 552767.500692 4182816.956537, 552813.935734 4182824.255529)

LINESTRING (552759.636908 4182815.718924, 552760.764115 4182808.824796, 552771.029139 4182745.901887, 552771.881623 4182740.659217, 552774.429780 4182725.008819, 552775.071436 4182721.062962, 552776.482783 4182712.428678)

LINESTRING (552790.221725 4182714.724757, 552786.518818 4182714.090764, 552776.482783 4182712.428678)

LINESTRING (552632.926456 4182688.542095, 552625.168685 4182687.227623, 552603.697938 4182683.673012, 552561.601160 4182676.647021, 552498.139564 4182666.001016, 552487.716146 4182664.314622)

LINESTRING (552632.926456 4182688.542095, 552634.297047 4182680.750780, 552643.547932 4182624.822461, 552644.701691 4182617.895205, 552648.876869 4182592.879552, 552650.250328 4182584.644442)

LINESTRING (552487.716146 4182664.314622, 552486.368569 4182672.660876, 552479.456392 4182714.113655, 552477.450838 4182726.228157, 552472.058321 4182758.592392, 552470.574176 4182767.647886)

LINESTRING (552487.716146 4182664.314622, 552478.330566 4182662.812384, 552455.998166 4182659.041856, 552399.721905 4182649.696182, 552390.635730 4182648.184855, 552360.272100 4182643.154082, 552350.244847 4182641.470383)

LINESTRING (552650.250328 4182584.644442, 552651.962423 4182575.779059, 552652.414236 4182573.973396, 552653.101152 4182571.203936, 552653.683331 4182568.289565, 552654.334868 4182561.414575, 552654.414870 4182555.789711, 552654.293647 4182552.715506, 552654.197703 4182549.818989, 552654.051826 4182543.715578, 552654.180618 4182540.099297, 552655.126424 4182535.400890, 552657.951107 4182531.557753, 552695.530559 4182493.319302)

LINESTRING (552470.574176 4182767.647886, 552481.339859 4182769.491778, 552499.942633 4182772.628347, 552502.299825 4182773.031720, 552579.577573 4182786.151521, 552585.875161 4182787.223621, 552608.207513 4182790.939032, 552615.621663 4182792.273485)

LINESTRING (552470.574176 4182767.647886, 552469.131935 4182777.036509, 552466.256835 4182795.725053, 552460.846371 4182830.918514, 552456.007148 4182862.143460, 552454.555851 4182871.576411)

LINESTRING (552350.244847 4182641.470383, 552342.847639 4182640.213948, 552300.522428 4182633.043607, 552255.646193 4182625.468953)

LINESTRING (552350.244847 4182641.470383, 552348.916074 4182649.650346, 552341.656941 4182693.153672, 552340.822055 4182698.440874, 552334.598003 4182735.648597, 552334.556648 4182736.613634, 552334.400736 4182740.362892, 552335.110430 4182745.071858)

LINESTRING (552350.244847 4182641.470383, 552351.799954 4182632.315464, 552355.939578 4182607.210688, 552358.054658 4182594.464420, 552359.245094 4182587.271071, 552361.707967 4182572.452174, 552366.065601 4182546.305822, 552367.402857 4182538.181394)

LINESTRING (552255.646193 4182625.468953, 552229.285605 4182620.941179, 552219.478424 4182619.259036, 552214.173857 4182618.470903)

LINESTRING (552255.646193 4182625.468953, 552230.086171 4182626.604915, 552226.840412 4182627.460860, 552223.588319 4182629.315354, 552220.223250 4182632.323054, 552217.444733 4182635.867055, 552209.216561 4182649.007307)

LINESTRING (552335.110430 4182745.071858, 552341.170703 4182746.086783, 552406.461838 4182756.965142, 552415.002561 4182758.384253, 552438.469671 4182762.295048, 552445.302051 4182763.736594, 552461.593234 4182766.225912, 552470.574176 4182767.647886)

LINESTRING (552335.110430 4182745.071858, 552334.400736 4182740.362892, 552334.556648 4182736.613634, 552334.598003 4182735.648597, 552340.822055 4182698.440874, 552341.656941 4182693.153672, 552348.916074 4182649.650346, 552350.244847 4182641.470383)

LINESTRING (552335.110430 4182745.071858, 552335.792368 4182749.991460, 552335.832970 4182754.685077, 552335.729205 4182755.771768, 552335.511531 4182758.155897, 552328.709642 4182799.010343, 552321.609998 4182841.005731, 552320.310728 4182848.708784)

LINESTRING (552367.402857 4182538.181394, 552377.589146 4182539.799551, 552444.209946 4182550.919642, 552466.270398 4182554.577445, 552495.921875 4182559.482014, 552504.893667 4182560.992726)

LINESTRING (552367.402857 4182538.181394, 552366.065601 4182546.305822, 552361.707967 4182572.452174, 552359.245094 4182587.271071, 552358.054658 4182594.464420, 552355.939578 4182607.210688, 552351.799954 4182632.315464, 552350.244847 4182641.470383)

LINESTRING (552367.402857 4182538.181394, 552368.859521 4182529.281047, 552376.096725 4182486.498813)

LINESTRING (552214.173857 4182618.470903, 552215.484257 4182610.390664, 552222.812731 4182566.965350, 552228.088290 4182534.855428, 552229.730617 4182524.425071, 552231.367457 4182514.860121)

LINESTRING (552231.367457 4182514.860121, 552233.249575 4182505.496446, 552238.074764 4182479.153285)

LINESTRING (552231.367457 4182514.860121, 552240.928362 4182516.518522, 552300.528700 4182526.716362, 552359.477188 4182536.932680, 552367.402857 4182538.181394)

LINESTRING (552695.530559 4182493.319302, 552738.168832 4182450.309107)

LINESTRING (552695.530559 4182493.319302, 552701.445192 4182499.226635, 552748.342153 4182546.038956, 552752.218445 4182549.858426, 552756.557772 4182554.246730)

LINESTRING (552615.621663 4182792.273485, 552617.022254 4182783.916491, 552619.494631 4182769.053339, 552624.805147 4182737.210151, 552631.443257 4182697.420041, 552632.926456 4182688.542095)

LINESTRING (552615.621663 4182792.273485, 552623.449986 4182793.555114, 552648.984594 4182797.701638, 552694.679392 4182805.128364, 552711.145240 4182807.819014, 552726.538043 4182810.325297, 552738.174999 4182812.219489, 552742.810453 4182812.970389, 552750.542029 4182814.229330, 552759.636908 4182815.718924)

LINESTRING (553329.515537 4182677.458243, 553337.000523 4182669.218446, 553366.378591 4182641.459440, 553375.053042 4182637.188457)

LINESTRING (553329.515537 4182677.458243, 553344.506776 4182676.723212, 553368.200724 4182652.411348, 553373.321201 4182646.264388, 553375.053042 4182637.188457)

LINESTRING (553329.515537 4182677.458243, 553323.908138 4182671.785441, 553289.611981 4182636.390850, 553267.742761 4182614.147222, 553263.202729 4182609.524339, 553256.047031 4182602.254922)

LINESTRING (553329.515537 4182677.458243, 553339.558226 4182687.597958, 553350.820591 4182698.389126, 553372.234388 4182720.186215, 553385.470000 4182733.542175, 553394.671970 4182742.955306, 553401.023718 4182749.243236, 553408.678152 4182756.959838)

LINESTRING (553375.053042 4182637.188457, 553408.066466 4182604.227217, 553419.221843 4182593.514833, 553460.531899 4182552.164014, 553467.215226 4182544.018986)

LINESTRING (553256.047031 4182602.254922, 553246.887046 4182593.108516, 553236.327289 4182582.555044, 553207.508655 4182553.764728, 553186.660003 4182532.948136, 553179.276243 4182525.521979)

LINESTRING (553256.047031 4182602.254922, 553263.202729 4182609.524339, 553267.742761 4182614.147222, 553289.611981 4182636.390850, 553323.908138 4182671.785441, 553329.515537 4182677.458243)

LINESTRING (553256.047031 4182602.254922, 553247.917012 4182610.845673, 553216.360674 4182641.897453, 553213.152438 4182645.105485, 553209.333154 4182648.853244, 553204.494573 4182653.637389)

LINESTRING (553179.276243 4182525.521979, 553186.508219 4182518.279002, 553226.423943 4182478.637810)

LINESTRING (553179.276243 4182525.521979, 553170.361839 4182516.499298, 553139.376707 4182484.965765, 553118.617762 4182463.839261, 553081.535276 4182426.030990, 553051.747616 4182395.770401, 553044.582095 4182388.600972, 553040.487945 4182384.436003, 553030.828440 4182374.842814)

LINESTRING (553204.494573 4182653.637389, 553200.204767 4182657.981265)

LINESTRING (553226.423943 4182478.637810, 553217.500804 4182469.603926, 553162.360538 4182413.792756, 553101.375512 4182352.074797, 553100.719416 4182351.404840, 553060.003967 4182310.189150, 553038.946708 4182288.794651, 553030.048500 4182279.927572)

LINESTRING (553226.423943 4182478.637810, 553233.585418 4182471.416608, 553269.939543 4182435.214367)

LINESTRING (553030.828440 4182374.842814, 553012.253518 4182356.326987, 552991.685207 4182335.579289, 552984.117469 4182327.952414)

LINESTRING (553030.828440 4182374.842814, 553017.926589 4182369.644734, 552991.354190 4182344.597734, 552986.864186 4182340.363673, 552979.039454 4182332.990344)

LINESTRING (552984.117469 4182327.952414, 552979.039454 4182332.990344)

LINESTRING (552984.117469 4182327.952414, 552976.417995 4182320.269222, 552962.226276 4182306.131121, 552956.390433 4182300.301776, 552927.543196 4182271.545587, 552920.639763 4182264.666437)

LINESTRING (552984.117469 4182327.952414, 552991.552889 4182320.566336, 552999.201004 4182312.970821, 553005.785720 4182306.422532, 553030.048500 4182279.927572)

LINESTRING (552979.039454 4182332.990344, 552984.117469 4182327.952414)

LINESTRING (552979.039454 4182332.990344, 552974.236120 4182337.763753, 552953.853134 4182358.003819, 552934.321393 4182377.339584)

LINESTRING (552920.639763 4182264.666437, 552914.656310 4182258.503311, 552891.011201 4182234.130094, 552886.103703 4182229.072348)

LINESTRING (553030.048500 4182279.927572, 553071.196605 4182239.039791)

LINESTRING (553030.048500 4182279.927572, 553024.017325 4182274.352115, 552997.239638 4182246.951555, 552989.155450 4182238.833155)

LINESTRING (553030.048500 4182279.927572, 553005.785720 4182306.422532, 552999.201004 4182312.970821, 552991.552889 4182320.566336, 552984.117469 4182327.952414)

LINESTRING (552886.103703 4182229.072348, 552891.944041 4182223.251485, 552927.323055 4182187.984599, 552959.059730 4182156.367016, 552961.674237 4182153.754220, 552989.786475 4182125.730546, 553013.294133 4182101.704954, 553019.717312 4182095.654929)

LINESTRING (552886.103703 4182229.072348, 552880.435337 4182223.199753, 552841.946174 4182183.330927, 552841.788675 4182183.174581, 552797.610250 4182139.241827, 552789.980157 4182131.670216)

LINESTRING (553019.717312 4182095.654929, 553029.315295 4182086.141393, 553055.060623 4182060.632449, 553086.123620 4182029.854256, 553095.969813 4182020.109394, 553106.977143 4182009.195917, 553116.052435 4182000.200594, 553136.019821 4181980.424245, 553149.509225 4181966.985991, 553158.850783 4181957.681761)

LINESTRING (553019.717312 4182095.654929, 553025.259035 4182102.048287, 553077.121785 4182154.508707)

LINESTRING (552683.209605 4181846.833031, 552702.743111 4181827.319161, 552713.520574 4181816.503554, 552721.727769 4181808.267829, 552728.258895 4181801.863216)

LINESTRING (552458.913991 4181800.564596, 552456.870984 4181793.650245, 552442.455054 4181779.866706, 552407.408618 4181746.335215, 552399.401479 4181738.395435)

LINESTRING (552458.913991 4181800.564596, 552454.039013 4181798.614038, 552441.385695 4181790.145329, 552421.683732 4181771.190998, 552405.928534 4181756.123029, 552401.560834 4181751.945557, 552394.346413 4181745.364465)

LINESTRING (552399.401479 4181738.395435, 552405.888516 4181731.968100, 552426.359775 4181711.716160, 552433.503152 4181704.560728, 552445.402999 4181693.086198)

LINESTRING (552399.401479 4181738.395435, 552396.887118 4181741.885581, 552394.346413 4181745.364465)

LINESTRING (552399.401479 4181738.395435, 552391.421447 4181730.344882, 552390.118551 4181728.894191, 552387.792500 4181726.316357, 552383.023729 4181721.503907, 552331.019143 4181669.457643, 552285.091921 4181622.698425, 552267.758430 4181605.079869, 552256.887652 4181594.570120, 552237.742387 4181575.175967)

LINESTRING (552445.402999 4181693.086198, 552488.172894 4181650.574846)

LINESTRING (552445.402999 4181693.086198, 552437.667694 4181685.325640, 552351.922515 4181599.234622, 552331.358805 4181578.588546, 552325.399697 4181572.603552, 552259.735029 4181506.679426, 552257.582389 4181504.513261, 552250.240540 4181497.143722)

LINESTRING (552445.402999 4181693.086198, 552433.503152 4181704.560728, 552426.359775 4181711.716160, 552405.888516 4181731.968100, 552399.401479 4181738.395435)

LINESTRING (552394.346413 4181745.364465, 552390.344984 4181750.054550, 552375.602964 4181763.974258, 552360.238944 4181778.777668, 552351.794402 4181787.001143)

LINESTRING (552394.346413 4181745.364465, 552396.887118 4181741.885581, 552399.401479 4181738.395435)

LINESTRING (552924.062797 4182645.838278, 552944.811460 4182667.197235)

LINESTRING (552924.062797 4182645.838278, 552968.246325 4182603.593681, 552976.274630 4182595.712112)

LINESTRING (552944.811460 4182667.197235, 552924.062797 4182645.838278)

LINESTRING (552976.274630 4182595.712112, 552954.587231 4182573.803366, 552885.438692 4182503.957027)

LINESTRING (552976.274630 4182595.712112, 552978.024335 4182597.476448, 553033.698951 4182653.711467, 553042.036019 4182662.142225)

LINESTRING (552834.070920 4182554.277802, 552870.430960 4182590.859820, 552924.062797 4182645.838278)

LINESTRING (552834.070920 4182554.277802, 552877.390355 4182512.215800, 552885.438692 4182503.957027)

LINESTRING (552885.438692 4182503.957027, 552877.390355 4182512.215800, 552834.070920 4182554.277802)

LINESTRING (552885.438692 4182503.957027, 552853.917324 4182472.110472, 552850.960587 4182469.073537, 552846.375933 4182464.494986)

LINESTRING (552885.438692 4182503.957027, 552954.587231 4182573.803366, 552976.274630 4182595.712112)

LINESTRING (552799.183626 4182511.802635, 552776.346370 4182534.546051, 552756.557772 4182554.246730)

LINESTRING (552799.183626 4182511.802635, 552837.708467 4182473.182545, 552846.375933 4182464.494986)

LINESTRING (552756.557772 4182554.246730, 552761.159962 4182558.836440, 552763.784600 4182561.482874, 552796.320571 4182594.389660, 552884.890910 4182683.810277, 552889.116415 4182688.075874, 552943.627673 4182743.104512, 552952.113492 4182751.680377)

LINESTRING (552756.557772 4182554.246730, 552752.218445 4182549.858426, 552748.342153 4182546.038956, 552701.445192 4182499.226635, 552695.530559 4182493.319302)

LINESTRING (552756.557772 4182554.246730, 552776.346370 4182534.546051, 552799.183626 4182511.802635)

LINESTRING (552846.375933 4182464.494986, 552840.665247 4182458.378043, 552838.854915 4182456.446917, 552834.954409 4182452.283295, 552813.807615 4182431.088513, 552790.466489 4182407.405441, 552785.505991 4182402.380699)

LINESTRING (552846.375933 4182464.494986, 552850.960587 4182469.073537, 552853.917324 4182472.110472, 552885.438692 4182503.957027)

LINESTRING (552846.375933 4182464.494986, 552837.708467 4182473.182545, 552799.183626 4182511.802635)

LINESTRING (552846.375933 4182464.494986, 552854.307040 4182456.668152, 552868.042612 4182443.097884, 552879.358971 4182431.919805, 552893.316107 4182418.140188)

LINESTRING (552738.168832 4182450.309107, 552744.091916 4182456.272003, 552791.860996 4182504.399415, 552793.762580 4182505.831822, 552799.183626 4182511.802635)

LINESTRING (552738.168832 4182450.309107, 552757.839192 4182429.853138, 552776.582040 4182411.244203, 552785.505991 4182402.380699)

LINESTRING (552738.168832 4182450.309107, 552732.315824 4182444.402143, 552673.435069 4182385.019820, 552669.751736 4182381.301484)

LINESTRING (552785.505991 4182402.380699, 552790.466489 4182407.405441, 552813.807615 4182431.088513, 552834.954409 4182452.283295, 552838.854915 4182456.446917, 552840.665247 4182458.378043, 552846.375933 4182464.494986)

LINESTRING (552785.505991 4182402.380699, 552792.455530 4182395.202142, 552830.979826 4182355.372615)

LINESTRING (552785.505991 4182402.380699, 552778.785328 4182395.835700, 552718.692696 4182335.934901)

LINESTRING (553195.265176 4182816.025941, 553203.568668 4182807.802410, 553240.035384 4182771.645156, 553244.104245 4182767.421921, 553248.436966 4182763.244776)

LINESTRING (553195.265176 4182816.025941, 553185.890327 4182807.455170, 553161.570877 4182782.888136, 553125.721290 4182746.674228, 553118.495371 4182739.371189)

LINESTRING (553248.436966 4182763.244776, 553242.759279 4182757.549383, 553241.044596 4182755.829597, 553235.436977 4182750.190139, 553232.873754 4182747.610519)

LINESTRING (553248.436966 4182763.244776, 553271.623485 4182739.706039, 553279.485384 4182731.712729)

LINESTRING (553118.495371 4182739.371189, 553110.359610 4182731.152462, 553108.496216 4182729.276409, 553062.305793 4182682.610765, 553052.848897 4182673.063226, 553048.186084 4182668.350909, 553042.036019 4182662.142225)

LINESTRING (553118.495371 4182739.371189, 553125.721290 4182746.674228, 553161.570877 4182782.888136, 553185.890327 4182807.455170, 553195.265176 4182816.025941)

LINESTRING (553247.541298 4181500.591157, 553238.943936 4181509.112327, 553207.389806 4181540.552514, 553200.378773 4181547.541710)

LINESTRING (553247.541298 4181500.591157, 553278.786915 4181531.860388, 553289.019948 4181542.755718)

LINESTRING (553247.541298 4181500.591157, 553242.414060 4181495.431929, 553192.191114 4181444.922862, 553181.621476 4181434.291775, 553169.441071 4181422.163518, 553148.660127 4181401.303165, 553146.106041 4181398.601595)

LINESTRING (552504.893667 4182560.992726, 552503.593761 4182568.762319, 552496.634355 4182610.691881, 552494.436848 4182623.903600, 552490.527046 4182647.423135, 552489.170446 4182655.802618, 552487.716146 4182664.314622)

LINESTRING (552504.893667 4182560.992726, 552514.876822 4182562.698521, 552578.517707 4182572.968541, 552580.479227 4182573.291741, 552597.306293 4182576.028842, 552608.099185 4182577.784306, 552619.428606 4182579.631976, 552641.076286 4182583.098991, 552650.250328 4182584.644442)

LINESTRING (553200.378773 4181547.541710, 553192.472607 4181555.412763, 553159.075221 4181588.694159)

LINESTRING (553146.106041 4181398.601595, 553142.887191 4181395.196725, 553138.120160 4181390.150843, 553135.574873 4181387.449333)

LINESTRING (553146.106041 4181398.601595, 553148.660127 4181401.303165, 553169.441071 4181422.163518, 553181.621476 4181434.291775, 553192.191114 4181444.922862, 553242.414060 4181495.431929, 553247.541298 4181500.591157)

LINESTRING (553598.728913 4181854.627415, 553567.280540 4181822.412483, 553552.587660 4181808.170254, 553537.092026 4181792.780005, 553530.932919 4181786.559815)

LINESTRING (553530.932919 4181786.559815, 553537.092026 4181792.780005, 553552.587660 4181808.170254, 553567.280540 4181822.412483, 553598.728913 4181854.627415)

LINESTRING (553530.932919 4181786.559815, 553522.839114 4181778.573978, 553502.315052 4181757.758742, 553483.653994 4181738.886262)

LINESTRING (553530.932919 4181786.559815, 553522.609828 4181794.882758, 553521.271428 4181796.216605, 553504.695891 4181812.840786, 553484.247877 4181833.201195)

LINESTRING (553530.932919 4181786.559815, 553538.848075 4181778.678045, 553541.764375 4181775.745624, 553557.860794 4181759.695362, 553641.564006 4181675.837291, 553659.628383 4181657.858343, 553667.908083 4181649.479776)

LINESTRING (553483.653994 4181738.886262, 553433.462599 4181688.042997)

LINESTRING (553483.653994 4181738.886262, 553502.315052 4181757.758742, 553522.839114 4181778.573978, 553530.932919 4181786.559815)

LINESTRING (553667.908083 4181649.479776, 553659.628383 4181657.858343, 553641.564006 4181675.837291, 553557.860794 4181759.695362, 553541.764375 4181775.745624, 553538.848075 4181778.678045, 553530.932919 4181786.559815)

LINESTRING (553667.908083 4181649.479776, 553659.824305 4181641.305249, 553627.391590 4181608.695355, 553620.908611 4181602.162320)

LINESTRING (553135.574873 4181387.449333, 553138.120160 4181390.150843, 553142.887191 4181395.196725, 553146.106041 4181398.601595)

LINESTRING (552952.113492 4182751.680377, 552964.103926 4182739.696785, 552967.693061 4182736.113864, 552991.363317 4182712.544177, 553019.703435 4182684.411124, 553033.945078 4182670.178664, 553042.036019 4182662.142225)

LINESTRING (552893.316107 4182418.140188, 552900.787842 4182425.633219, 552974.953085 4182500.038880, 553002.240835 4182527.420484, 553080.866063 4182606.305122, 553089.326043 4182614.792197)

LINESTRING (552893.316107 4182418.140188, 552885.739765 4182410.480061, 552836.789230 4182361.212797, 552830.979826 4182355.372615)

LINESTRING (552893.316107 4182418.140188, 552879.358971 4182431.919805, 552868.042612 4182443.097884, 552854.307040 4182456.668152, 552846.375933 4182464.494986)

LINESTRING (552893.316107 4182418.140188, 552929.349315 4182382.344938, 552934.321393 4182377.339584)

LINESTRING (553089.326043 4182614.792197, 553092.418920 4182611.716518, 553093.225533 4182610.889563, 553126.892343 4182577.487613, 553127.947077 4182576.418163, 553130.083104 4182574.257244, 553145.121728 4182559.386580, 553156.101934 4182548.484092, 553170.274537 4182534.107175, 553179.276243 4182525.521979)

LINESTRING (552934.321393 4182377.339584, 552941.375792 4182385.373643, 552972.916990 4182416.876698)

LINESTRING (552934.321393 4182377.339584, 552929.349315 4182382.344938, 552893.316107 4182418.140188)

LINESTRING (552934.321393 4182377.339584, 552953.853134 4182358.003819, 552974.236120 4182337.763753, 552979.039454 4182332.990344)

LINESTRING (553071.196605 4182239.039791, 553030.048500 4182279.927572)

LINESTRING (553071.196605 4182239.039791, 553080.297980 4182247.808365, 553143.671176 4182308.021484)

LINESTRING (553071.196605 4182239.039791, 553111.810643 4182200.467708, 553117.843950 4182194.792488)

LINESTRING (552989.155450 4182238.833155, 552997.239638 4182246.951555, 553024.017325 4182274.352115, 553030.048500 4182279.927572)

LINESTRING (553143.671176 4182308.021484, 553080.297980 4182247.808365, 553071.196605 4182239.039791)

LINESTRING (553143.671176 4182308.021484, 553148.596655 4182312.990740, 553154.930743 4182319.367117, 553200.931174 4182365.699138, 553261.199803 4182426.414628, 553269.939543 4182435.214367)

LINESTRING (553257.153999 4182056.755527, 553249.507349 4182049.072424, 553233.111682 4182032.589572, 553231.939774 4182031.339309, 553210.259180 4182009.607493)

LINESTRING (553257.153999 4182056.755527, 553264.030495 4182050.087277, 553281.992566 4182032.694915, 553286.228608 4182028.550449, 553297.660573 4182017.373681, 553340.508525 4181975.488536, 553346.508154 4181969.624639)

LINESTRING (553257.153999 4182056.755527, 553264.826908 4182064.460998, 553279.735495 4182079.392031, 553283.436378 4182083.099658, 553286.227305 4182085.902670, 553289.166701 4182088.895266, 553292.010098 4182091.754096, 553296.725366 4182096.555647, 553304.369845 4182104.560549)

LINESTRING (553257.153999 4182056.755527, 553247.599958 4182066.235799, 553227.277342 4182086.464498, 553207.543814 4182104.122916, 553200.879170 4182110.726008, 553189.260544 4182122.212373, 553148.049489 4182164.486098, 553127.457900 4182185.534363, 553117.843950 4182194.792488)

LINESTRING (553210.259180 4182009.607493, 553217.393904 4182002.497057, 553257.853381 4181962.238174)

LINESTRING (553210.259180 4182009.607493, 553193.863570 4181993.091437, 553189.725408 4181988.903924, 553185.421154 4181984.526718, 553182.079133 4181981.143221, 553165.027502 4181963.923976, 553158.850783 4181957.681761)

LINESTRING (553210.259180 4182009.607493, 553231.939774 4182031.339309, 553233.111682 4182032.589572, 553249.507349 4182049.072424, 553257.153999 4182056.755527)

LINESTRING (553504.477682 4181938.583793, 553496.131812 4181930.108142, 553449.044738 4181882.824353, 553441.033443 4181874.339837)

LINESTRING (553545.910688 4181896.490785, 553518.486658 4181868.340942, 553490.966225 4181840.090708, 553484.247877 4181833.201195)

LINESTRING (553358.053553 4182434.220502, 553363.651212 4182427.832528, 553366.390618 4182424.976568, 553414.066379 4182377.031714)

LINESTRING (553358.053553 4182434.220502, 553382.468683 4182459.043911, 553390.732543 4182466.520340)

LINESTRING (553358.053553 4182434.220502, 553353.109009 4182429.506187, 553321.595778 4182397.990734, 553314.518685 4182390.799448)

LINESTRING (553414.066379 4182377.031714, 553366.390618 4182424.976568, 553363.651212 4182427.832528, 553358.053553 4182434.220502)

LINESTRING (553364.779043 4182340.774014, 553388.741102 4182316.009029)

LINESTRING (553364.779043 4182340.774014, 553356.372316 4182332.220432, 553301.478437 4182276.432130, 553297.526764 4182267.951835, 553296.097375 4182257.512883, 553297.573733 4182247.092741, 553303.968142 4182238.701614, 553326.828349 4182216.847414, 553331.027387 4182221.124159, 553391.807682 4182283.075496, 553398.823383 4182290.233162, 553402.094602 4182293.638484)

LINESTRING (553364.779043 4182340.774014, 553392.728272 4182318.997364, 553404.018531 4182307.908588, 553412.568995 4182299.731245, 553416.845613 4182296.108594, 553425.041588 4182288.284018, 553435.269251 4182278.120404, 553446.934847 4182266.201964, 553455.927823 4182257.694676)

LINESTRING (553077.121785 4182154.508707, 553091.433031 4182162.412147, 553112.629870 4182184.040677, 553114.280996 4182191.540736)

LINESTRING (553077.121785 4182154.508707, 553085.188540 4182169.428571, 553100.026809 4182184.358825, 553106.333976 4182190.834845, 553114.280996 4182191.540736)

LINESTRING (552797.446732 4181872.218677, 552807.434935 4181862.274667, 552840.670078 4181829.179456, 552842.557877 4181827.294255, 552843.479585 4181826.379251, 552848.726340 4181821.153699)

LINESTRING (552797.446732 4181872.218677, 552802.225760 4181876.754055, 552879.644301 4181954.219698, 552914.421316 4181989.504602)

LINESTRING (552848.726340 4181821.153699, 552843.572857 4181815.961263, 552824.306339 4181796.542739, 552810.691918 4181782.830259, 552831.900145 4181761.774072, 552851.991823 4181741.820314, 552903.812351 4181795.899214, 552924.832529 4181817.836760, 552930.343431 4181823.586316)

LINESTRING (552848.726340 4181821.153699, 552890.653865 4181863.407912, 552930.343431 4181823.586316)

LINESTRING (552848.726340 4181821.153699, 552843.479585 4181826.379251, 552842.557877 4181827.294255, 552840.670078 4181829.179456, 552807.434935 4181862.274667, 552797.446732 4181872.218677)

LINESTRING (552914.421316 4181989.504602, 552921.463560 4182000.856083)

LINESTRING (552914.421316 4181989.504602, 552924.413427 4181998.134476)

LINESTRING (552728.258895 4181801.863216, 552736.332470 4181793.870749)

LINESTRING (552728.258895 4181801.863216, 552736.386810 4181810.136958, 552749.886689 4181823.870772, 552792.423273 4181867.348872, 552797.446732 4181872.218677)

LINESTRING (552736.332470 4181793.870749, 552738.264423 4181791.963617, 552748.022205 4181782.251064, 552758.533336 4181771.788861, 552779.794930 4181750.633026)

LINESTRING (552533.284146 4181605.548896, 552540.125401 4181598.846539)

LINESTRING (552533.284146 4181605.548896, 552526.884828 4181611.998883, 552523.862743 4181614.997556, 552514.123073 4181624.643914, 552511.499812 4181627.245700, 552488.172894 4181650.574846)

LINESTRING (552533.284146 4181605.548896, 552541.376095 4181613.999734, 552548.890585 4181621.858839, 552670.891289 4181744.732009, 552687.297810 4181761.158298)

LINESTRING (552540.125401 4181598.846539, 552533.284146 4181605.548896)

LINESTRING (552540.125401 4181598.846539, 552543.386464 4181595.660775, 552563.217920 4181576.414768, 552579.737381 4181560.065749, 552584.408339 4181555.368934)

LINESTRING (552687.297810 4181761.158298, 552720.305944 4181793.768129, 552728.258895 4181801.863216)

LINESTRING (552687.297810 4181761.158298, 552712.203925 4181770.438108, 552724.500148 4181782.377812, 552728.315960 4181786.074823, 552736.332470 4181793.870749)

LINESTRING (552489.386686 4181560.998366, 552510.813374 4181569.168025, 552530.404367 4181588.998387, 552531.804339 4181590.416432, 552540.125401 4181598.846539)

LINESTRING (552489.386686 4181560.998366, 552502.564536 4181574.263696, 552525.113493 4181597.008802, 552533.284146 4181605.548896)

LINESTRING (552493.202204 4181463.915805, 552476.249462 4181480.539619, 552452.559353 4181504.155032, 552442.362713 4181513.643228)

LINESTRING (553257.853381 4181962.238174, 553217.393904 4182002.497057, 553210.259180 4182009.607493)

LINESTRING (552930.343431 4181823.586316, 552969.492728 4181784.305107, 552978.294058 4181775.474303)

LINESTRING (552930.343431 4181823.586316, 552890.653865 4181863.407912, 552848.726340 4181821.153699)

LINESTRING (552930.343431 4181823.586316, 552924.832529 4181817.836760, 552903.812351 4181795.899214, 552851.991823 4181741.820314, 552831.900145 4181761.774072, 552810.691918 4181782.830259, 552824.306339 4181796.542739, 552843.572857 4181815.961263, 552848.726340 4181821.153699)

LINESTRING (552266.471486 4182308.652925, 552267.755986 4182300.505959, 552281.032935 4182216.209730, 552281.496027 4182212.617761)

LINESTRING (552266.471486 4182308.652925, 552273.631827 4182309.819019, 552333.860564 4182319.743676, 552358.499140 4182323.805905, 552396.956836 4182330.130841, 552403.255008 4182331.169512, 552401.622950 4182339.946685, 552391.739580 4182393.086257, 552386.029081 4182427.012958, 552384.836272 4182434.572436)

LINESTRING (552281.496027 4182212.617761, 552284.738930 4182208.078143, 552289.056649 4182204.843515, 552291.987840 4182205.017466, 552307.866328 4182206.116911, 552310.595982 4182206.134253, 552312.991387 4182206.093995, 552314.823391 4182206.027967, 552318.691260 4182205.686395, 552322.307231 4182204.799550, 552325.356636 4182202.999283, 552327.509238 4182200.982504, 552329.475800 4182199.142071, 552353.657205 4182174.064849, 552368.945760 4182158.550844, 552374.802962 4182152.796299, 552381.289944 4182146.324565, 552409.142016 4182118.741103, 552418.695016 4182109.259868, 552448.001046 4182080.176817, 552457.589711 4182070.640376)

LINESTRING (552384.836272 4182434.572436, 552375.670257 4182433.116099, 552287.884257 4182418.566801, 552264.820008 4182414.836539, 552257.246058 4182413.645636, 552249.829753 4182412.588885)

LINESTRING (552384.836272 4182434.572436, 552383.532652 4182442.941173, 552377.149043 4182480.258794, 552376.096725 4182486.498813)

LINESTRING (553042.036019 4182662.142225, 553048.930954 4182655.240916, 553051.811268 4182652.352475, 553069.304940 4182634.956644, 553077.573264 4182626.732761, 553078.149159 4182626.181703, 553082.960336 4182621.541549, 553089.326043 4182614.792197)

LINESTRING (553042.036019 4182662.142225, 553033.698951 4182653.711467, 552978.024335 4182597.476448, 552976.274630 4182595.712112)

LINESTRING (553042.036019 4182662.142225, 553048.186084 4182668.350909, 553052.848897 4182673.063226, 553062.305793 4182682.610765, 553108.496216 4182729.276409, 553110.359610 4182731.152462, 553118.495371 4182739.371189)

LINESTRING (552503.924000 4182025.389067, 552533.001400 4181996.349235, 552537.202067 4181992.170878, 552584.562490 4181944.951578, 552594.887156 4181934.665507)

LINESTRING (552309.342783 4181828.150477, 552312.323241 4181839.997101, 552293.993638 4181857.289353, 552281.407675 4181870.102283, 552279.842658 4181872.488952, 552279.287408 4181875.336943, 552279.792933 4181892.804304)

LINESTRING (552309.342783 4181828.150477, 552301.609352 4181836.733572, 552288.465838 4181851.362596, 552269.786339 4181869.684550, 552262.458042 4181875.496404)

LINESTRING (552309.342783 4181828.150477, 552316.214403 4181836.016384, 552317.342729 4181837.221855, 552357.434873 4181877.697480, 552372.712721 4181893.028615, 552384.463924 4181904.864484, 552416.497412 4181937.122936, 552445.748207 4181966.578849, 552494.176597 4182015.607347, 552503.924000 4182025.389067)

LINESTRING (552309.342783 4181828.150477, 552328.477269 4181808.932775, 552332.007479 4181806.325600, 552337.507874 4181801.323248, 552340.104678 4181798.710144, 552351.794402 4181787.001143)

LINESTRING (552279.792933 4181892.804304, 552301.450121 4181914.489089, 552317.349888 4181930.345555, 552354.330903 4181967.006786, 552362.967345 4181975.660635, 552404.059938 4182016.531213, 552438.682026 4182051.524614, 552448.219037 4182061.160687, 552457.589711 4182070.640376)

LINESTRING (552279.792933 4181892.804304, 552269.353192 4181882.430409, 552262.458042 4181875.496404)

LINESTRING (552262.458042 4181875.496404, 552269.786339 4181869.684550, 552288.465838 4181851.362596, 552301.609352 4181836.733572, 552309.342783 4181828.150477)

LINESTRING (552262.458042 4181875.496404, 552269.353192 4181882.430409, 552279.792933 4181892.804304)

LINESTRING (552351.794402 4181787.001143, 552360.238944 4181778.777668, 552375.602964 4181763.974258, 552390.344984 4181750.054550, 552394.346413 4181745.364465)

LINESTRING (552351.794402 4181787.001143, 552340.104678 4181798.710144, 552337.507874 4181801.323248, 552332.007479 4181806.325600, 552328.477269 4181808.932775, 552309.342783 4181828.150477)

LINESTRING (552873.297112 4182313.204298, 552879.043598 4182319.243822, 552926.956945 4182369.592018, 552934.321393 4182377.339584)

LINESTRING (552873.297112 4182313.204298, 552911.793411 4182273.741109, 552920.639763 4182264.666437)

LINESTRING (552861.787865 4182832.995193, 552870.243447 4182831.196559, 552875.884205 4182827.593490, 552891.862194 4182811.641055, 552900.068317 4182803.449884, 552901.486268 4182802.027686, 552902.762345 4182800.759913, 552912.040636 4182791.521578, 552946.247205 4182757.478839, 552952.113492 4182751.680377)

LINESTRING (552813.935734 4182824.255529, 552834.149124 4182826.093931, 552851.740535 4182829.002900, 552861.787865 4182832.995193)

LINESTRING (552813.935734 4182824.255529, 552833.053017 4182833.620689, 552847.354101 4182836.098002, 552852.508367 4182836.952154, 552861.787865 4182832.995193)

LINESTRING (552454.555851 4182871.576411, 552444.564467 4182869.837343, 552425.813135 4182866.555709, 552396.199503 4182861.407515, 552346.706463 4182853.126134, 552324.778906 4182849.458386, 552320.310728 4182848.708784)

LINESTRING (552200.956624 4182722.706096, 552206.999318 4182723.720810, 552227.590410 4182727.146755, 552268.297510 4182733.929212, 552286.795062 4182737.020247, 552327.651608 4182743.826139, 552335.110430 4182745.071858)

LINESTRING (552582.825094 4181746.776623, 552580.069195 4181749.466304, 552578.367779 4181751.130846, 552549.488409 4181779.339632, 552544.273433 4181785.131439, 552540.601644 4181789.213309)

LINESTRING (552582.825094 4181746.776623, 552637.615595 4181802.137660, 552644.474342 4181807.840160, 552669.798074 4181834.420246, 552674.049057 4181837.543054, 552674.984954 4181838.536532, 552675.457270 4181839.038846, 552683.209605 4181846.833031)

LINESTRING (552584.408339 4181555.368934, 552596.169131 4181543.671822, 552612.292237 4181527.353622, 552625.177663 4181516.074265)

LINESTRING (552584.408339 4181555.368934, 552579.737381 4181560.065749, 552563.217920 4181576.414768, 552543.386464 4181595.660775, 552540.125401 4181598.846539)

LINESTRING (552584.408339 4181555.368934, 552576.385902 4181547.062739, 552518.290621 4181488.973816, 552493.202204 4181463.915805)

LINESTRING (552820.802961 4181709.820773, 552823.213674 4181707.417438, 552857.141481 4181673.527863, 552867.201080 4181663.484524)

LINESTRING (553200.204767 4182657.981265, 553192.264853 4182665.785523)

LINESTRING (553636.010860 4182071.408524, 553627.840794 4182063.022641, 553600.671017 4182035.173735, 553571.655354 4182005.426690)

LINESTRING (553636.010860 4182071.408524, 553612.235235 4182094.365463, 553609.815290 4182099.520177, 553608.733850 4182104.672511, 553608.529937 4182107.589281)

LINESTRING (553608.529937 4182107.589281, 553608.733850 4182104.672511, 553609.815290 4182099.520177, 553612.235235 4182094.365463, 553636.010860 4182071.408524)

LINESTRING (553608.529937 4182107.589281, 553608.650367 4182113.437356, 553609.908000 4182119.093118, 553612.708894 4182124.403874, 553614.458126 4182127.588557, 553616.333666 4182130.308054, 553619.021247 4182134.086906, 553624.858041 4182141.070656, 553641.756754 4182161.285651, 553647.618854 4182167.082372, 553678.827970 4182199.273906, 553690.688405 4182210.213666)

LINESTRING (552249.829753 4182412.588885, 552239.431187 4182411.091592)

LINESTRING (552249.829753 4182412.588885, 552251.312161 4182403.777447, 552254.862623 4182381.287408, 552264.958476 4182318.118794, 552266.471486 4182308.652925)

LINESTRING (552376.096725 4182486.498813, 552368.859521 4182529.281047, 552367.402857 4182538.181394)

LINESTRING (552376.096725 4182486.498813, 552377.149043 4182480.258794, 552383.532652 4182442.941173, 552384.836272 4182434.572436)

LINESTRING (552513.411500 4182509.431201, 552506.444791 4182508.310512, 552501.739202 4182507.481633, 552386.344146 4182488.206132, 552384.241931 4182487.848798, 552376.096725 4182486.498813)

LINESTRING (552513.411500 4182509.431201, 552506.358998 4182552.136838, 552504.893667 4182560.992726)

LINESTRING (553269.939543 4182435.214367, 553306.701609 4182398.615490, 553314.518685 4182390.799448)

LINESTRING (553388.741102 4182316.009029, 553402.094602 4182293.638484)

LINESTRING (553388.741102 4182316.009029, 553406.204142 4182298.125502, 553431.078669 4182273.910232, 553435.752678 4182268.759001, 553439.740600 4182263.492364, 553441.493606 4182260.674408, 553444.569673 4182254.802703, 553447.441999 4182249.118298)

LINESTRING (553402.094602 4182293.638484, 553405.610126 4182289.245307, 553409.414285 4182285.153579, 553424.628315 4182270.550843, 553436.754805 4182258.169371, 553437.618712 4182256.666000, 553439.271456 4182253.015236, 553439.518756 4182250.187507, 553439.299860 4182245.925442, 553438.856314 4182243.714573, 553436.804019 4182238.375448)

LINESTRING (553542.062206 4181975.076844, 553571.655354 4182005.426690)

LINESTRING (553459.115567 4182450.254366, 553424.881699 4182483.906499, 553416.755347 4182491.886862)

LINESTRING (553416.755347 4182491.886862, 553424.881699 4182483.906499, 553459.115567 4182450.254366)

LINESTRING (553416.755347 4182491.886862, 553400.038146 4182474.935551, 553390.732543 4182466.520340)

LINESTRING (553416.755347 4182491.886862, 553425.289981 4182502.405233, 553426.244402 4182503.232488, 553460.077184 4182536.760600, 553467.215226 4182544.018986)

LINESTRING (552540.601644 4181789.213309, 552544.273433 4181785.131439, 552549.488409 4181779.339632, 552578.367779 4181751.130846, 552580.069195 4181749.466304, 552582.825094 4181746.776623)

LINESTRING (552540.601644 4181789.213309, 552567.428314 4181817.688880, 552570.384331 4181820.892131, 552571.495083 4181822.086430)

LINESTRING (552540.601644 4181789.213309, 552455.210540 4181701.791977, 552453.678627 4181700.350913, 552445.402999 4181693.086198)

LINESTRING (552571.495083 4181822.086430, 552570.384331 4181820.892131, 552567.428314 4181817.688880, 552540.601644 4181789.213309)

LINESTRING (552779.794930 4181750.633026, 552772.340356 4181743.095854, 552678.491777 4181648.250641, 552624.502071 4181594.237018, 552592.356748 4181562.853605, 552584.408339 4181555.368934)

LINESTRING (552779.794930 4181750.633026, 552801.198665 4181729.300629, 552816.708959 4181713.799955, 552820.802961 4181709.820773)

LINESTRING (553273.376487 4181935.299054, 553337.109058 4181998.655944, 553379.029177 4182038.815631, 553392.395752 4182052.516376, 553414.613516 4182072.798667, 553438.484007 4182093.491182, 553467.610255 4182117.080515)

LINESTRING (553467.610255 4182117.080515, 553573.069091 4182199.583690)

LINESTRING (553676.238981 4182301.945261, 553647.394770 4182269.047931, 553603.654727 4182227.476949, 553551.142648 4182187.424703)

LINESTRING (553447.441999 4182249.118298, 553455.927823 4182257.694676)

LINESTRING (553447.441999 4182249.118298, 553440.745331 4182243.005631, 553436.804019 4182238.375448)

LINESTRING (553447.441999 4182249.118298, 553452.710742 4182237.812974, 553457.571285 4182226.993202, 553461.318654 4182219.450451, 553464.134641 4182214.309362, 553466.843598 4182209.378392, 553469.183685 4182205.654429, 553471.947080 4182201.833357, 553475.461527 4182197.617728, 553479.398636 4182193.404846, 553484.189797 4182189.208609, 553489.826278 4182185.017866, 553495.579554 4182181.826474, 553502.297316 4182179.273793, 553507.578156 4182178.320616, 553513.385878 4182177.592775, 553520.437258 4182177.904897, 553526.955410 4182178.968048, 553534.100190 4182181.167012, 553541.032195 4182183.586507, 553557.424634 4182190.949528, 553565.322903 4182195.084025, 553573.069091 4182199.583690)

LINESTRING (552962.404374 4181581.557528, 552964.495454 4181583.679103, 553032.091077 4181652.384154, 553040.744054 4181661.149776, 553141.770783 4181763.357388, 553142.942386 4181764.663112, 553151.123623 4181772.804469)

LINESTRING (552962.404374 4181581.557528, 552985.573983 4181558.284166, 552993.809481 4181549.838076, 552998.454695 4181545.074753, 553009.884919 4181534.208250)

LINESTRING (553467.215226 4182544.018986, 553475.962778 4182552.918861, 553491.893344 4182568.922111, 553522.256508 4182599.709566, 553530.244910 4182607.528309, 553537.439410 4182614.210163, 553545.596521 4182621.808110)

LINESTRING (553467.215226 4182544.018986, 553460.077184 4182536.760600, 553426.244402 4182503.232488, 553425.289981 4182502.405233, 553416.755347 4182491.886862)

LINESTRING (553460.228105 4182706.066814, 553451.995714 4182715.488860, 553447.923910 4182720.144697, 553440.685103 4182728.430375, 553421.206965 4182747.598916, 553417.759807 4182750.982846, 553408.678152 4182756.959838)

LINESTRING (553460.228105 4182706.066814, 553448.232771 4182711.902793, 553433.561589 4182723.025039, 553415.161022 4182741.679104, 553411.757600 4182745.107702, 553408.678152 4182756.959838)

LINESTRING (553348.831193 4182508.067392, 553381.773281 4182475.305302, 553390.732543 4182466.520340)

LINESTRING (553348.831193 4182508.067392, 553341.081614 4182516.349846, 553325.865988 4182532.650322)

LINESTRING (552238.074764 4182479.153285, 552232.298060 4182457.003494, 552237.849197 4182421.722046, 552239.431187 4182411.091592)

LINESTRING (552238.074764 4182479.153285, 552240.936350 4182463.915262, 552245.224760 4182438.911244, 552248.330442 4182421.289261, 552249.829753 4182412.588885)

LINESTRING (552972.916990 4182416.876698, 552941.375792 4182385.373643, 552934.321393 4182377.339584)

LINESTRING (552819.767006 4182719.596538, 552816.213499 4182719.007873, 552800.935154 4182716.479968, 552790.221725 4182714.724757)

LINESTRING (552819.767006 4182719.596538, 552855.720487 4182756.309049, 552863.532264 4182764.281341)

LINESTRING (552863.532264 4182764.281341, 552855.720487 4182756.309049, 552819.767006 4182719.596538)

LINESTRING (553325.865988 4182532.650322, 553319.173590 4182539.497239, 553305.479792 4182553.322232, 553262.818139 4182595.475037, 553256.047031 4182602.254922)

LINESTRING (553288.681432 4182167.958102, 553292.201355 4182161.523348, 553305.298579 4182147.450369, 553315.217241 4182136.053015, 553332.550274 4182115.161631, 553347.285168 4182098.425328)

LINESTRING (553288.681432 4182167.958102, 553279.857321 4182177.598397, 553270.113357 4182189.229926)

LINESTRING (553179.885444 4182281.249055, 553172.649750 4182302.671965, 553169.376997 4182314.489646, 553164.124608 4182335.603604, 553161.578015 4182341.334589, 553158.334536 4182344.531320, 553153.494030 4182346.863394, 553149.739005 4182347.460496, 553145.963510 4182347.136548, 553142.111492 4182345.025745, 553139.071340 4182342.642798, 553136.212662 4182339.428866, 553134.402588 4182336.099653, 553132.548848 4182329.985208)

LINESTRING (553179.885444 4182281.249055, 553168.277098 4182293.911630, 553142.682953 4182321.973146, 553132.548848 4182329.985208)

LINESTRING (553179.885444 4182281.249055, 553188.455684 4182272.705463, 553192.479299 4182268.703818, 553231.899709 4182228.227290, 553270.113357 4182189.229926)

LINESTRING (553132.548848 4182329.985208, 553142.682953 4182321.973146, 553168.277098 4182293.911630, 553179.885444 4182281.249055)

LINESTRING (553132.548848 4182329.985208, 553109.549225 4182346.280231, 553079.058560 4182375.863716, 553066.012589 4182384.833483, 553052.560300 4182391.270897, 553037.883603 4182396.413376, 553022.738752 4182401.785869, 552999.234413 4182411.742459, 552988.032810 4182417.373404, 552976.972652 4182425.657080, 552971.811504 4182429.939990)

LINESTRING (552971.811504 4182429.939990, 552947.617587 4182454.038949, 552955.885150 4182462.369306)

LINESTRING (553114.280996 4182191.540736, 553117.843950 4182194.792488)

LINESTRING (552808.928709 4182248.604220, 552830.274744 4182270.388311, 552835.227203 4182275.302072, 552863.313745 4182303.265273, 552866.918636 4182306.850047, 552873.297112 4182313.204298)

LINESTRING (553347.285168 4182098.425328, 553354.081666 4182089.160305, 553358.201490 4182081.209392, 553360.987168 4182071.230469, 553361.392738 4182063.000294, 553358.754698 4182051.554913)

LINESTRING (553347.285168 4182098.425328, 553357.692842 4182091.757843, 553368.903837 4182087.503285, 553382.147604 4182086.180017, 553395.178661 4182087.784582, 553404.429384 4182091.151012)

LINESTRING (553358.754698 4182051.554913, 553404.429384 4182091.151012)

LINESTRING (553358.754698 4182051.554913, 553321.371502 4182013.821319, 553243.224367 4181932.629759, 553165.935837 4181855.971449, 553130.279157 4181820.613234)

LINESTRING (553404.429384 4182091.151012, 553467.610255 4182117.080515)

LINESTRING (553404.429384 4182091.151012, 553406.380835 4182103.901216, 553406.450755 4182106.697717, 553406.283287 4182109.437200, 553405.646684 4182112.550885, 553404.660310 4182115.285058, 553403.375847 4182117.817579, 553401.510513 4182120.301952, 553399.338645 4182122.529142, 553396.261041 4182124.561837, 553393.425574 4182125.919282, 553390.734593 4182126.722894, 553387.913400 4182127.237182, 553379.005784 4182128.000492, 553373.269203 4182128.617934, 553366.103123 4182129.692124, 553358.071597 4182131.149051, 553350.239435 4182133.095476, 553344.768138 4182134.901867, 553339.534517 4182136.720898, 553333.891825 4182139.158625, 553328.644734 4182141.698778, 553323.696383 4182144.340727, 553315.944434 4182148.861842, 553306.960067 4182154.684245, 553301.174687 4182158.763194, 553298.678636 4182160.744212, 553295.674935 4182163.609579, 553288.681432 4182167.958102)

LINESTRING (553130.279157 4181820.613234, 553165.935837 4181855.971449, 553243.224367 4181932.629759, 553321.371502 4182013.821319, 553358.754698 4182051.554913)

LINESTRING (553130.279157 4181820.613234, 553126.650752 4181817.926926, 553124.025557 4181815.346949, 553116.061762 4181807.628647)

LINESTRING (552980.070191 4182438.281410, 552955.885150 4182462.369306)

LINESTRING (552980.070191 4182438.281410, 552971.811504 4182429.939990)

LINESTRING (552980.070191 4182438.281410, 552984.388834 4182433.560361, 553000.476310 4182422.635061, 553025.593101 4182412.511333, 553050.555620 4182403.107889, 553070.933649 4182393.220055, 553084.643635 4182380.959236, 553114.639064 4182351.705440, 553132.548848 4182329.985208)

LINESTRING (552955.885150 4182462.369306, 552976.462816 4182482.994932, 552989.699877 4182496.283670, 553002.858150 4182509.494256, 553015.517710 4182522.202358, 553028.868466 4182535.591753, 553041.370385 4182548.154641, 553054.782263 4182561.611046, 553068.246569 4182575.123290, 553082.629411 4182589.562399, 553095.236252 4182602.214813, 553107.921726 4182614.956517, 553121.018414 4182628.100330, 553134.298745 4182641.433973, 553165.487309 4182672.735814, 553180.193509 4182687.498958, 553193.543656 4182700.899724, 553206.972501 4182714.378690, 553219.167716 4182726.629206, 553238.300382 4182745.837056, 553262.055571 4182722.867837, 553243.990848 4182704.632141, 553228.690439 4182689.188217, 553216.005624 4182676.390848, 553197.678272 4182657.887270, 553183.934851 4182644.017951, 553152.607372 4182612.404473, 553138.505160 4182598.166767, 553124.875216 4182584.420333, 553112.802559 4182572.226233, 553100.257332 4182559.574191, 553086.907302 4182546.095918, 553074.265783 4182533.343438, 553060.880663 4182519.831697, 553047.924156 4182506.755462, 553033.602812 4182492.305719, 553021.862261 4182480.457856, 553008.800684 4182467.270055, 552995.450282 4182453.803030, 552980.070191 4182438.281410)

LINESTRING (553171.782968 4182686.379470, 553167.546456 4182690.657134, 553163.620480 4182694.570657, 553154.405221 4182703.531735, 553150.684348 4182707.047153, 553130.088493 4182727.596084, 553126.675236 4182731.202261, 553118.495371 4182739.371189)

LINESTRING (553279.485384 4182731.712729, 553283.252839 4182727.809330, 553292.742127 4182717.341189, 553322.128209 4182685.576629, 553329.515537 4182677.458243)

LINESTRING (553279.485384 4182731.712729, 553272.605935 4182726.675264, 553271.170062 4182725.412188, 553266.067736 4182720.608137, 553263.547245 4182718.228502)

LINESTRING (553263.547245 4182718.228502, 553254.487126 4182712.722031)

LINESTRING (553263.547245 4182718.228502, 553256.737565 4182705.125123, 553216.029751 4182664.485608, 553212.273551 4182661.199272, 553211.521066 4182660.462109, 553204.494573 4182653.637389)

LINESTRING (553232.873754 4182747.610519, 553187.391370 4182701.869657, 553182.844545 4182696.936103, 553177.751314 4182692.076689, 553171.782968 4182686.379470)

LINESTRING (553232.873754 4182747.610519, 553225.280430 4182723.606386, 553194.775263 4182692.896782, 553191.146637 4182688.945554, 553186.247327 4182684.054102, 553180.053281 4182677.856124)

LINESTRING (553116.061762 4181807.628647, 553113.119353 4181810.538857, 553109.521098 4181814.099468)

LINESTRING (553192.264853 4182665.785523, 553186.221091 4182671.760197, 553180.053281 4182677.856124)

LINESTRING (553180.053281 4182677.856124, 553171.782968 4182686.379470)

LINESTRING (553254.487126 4182712.722031, 553215.708803 4182673.271113, 553210.591815 4182668.000995, 553207.082796 4182664.616400, 553200.204767 4182657.981265)

LINESTRING (553254.487126 4182712.722031, 553238.381719 4182711.475032, 553206.695502 4182679.581631, 553203.878843 4182676.700807, 553199.213966 4182672.321252, 553192.264853 4182665.785523)

LINESTRING (553098.427833 4181444.950244, 553101.429245 4181447.932069, 553122.034636 4181468.702408, 553133.872960 4181480.617577, 553197.237754 4181544.370323, 553200.378773 4181547.541710)

LINESTRING (553098.427833 4181444.950244, 553108.400592 4181436.171509, 553137.614642 4181407.079171, 553146.106041 4181398.601595)

LINESTRING (553113.359751 4182724.703183, 553115.109184 4182726.500834, 553118.495371 4182739.371189)

LINESTRING (552209.216561 4182649.007307, 552212.716952 4182627.437846, 552214.173857 4182618.470903)

LINESTRING (552248.704530 4182465.018620, 552249.751276 4182465.191694, 552363.703198 4182484.411709, 552366.561872 4182484.895899, 552376.096725 4182486.498813)

