LINESTRING (173.359784 175.873955, 150.846897 104.593617)

LINESTRING (173.359784 175.873955, 175.756337 177.790873)

LINESTRING (173.359784 175.873955, 143.026657 109.916419)

LINESTRING (173.359784 175.873955, 151.616618 156.088920)

LINESTRING (173.359784 175.873955, 143.347877 174.766234)

LINESTRING (173.359784 175.873955, 131.045894 166.614306)

LINESTRING (173.359784 175.873955, 139.350410 100.033606)

LINESTRING (173.359784 175.873955, 129.588644 160.902354)

LINESTRING (173.359784 175.873955, 177.473280 104.514670)

LINESTRING (173.359784 175.873955, 117.542810 179.193497)

LINESTRING (173.359784 175.873955, 162.262972 103.380405)

LINESTRING (173.359784 175.873955, 178.946937 174.082256)

LINESTRING (173.359784 175.873955, 106.428606 155.114163)

LINESTRING (173.359784 175.873955, 117.972938 103.760470)

LINESTRING (173.359784 175.873955, 146.184912 125.325582)

LINESTRING (173.359784 175.873955, 104.527608 123.817883)

LINESTRING (173.359784 175.873955, 116.713395 109.617966)

LINESTRING (173.359784 175.873955, 148.671440 121.668956)

LINESTRING (150.846897 104.593617, 177.488326 105.157476)

LINESTRING (150.846897 104.593617, 175.537309 151.480421)

LINESTRING (150.846897 104.593617, 151.616618 156.088920)

LINESTRING (150.846897 104.593617, 155.142377 162.093514)

LINESTRING (150.846897 104.593617, 161.355640 157.589085)

LINESTRING (150.846897 104.593617, 143.347877 174.766234)

LINESTRING (150.846897 104.593617, 118.100518 168.676864)

LINESTRING (150.846897 104.593617, 139.350410 100.033606)

LINESTRING (150.846897 104.593617, 136.132048 107.559997)

LINESTRING (150.846897 104.593617, 100.250482 143.857225)

LINESTRING (150.846897 104.593617, 149.664604 162.842406)

LINESTRING (150.846897 104.593617, 127.808339 149.883316)

LINESTRING (150.846897 104.593617, 149.054468 149.844954)

LINESTRING (150.846897 104.593617, 114.929785 130.981602)

LINESTRING (150.846897 104.593617, 162.262972 103.380405)

LINESTRING (150.846897 104.593617, 110.718311 169.180115)

LINESTRING (150.846897 104.593617, 173.515920 178.327325)

LINESTRING (150.846897 104.593617, 165.186954 137.320322)

LINESTRING (150.846897 104.593617, 117.972938 103.760470)

LINESTRING (150.846897 104.593617, 145.709915 147.038130)

LINESTRING (150.846897 104.593617, 149.893106 109.467870)

LINESTRING (150.846897 104.593617, 103.368550 102.260355)

LINESTRING (150.846897 104.593617, 151.885525 115.712798)

LINESTRING (150.846897 104.593617, 124.888685 107.469513)

LINESTRING (150.846897 104.593617, 137.886331 136.379026)

LINESTRING (175.756337 177.790873, 155.142377 162.093514)

LINESTRING (175.756337 177.790873, 143.347877 174.766234)

LINESTRING (175.756337 177.790873, 118.100518 168.676864)

LINESTRING (175.756337 177.790873, 139.350410 100.033606)

LINESTRING (175.756337 177.790873, 160.421639 105.908373)

LINESTRING (175.756337 177.790873, 125.092803 140.055243)

LINESTRING (175.756337 177.790873, 127.808339 149.883316)

LINESTRING (175.756337 177.790873, 107.527600 114.266918)

LINESTRING (175.756337 177.790873, 147.512132 139.893013)

LINESTRING (175.756337 177.790873, 120.894136 124.238961)

LINESTRING (175.756337 177.790873, 173.515920 178.327325)

LINESTRING (175.756337 177.790873, 106.428606 155.114163)

LINESTRING (175.756337 177.790873, 165.186954 137.320322)

LINESTRING (175.756337 177.790873, 173.223943 136.830344)

LINESTRING (175.756337 177.790873, 146.184912 125.325582)

LINESTRING (175.756337 177.790873, 116.713395 109.617966)

LINESTRING (143.026657 109.916419, 151.080588 177.889125)

LINESTRING (143.026657 109.916419, 151.616618 156.088920)

LINESTRING (143.026657 109.916419, 143.347877 174.766234)

LINESTRING (143.026657 109.916419, 148.989445 169.730248)

LINESTRING (143.026657 109.916419, 129.588644 160.902354)

LINESTRING (143.026657 109.916419, 136.132048 107.559997)

LINESTRING (143.026657 109.916419, 125.092803 140.055243)

LINESTRING (143.026657 109.916419, 100.250482 143.857225)

LINESTRING (143.026657 109.916419, 127.808339 149.883316)

LINESTRING (143.026657 109.916419, 149.054468 149.844954)

LINESTRING (143.026657 109.916419, 110.148745 114.515811)

LINESTRING (143.026657 109.916419, 107.527600 114.266918)

LINESTRING (143.026657 109.916419, 117.542810 179.193497)

LINESTRING (143.026657 109.916419, 178.946937 174.082256)

LINESTRING (143.026657 109.916419, 120.894136 124.238961)

LINESTRING (143.026657 109.916419, 173.515920 178.327325)

LINESTRING (143.026657 109.916419, 117.972938 103.760470)

LINESTRING (143.026657 109.916419, 133.429188 172.115328)

LINESTRING (143.026657 109.916419, 110.266127 141.408667)

LINESTRING (143.026657 109.916419, 171.418081 165.313159)

LINESTRING (174.440000 140.090421, 175.537309 151.480421)

LINESTRING (174.440000 140.090421, 151.616618 156.088920)

LINESTRING (174.440000 140.090421, 161.355640 157.589085)

LINESTRING (174.440000 140.090421, 118.100518 168.676864)

LINESTRING (174.440000 140.090421, 139.350410 100.033606)

LINESTRING (174.440000 140.090421, 148.989445 169.730248)

LINESTRING (174.440000 140.090421, 129.588644 160.902354)

LINESTRING (174.440000 140.090421, 160.421639 105.908373)

LINESTRING (174.440000 140.090421, 125.092803 140.055243)

LINESTRING (174.440000 140.090421, 100.250482 143.857225)

LINESTRING (174.440000 140.090421, 149.054468 149.844954)

LINESTRING (174.440000 140.090421, 110.148745 114.515811)

LINESTRING (174.440000 140.090421, 117.542810 179.193497)

LINESTRING (174.440000 140.090421, 162.262972 103.380405)

LINESTRING (174.440000 140.090421, 178.946937 174.082256)

LINESTRING (174.440000 140.090421, 120.894136 124.238961)

LINESTRING (174.440000 140.090421, 173.515920 178.327325)

LINESTRING (174.440000 140.090421, 151.918621 124.760848)

LINESTRING (174.440000 140.090421, 165.186954 137.320322)

LINESTRING (174.440000 140.090421, 125.116271 105.227225)

LINESTRING (174.440000 140.090421, 145.709915 147.038130)

LINESTRING (174.440000 140.090421, 149.893106 109.467870)

LINESTRING (174.440000 140.090421, 103.368550 102.260355)

LINESTRING (174.440000 140.090421, 124.888685 107.469513)

LINESTRING (174.440000 140.090421, 110.266127 141.408667)

LINESTRING (174.440000 140.090421, 120.147614 104.741700)

LINESTRING (174.440000 140.090421, 148.671440 121.668956)

LINESTRING (174.440000 140.090421, 137.886331 136.379026)

LINESTRING (177.488326 105.157476, 175.537309 151.480421)

LINESTRING (177.488326 105.157476, 151.080588 177.889125)

LINESTRING (177.488326 105.157476, 143.347877 174.766234)

LINESTRING (177.488326 105.157476, 131.045894 166.614306)

LINESTRING (177.488326 105.157476, 129.588644 160.902354)

LINESTRING (177.488326 105.157476, 140.018596 163.262855)

LINESTRING (177.488326 105.157476, 149.664604 162.842406)

LINESTRING (177.488326 105.157476, 110.148745 114.515811)

LINESTRING (177.488326 105.157476, 107.527600 114.266918)

LINESTRING (177.488326 105.157476, 114.929785 130.981602)

LINESTRING (177.488326 105.157476, 162.262972 103.380405)

LINESTRING (177.488326 105.157476, 178.946937 174.082256)

LINESTRING (177.488326 105.157476, 147.512132 139.893013)

LINESTRING (177.488326 105.157476, 151.918621 124.760848)

LINESTRING (177.488326 105.157476, 165.186954 137.320322)

LINESTRING (177.488326 105.157476, 173.223943 136.830344)

LINESTRING (177.488326 105.157476, 117.972938 103.760470)

LINESTRING (177.488326 105.157476, 146.184912 125.325582)

LINESTRING (177.488326 105.157476, 133.429188 172.115328)

LINESTRING (177.488326 105.157476, 151.885525 115.712798)

LINESTRING (177.488326 105.157476, 148.671440 121.668956)

LINESTRING (175.537309 151.480421, 161.355640 157.589085)

LINESTRING (175.537309 151.480421, 140.018596 163.262855)

LINESTRING (175.537309 151.480421, 160.421639 105.908373)

LINESTRING (175.537309 151.480421, 136.132048 107.559997)

LINESTRING (175.537309 151.480421, 125.092803 140.055243)

LINESTRING (175.537309 151.480421, 155.166022 101.308639)

LINESTRING (175.537309 151.480421, 107.527600 114.266918)

LINESTRING (175.537309 151.480421, 162.262972 103.380405)

LINESTRING (175.537309 151.480421, 178.946937 174.082256)

LINESTRING (175.537309 151.480421, 120.894136 124.238961)

LINESTRING (175.537309 151.480421, 173.515920 178.327325)

LINESTRING (175.537309 151.480421, 151.918621 124.760848)

LINESTRING (175.537309 151.480421, 125.116271 105.227225)

LINESTRING (175.537309 151.480421, 117.972938 103.760470)

LINESTRING (175.537309 151.480421, 149.893106 109.467870)

LINESTRING (175.537309 151.480421, 104.527608 123.817883)

LINESTRING (175.537309 151.480421, 116.713395 109.617966)

LINESTRING (175.537309 151.480421, 151.885525 115.712798)

LINESTRING (175.537309 151.480421, 171.418081 165.313159)

LINESTRING (175.537309 151.480421, 148.671440 121.668956)

LINESTRING (172.303086 143.379347, 151.080588 177.889125)

LINESTRING (172.303086 143.379347, 161.355640 157.589085)

LINESTRING (172.303086 143.379347, 131.045894 166.614306)

LINESTRING (172.303086 143.379347, 118.100518 168.676864)

LINESTRING (172.303086 143.379347, 139.350410 100.033606)

LINESTRING (172.303086 143.379347, 140.018596 163.262855)

LINESTRING (172.303086 143.379347, 136.132048 107.559997)

LINESTRING (172.303086 143.379347, 125.092803 140.055243)

LINESTRING (172.303086 143.379347, 100.250482 143.857225)

LINESTRING (172.303086 143.379347, 149.664604 162.842406)

LINESTRING (172.303086 143.379347, 155.166022 101.308639)

LINESTRING (172.303086 143.379347, 107.527600 114.266918)

LINESTRING (172.303086 143.379347, 117.542810 179.193497)

LINESTRING (172.303086 143.379347, 162.262972 103.380405)

LINESTRING (172.303086 143.379347, 178.946937 174.082256)

LINESTRING (172.303086 143.379347, 120.894136 124.238961)

LINESTRING (172.303086 143.379347, 173.223943 136.830344)

LINESTRING (172.303086 143.379347, 117.972938 103.760470)

LINESTRING (172.303086 143.379347, 145.709915 147.038130)

LINESTRING (172.303086 143.379347, 146.184912 125.325582)

LINESTRING (172.303086 143.379347, 114.428366 119.031507)

LINESTRING (172.303086 143.379347, 151.885525 115.712798)

LINESTRING (172.303086 143.379347, 124.888685 107.469513)

LINESTRING (172.303086 143.379347, 110.266127 141.408667)

LINESTRING (172.303086 143.379347, 148.671440 121.668956)

LINESTRING (172.303086 143.379347, 111.336890 139.839524)

LINESTRING (172.303086 143.379347, 137.886331 136.379026)

LINESTRING (151.080588 177.889125, 155.142377 162.093514)

LINESTRING (151.080588 177.889125, 139.350410 100.033606)

LINESTRING (151.080588 177.889125, 129.588644 160.902354)

LINESTRING (151.080588 177.889125, 136.132048 107.559997)

LINESTRING (151.080588 177.889125, 149.054468 149.844954)

LINESTRING (151.080588 177.889125, 151.918621 124.760848)

LINESTRING (151.080588 177.889125, 173.223943 136.830344)

LINESTRING (151.080588 177.889125, 125.116271 105.227225)

LINESTRING (151.080588 177.889125, 116.713395 109.617966)

LINESTRING (151.080588 177.889125, 124.888685 107.469513)

LINESTRING (151.080588 177.889125, 110.266127 141.408667)

LINESTRING (151.080588 177.889125, 120.147614 104.741700)

LINESTRING (151.080588 177.889125, 111.336890 139.839524)

LINESTRING (151.080588 177.889125, 137.886331 136.379026)

LINESTRING (151.616618 156.088920, 155.142377 162.093514)

LINESTRING (151.616618 156.088920, 131.045894 166.614306)

LINESTRING (151.616618 156.088920, 160.421639 105.908373)

LINESTRING (151.616618 156.088920, 100.250482 143.857225)

LINESTRING (151.616618 156.088920, 127.808339 149.883316)

LINESTRING (151.616618 156.088920, 177.473280 104.514670)

LINESTRING (151.616618 156.088920, 149.054468 149.844954)

LINESTRING (151.616618 156.088920, 110.718311 169.180115)

LINESTRING (151.616618 156.088920, 106.428606 155.114163)

LINESTRING (151.616618 156.088920, 165.186954 137.320322)

LINESTRING (151.616618 156.088920, 173.223943 136.830344)

LINESTRING (151.616618 156.088920, 117.972938 103.760470)

LINESTRING (151.616618 156.088920, 146.184912 125.325582)

LINESTRING (151.616618 156.088920, 116.713395 109.617966)

LINESTRING (151.616618 156.088920, 103.368550 102.260355)

LINESTRING (151.616618 156.088920, 110.266127 141.408667)

LINESTRING (151.616618 156.088920, 171.418081 165.313159)

LINESTRING (151.616618 156.088920, 120.147614 104.741700)

LINESTRING (151.616618 156.088920, 148.671440 121.668956)

LINESTRING (151.616618 156.088920, 111.336890 139.839524)

LINESTRING (155.142377 162.093514, 161.355640 157.589085)

LINESTRING (155.142377 162.093514, 131.045894 166.614306)

LINESTRING (155.142377 162.093514, 118.100518 168.676864)

LINESTRING (155.142377 162.093514, 139.350410 100.033606)

LINESTRING (155.142377 162.093514, 148.989445 169.730248)

LINESTRING (155.142377 162.093514, 160.421639 105.908373)

LINESTRING (155.142377 162.093514, 136.132048 107.559997)

LINESTRING (155.142377 162.093514, 149.664604 162.842406)

LINESTRING (155.142377 162.093514, 127.808339 149.883316)

LINESTRING (155.142377 162.093514, 155.166022 101.308639)

LINESTRING (155.142377 162.093514, 110.718311 169.180115)

LINESTRING (155.142377 162.093514, 106.428606 155.114163)

LINESTRING (155.142377 162.093514, 165.186954 137.320322)

LINESTRING (155.142377 162.093514, 117.972938 103.760470)

LINESTRING (155.142377 162.093514, 149.893106 109.467870)

LINESTRING (155.142377 162.093514, 104.527608 123.817883)

LINESTRING (155.142377 162.093514, 116.713395 109.617966)

LINESTRING (155.142377 162.093514, 133.429188 172.115328)

LINESTRING (155.142377 162.093514, 103.368550 102.260355)

LINESTRING (155.142377 162.093514, 110.266127 141.408667)

LINESTRING (155.142377 162.093514, 120.147614 104.741700)

LINESTRING (155.142377 162.093514, 111.336890 139.839524)

LINESTRING (161.355640 157.589085, 143.347877 174.766234)

LINESTRING (161.355640 157.589085, 148.989445 169.730248)

LINESTRING (161.355640 157.589085, 140.018596 163.262855)

LINESTRING (161.355640 157.589085, 160.421639 105.908373)

LINESTRING (161.355640 157.589085, 149.664604 162.842406)

LINESTRING (161.355640 157.589085, 110.148745 114.515811)

LINESTRING (161.355640 157.589085, 107.527600 114.266918)

LINESTRING (161.355640 157.589085, 162.262972 103.380405)

LINESTRING (161.355640 157.589085, 147.512132 139.893013)

LINESTRING (161.355640 157.589085, 106.428606 155.114163)

LINESTRING (161.355640 157.589085, 151.918621 124.760848)

LINESTRING (161.355640 157.589085, 173.223943 136.830344)

LINESTRING (161.355640 157.589085, 117.972938 103.760470)

LINESTRING (161.355640 157.589085, 146.184912 125.325582)

LINESTRING (161.355640 157.589085, 116.713395 109.617966)

LINESTRING (161.355640 157.589085, 103.368550 102.260355)

LINESTRING (161.355640 157.589085, 120.147614 104.741700)

LINESTRING (143.347877 174.766234, 139.350410 100.033606)

LINESTRING (143.347877 174.766234, 127.808339 149.883316)

LINESTRING (143.347877 174.766234, 155.166022 101.308639)

LINESTRING (143.347877 174.766234, 178.946937 174.082256)

LINESTRING (143.347877 174.766234, 120.894136 124.238961)

LINESTRING (143.347877 174.766234, 151.918621 124.760848)

LINESTRING (143.347877 174.766234, 165.186954 137.320322)

LINESTRING (143.347877 174.766234, 173.223943 136.830344)

LINESTRING (143.347877 174.766234, 117.972938 103.760470)

LINESTRING (143.347877 174.766234, 149.893106 109.467870)

LINESTRING (143.347877 174.766234, 104.527608 123.817883)

LINESTRING (143.347877 174.766234, 151.885525 115.712798)

LINESTRING (143.347877 174.766234, 148.671440 121.668956)

LINESTRING (143.347877 174.766234, 111.336890 139.839524)

LINESTRING (143.347877 174.766234, 137.886331 136.379026)

LINESTRING (131.045894 166.614306, 139.350410 100.033606)

LINESTRING (131.045894 166.614306, 148.989445 169.730248)

LINESTRING (131.045894 166.614306, 160.421639 105.908373)

LINESTRING (131.045894 166.614306, 100.250482 143.857225)

LINESTRING (131.045894 166.614306, 149.664604 162.842406)

LINESTRING (131.045894 166.614306, 127.808339 149.883316)

LINESTRING (131.045894 166.614306, 177.473280 104.514670)

LINESTRING (131.045894 166.614306, 155.166022 101.308639)

LINESTRING (131.045894 166.614306, 117.542810 179.193497)

LINESTRING (131.045894 166.614306, 114.929785 130.981602)

LINESTRING (131.045894 166.614306, 178.946937 174.082256)

LINESTRING (131.045894 166.614306, 110.718311 169.180115)

LINESTRING (131.045894 166.614306, 165.186954 137.320322)

LINESTRING (131.045894 166.614306, 173.223943 136.830344)

LINESTRING (131.045894 166.614306, 117.972938 103.760470)

LINESTRING (131.045894 166.614306, 145.709915 147.038130)

LINESTRING (131.045894 166.614306, 149.893106 109.467870)

LINESTRING (131.045894 166.614306, 103.368550 102.260355)

LINESTRING (131.045894 166.614306, 151.885525 115.712798)

LINESTRING (131.045894 166.614306, 120.147614 104.741700)

LINESTRING (131.045894 166.614306, 148.671440 121.668956)

LINESTRING (131.045894 166.614306, 137.886331 136.379026)

LINESTRING (118.100518 168.676864, 148.989445 169.730248)

LINESTRING (118.100518 168.676864, 129.588644 160.902354)

LINESTRING (118.100518 168.676864, 140.018596 163.262855)

LINESTRING (118.100518 168.676864, 160.421639 105.908373)

LINESTRING (118.100518 168.676864, 149.664604 162.842406)

LINESTRING (118.100518 168.676864, 177.473280 104.514670)

LINESTRING (118.100518 168.676864, 107.527600 114.266918)

LINESTRING (118.100518 168.676864, 162.262972 103.380405)

LINESTRING (118.100518 168.676864, 178.946937 174.082256)

LINESTRING (118.100518 168.676864, 110.718311 169.180115)

LINESTRING (118.100518 168.676864, 151.918621 124.760848)

LINESTRING (118.100518 168.676864, 117.972938 103.760470)

LINESTRING (118.100518 168.676864, 146.184912 125.325582)

LINESTRING (118.100518 168.676864, 149.893106 109.467870)

LINESTRING (118.100518 168.676864, 114.428366 119.031507)

LINESTRING (118.100518 168.676864, 103.368550 102.260355)

LINESTRING (118.100518 168.676864, 151.885525 115.712798)

LINESTRING (118.100518 168.676864, 124.888685 107.469513)

LINESTRING (118.100518 168.676864, 110.266127 141.408667)

LINESTRING (118.100518 168.676864, 120.147614 104.741700)

LINESTRING (118.100518 168.676864, 137.886331 136.379026)

LINESTRING (139.350410 100.033606, 148.989445 169.730248)

LINESTRING (139.350410 100.033606, 160.421639 105.908373)

LINESTRING (139.350410 100.033606, 136.132048 107.559997)

LINESTRING (139.350410 100.033606, 125.092803 140.055243)

LINESTRING (139.350410 100.033606, 100.250482 143.857225)

LINESTRING (139.350410 100.033606, 155.166022 101.308639)

LINESTRING (139.350410 100.033606, 107.527600 114.266918)

LINESTRING (139.350410 100.033606, 114.929785 130.981602)

LINESTRING (139.350410 100.033606, 162.262972 103.380405)

LINESTRING (139.350410 100.033606, 147.512132 139.893013)

LINESTRING (139.350410 100.033606, 173.223943 136.830344)

LINESTRING (139.350410 100.033606, 145.709915 147.038130)

LINESTRING (139.350410 100.033606, 124.888685 107.469513)

LINESTRING (139.350410 100.033606, 137.886331 136.379026)

LINESTRING (148.989445 169.730248, 129.588644 160.902354)

LINESTRING (148.989445 169.730248, 140.018596 163.262855)

LINESTRING (148.989445 169.730248, 160.421639 105.908373)

LINESTRING (148.989445 169.730248, 100.250482 143.857225)

LINESTRING (148.989445 169.730248, 177.473280 104.514670)

LINESTRING (148.989445 169.730248, 149.054468 149.844954)

LINESTRING (148.989445 169.730248, 155.166022 101.308639)

LINESTRING (148.989445 169.730248, 110.148745 114.515811)

LINESTRING (148.989445 169.730248, 162.262972 103.380405)

LINESTRING (148.989445 169.730248, 178.946937 174.082256)

LINESTRING (148.989445 169.730248, 120.894136 124.238961)

LINESTRING (148.989445 169.730248, 110.718311 169.180115)

LINESTRING (148.989445 169.730248, 173.515920 178.327325)

LINESTRING (148.989445 169.730248, 125.116271 105.227225)

LINESTRING (148.989445 169.730248, 117.972938 103.760470)

LINESTRING (148.989445 169.730248, 145.709915 147.038130)

LINESTRING (148.989445 169.730248, 146.184912 125.325582)

LINESTRING (148.989445 169.730248, 149.893106 109.467870)

LINESTRING (148.989445 169.730248, 104.527608 123.817883)

LINESTRING (148.989445 169.730248, 103.368550 102.260355)

LINESTRING (148.989445 169.730248, 120.147614 104.741700)

LINESTRING (129.588644 160.902354, 160.421639 105.908373)

LINESTRING (129.588644 160.902354, 127.808339 149.883316)

LINESTRING (129.588644 160.902354, 149.054468 149.844954)

LINESTRING (129.588644 160.902354, 155.166022 101.308639)

LINESTRING (129.588644 160.902354, 110.148745 114.515811)

LINESTRING (129.588644 160.902354, 107.527600 114.266918)

LINESTRING (129.588644 160.902354, 114.929785 130.981602)

LINESTRING (129.588644 160.902354, 120.894136 124.238961)

LINESTRING (129.588644 160.902354, 110.718311 169.180115)

LINESTRING (129.588644 160.902354, 106.428606 155.114163)

LINESTRING (129.588644 160.902354, 151.918621 124.760848)

LINESTRING (129.588644 160.902354, 173.223943 136.830344)

LINESTRING (129.588644 160.902354, 117.972938 103.760470)

LINESTRING (129.588644 160.902354, 146.184912 125.325582)

LINESTRING (129.588644 160.902354, 149.893106 109.467870)

LINESTRING (129.588644 160.902354, 104.527608 123.817883)

LINESTRING (129.588644 160.902354, 114.428366 119.031507)

LINESTRING (129.588644 160.902354, 116.713395 109.617966)

LINESTRING (129.588644 160.902354, 133.429188 172.115328)

LINESTRING (129.588644 160.902354, 103.368550 102.260355)

LINESTRING (129.588644 160.902354, 124.888685 107.469513)

LINESTRING (129.588644 160.902354, 171.418081 165.313159)

LINESTRING (129.588644 160.902354, 148.671440 121.668956)

LINESTRING (140.018596 163.262855, 160.421639 105.908373)

LINESTRING (140.018596 163.262855, 149.664604 162.842406)

LINESTRING (140.018596 163.262855, 149.054468 149.844954)

LINESTRING (140.018596 163.262855, 155.166022 101.308639)

LINESTRING (140.018596 163.262855, 114.929785 130.981602)

LINESTRING (140.018596 163.262855, 162.262972 103.380405)

LINESTRING (140.018596 163.262855, 178.946937 174.082256)

LINESTRING (140.018596 163.262855, 147.512132 139.893013)

LINESTRING (140.018596 163.262855, 120.894136 124.238961)

LINESTRING (140.018596 163.262855, 151.918621 124.760848)

LINESTRING (140.018596 163.262855, 173.223943 136.830344)

LINESTRING (140.018596 163.262855, 117.972938 103.760470)

LINESTRING (140.018596 163.262855, 133.429188 172.115328)

LINESTRING (140.018596 163.262855, 103.368550 102.260355)

LINESTRING (140.018596 163.262855, 124.888685 107.469513)

LINESTRING (140.018596 163.262855, 148.671440 121.668956)

LINESTRING (160.421639 105.908373, 100.250482 143.857225)

LINESTRING (160.421639 105.908373, 127.808339 149.883316)

LINESTRING (160.421639 105.908373, 117.542810 179.193497)

LINESTRING (160.421639 105.908373, 114.929785 130.981602)

LINESTRING (160.421639 105.908373, 162.262972 103.380405)

LINESTRING (160.421639 105.908373, 120.894136 124.238961)

LINESTRING (160.421639 105.908373, 117.972938 103.760470)

LINESTRING (160.421639 105.908373, 146.184912 125.325582)

LINESTRING (160.421639 105.908373, 116.713395 109.617966)

LINESTRING (160.421639 105.908373, 103.368550 102.260355)

LINESTRING (160.421639 105.908373, 124.888685 107.469513)

LINESTRING (160.421639 105.908373, 120.147614 104.741700)

LINESTRING (136.132048 107.559997, 149.664604 162.842406)

LINESTRING (136.132048 107.559997, 127.808339 149.883316)

LINESTRING (136.132048 107.559997, 149.054468 149.844954)

LINESTRING (136.132048 107.559997, 155.166022 101.308639)

LINESTRING (136.132048 107.559997, 110.148745 114.515811)

LINESTRING (136.132048 107.559997, 107.527600 114.266918)

LINESTRING (136.132048 107.559997, 117.542810 179.193497)

LINESTRING (136.132048 107.559997, 114.929785 130.981602)

LINESTRING (136.132048 107.559997, 162.262972 103.380405)

LINESTRING (136.132048 107.559997, 147.512132 139.893013)

LINESTRING (136.132048 107.559997, 110.718311 169.180115)

LINESTRING (136.132048 107.559997, 106.428606 155.114163)

LINESTRING (136.132048 107.559997, 117.972938 103.760470)

LINESTRING (136.132048 107.559997, 114.428366 119.031507)

LINESTRING (136.132048 107.559997, 124.888685 107.469513)

LINESTRING (136.132048 107.559997, 110.266127 141.408667)

LINESTRING (136.132048 107.559997, 171.418081 165.313159)

LINESTRING (136.132048 107.559997, 120.147614 104.741700)

LINESTRING (136.132048 107.559997, 148.671440 121.668956)

LINESTRING (136.132048 107.559997, 111.336890 139.839524)

LINESTRING (136.132048 107.559997, 137.886331 136.379026)

LINESTRING (125.092803 140.055243, 127.808339 149.883316)

LINESTRING (125.092803 140.055243, 177.473280 104.514670)

LINESTRING (125.092803 140.055243, 110.148745 114.515811)

LINESTRING (125.092803 140.055243, 117.542810 179.193497)

LINESTRING (125.092803 140.055243, 114.929785 130.981602)

LINESTRING (125.092803 140.055243, 120.894136 124.238961)

LINESTRING (125.092803 140.055243, 173.515920 178.327325)

LINESTRING (125.092803 140.055243, 106.428606 155.114163)

LINESTRING (125.092803 140.055243, 165.186954 137.320322)

LINESTRING (125.092803 140.055243, 145.709915 147.038130)

LINESTRING (125.092803 140.055243, 146.184912 125.325582)

LINESTRING (125.092803 140.055243, 114.428366 119.031507)

LINESTRING (125.092803 140.055243, 116.713395 109.617966)

LINESTRING (125.092803 140.055243, 133.429188 172.115328)

LINESTRING (125.092803 140.055243, 120.147614 104.741700)

LINESTRING (100.250482 143.857225, 149.664604 162.842406)

LINESTRING (100.250482 143.857225, 127.808339 149.883316)

LINESTRING (100.250482 143.857225, 149.054468 149.844954)

LINESTRING (100.250482 143.857225, 110.148745 114.515811)

LINESTRING (100.250482 143.857225, 117.542810 179.193497)

LINESTRING (100.250482 143.857225, 178.946937 174.082256)

LINESTRING (100.250482 143.857225, 147.512132 139.893013)

LINESTRING (100.250482 143.857225, 120.894136 124.238961)

LINESTRING (100.250482 143.857225, 165.186954 137.320322)

LINESTRING (100.250482 143.857225, 173.223943 136.830344)

LINESTRING (100.250482 143.857225, 145.709915 147.038130)

LINESTRING (100.250482 143.857225, 146.184912 125.325582)

LINESTRING (100.250482 143.857225, 149.893106 109.467870)

LINESTRING (100.250482 143.857225, 114.428366 119.031507)

LINESTRING (100.250482 143.857225, 116.713395 109.617966)

LINESTRING (100.250482 143.857225, 171.418081 165.313159)

LINESTRING (100.250482 143.857225, 148.671440 121.668956)

LINESTRING (149.664604 162.842406, 127.808339 149.883316)

LINESTRING (149.664604 162.842406, 107.527600 114.266918)

LINESTRING (149.664604 162.842406, 117.542810 179.193497)

LINESTRING (149.664604 162.842406, 120.894136 124.238961)

LINESTRING (149.664604 162.842406, 110.718311 169.180115)

LINESTRING (149.664604 162.842406, 173.515920 178.327325)

LINESTRING (149.664604 162.842406, 151.918621 124.760848)

LINESTRING (149.664604 162.842406, 165.186954 137.320322)

LINESTRING (149.664604 162.842406, 125.116271 105.227225)

LINESTRING (149.664604 162.842406, 145.709915 147.038130)

LINESTRING (149.664604 162.842406, 104.527608 123.817883)

LINESTRING (149.664604 162.842406, 114.428366 119.031507)

LINESTRING (149.664604 162.842406, 116.713395 109.617966)

LINESTRING (149.664604 162.842406, 133.429188 172.115328)

LINESTRING (149.664604 162.842406, 124.888685 107.469513)

LINESTRING (127.808339 149.883316, 177.473280 104.514670)

LINESTRING (127.808339 149.883316, 117.542810 179.193497)

LINESTRING (127.808339 149.883316, 114.929785 130.981602)

LINESTRING (127.808339 149.883316, 147.512132 139.893013)

LINESTRING (127.808339 149.883316, 106.428606 155.114163)

LINESTRING (127.808339 149.883316, 117.972938 103.760470)

LINESTRING (127.808339 149.883316, 116.713395 109.617966)

LINESTRING (127.808339 149.883316, 103.368550 102.260355)

LINESTRING (127.808339 149.883316, 124.888685 107.469513)

LINESTRING (127.808339 149.883316, 171.418081 165.313159)

LINESTRING (177.473280 104.514670, 149.054468 149.844954)

LINESTRING (177.473280 104.514670, 178.946937 174.082256)

LINESTRING (177.473280 104.514670, 110.718311 169.180115)

LINESTRING (177.473280 104.514670, 151.918621 124.760848)

LINESTRING (177.473280 104.514670, 173.223943 136.830344)

LINESTRING (177.473280 104.514670, 125.116271 105.227225)

LINESTRING (177.473280 104.514670, 146.184912 125.325582)

LINESTRING (177.473280 104.514670, 116.713395 109.617966)

LINESTRING (177.473280 104.514670, 124.888685 107.469513)

LINESTRING (177.473280 104.514670, 110.266127 141.408667)

LINESTRING (177.473280 104.514670, 171.418081 165.313159)

LINESTRING (177.473280 104.514670, 148.671440 121.668956)

LINESTRING (177.473280 104.514670, 111.336890 139.839524)

LINESTRING (177.473280 104.514670, 137.886331 136.379026)

LINESTRING (149.054468 149.844954, 110.148745 114.515811)

LINESTRING (149.054468 149.844954, 117.542810 179.193497)

LINESTRING (149.054468 149.844954, 178.946937 174.082256)

LINESTRING (149.054468 149.844954, 147.512132 139.893013)

LINESTRING (149.054468 149.844954, 120.894136 124.238961)

LINESTRING (149.054468 149.844954, 173.515920 178.327325)

LINESTRING (149.054468 149.844954, 106.428606 155.114163)

LINESTRING (149.054468 149.844954, 165.186954 137.320322)

LINESTRING (149.054468 149.844954, 117.972938 103.760470)

LINESTRING (149.054468 149.844954, 146.184912 125.325582)

LINESTRING (149.054468 149.844954, 149.893106 109.467870)

LINESTRING (149.054468 149.844954, 104.527608 123.817883)

LINESTRING (149.054468 149.844954, 124.888685 107.469513)

LINESTRING (149.054468 149.844954, 110.266127 141.408667)

LINESTRING (149.054468 149.844954, 120.147614 104.741700)

LINESTRING (155.166022 101.308639, 107.527600 114.266918)

LINESTRING (155.166022 101.308639, 114.929785 130.981602)

LINESTRING (155.166022 101.308639, 178.946937 174.082256)

LINESTRING (155.166022 101.308639, 120.894136 124.238961)

LINESTRING (155.166022 101.308639, 110.718311 169.180115)

LINESTRING (155.166022 101.308639, 173.515920 178.327325)

LINESTRING (155.166022 101.308639, 106.428606 155.114163)

LINESTRING (155.166022 101.308639, 104.527608 123.817883)

LINESTRING (155.166022 101.308639, 116.713395 109.617966)

LINESTRING (155.166022 101.308639, 133.429188 172.115328)

LINESTRING (155.166022 101.308639, 110.266127 141.408667)

LINESTRING (155.166022 101.308639, 120.147614 104.741700)

LINESTRING (155.166022 101.308639, 137.886331 136.379026)

LINESTRING (110.148745 114.515811, 162.262972 103.380405)

LINESTRING (110.148745 114.515811, 120.894136 124.238961)

LINESTRING (110.148745 114.515811, 173.515920 178.327325)

LINESTRING (110.148745 114.515811, 173.223943 136.830344)

LINESTRING (110.148745 114.515811, 125.116271 105.227225)

LINESTRING (110.148745 114.515811, 116.713395 109.617966)

LINESTRING (110.148745 114.515811, 133.429188 172.115328)

LINESTRING (110.148745 114.515811, 103.368550 102.260355)

LINESTRING (110.148745 114.515811, 124.888685 107.469513)

LINESTRING (110.148745 114.515811, 120.147614 104.741700)

LINESTRING (110.148745 114.515811, 148.671440 121.668956)

LINESTRING (110.148745 114.515811, 111.336890 139.839524)

LINESTRING (107.527600 114.266918, 114.929785 130.981602)

LINESTRING (107.527600 114.266918, 162.262972 103.380405)

LINESTRING (107.527600 114.266918, 178.946937 174.082256)

LINESTRING (107.527600 114.266918, 110.718311 169.180115)

LINESTRING (107.527600 114.266918, 106.428606 155.114163)

LINESTRING (107.527600 114.266918, 173.223943 136.830344)

LINESTRING (107.527600 114.266918, 117.972938 103.760470)

LINESTRING (107.527600 114.266918, 145.709915 147.038130)

LINESTRING (107.527600 114.266918, 114.428366 119.031507)

LINESTRING (107.527600 114.266918, 133.429188 172.115328)

LINESTRING (107.527600 114.266918, 103.368550 102.260355)

LINESTRING (107.527600 114.266918, 171.418081 165.313159)

LINESTRING (107.527600 114.266918, 111.336890 139.839524)

LINESTRING (107.527600 114.266918, 137.886331 136.379026)

LINESTRING (117.542810 179.193497, 110.718311 169.180115)

LINESTRING (117.542810 179.193497, 173.515920 178.327325)

LINESTRING (117.542810 179.193497, 165.186954 137.320322)

LINESTRING (117.542810 179.193497, 146.184912 125.325582)

LINESTRING (117.542810 179.193497, 104.527608 123.817883)

LINESTRING (117.542810 179.193497, 116.713395 109.617966)

LINESTRING (117.542810 179.193497, 133.429188 172.115328)

LINESTRING (117.542810 179.193497, 148.671440 121.668956)

LINESTRING (117.542810 179.193497, 137.886331 136.379026)

LINESTRING (114.929785 130.981602, 147.512132 139.893013)

LINESTRING (114.929785 130.981602, 173.515920 178.327325)

LINESTRING (114.929785 130.981602, 117.972938 103.760470)

LINESTRING (114.929785 130.981602, 124.888685 107.469513)

LINESTRING (114.929785 130.981602, 111.336890 139.839524)

LINESTRING (162.262972 103.380405, 178.946937 174.082256)

LINESTRING (162.262972 103.380405, 173.515920 178.327325)

LINESTRING (162.262972 103.380405, 165.186954 137.320322)

LINESTRING (162.262972 103.380405, 125.116271 105.227225)

LINESTRING (162.262972 103.380405, 117.972938 103.760470)

LINESTRING (162.262972 103.380405, 146.184912 125.325582)

LINESTRING (162.262972 103.380405, 103.368550 102.260355)

LINESTRING (162.262972 103.380405, 151.885525 115.712798)

LINESTRING (162.262972 103.380405, 110.266127 141.408667)

LINESTRING (162.262972 103.380405, 120.147614 104.741700)

LINESTRING (162.262972 103.380405, 137.886331 136.379026)

LINESTRING (178.946937 174.082256, 120.894136 124.238961)

LINESTRING (178.946937 174.082256, 173.515920 178.327325)

LINESTRING (178.946937 174.082256, 151.918621 124.760848)

LINESTRING (178.946937 174.082256, 165.186954 137.320322)

LINESTRING (178.946937 174.082256, 125.116271 105.227225)

LINESTRING (178.946937 174.082256, 146.184912 125.325582)

LINESTRING (178.946937 174.082256, 133.429188 172.115328)

LINESTRING (178.946937 174.082256, 151.885525 115.712798)

LINESTRING (178.946937 174.082256, 171.418081 165.313159)

LINESTRING (178.946937 174.082256, 148.671440 121.668956)

LINESTRING (147.512132 139.893013, 106.428606 155.114163)

LINESTRING (147.512132 139.893013, 165.186954 137.320322)

LINESTRING (147.512132 139.893013, 117.972938 103.760470)

LINESTRING (147.512132 139.893013, 114.428366 119.031507)

LINESTRING (147.512132 139.893013, 116.713395 109.617966)

LINESTRING (147.512132 139.893013, 133.429188 172.115328)

LINESTRING (147.512132 139.893013, 103.368550 102.260355)

LINESTRING (147.512132 139.893013, 120.147614 104.741700)

LINESTRING (147.512132 139.893013, 111.336890 139.839524)

LINESTRING (147.512132 139.893013, 137.886331 136.379026)

LINESTRING (120.894136 124.238961, 117.972938 103.760470)

LINESTRING (120.894136 124.238961, 149.893106 109.467870)

LINESTRING (120.894136 124.238961, 116.713395 109.617966)

LINESTRING (120.894136 124.238961, 151.885525 115.712798)

LINESTRING (120.894136 124.238961, 124.888685 107.469513)

LINESTRING (120.894136 124.238961, 110.266127 141.408667)

LINESTRING (120.894136 124.238961, 120.147614 104.741700)

LINESTRING (120.894136 124.238961, 137.886331 136.379026)

LINESTRING (110.718311 169.180115, 151.918621 124.760848)

LINESTRING (110.718311 169.180115, 165.186954 137.320322)

LINESTRING (110.718311 169.180115, 117.972938 103.760470)

LINESTRING (110.718311 169.180115, 149.893106 109.467870)

LINESTRING (110.718311 169.180115, 104.527608 123.817883)

LINESTRING (110.718311 169.180115, 110.266127 141.408667)

LINESTRING (110.718311 169.180115, 148.671440 121.668956)

LINESTRING (110.718311 169.180115, 137.886331 136.379026)

LINESTRING (173.515920 178.327325, 173.223943 136.830344)

LINESTRING (173.515920 178.327325, 145.709915 147.038130)

LINESTRING (173.515920 178.327325, 149.893106 109.467870)

LINESTRING (173.515920 178.327325, 114.428366 119.031507)

LINESTRING (173.515920 178.327325, 151.885525 115.712798)

LINESTRING (173.515920 178.327325, 124.888685 107.469513)

LINESTRING (173.515920 178.327325, 171.418081 165.313159)

LINESTRING (173.515920 178.327325, 120.147614 104.741700)

LINESTRING (106.428606 155.114163, 151.918621 124.760848)

LINESTRING (106.428606 155.114163, 165.186954 137.320322)

LINESTRING (106.428606 155.114163, 173.223943 136.830344)

LINESTRING (106.428606 155.114163, 125.116271 105.227225)

LINESTRING (106.428606 155.114163, 117.972938 103.760470)

LINESTRING (106.428606 155.114163, 104.527608 123.817883)

LINESTRING (106.428606 155.114163, 114.428366 119.031507)

LINESTRING (106.428606 155.114163, 171.418081 165.313159)

LINESTRING (106.428606 155.114163, 120.147614 104.741700)

LINESTRING (106.428606 155.114163, 111.336890 139.839524)

LINESTRING (151.918621 124.760848, 146.184912 125.325582)

LINESTRING (151.918621 124.760848, 103.368550 102.260355)

LINESTRING (151.918621 124.760848, 151.885525 115.712798)

LINESTRING (151.918621 124.760848, 137.886331 136.379026)

LINESTRING (165.186954 137.320322, 173.223943 136.830344)

LINESTRING (165.186954 137.320322, 125.116271 105.227225)

LINESTRING (165.186954 137.320322, 117.972938 103.760470)

LINESTRING (165.186954 137.320322, 146.184912 125.325582)

LINESTRING (165.186954 137.320322, 149.893106 109.467870)

LINESTRING (165.186954 137.320322, 116.713395 109.617966)

LINESTRING (165.186954 137.320322, 133.429188 172.115328)

LINESTRING (165.186954 137.320322, 103.368550 102.260355)

LINESTRING (165.186954 137.320322, 151.885525 115.712798)

LINESTRING (165.186954 137.320322, 124.888685 107.469513)

LINESTRING (165.186954 137.320322, 148.671440 121.668956)

LINESTRING (173.223943 136.830344, 125.116271 105.227225)

LINESTRING (173.223943 136.830344, 117.972938 103.760470)

LINESTRING (173.223943 136.830344, 146.184912 125.325582)

LINESTRING (173.223943 136.830344, 103.368550 102.260355)

LINESTRING (173.223943 136.830344, 110.266127 141.408667)

LINESTRING (125.116271 105.227225, 149.893106 109.467870)

LINESTRING (125.116271 105.227225, 116.713395 109.617966)

LINESTRING (125.116271 105.227225, 133.429188 172.115328)

LINESTRING (125.116271 105.227225, 103.368550 102.260355)

LINESTRING (125.116271 105.227225, 110.266127 141.408667)

LINESTRING (125.116271 105.227225, 120.147614 104.741700)

LINESTRING (125.116271 105.227225, 111.336890 139.839524)

LINESTRING (117.972938 103.760470, 146.184912 125.325582)

LINESTRING (117.972938 103.760470, 116.713395 109.617966)

LINESTRING (117.972938 103.760470, 133.429188 172.115328)

LINESTRING (117.972938 103.760470, 103.368550 102.260355)

LINESTRING (117.972938 103.760470, 151.885525 115.712798)

LINESTRING (117.972938 103.760470, 124.888685 107.469513)

LINESTRING (117.972938 103.760470, 148.671440 121.668956)

LINESTRING (145.709915 147.038130, 149.893106 109.467870)

LINESTRING (145.709915 147.038130, 116.713395 109.617966)

LINESTRING (145.709915 147.038130, 103.368550 102.260355)

LINESTRING (145.709915 147.038130, 151.885525 115.712798)

LINESTRING (145.709915 147.038130, 110.266127 141.408667)

LINESTRING (145.709915 147.038130, 120.147614 104.741700)

LINESTRING (145.709915 147.038130, 137.886331 136.379026)

LINESTRING (146.184912 125.325582, 104.527608 123.817883)

LINESTRING (146.184912 125.325582, 114.428366 119.031507)

LINESTRING (146.184912 125.325582, 116.713395 109.617966)

LINESTRING (146.184912 125.325582, 103.368550 102.260355)

LINESTRING (146.184912 125.325582, 110.266127 141.408667)

LINESTRING (146.184912 125.325582, 171.418081 165.313159)

LINESTRING (146.184912 125.325582, 120.147614 104.741700)

LINESTRING (149.893106 109.467870, 151.885525 115.712798)

LINESTRING (149.893106 109.467870, 124.888685 107.469513)

LINESTRING (149.893106 109.467870, 110.266127 141.408667)

LINESTRING (149.893106 109.467870, 171.418081 165.313159)

LINESTRING (149.893106 109.467870, 120.147614 104.741700)

LINESTRING (104.527608 123.817883, 124.888685 107.469513)

LINESTRING (104.527608 123.817883, 171.418081 165.313159)

LINESTRING (104.527608 123.817883, 120.147614 104.741700)

LINESTRING (104.527608 123.817883, 111.336890 139.839524)

LINESTRING (114.428366 119.031507, 133.429188 172.115328)

LINESTRING (114.428366 119.031507, 124.888685 107.469513)

LINESTRING (114.428366 119.031507, 110.266127 141.408667)

LINESTRING (116.713395 109.617966, 151.885525 115.712798)

LINESTRING (116.713395 109.617966, 171.418081 165.313159)

LINESTRING (116.713395 109.617966, 120.147614 104.741700)

LINESTRING (133.429188 172.115328, 103.368550 102.260355)

LINESTRING (133.429188 172.115328, 110.266127 141.408667)

LINESTRING (133.429188 172.115328, 111.336890 139.839524)

LINESTRING (103.368550 102.260355, 151.885525 115.712798)

LINESTRING (103.368550 102.260355, 124.888685 107.469513)

LINESTRING (103.368550 102.260355, 110.266127 141.408667)

LINESTRING (103.368550 102.260355, 111.336890 139.839524)

LINESTRING (103.368550 102.260355, 137.886331 136.379026)

LINESTRING (151.885525 115.712798, 124.888685 107.469513)

LINESTRING (151.885525 115.712798, 110.266127 141.408667)

LINESTRING (151.885525 115.712798, 171.418081 165.313159)

LINESTRING (151.885525 115.712798, 148.671440 121.668956)

LINESTRING (151.885525 115.712798, 111.336890 139.839524)

LINESTRING (124.888685 107.469513, 110.266127 141.408667)

LINESTRING (124.888685 107.469513, 148.671440 121.668956)

LINESTRING (110.266127 141.408667, 120.147614 104.741700)

LINESTRING (110.266127 141.408667, 148.671440 121.668956)

LINESTRING (171.418081 165.313159, 148.671440 121.668956)

LINESTRING (171.418081 165.313159, 137.886331 136.379026)

LINESTRING (493.940778 106.666444, 480.147050 154.121384)

LINESTRING (493.940778 106.666444, 480.513703 161.607782)

LINESTRING (493.940778 106.666444, 524.837516 122.252262)

LINESTRING (493.940778 106.666444, 464.774401 149.181513)

LINESTRING (493.940778 106.666444, 453.846681 117.483041)

LINESTRING (493.940778 106.666444, 478.829629 177.068947)

LINESTRING (493.940778 106.666444, 484.879044 122.826143)

LINESTRING (493.940778 106.666444, 466.722843 111.906341)

LINESTRING (493.940778 106.666444, 512.076550 158.075749)

LINESTRING (493.940778 106.666444, 466.133997 146.041123)

LINESTRING (493.940778 106.666444, 492.684632 160.849068)

LINESTRING (493.940778 106.666444, 516.118620 102.680590)

LINESTRING (493.940778 106.666444, 488.408722 149.628644)

LINESTRING (493.940778 106.666444, 523.087641 156.637838)

LINESTRING (493.940778 106.666444, 454.905364 103.639400)

LINESTRING (493.940778 106.666444, 466.811503 108.210473)

LINESTRING (493.940778 106.666444, 464.473591 111.620018)

LINESTRING (493.940778 106.666444, 453.899393 148.875562)

LINESTRING (493.940778 106.666444, 465.362247 140.551907)

LINESTRING (493.940778 106.666444, 525.529304 146.144237)

LINESTRING (493.940778 106.666444, 465.348463 156.934546)

LINESTRING (493.940778 106.666444, 460.547657 123.149261)

LINESTRING (493.940778 106.666444, 511.722389 104.735584)

LINESTRING (480.147050 154.121384, 480.513703 161.607782)

LINESTRING (480.147050 154.121384, 513.068475 173.290033)

LINESTRING (480.147050 154.121384, 464.774401 149.181513)

LINESTRING (480.147050 154.121384, 522.291294 100.092743)

LINESTRING (480.147050 154.121384, 471.195974 150.756176)

LINESTRING (480.147050 154.121384, 453.846681 117.483041)

LINESTRING (480.147050 154.121384, 521.484925 164.015342)

LINESTRING (480.147050 154.121384, 466.133997 146.041123)

LINESTRING (480.147050 154.121384, 465.017977 102.581432)

LINESTRING (480.147050 154.121384, 477.915903 141.311077)

LINESTRING (480.147050 154.121384, 465.755705 156.865040)

LINESTRING (480.147050 154.121384, 454.449783 139.674055)

LINESTRING (480.147050 154.121384, 472.130200 144.389742)

LINESTRING (480.147050 154.121384, 527.828610 140.630585)

LINESTRING (480.147050 154.121384, 450.995307 151.483446)

LINESTRING (480.147050 154.121384, 494.781828 138.267275)

LINESTRING (480.147050 154.121384, 458.127937 103.296950)

LINESTRING (480.147050 154.121384, 454.905364 103.639400)

LINESTRING (480.147050 154.121384, 489.850802 106.602377)

LINESTRING (480.147050 154.121384, 480.922938 157.562691)

LINESTRING (480.147050 154.121384, 465.560830 150.292595)

LINESTRING (480.147050 154.121384, 470.414004 169.204326)

LINESTRING (480.147050 154.121384, 529.390666 131.907611)

LINESTRING (480.147050 154.121384, 460.547657 123.149261)

LINESTRING (480.147050 154.121384, 511.722389 104.735584)

LINESTRING (480.513703 161.607782, 524.837516 122.252262)

LINESTRING (480.513703 161.607782, 513.068475 173.290033)

LINESTRING (480.513703 161.607782, 498.194935 127.161126)

LINESTRING (480.513703 161.607782, 470.891649 152.845416)

LINESTRING (480.513703 161.607782, 479.967247 105.007445)

LINESTRING (480.513703 161.607782, 512.076550 158.075749)

LINESTRING (480.513703 161.607782, 459.628076 177.282646)

LINESTRING (480.513703 161.607782, 465.017977 102.581432)

LINESTRING (480.513703 161.607782, 492.684632 160.849068)

LINESTRING (480.513703 161.607782, 516.118620 102.680590)

LINESTRING (480.513703 161.607782, 523.087641 156.637838)

LINESTRING (480.513703 161.607782, 512.043115 108.984864)

LINESTRING (480.513703 161.607782, 450.995307 151.483446)

LINESTRING (480.513703 161.607782, 458.127937 103.296950)

LINESTRING (480.513703 161.607782, 453.899393 148.875562)

LINESTRING (480.513703 161.607782, 465.362247 140.551907)

LINESTRING (480.513703 161.607782, 465.348463 156.934546)

LINESTRING (480.513703 161.607782, 477.448209 111.855327)

LINESTRING (480.513703 161.607782, 460.547657 123.149261)

LINESTRING (524.837516 122.252262, 450.485021 139.146808)

LINESTRING (524.837516 122.252262, 526.597480 168.484379)

LINESTRING (524.837516 122.252262, 513.068475 173.290033)

LINESTRING (524.837516 122.252262, 498.194935 127.161126)

LINESTRING (524.837516 122.252262, 464.774401 149.181513)

LINESTRING (524.837516 122.252262, 522.291294 100.092743)

LINESTRING (524.837516 122.252262, 471.195974 150.756176)

LINESTRING (524.837516 122.252262, 453.846681 117.483041)

LINESTRING (524.837516 122.252262, 465.017977 102.581432)

LINESTRING (524.837516 122.252262, 492.684632 160.849068)

LINESTRING (524.837516 122.252262, 465.755705 156.865040)

LINESTRING (524.837516 122.252262, 523.087641 156.637838)

LINESTRING (524.837516 122.252262, 507.662304 125.556336)

LINESTRING (524.837516 122.252262, 450.995307 151.483446)

LINESTRING (524.837516 122.252262, 465.560830 150.292595)

LINESTRING (524.837516 122.252262, 470.201757 116.224917)

LINESTRING (524.837516 122.252262, 453.899393 148.875562)

LINESTRING (524.837516 122.252262, 465.362247 140.551907)

LINESTRING (524.837516 122.252262, 460.547657 123.149261)

LINESTRING (524.837516 122.252262, 511.722389 104.735584)

LINESTRING (450.485021 139.146808, 513.068475 173.290033)

LINESTRING (450.485021 139.146808, 498.194935 127.161126)

LINESTRING (450.485021 139.146808, 464.774401 149.181513)

LINESTRING (450.485021 139.146808, 519.143235 127.359448)

LINESTRING (450.485021 139.146808, 478.829629 177.068947)

LINESTRING (450.485021 139.146808, 484.879044 122.826143)

LINESTRING (450.485021 139.146808, 521.484925 164.015342)

LINESTRING (450.485021 139.146808, 465.017977 102.581432)

LINESTRING (450.485021 139.146808, 492.684632 160.849068)

LINESTRING (450.485021 139.146808, 477.915903 141.311077)

LINESTRING (450.485021 139.146808, 516.855352 105.023051)

LINESTRING (450.485021 139.146808, 507.662304 125.556336)

LINESTRING (450.485021 139.146808, 512.043115 108.984864)

LINESTRING (450.485021 139.146808, 450.995307 151.483446)

LINESTRING (450.485021 139.146808, 454.905364 103.639400)

LINESTRING (450.485021 139.146808, 464.473591 111.620018)

LINESTRING (450.485021 139.146808, 480.922938 157.562691)

LINESTRING (450.485021 139.146808, 452.788830 110.682193)

LINESTRING (450.485021 139.146808, 470.201757 116.224917)

LINESTRING (450.485021 139.146808, 525.529304 146.144237)

LINESTRING (450.485021 139.146808, 465.348463 156.934546)

LINESTRING (450.485021 139.146808, 477.448209 111.855327)

LINESTRING (450.485021 139.146808, 478.734645 145.424071)

LINESTRING (526.597480 168.484379, 498.194935 127.161126)

LINESTRING (526.597480 168.484379, 522.291294 100.092743)

LINESTRING (526.597480 168.484379, 479.967247 105.007445)

LINESTRING (526.597480 168.484379, 495.407396 154.536874)

LINESTRING (526.597480 168.484379, 465.755705 156.865040)

LINESTRING (526.597480 168.484379, 523.087641 156.637838)

LINESTRING (526.597480 168.484379, 464.443514 108.181984)

LINESTRING (526.597480 168.484379, 507.662304 125.556336)

LINESTRING (526.597480 168.484379, 450.995307 151.483446)

LINESTRING (526.597480 168.484379, 454.905364 103.639400)

LINESTRING (526.597480 168.484379, 464.473591 111.620018)

LINESTRING (526.597480 168.484379, 480.922938 157.562691)

LINESTRING (526.597480 168.484379, 465.560830 150.292595)

LINESTRING (526.597480 168.484379, 470.414004 169.204326)

LINESTRING (526.597480 168.484379, 452.788830 110.682193)

LINESTRING (526.597480 168.484379, 465.362247 140.551907)

LINESTRING (526.597480 168.484379, 465.348463 156.934546)

LINESTRING (526.597480 168.484379, 478.734645 145.424071)

LINESTRING (526.597480 168.484379, 495.856431 176.322419)

LINESTRING (526.597480 168.484379, 511.722389 104.735584)

LINESTRING (513.068475 173.290033, 498.194935 127.161126)

LINESTRING (513.068475 173.290033, 464.774401 149.181513)

LINESTRING (513.068475 173.290033, 471.195974 150.756176)

LINESTRING (513.068475 173.290033, 470.891649 152.845416)

LINESTRING (513.068475 173.290033, 453.846681 117.483041)

LINESTRING (513.068475 173.290033, 519.565885 173.469432)

LINESTRING (513.068475 173.290033, 521.484925 164.015342)

LINESTRING (513.068475 173.290033, 459.628076 177.282646)

LINESTRING (513.068475 173.290033, 466.133997 146.041123)

LINESTRING (513.068475 173.290033, 495.407396 154.536874)

LINESTRING (513.068475 173.290033, 477.915903 141.311077)

LINESTRING (513.068475 173.290033, 465.755705 156.865040)

LINESTRING (513.068475 173.290033, 464.443514 108.181984)

LINESTRING (513.068475 173.290033, 512.043115 108.984864)

LINESTRING (513.068475 173.290033, 454.905364 103.639400)

LINESTRING (513.068475 173.290033, 464.473591 111.620018)

LINESTRING (513.068475 173.290033, 480.922938 157.562691)

LINESTRING (513.068475 173.290033, 465.560830 150.292595)

LINESTRING (513.068475 173.290033, 452.788830 110.682193)

LINESTRING (513.068475 173.290033, 470.201757 116.224917)

LINESTRING (513.068475 173.290033, 453.899393 148.875562)

LINESTRING (513.068475 173.290033, 478.734645 145.424071)

LINESTRING (513.068475 173.290033, 495.856431 176.322419)

LINESTRING (498.194935 127.161126, 464.774401 149.181513)

LINESTRING (498.194935 127.161126, 522.291294 100.092743)

LINESTRING (498.194935 127.161126, 471.195974 150.756176)

LINESTRING (498.194935 127.161126, 470.891649 152.845416)

LINESTRING (498.194935 127.161126, 478.829629 177.068947)

LINESTRING (498.194935 127.161126, 484.879044 122.826143)

LINESTRING (498.194935 127.161126, 521.484925 164.015342)

LINESTRING (498.194935 127.161126, 479.967247 105.007445)

LINESTRING (498.194935 127.161126, 466.133997 146.041123)

LINESTRING (498.194935 127.161126, 465.017977 102.581432)

LINESTRING (498.194935 127.161126, 477.915903 141.311077)

LINESTRING (498.194935 127.161126, 516.855352 105.023051)

LINESTRING (498.194935 127.161126, 464.443514 108.181984)

LINESTRING (498.194935 127.161126, 512.043115 108.984864)

LINESTRING (498.194935 127.161126, 450.995307 151.483446)

LINESTRING (498.194935 127.161126, 494.781828 138.267275)

LINESTRING (498.194935 127.161126, 489.850802 106.602377)

LINESTRING (498.194935 127.161126, 464.473591 111.620018)

LINESTRING (498.194935 127.161126, 480.922938 157.562691)

LINESTRING (498.194935 127.161126, 465.560830 150.292595)

LINESTRING (498.194935 127.161126, 470.414004 169.204326)

LINESTRING (498.194935 127.161126, 465.362247 140.551907)

LINESTRING (498.194935 127.161126, 525.529304 146.144237)

LINESTRING (498.194935 127.161126, 465.348463 156.934546)

LINESTRING (498.194935 127.161126, 478.734645 145.424071)

LINESTRING (498.194935 127.161126, 460.547657 123.149261)

LINESTRING (498.194935 127.161126, 511.722389 104.735584)

LINESTRING (464.774401 149.181513, 522.291294 100.092743)

LINESTRING (464.774401 149.181513, 471.195974 150.756176)

LINESTRING (464.774401 149.181513, 519.143235 127.359448)

LINESTRING (464.774401 149.181513, 466.722843 111.906341)

LINESTRING (464.774401 149.181513, 512.076550 158.075749)

LINESTRING (464.774401 149.181513, 459.628076 177.282646)

LINESTRING (464.774401 149.181513, 466.133997 146.041123)

LINESTRING (464.774401 149.181513, 477.915903 141.311077)

LINESTRING (464.774401 149.181513, 488.408722 149.628644)

LINESTRING (464.774401 149.181513, 516.855352 105.023051)

LINESTRING (464.774401 149.181513, 523.087641 156.637838)

LINESTRING (464.774401 149.181513, 454.449783 139.674055)

LINESTRING (464.774401 149.181513, 527.828610 140.630585)

LINESTRING (464.774401 149.181513, 494.781828 138.267275)

LINESTRING (464.774401 149.181513, 465.560830 150.292595)

LINESTRING (464.774401 149.181513, 452.788830 110.682193)

LINESTRING (464.774401 149.181513, 465.348463 156.934546)

LINESTRING (464.774401 149.181513, 529.390666 131.907611)

LINESTRING (464.774401 149.181513, 511.722389 104.735584)

LINESTRING (522.291294 100.092743, 470.891649 152.845416)

LINESTRING (522.291294 100.092743, 453.846681 117.483041)

LINESTRING (522.291294 100.092743, 484.879044 122.826143)

LINESTRING (522.291294 100.092743, 512.076550 158.075749)

LINESTRING (522.291294 100.092743, 459.628076 177.282646)

LINESTRING (522.291294 100.092743, 466.133997 146.041123)

LINESTRING (522.291294 100.092743, 477.915903 141.311077)

LINESTRING (522.291294 100.092743, 523.087641 156.637838)

LINESTRING (522.291294 100.092743, 512.043115 108.984864)

LINESTRING (522.291294 100.092743, 450.995307 151.483446)

LINESTRING (522.291294 100.092743, 454.905364 103.639400)

LINESTRING (522.291294 100.092743, 489.850802 106.602377)

LINESTRING (522.291294 100.092743, 480.922938 157.562691)

LINESTRING (522.291294 100.092743, 470.201757 116.224917)

LINESTRING (522.291294 100.092743, 453.899393 148.875562)

LINESTRING (522.291294 100.092743, 465.362247 140.551907)

LINESTRING (522.291294 100.092743, 529.390666 131.907611)

LINESTRING (522.291294 100.092743, 495.856431 176.322419)

LINESTRING (522.291294 100.092743, 460.547657 123.149261)

LINESTRING (471.195974 150.756176, 470.891649 152.845416)

LINESTRING (471.195974 150.756176, 478.829629 177.068947)

LINESTRING (471.195974 150.756176, 479.967247 105.007445)

LINESTRING (471.195974 150.756176, 466.133997 146.041123)

LINESTRING (471.195974 150.756176, 464.443514 108.181984)

LINESTRING (471.195974 150.756176, 507.662304 125.556336)

LINESTRING (471.195974 150.756176, 527.828610 140.630585)

LINESTRING (471.195974 150.756176, 458.127937 103.296950)

LINESTRING (471.195974 150.756176, 466.811503 108.210473)

LINESTRING (471.195974 150.756176, 489.850802 106.602377)

LINESTRING (471.195974 150.756176, 464.473591 111.620018)

LINESTRING (471.195974 150.756176, 465.560830 150.292595)

LINESTRING (471.195974 150.756176, 465.362247 140.551907)

LINESTRING (471.195974 150.756176, 525.529304 146.144237)

LINESTRING (471.195974 150.756176, 529.390666 131.907611)

LINESTRING (471.195974 150.756176, 495.856431 176.322419)

LINESTRING (471.195974 150.756176, 460.547657 123.149261)

LINESTRING (519.143235 127.359448, 512.076550 158.075749)

LINESTRING (519.143235 127.359448, 466.133997 146.041123)

LINESTRING (519.143235 127.359448, 465.755705 156.865040)

LINESTRING (519.143235 127.359448, 488.408722 149.628644)

LINESTRING (519.143235 127.359448, 523.087641 156.637838)

LINESTRING (519.143235 127.359448, 472.130200 144.389742)

LINESTRING (519.143235 127.359448, 527.828610 140.630585)

LINESTRING (519.143235 127.359448, 450.995307 151.483446)

LINESTRING (519.143235 127.359448, 458.127937 103.296950)

LINESTRING (519.143235 127.359448, 454.905364 103.639400)

LINESTRING (519.143235 127.359448, 466.811503 108.210473)

LINESTRING (519.143235 127.359448, 489.850802 106.602377)

LINESTRING (519.143235 127.359448, 480.922938 157.562691)

LINESTRING (519.143235 127.359448, 453.899393 148.875562)

LINESTRING (519.143235 127.359448, 465.362247 140.551907)

LINESTRING (519.143235 127.359448, 525.529304 146.144237)

LINESTRING (519.143235 127.359448, 529.390666 131.907611)

LINESTRING (519.143235 127.359448, 460.547657 123.149261)

LINESTRING (470.891649 152.845416, 484.879044 122.826143)

LINESTRING (470.891649 152.845416, 466.722843 111.906341)

LINESTRING (470.891649 152.845416, 466.133997 146.041123)

LINESTRING (470.891649 152.845416, 488.408722 149.628644)

LINESTRING (470.891649 152.845416, 472.130200 144.389742)

LINESTRING (470.891649 152.845416, 527.828610 140.630585)

LINESTRING (470.891649 152.845416, 450.995307 151.483446)

LINESTRING (470.891649 152.845416, 494.781828 138.267275)

LINESTRING (470.891649 152.845416, 466.811503 108.210473)

LINESTRING (470.891649 152.845416, 464.473591 111.620018)

LINESTRING (470.891649 152.845416, 480.922938 157.562691)

LINESTRING (470.891649 152.845416, 470.414004 169.204326)

LINESTRING (470.891649 152.845416, 452.788830 110.682193)

LINESTRING (470.891649 152.845416, 470.201757 116.224917)

LINESTRING (470.891649 152.845416, 465.362247 140.551907)

LINESTRING (470.891649 152.845416, 525.529304 146.144237)

LINESTRING (470.891649 152.845416, 478.734645 145.424071)

LINESTRING (453.846681 117.483041, 478.829629 177.068947)

LINESTRING (453.846681 117.483041, 484.879044 122.826143)

LINESTRING (453.846681 117.483041, 466.722843 111.906341)

LINESTRING (453.846681 117.483041, 519.565885 173.469432)

LINESTRING (453.846681 117.483041, 479.967247 105.007445)

LINESTRING (453.846681 117.483041, 459.628076 177.282646)

LINESTRING (453.846681 117.483041, 495.407396 154.536874)

LINESTRING (453.846681 117.483041, 492.684632 160.849068)

LINESTRING (453.846681 117.483041, 516.118620 102.680590)

LINESTRING (453.846681 117.483041, 464.443514 108.181984)

LINESTRING (453.846681 117.483041, 472.130200 144.389742)

LINESTRING (453.846681 117.483041, 527.828610 140.630585)

LINESTRING (453.846681 117.483041, 450.995307 151.483446)

LINESTRING (453.846681 117.483041, 458.127937 103.296950)

LINESTRING (453.846681 117.483041, 466.811503 108.210473)

LINESTRING (453.846681 117.483041, 489.850802 106.602377)

LINESTRING (453.846681 117.483041, 464.473591 111.620018)

LINESTRING (453.846681 117.483041, 480.922938 157.562691)

LINESTRING (453.846681 117.483041, 470.201757 116.224917)

LINESTRING (453.846681 117.483041, 453.899393 148.875562)

LINESTRING (453.846681 117.483041, 465.362247 140.551907)

LINESTRING (453.846681 117.483041, 525.529304 146.144237)

LINESTRING (453.846681 117.483041, 477.448209 111.855327)

LINESTRING (453.846681 117.483041, 478.734645 145.424071)

LINESTRING (453.846681 117.483041, 495.856431 176.322419)

LINESTRING (453.846681 117.483041, 460.547657 123.149261)

LINESTRING (453.846681 117.483041, 511.722389 104.735584)

LINESTRING (478.829629 177.068947, 519.565885 173.469432)

LINESTRING (478.829629 177.068947, 479.967247 105.007445)

LINESTRING (478.829629 177.068947, 466.133997 146.041123)

LINESTRING (478.829629 177.068947, 465.755705 156.865040)

LINESTRING (478.829629 177.068947, 488.408722 149.628644)

LINESTRING (478.829629 177.068947, 464.443514 108.181984)

LINESTRING (478.829629 177.068947, 472.130200 144.389742)

LINESTRING (478.829629 177.068947, 507.662304 125.556336)

LINESTRING (478.829629 177.068947, 450.995307 151.483446)

LINESTRING (478.829629 177.068947, 458.127937 103.296950)

LINESTRING (478.829629 177.068947, 454.905364 103.639400)

LINESTRING (478.829629 177.068947, 466.811503 108.210473)

LINESTRING (478.829629 177.068947, 464.473591 111.620018)

LINESTRING (478.829629 177.068947, 465.560830 150.292595)

LINESTRING (478.829629 177.068947, 453.899393 148.875562)

LINESTRING (478.829629 177.068947, 525.529304 146.144237)

LINESTRING (478.829629 177.068947, 477.448209 111.855327)

LINESTRING (478.829629 177.068947, 478.734645 145.424071)

LINESTRING (484.879044 122.826143, 521.484925 164.015342)

LINESTRING (484.879044 122.826143, 479.967247 105.007445)

LINESTRING (484.879044 122.826143, 512.076550 158.075749)

LINESTRING (484.879044 122.826143, 466.133997 146.041123)

LINESTRING (484.879044 122.826143, 492.684632 160.849068)

LINESTRING (484.879044 122.826143, 465.755705 156.865040)

LINESTRING (484.879044 122.826143, 516.855352 105.023051)

LINESTRING (484.879044 122.826143, 512.043115 108.984864)

LINESTRING (484.879044 122.826143, 450.995307 151.483446)

LINESTRING (484.879044 122.826143, 494.781828 138.267275)

LINESTRING (484.879044 122.826143, 464.473591 111.620018)

LINESTRING (484.879044 122.826143, 470.414004 169.204326)

LINESTRING (484.879044 122.826143, 453.899393 148.875562)

LINESTRING (484.879044 122.826143, 465.348463 156.934546)

LINESTRING (484.879044 122.826143, 529.390666 131.907611)

LINESTRING (484.879044 122.826143, 495.856431 176.322419)

LINESTRING (484.879044 122.826143, 511.722389 104.735584)

LINESTRING (466.722843 111.906341, 479.967247 105.007445)

LINESTRING (466.722843 111.906341, 466.133997 146.041123)

LINESTRING (466.722843 111.906341, 495.407396 154.536874)

LINESTRING (466.722843 111.906341, 492.684632 160.849068)

LINESTRING (466.722843 111.906341, 477.915903 141.311077)

LINESTRING (466.722843 111.906341, 516.855352 105.023051)

LINESTRING (466.722843 111.906341, 464.443514 108.181984)

LINESTRING (466.722843 111.906341, 472.130200 144.389742)

LINESTRING (466.722843 111.906341, 454.905364 103.639400)

LINESTRING (466.722843 111.906341, 489.850802 106.602377)

LINESTRING (466.722843 111.906341, 464.473591 111.620018)

LINESTRING (466.722843 111.906341, 480.922938 157.562691)

LINESTRING (466.722843 111.906341, 465.362247 140.551907)

LINESTRING (466.722843 111.906341, 465.348463 156.934546)

LINESTRING (466.722843 111.906341, 477.448209 111.855327)

LINESTRING (466.722843 111.906341, 478.734645 145.424071)

LINESTRING (466.722843 111.906341, 495.856431 176.322419)

LINESTRING (466.722843 111.906341, 460.547657 123.149261)

LINESTRING (519.565885 173.469432, 521.484925 164.015342)

LINESTRING (519.565885 173.469432, 479.967247 105.007445)

LINESTRING (519.565885 173.469432, 512.076550 158.075749)

LINESTRING (519.565885 173.469432, 465.017977 102.581432)

LINESTRING (519.565885 173.469432, 492.684632 160.849068)

LINESTRING (519.565885 173.469432, 488.408722 149.628644)

LINESTRING (519.565885 173.469432, 464.443514 108.181984)

LINESTRING (519.565885 173.469432, 454.449783 139.674055)

LINESTRING (519.565885 173.469432, 527.828610 140.630585)

LINESTRING (519.565885 173.469432, 494.781828 138.267275)

LINESTRING (519.565885 173.469432, 458.127937 103.296950)

LINESTRING (519.565885 173.469432, 454.905364 103.639400)

LINESTRING (519.565885 173.469432, 480.922938 157.562691)

LINESTRING (519.565885 173.469432, 465.560830 150.292595)

LINESTRING (519.565885 173.469432, 470.201757 116.224917)

LINESTRING (519.565885 173.469432, 465.362247 140.551907)

LINESTRING (519.565885 173.469432, 465.348463 156.934546)

LINESTRING (519.565885 173.469432, 477.448209 111.855327)

LINESTRING (519.565885 173.469432, 495.856431 176.322419)

LINESTRING (519.565885 173.469432, 460.547657 123.149261)

LINESTRING (521.484925 164.015342, 466.133997 146.041123)

LINESTRING (521.484925 164.015342, 465.017977 102.581432)

LINESTRING (521.484925 164.015342, 495.407396 154.536874)

LINESTRING (521.484925 164.015342, 492.684632 160.849068)

LINESTRING (521.484925 164.015342, 477.915903 141.311077)

LINESTRING (521.484925 164.015342, 507.662304 125.556336)

LINESTRING (521.484925 164.015342, 512.043115 108.984864)

LINESTRING (521.484925 164.015342, 527.828610 140.630585)

LINESTRING (521.484925 164.015342, 458.127937 103.296950)

LINESTRING (521.484925 164.015342, 454.905364 103.639400)

LINESTRING (521.484925 164.015342, 489.850802 106.602377)

LINESTRING (521.484925 164.015342, 470.414004 169.204326)

LINESTRING (521.484925 164.015342, 465.362247 140.551907)

LINESTRING (521.484925 164.015342, 465.348463 156.934546)

LINESTRING (521.484925 164.015342, 478.734645 145.424071)

LINESTRING (521.484925 164.015342, 460.547657 123.149261)

LINESTRING (521.484925 164.015342, 511.722389 104.735584)

LINESTRING (479.967247 105.007445, 459.628076 177.282646)

LINESTRING (479.967247 105.007445, 466.133997 146.041123)

LINESTRING (479.967247 105.007445, 488.408722 149.628644)

LINESTRING (479.967247 105.007445, 516.855352 105.023051)

LINESTRING (479.967247 105.007445, 472.130200 144.389742)

LINESTRING (479.967247 105.007445, 507.662304 125.556336)

LINESTRING (479.967247 105.007445, 512.043115 108.984864)

LINESTRING (479.967247 105.007445, 494.781828 138.267275)

LINESTRING (479.967247 105.007445, 458.127937 103.296950)

LINESTRING (479.967247 105.007445, 454.905364 103.639400)

LINESTRING (479.967247 105.007445, 466.811503 108.210473)

LINESTRING (479.967247 105.007445, 525.529304 146.144237)

LINESTRING (479.967247 105.007445, 529.390666 131.907611)

LINESTRING (479.967247 105.007445, 477.448209 111.855327)

LINESTRING (479.967247 105.007445, 495.856431 176.322419)

LINESTRING (479.967247 105.007445, 511.722389 104.735584)

LINESTRING (512.076550 158.075749, 495.407396 154.536874)

LINESTRING (512.076550 158.075749, 477.915903 141.311077)

LINESTRING (512.076550 158.075749, 523.087641 156.637838)

LINESTRING (512.076550 158.075749, 507.662304 125.556336)

LINESTRING (512.076550 158.075749, 512.043115 108.984864)

LINESTRING (512.076550 158.075749, 527.828610 140.630585)

LINESTRING (512.076550 158.075749, 450.995307 151.483446)

LINESTRING (512.076550 158.075749, 494.781828 138.267275)

LINESTRING (512.076550 158.075749, 466.811503 108.210473)

LINESTRING (512.076550 158.075749, 470.414004 169.204326)

LINESTRING (512.076550 158.075749, 452.788830 110.682193)

LINESTRING (512.076550 158.075749, 465.348463 156.934546)

LINESTRING (512.076550 158.075749, 477.448209 111.855327)

LINESTRING (512.076550 158.075749, 495.856431 176.322419)

LINESTRING (512.076550 158.075749, 511.722389 104.735584)

LINESTRING (459.628076 177.282646, 466.133997 146.041123)

LINESTRING (459.628076 177.282646, 495.407396 154.536874)

LINESTRING (459.628076 177.282646, 465.755705 156.865040)

LINESTRING (459.628076 177.282646, 516.118620 102.680590)

LINESTRING (459.628076 177.282646, 488.408722 149.628644)

LINESTRING (459.628076 177.282646, 454.449783 139.674055)

LINESTRING (459.628076 177.282646, 472.130200 144.389742)

LINESTRING (459.628076 177.282646, 527.828610 140.630585)

LINESTRING (459.628076 177.282646, 458.127937 103.296950)

LINESTRING (459.628076 177.282646, 464.473591 111.620018)

LINESTRING (459.628076 177.282646, 452.788830 110.682193)

LINESTRING (459.628076 177.282646, 470.201757 116.224917)

LINESTRING (459.628076 177.282646, 465.362247 140.551907)

LINESTRING (459.628076 177.282646, 525.529304 146.144237)

LINESTRING (459.628076 177.282646, 529.390666 131.907611)

LINESTRING (459.628076 177.282646, 495.856431 176.322419)

LINESTRING (459.628076 177.282646, 460.547657 123.149261)

LINESTRING (466.133997 146.041123, 488.408722 149.628644)

LINESTRING (466.133997 146.041123, 516.855352 105.023051)

LINESTRING (466.133997 146.041123, 523.087641 156.637838)

LINESTRING (466.133997 146.041123, 464.443514 108.181984)

LINESTRING (466.133997 146.041123, 454.449783 139.674055)

LINESTRING (466.133997 146.041123, 527.828610 140.630585)

LINESTRING (466.133997 146.041123, 494.781828 138.267275)

LINESTRING (466.133997 146.041123, 458.127937 103.296950)

LINESTRING (466.133997 146.041123, 470.414004 169.204326)

LINESTRING (466.133997 146.041123, 453.899393 148.875562)

LINESTRING (466.133997 146.041123, 465.362247 140.551907)

LINESTRING (466.133997 146.041123, 525.529304 146.144237)

LINESTRING (466.133997 146.041123, 529.390666 131.907611)

LINESTRING (465.017977 102.581432, 516.118620 102.680590)

LINESTRING (465.017977 102.581432, 488.408722 149.628644)

LINESTRING (465.017977 102.581432, 454.449783 139.674055)

LINESTRING (465.017977 102.581432, 472.130200 144.389742)

LINESTRING (465.017977 102.581432, 507.662304 125.556336)

LINESTRING (465.017977 102.581432, 527.828610 140.630585)

LINESTRING (465.017977 102.581432, 494.781828 138.267275)

LINESTRING (465.017977 102.581432, 458.127937 103.296950)

LINESTRING (465.017977 102.581432, 454.905364 103.639400)

LINESTRING (465.017977 102.581432, 464.473591 111.620018)

LINESTRING (465.017977 102.581432, 465.560830 150.292595)

LINESTRING (465.017977 102.581432, 470.414004 169.204326)

LINESTRING (465.017977 102.581432, 452.788830 110.682193)

LINESTRING (465.017977 102.581432, 465.362247 140.551907)

LINESTRING (465.017977 102.581432, 525.529304 146.144237)

LINESTRING (465.017977 102.581432, 465.348463 156.934546)

LINESTRING (465.017977 102.581432, 477.448209 111.855327)

LINESTRING (495.407396 154.536874, 477.915903 141.311077)

LINESTRING (495.407396 154.536874, 488.408722 149.628644)

LINESTRING (495.407396 154.536874, 516.855352 105.023051)

LINESTRING (495.407396 154.536874, 454.449783 139.674055)

LINESTRING (495.407396 154.536874, 458.127937 103.296950)

LINESTRING (495.407396 154.536874, 454.905364 103.639400)

LINESTRING (495.407396 154.536874, 489.850802 106.602377)

LINESTRING (495.407396 154.536874, 470.414004 169.204326)

LINESTRING (495.407396 154.536874, 452.788830 110.682193)

LINESTRING (495.407396 154.536874, 465.348463 156.934546)

LINESTRING (495.407396 154.536874, 477.448209 111.855327)

LINESTRING (495.407396 154.536874, 495.856431 176.322419)

LINESTRING (495.407396 154.536874, 511.722389 104.735584)

LINESTRING (492.684632 160.849068, 477.915903 141.311077)

LINESTRING (492.684632 160.849068, 516.118620 102.680590)

LINESTRING (492.684632 160.849068, 488.408722 149.628644)

LINESTRING (492.684632 160.849068, 516.855352 105.023051)

LINESTRING (492.684632 160.849068, 464.443514 108.181984)

LINESTRING (492.684632 160.849068, 454.449783 139.674055)

LINESTRING (492.684632 160.849068, 472.130200 144.389742)

LINESTRING (492.684632 160.849068, 507.662304 125.556336)

LINESTRING (492.684632 160.849068, 450.995307 151.483446)

LINESTRING (492.684632 160.849068, 494.781828 138.267275)

LINESTRING (492.684632 160.849068, 458.127937 103.296950)

LINESTRING (492.684632 160.849068, 454.905364 103.639400)

LINESTRING (492.684632 160.849068, 466.811503 108.210473)

LINESTRING (492.684632 160.849068, 465.560830 150.292595)

LINESTRING (492.684632 160.849068, 470.201757 116.224917)

LINESTRING (492.684632 160.849068, 465.362247 140.551907)

LINESTRING (492.684632 160.849068, 525.529304 146.144237)

LINESTRING (492.684632 160.849068, 495.856431 176.322419)

LINESTRING (492.684632 160.849068, 511.722389 104.735584)

LINESTRING (477.915903 141.311077, 465.755705 156.865040)

LINESTRING (477.915903 141.311077, 516.118620 102.680590)

LINESTRING (477.915903 141.311077, 488.408722 149.628644)

LINESTRING (477.915903 141.311077, 516.855352 105.023051)

LINESTRING (477.915903 141.311077, 507.662304 125.556336)

LINESTRING (477.915903 141.311077, 494.781828 138.267275)

LINESTRING (477.915903 141.311077, 465.560830 150.292595)

LINESTRING (477.915903 141.311077, 470.414004 169.204326)

LINESTRING (477.915903 141.311077, 452.788830 110.682193)

LINESTRING (477.915903 141.311077, 453.899393 148.875562)

LINESTRING (477.915903 141.311077, 465.362247 140.551907)

LINESTRING (477.915903 141.311077, 495.856431 176.322419)

LINESTRING (465.755705 156.865040, 516.118620 102.680590)

LINESTRING (465.755705 156.865040, 523.087641 156.637838)

LINESTRING (465.755705 156.865040, 454.449783 139.674055)

LINESTRING (465.755705 156.865040, 472.130200 144.389742)

LINESTRING (465.755705 156.865040, 507.662304 125.556336)

LINESTRING (465.755705 156.865040, 512.043115 108.984864)

LINESTRING (465.755705 156.865040, 494.781828 138.267275)

LINESTRING (465.755705 156.865040, 458.127937 103.296950)

LINESTRING (465.755705 156.865040, 454.905364 103.639400)

LINESTRING (465.755705 156.865040, 466.811503 108.210473)

LINESTRING (465.755705 156.865040, 489.850802 106.602377)

LINESTRING (465.755705 156.865040, 470.414004 169.204326)

LINESTRING (465.755705 156.865040, 470.201757 116.224917)

LINESTRING (465.755705 156.865040, 525.529304 146.144237)

LINESTRING (465.755705 156.865040, 465.348463 156.934546)

LINESTRING (465.755705 156.865040, 478.734645 145.424071)

LINESTRING (516.118620 102.680590, 464.443514 108.181984)

LINESTRING (516.118620 102.680590, 454.449783 139.674055)

LINESTRING (516.118620 102.680590, 472.130200 144.389742)

LINESTRING (516.118620 102.680590, 494.781828 138.267275)

LINESTRING (516.118620 102.680590, 454.905364 103.639400)

LINESTRING (516.118620 102.680590, 452.788830 110.682193)

LINESTRING (516.118620 102.680590, 465.348463 156.934546)

LINESTRING (516.118620 102.680590, 460.547657 123.149261)

LINESTRING (516.118620 102.680590, 511.722389 104.735584)

LINESTRING (488.408722 149.628644, 523.087641 156.637838)

LINESTRING (488.408722 149.628644, 464.443514 108.181984)

LINESTRING (488.408722 149.628644, 507.662304 125.556336)

LINESTRING (488.408722 149.628644, 512.043115 108.984864)

LINESTRING (488.408722 149.628644, 450.995307 151.483446)

LINESTRING (488.408722 149.628644, 454.905364 103.639400)

LINESTRING (488.408722 149.628644, 489.850802 106.602377)

LINESTRING (488.408722 149.628644, 464.473591 111.620018)

LINESTRING (488.408722 149.628644, 470.414004 169.204326)

LINESTRING (488.408722 149.628644, 452.788830 110.682193)

LINESTRING (488.408722 149.628644, 453.899393 148.875562)

LINESTRING (488.408722 149.628644, 465.362247 140.551907)

LINESTRING (488.408722 149.628644, 465.348463 156.934546)

LINESTRING (488.408722 149.628644, 511.722389 104.735584)

LINESTRING (516.855352 105.023051, 523.087641 156.637838)

LINESTRING (516.855352 105.023051, 454.449783 139.674055)

LINESTRING (516.855352 105.023051, 472.130200 144.389742)

LINESTRING (516.855352 105.023051, 507.662304 125.556336)

LINESTRING (516.855352 105.023051, 512.043115 108.984864)

LINESTRING (516.855352 105.023051, 450.995307 151.483446)

LINESTRING (516.855352 105.023051, 458.127937 103.296950)

LINESTRING (516.855352 105.023051, 489.850802 106.602377)

LINESTRING (516.855352 105.023051, 464.473591 111.620018)

LINESTRING (516.855352 105.023051, 465.560830 150.292595)

LINESTRING (516.855352 105.023051, 452.788830 110.682193)

LINESTRING (516.855352 105.023051, 470.201757 116.224917)

LINESTRING (516.855352 105.023051, 453.899393 148.875562)

LINESTRING (516.855352 105.023051, 465.362247 140.551907)

LINESTRING (516.855352 105.023051, 477.448209 111.855327)

LINESTRING (516.855352 105.023051, 478.734645 145.424071)

LINESTRING (516.855352 105.023051, 460.547657 123.149261)

LINESTRING (523.087641 156.637838, 464.443514 108.181984)

LINESTRING (523.087641 156.637838, 454.449783 139.674055)

LINESTRING (523.087641 156.637838, 507.662304 125.556336)

LINESTRING (523.087641 156.637838, 454.905364 103.639400)

LINESTRING (523.087641 156.637838, 480.922938 157.562691)

LINESTRING (523.087641 156.637838, 470.414004 169.204326)

LINESTRING (523.087641 156.637838, 470.201757 116.224917)

LINESTRING (523.087641 156.637838, 453.899393 148.875562)

LINESTRING (523.087641 156.637838, 465.362247 140.551907)

LINESTRING (523.087641 156.637838, 495.856431 176.322419)

LINESTRING (523.087641 156.637838, 460.547657 123.149261)

LINESTRING (523.087641 156.637838, 511.722389 104.735584)

LINESTRING (464.443514 108.181984, 454.449783 139.674055)

LINESTRING (464.443514 108.181984, 472.130200 144.389742)

LINESTRING (464.443514 108.181984, 512.043115 108.984864)

LINESTRING (464.443514 108.181984, 458.127937 103.296950)

LINESTRING (464.443514 108.181984, 466.811503 108.210473)

LINESTRING (464.443514 108.181984, 489.850802 106.602377)

LINESTRING (464.443514 108.181984, 464.473591 111.620018)

LINESTRING (464.443514 108.181984, 480.922938 157.562691)

LINESTRING (464.443514 108.181984, 465.362247 140.551907)

LINESTRING (464.443514 108.181984, 478.734645 145.424071)

LINESTRING (464.443514 108.181984, 495.856431 176.322419)

LINESTRING (464.443514 108.181984, 511.722389 104.735584)

LINESTRING (454.449783 139.674055, 507.662304 125.556336)

LINESTRING (454.449783 139.674055, 512.043115 108.984864)

LINESTRING (454.449783 139.674055, 494.781828 138.267275)

LINESTRING (454.449783 139.674055, 454.905364 103.639400)

LINESTRING (454.449783 139.674055, 466.811503 108.210473)

LINESTRING (454.449783 139.674055, 489.850802 106.602377)

LINESTRING (454.449783 139.674055, 452.788830 110.682193)

LINESTRING (454.449783 139.674055, 453.899393 148.875562)

LINESTRING (454.449783 139.674055, 525.529304 146.144237)

LINESTRING (454.449783 139.674055, 465.348463 156.934546)

LINESTRING (454.449783 139.674055, 477.448209 111.855327)

LINESTRING (454.449783 139.674055, 460.547657 123.149261)

LINESTRING (472.130200 144.389742, 507.662304 125.556336)

LINESTRING (472.130200 144.389742, 450.995307 151.483446)

LINESTRING (472.130200 144.389742, 458.127937 103.296950)

LINESTRING (472.130200 144.389742, 464.473591 111.620018)

LINESTRING (472.130200 144.389742, 470.414004 169.204326)

LINESTRING (472.130200 144.389742, 452.788830 110.682193)

LINESTRING (472.130200 144.389742, 453.899393 148.875562)

LINESTRING (472.130200 144.389742, 525.529304 146.144237)

LINESTRING (472.130200 144.389742, 465.348463 156.934546)

LINESTRING (472.130200 144.389742, 529.390666 131.907611)

LINESTRING (472.130200 144.389742, 477.448209 111.855327)

LINESTRING (472.130200 144.389742, 495.856431 176.322419)

LINESTRING (507.662304 125.556336, 512.043115 108.984864)

LINESTRING (507.662304 125.556336, 527.828610 140.630585)

LINESTRING (507.662304 125.556336, 450.995307 151.483446)

LINESTRING (507.662304 125.556336, 494.781828 138.267275)

LINESTRING (507.662304 125.556336, 466.811503 108.210473)

LINESTRING (507.662304 125.556336, 489.850802 106.602377)

LINESTRING (507.662304 125.556336, 464.473591 111.620018)

LINESTRING (507.662304 125.556336, 465.560830 150.292595)

LINESTRING (507.662304 125.556336, 470.414004 169.204326)

LINESTRING (507.662304 125.556336, 470.201757 116.224917)

LINESTRING (507.662304 125.556336, 529.390666 131.907611)

LINESTRING (512.043115 108.984864, 452.788830 110.682193)

LINESTRING (512.043115 108.984864, 470.201757 116.224917)

LINESTRING (512.043115 108.984864, 453.899393 148.875562)

LINESTRING (512.043115 108.984864, 465.362247 140.551907)

LINESTRING (512.043115 108.984864, 465.348463 156.934546)

LINESTRING (512.043115 108.984864, 478.734645 145.424071)

LINESTRING (512.043115 108.984864, 495.856431 176.322419)

LINESTRING (512.043115 108.984864, 460.547657 123.149261)

LINESTRING (512.043115 108.984864, 511.722389 104.735584)

LINESTRING (527.828610 140.630585, 454.905364 103.639400)

LINESTRING (527.828610 140.630585, 466.811503 108.210473)

LINESTRING (527.828610 140.630585, 465.560830 150.292595)

LINESTRING (527.828610 140.630585, 465.362247 140.551907)

LINESTRING (527.828610 140.630585, 465.348463 156.934546)

LINESTRING (527.828610 140.630585, 529.390666 131.907611)

LINESTRING (527.828610 140.630585, 477.448209 111.855327)

LINESTRING (527.828610 140.630585, 478.734645 145.424071)

LINESTRING (527.828610 140.630585, 460.547657 123.149261)

LINESTRING (450.995307 151.483446, 454.905364 103.639400)

LINESTRING (450.995307 151.483446, 464.473591 111.620018)

LINESTRING (450.995307 151.483446, 470.414004 169.204326)

LINESTRING (450.995307 151.483446, 470.201757 116.224917)

LINESTRING (450.995307 151.483446, 453.899393 148.875562)

LINESTRING (450.995307 151.483446, 465.362247 140.551907)

LINESTRING (450.995307 151.483446, 525.529304 146.144237)

LINESTRING (450.995307 151.483446, 529.390666 131.907611)

LINESTRING (450.995307 151.483446, 477.448209 111.855327)

LINESTRING (450.995307 151.483446, 495.856431 176.322419)

LINESTRING (450.995307 151.483446, 511.722389 104.735584)

LINESTRING (494.781828 138.267275, 454.905364 103.639400)

LINESTRING (494.781828 138.267275, 464.473591 111.620018)

LINESTRING (494.781828 138.267275, 480.922938 157.562691)

LINESTRING (494.781828 138.267275, 465.560830 150.292595)

LINESTRING (494.781828 138.267275, 452.788830 110.682193)

LINESTRING (494.781828 138.267275, 470.201757 116.224917)

LINESTRING (494.781828 138.267275, 529.390666 131.907611)

LINESTRING (494.781828 138.267275, 478.734645 145.424071)

LINESTRING (458.127937 103.296950, 454.905364 103.639400)

LINESTRING (458.127937 103.296950, 466.811503 108.210473)

LINESTRING (458.127937 103.296950, 464.473591 111.620018)

LINESTRING (458.127937 103.296950, 452.788830 110.682193)

LINESTRING (458.127937 103.296950, 470.201757 116.224917)

LINESTRING (458.127937 103.296950, 453.899393 148.875562)

LINESTRING (458.127937 103.296950, 465.362247 140.551907)

LINESTRING (458.127937 103.296950, 465.348463 156.934546)

LINESTRING (458.127937 103.296950, 529.390666 131.907611)

LINESTRING (458.127937 103.296950, 477.448209 111.855327)

LINESTRING (458.127937 103.296950, 460.547657 123.149261)

LINESTRING (454.905364 103.639400, 466.811503 108.210473)

LINESTRING (454.905364 103.639400, 480.922938 157.562691)

LINESTRING (454.905364 103.639400, 452.788830 110.682193)

LINESTRING (454.905364 103.639400, 470.201757 116.224917)

LINESTRING (454.905364 103.639400, 453.899393 148.875562)

LINESTRING (454.905364 103.639400, 525.529304 146.144237)

LINESTRING (454.905364 103.639400, 465.348463 156.934546)

LINESTRING (454.905364 103.639400, 478.734645 145.424071)

LINESTRING (454.905364 103.639400, 511.722389 104.735584)

LINESTRING (466.811503 108.210473, 489.850802 106.602377)

LINESTRING (466.811503 108.210473, 480.922938 157.562691)

LINESTRING (466.811503 108.210473, 470.414004 169.204326)

LINESTRING (466.811503 108.210473, 452.788830 110.682193)

LINESTRING (466.811503 108.210473, 470.201757 116.224917)

LINESTRING (466.811503 108.210473, 465.362247 140.551907)

LINESTRING (466.811503 108.210473, 465.348463 156.934546)

LINESTRING (466.811503 108.210473, 478.734645 145.424071)

LINESTRING (466.811503 108.210473, 495.856431 176.322419)

LINESTRING (489.850802 106.602377, 464.473591 111.620018)

LINESTRING (489.850802 106.602377, 470.414004 169.204326)

LINESTRING (489.850802 106.602377, 453.899393 148.875562)

LINESTRING (489.850802 106.602377, 465.348463 156.934546)

LINESTRING (489.850802 106.602377, 460.547657 123.149261)

LINESTRING (489.850802 106.602377, 511.722389 104.735584)

LINESTRING (464.473591 111.620018, 480.922938 157.562691)

LINESTRING (464.473591 111.620018, 470.414004 169.204326)

LINESTRING (464.473591 111.620018, 452.788830 110.682193)

LINESTRING (464.473591 111.620018, 465.348463 156.934546)

LINESTRING (464.473591 111.620018, 511.722389 104.735584)

LINESTRING (480.922938 157.562691, 470.414004 169.204326)

LINESTRING (480.922938 157.562691, 452.788830 110.682193)

LINESTRING (480.922938 157.562691, 453.899393 148.875562)

LINESTRING (480.922938 157.562691, 465.362247 140.551907)

LINESTRING (480.922938 157.562691, 525.529304 146.144237)

LINESTRING (480.922938 157.562691, 477.448209 111.855327)

LINESTRING (480.922938 157.562691, 460.547657 123.149261)

LINESTRING (465.560830 150.292595, 470.414004 169.204326)

LINESTRING (465.560830 150.292595, 465.362247 140.551907)

LINESTRING (465.560830 150.292595, 525.529304 146.144237)

LINESTRING (465.560830 150.292595, 465.348463 156.934546)

LINESTRING (470.414004 169.204326, 452.788830 110.682193)

LINESTRING (470.414004 169.204326, 470.201757 116.224917)

LINESTRING (470.414004 169.204326, 460.547657 123.149261)

LINESTRING (452.788830 110.682193, 470.201757 116.224917)

LINESTRING (452.788830 110.682193, 453.899393 148.875562)

LINESTRING (452.788830 110.682193, 465.348463 156.934546)

LINESTRING (452.788830 110.682193, 460.547657 123.149261)

LINESTRING (470.201757 116.224917, 477.448209 111.855327)

LINESTRING (470.201757 116.224917, 478.734645 145.424071)

LINESTRING (470.201757 116.224917, 460.547657 123.149261)

LINESTRING (453.899393 148.875562, 525.529304 146.144237)

LINESTRING (453.899393 148.875562, 477.448209 111.855327)

LINESTRING (465.362247 140.551907, 525.529304 146.144237)

LINESTRING (465.362247 140.551907, 529.390666 131.907611)

LINESTRING (465.362247 140.551907, 477.448209 111.855327)

LINESTRING (465.362247 140.551907, 511.722389 104.735584)

LINESTRING (525.529304 146.144237, 465.348463 156.934546)

LINESTRING (525.529304 146.144237, 529.390666 131.907611)

LINESTRING (525.529304 146.144237, 477.448209 111.855327)

LINESTRING (525.529304 146.144237, 478.734645 145.424071)

LINESTRING (525.529304 146.144237, 460.547657 123.149261)

LINESTRING (525.529304 146.144237, 511.722389 104.735584)

LINESTRING (465.348463 156.934546, 529.390666 131.907611)

LINESTRING (465.348463 156.934546, 495.856431 176.322419)

LINESTRING (465.348463 156.934546, 460.547657 123.149261)

LINESTRING (529.390666 131.907611, 477.448209 111.855327)

LINESTRING (529.390666 131.907611, 511.722389 104.735584)

LINESTRING (477.448209 111.855327, 511.722389 104.735584)

LINESTRING (478.734645 145.424071, 460.547657 123.149261)

LINESTRING (495.856431 176.322419, 511.722389 104.735584)

LINESTRING (118.100518 168.676864, 465.017977 102.581432)

LINESTRING (173.359784 175.873955, 493.940778 106.666444)

