LINESTRING (2034.616264 6142.372733, 1419.416878 6339.381513)

LINESTRING (2034.616264 6142.372733, 4203.341932 6522.434040)

LINESTRING (4584.305040 1928.227590, 3918.675344 1621.952790)

LINESTRING (4584.305040 1928.227590, 4528.031606 2683.434644)

LINESTRING (4584.305040 1928.227590, 3428.019167 341.685761)

LINESTRING (754.205585 6716.923167, 1030.704583 5993.360857)

LINESTRING (754.205585 6716.923167, 1419.416878 6339.381513)

LINESTRING (3918.675344 1621.952790, 2827.458071 3276.824592)

LINESTRING (3918.675344 1621.952790, 3760.102181 1915.709630)

LINESTRING (3918.675344 1621.952790, 3422.739512 1547.481420)

LINESTRING (3918.675344 1621.952790, 4528.031606 2683.434644)

LINESTRING (3918.675344 1621.952790, 3428.019167 341.685761)

LINESTRING (3974.858108 6135.682236, 6150.012170 5582.278403)

LINESTRING (3974.858108 6135.682236, 4018.594875 5482.649353)

LINESTRING (3974.858108 6135.682236, 3202.397975 5354.283267)

LINESTRING (3974.858108 6135.682236, 4203.341932 6522.434040)

LINESTRING (3974.858108 6135.682236, 4515.426194 3869.406169)

LINESTRING (1030.704583 5993.360857, 1419.416878 6339.381513)

LINESTRING (5708.260758 5312.692625, 6150.012170 5582.278403)

LINESTRING (5708.260758 5312.692625, 5843.102872 5259.598222)

LINESTRING (5708.260758 5312.692625, 4018.594875 5482.649353)

LINESTRING (5708.260758 5312.692625, 5050.957201 5121.721999)

LINESTRING (5708.260758 5312.692625, 5629.344545 4817.295129)

LINESTRING (5708.260758 5312.692625, 5995.750915 3336.685953)

LINESTRING (5708.260758 5312.692625, 6493.992088 6297.494452)

LINESTRING (1728.062270 3313.880471, 906.975421 2966.954334)

LINESTRING (1728.062270 3313.880471, 941.262000 3120.357307)

LINESTRING (2536.141173 350.254247, 2114.614219 138.929071)

LINESTRING (2536.141173 350.254247, 3428.019167 341.685761)

LINESTRING (485.407491 2065.741722, 941.262000 3120.357307)

LINESTRING (6150.012170 5582.278403, 5843.102872 5259.598222)

LINESTRING (6150.012170 5582.278403, 5995.750915 3336.685953)

LINESTRING (6150.012170 5582.278403, 4203.341932 6522.434040)

LINESTRING (6150.012170 5582.278403, 4515.426194 3869.406169)

LINESTRING (6150.012170 5582.278403, 6493.992088 6297.494452)

LINESTRING (906.975421 2966.954334, 941.262000 3120.357307)

LINESTRING (2827.458071 3276.824592, 3760.102181 1915.709630)

LINESTRING (2827.458071 3276.824592, 3202.397975 5354.283267)

LINESTRING (2827.458071 3276.824592, 3060.935347 1376.084341)

LINESTRING (5843.102872 5259.598222, 5629.344545 4817.295129)

LINESTRING (5843.102872 5259.598222, 4203.341932 6522.434040)

LINESTRING (3760.102181 1915.709630, 3422.739512 1547.481420)

LINESTRING (3760.102181 1915.709630, 3428.019167 341.685761)

LINESTRING (1419.416878 6339.381513, 3202.397975 5354.283267)

LINESTRING (3422.739512 1547.481420, 3060.935347 1376.084341)

LINESTRING (4018.594875 5482.649353, 4203.341932 6522.434040)

LINESTRING (4528.031606 2683.434644, 5995.750915 3336.685953)

LINESTRING (4528.031606 2683.434644, 4515.426194 3869.406169)

LINESTRING (5050.957201 5121.721999, 5629.344545 4817.295129)

LINESTRING (5050.957201 5121.721999, 5995.750915 3336.685953)

LINESTRING (3202.397975 5354.283267, 4203.341932 6522.434040)

LINESTRING (3202.397975 5354.283267, 4515.426194 3869.406169)

LINESTRING (5629.344545 4817.295129, 6493.992088 6297.494452)

LINESTRING (2114.614219 138.929071, 3060.935347 1376.084341)

LINESTRING (4203.341932 6522.434040, 6493.992088 6297.494452)

