LINESTRING (60.000000 60.000000, 78.956151 67.701677)

LINESTRING (60.000000 60.000000, 36.077421 73.235335)

LINESTRING (60.000000 60.000000, 83.203036 83.689466)

LINESTRING (60.000000 60.000000, 39.317828 41.314099)

LINESTRING (60.000000 60.000000, 47.659203 58.004312)

LINESTRING (60.000000 60.000000, 37.708512 79.870525)

LINESTRING (60.000000 60.000000, 83.166079 72.555494)

LINESTRING (60.000000 60.000000, 62.445445 39.774442)

LINESTRING (78.956151 67.701677, 36.077421 73.235335)

LINESTRING (78.956151 67.701677, 83.203036 83.689466)

LINESTRING (78.956151 67.701677, 39.317828 41.314099)

LINESTRING (78.956151 67.701677, 47.659203 58.004312)

LINESTRING (78.956151 67.701677, 37.708512 79.870525)

LINESTRING (78.956151 67.701677, 83.166079 72.555494)

LINESTRING (78.956151 67.701677, 62.445445 39.774442)

LINESTRING (36.077421 73.235335, 83.203036 83.689466)

LINESTRING (36.077421 73.235335, 47.659203 58.004312)

LINESTRING (36.077421 73.235335, 37.708512 79.870525)

LINESTRING (36.077421 73.235335, 83.166079 72.555494)

LINESTRING (36.077421 73.235335, 62.445445 39.774442)

LINESTRING (83.203036 83.689466, 39.317828 41.314099)

LINESTRING (83.203036 83.689466, 47.659203 58.004312)

LINESTRING (83.203036 83.689466, 37.708512 79.870525)

LINESTRING (83.203036 83.689466, 83.166079 72.555494)

LINESTRING (83.203036 83.689466, 62.445445 39.774442)

LINESTRING (39.317828 41.314099, 47.659203 58.004312)

LINESTRING (39.317828 41.314099, 37.708512 79.870525)

LINESTRING (39.317828 41.314099, 83.166079 72.555494)

LINESTRING (39.317828 41.314099, 62.445445 39.774442)

LINESTRING (47.659203 58.004312, 37.708512 79.870525)

LINESTRING (47.659203 58.004312, 83.166079 72.555494)

LINESTRING (47.659203 58.004312, 62.445445 39.774442)

LINESTRING (37.708512 79.870525, 62.445445 39.774442)

LINESTRING (83.166079 72.555494, 62.445445 39.774442)

LINESTRING (260.000000 60.000000, 240.530895 64.893875)

LINESTRING (260.000000 60.000000, 275.733931 46.388432)

LINESTRING (260.000000 60.000000, 275.239485 54.087214)

LINESTRING (260.000000 60.000000, 247.145223 76.801600)

LINESTRING (260.000000 60.000000, 243.553119 51.199520)

LINESTRING (260.000000 60.000000, 279.588968 75.993557)

LINESTRING (260.000000 60.000000, 277.069787 79.798026)

LINESTRING (260.000000 60.000000, 272.297754 73.898828)

LINESTRING (240.530895 64.893875, 275.733931 46.388432)

LINESTRING (240.530895 64.893875, 275.239485 54.087214)

LINESTRING (240.530895 64.893875, 247.145223 76.801600)

LINESTRING (240.530895 64.893875, 243.553119 51.199520)

LINESTRING (240.530895 64.893875, 279.588968 75.993557)

LINESTRING (240.530895 64.893875, 277.069787 79.798026)

LINESTRING (240.530895 64.893875, 272.297754 73.898828)

LINESTRING (275.733931 46.388432, 275.239485 54.087214)

LINESTRING (275.733931 46.388432, 247.145223 76.801600)

LINESTRING (275.733931 46.388432, 243.553119 51.199520)

LINESTRING (275.733931 46.388432, 277.069787 79.798026)

LINESTRING (275.733931 46.388432, 272.297754 73.898828)

LINESTRING (275.239485 54.087214, 247.145223 76.801600)

LINESTRING (275.239485 54.087214, 243.553119 51.199520)

LINESTRING (275.239485 54.087214, 279.588968 75.993557)

LINESTRING (275.239485 54.087214, 272.297754 73.898828)

LINESTRING (247.145223 76.801600, 243.553119 51.199520)

LINESTRING (247.145223 76.801600, 279.588968 75.993557)

LINESTRING (247.145223 76.801600, 277.069787 79.798026)

LINESTRING (247.145223 76.801600, 272.297754 73.898828)

LINESTRING (243.553119 51.199520, 279.588968 75.993557)

LINESTRING (243.553119 51.199520, 272.297754 73.898828)

LINESTRING (279.588968 75.993557, 272.297754 73.898828)

LINESTRING (60.000000 260.000000, 47.526053 277.230118)

LINESTRING (60.000000 260.000000, 66.296454 240.421797)

LINESTRING (60.000000 260.000000, 65.353887 271.100104)

LINESTRING (60.000000 260.000000, 68.353208 283.193973)

LINESTRING (60.000000 260.000000, 41.588407 278.169503)

LINESTRING (60.000000 260.000000, 80.955858 242.905400)

LINESTRING (60.000000 260.000000, 48.917376 258.029385)

LINESTRING (60.000000 260.000000, 68.303475 244.336616)

LINESTRING (47.526053 277.230118, 66.296454 240.421797)

LINESTRING (47.526053 277.230118, 65.353887 271.100104)

LINESTRING (47.526053 277.230118, 68.353208 283.193973)

LINESTRING (47.526053 277.230118, 80.955858 242.905400)

LINESTRING (47.526053 277.230118, 48.917376 258.029385)

LINESTRING (47.526053 277.230118, 68.303475 244.336616)

LINESTRING (66.296454 240.421797, 65.353887 271.100104)

LINESTRING (66.296454 240.421797, 68.353208 283.193973)

LINESTRING (66.296454 240.421797, 41.588407 278.169503)

LINESTRING (66.296454 240.421797, 80.955858 242.905400)

LINESTRING (66.296454 240.421797, 48.917376 258.029385)

LINESTRING (66.296454 240.421797, 68.303475 244.336616)

LINESTRING (65.353887 271.100104, 41.588407 278.169503)

LINESTRING (65.353887 271.100104, 80.955858 242.905400)

LINESTRING (65.353887 271.100104, 48.917376 258.029385)

LINESTRING (65.353887 271.100104, 68.303475 244.336616)

LINESTRING (68.353208 283.193973, 41.588407 278.169503)

LINESTRING (68.353208 283.193973, 80.955858 242.905400)

LINESTRING (68.353208 283.193973, 48.917376 258.029385)

LINESTRING (68.353208 283.193973, 68.303475 244.336616)

LINESTRING (41.588407 278.169503, 80.955858 242.905400)

LINESTRING (41.588407 278.169503, 48.917376 258.029385)

LINESTRING (41.588407 278.169503, 68.303475 244.336616)

LINESTRING (80.955858 242.905400, 48.917376 258.029385)

LINESTRING (80.955858 242.905400, 68.303475 244.336616)

LINESTRING (48.917376 258.029385, 68.303475 244.336616)

LINESTRING (78.956151 67.701677, 240.530895 64.893875)

LINESTRING (60.000000 60.000000, 260.000000 60.000000)

LINESTRING (247.145223 76.801600, 65.353887 271.100104)

LINESTRING (260.000000 60.000000, 60.000000 260.000000)

