LINESTRING (3567.518674 229.699452, 4703.697931 227.171337)

LINESTRING (3264.364845 1122.334160, 2991.352252 1049.333367)

LINESTRING (513.630786 2698.225827, 220.595354 2729.452948)

LINESTRING (513.630786 2698.225827, 639.246250 3825.766945)

LINESTRING (351.817433 711.491914, 690.851326 735.228647)

LINESTRING (351.817433 711.491914, 271.913192 997.597063)

LINESTRING (351.817433 711.491914, 646.417735 902.520390)

LINESTRING (4355.326579 222.323670, 4703.697931 227.171337)

LINESTRING (4355.326579 222.323670, 4326.357236 442.051759)

LINESTRING (3003.732212 4195.472502, 2993.527288 4419.211338)

LINESTRING (3003.732212 4195.472502, 2634.630129 4061.976811)

LINESTRING (690.851326 735.228647, 749.407696 1328.592938)

LINESTRING (690.851326 735.228647, 609.952907 396.141171)

LINESTRING (690.851326 735.228647, 646.417735 902.520390)

LINESTRING (4087.518009 2245.672399, 4339.918260 2369.902626)

LINESTRING (2217.055790 3065.271175, 2190.425372 2915.692838)

LINESTRING (2217.055790 3065.271175, 1206.705161 3411.069572)

LINESTRING (2217.055790 3065.271175, 1433.517132 3441.584863)

LINESTRING (2217.055790 3065.271175, 2010.596772 2528.595028)

LINESTRING (918.844323 3034.741901, 1073.684751 3159.272083)

LINESTRING (918.844323 3034.741901, 1308.843193 3798.385053)

LINESTRING (918.844323 3034.741901, 1206.705161 3411.069572)

LINESTRING (918.844323 3034.741901, 639.246250 3825.766945)

LINESTRING (1073.684751 3159.272083, 1206.705161 3411.069572)

LINESTRING (1073.684751 3159.272083, 2010.596772 2528.595028)

LINESTRING (1073.684751 3159.272083, 1058.380444 4355.719437)

LINESTRING (4285.224157 1120.868746, 4664.786552 705.541499)

LINESTRING (4285.224157 1120.868746, 4429.959455 1744.583569)

LINESTRING (4285.224157 1120.868746, 4326.357236 442.051759)

LINESTRING (2538.966122 1712.406253, 2472.306976 1620.924369)

LINESTRING (2538.966122 1712.406253, 2010.596772 2528.595028)

LINESTRING (1902.636725 205.236963, 1968.982864 115.707071)

LINESTRING (1902.636725 205.236963, 1737.595090 1177.616386)

LINESTRING (1308.843193 3798.385053, 1433.517132 3441.584863)

LINESTRING (1308.843193 3798.385053, 1814.491514 3826.050967)

LINESTRING (4664.786552 705.541499, 4429.959455 1744.583569)

LINESTRING (2472.306976 1620.924369, 2063.397956 2123.057297)

LINESTRING (3877.540490 3672.391775, 3804.530833 3468.352654)

LINESTRING (2190.425372 2915.692838, 2010.596772 2528.595028)

LINESTRING (2190.425372 2915.692838, 2152.214542 4049.103889)

LINESTRING (2634.630129 4061.976811, 2489.419932 4195.956736)

LINESTRING (3734.060959 617.436475, 4326.357236 442.051759)

LINESTRING (609.952907 396.141171, 505.174397 298.142306)

LINESTRING (271.913192 997.597063, 505.174397 298.142306)

LINESTRING (271.913192 997.597063, 646.417735 902.520390)

LINESTRING (4853.433604 2924.907920, 3804.530833 3468.352654)

LINESTRING (4853.433604 2924.907920, 4339.918260 2369.902626)

LINESTRING (4853.433604 2924.907920, 3861.823273 3234.321448)

LINESTRING (4699.840485 2068.988686, 3881.493624 1798.334030)

LINESTRING (505.174397 298.142306, 646.417735 902.520390)

LINESTRING (1206.705161 3411.069572, 1433.517132 3441.584863)

LINESTRING (1206.705161 3411.069572, 1814.491514 3826.050967)

LINESTRING (1206.705161 3411.069572, 1058.380444 4355.719437)

LINESTRING (1433.517132 3441.584863, 2010.596772 2528.595028)

LINESTRING (1433.517132 3441.584863, 639.246250 3825.766945)

LINESTRING (1814.491514 3826.050967, 639.246250 3825.766945)

LINESTRING (4703.697931 227.171337, 4326.357236 442.051759)

LINESTRING (1310.110237 1994.861896, 2010.596772 2528.595028)

LINESTRING (1310.110237 1994.861896, 2480.204807 2195.375588)

LINESTRING (3881.493624 1798.334030, 2852.470143 2225.235466)

LINESTRING (3116.701110 3164.963567, 2852.470143 2225.235466)

LINESTRING (3116.701110 3164.963567, 3861.823273 3234.321448)

LINESTRING (639.246250 3825.766945, 803.218813 3891.234523)

LINESTRING (639.246250 3825.766945, 1058.380444 4355.719437)

LINESTRING (2683.656415 3404.711767, 3861.823273 3234.321448)

LINESTRING (3804.530833 3468.352654, 3861.823273 3234.321448)

LINESTRING (2489.419932 4195.956736, 2152.214542 4049.103889)

LINESTRING (803.218813 3891.234523, 1058.380444 4355.719437)

LINESTRING (4339.918260 2369.902626, 4053.421358 3108.525644)

LINESTRING (2852.470143 2225.235466, 2480.204807 2195.375588)

LINESTRING (3861.823273 3234.321448, 4053.421358 3108.525644)

