LINESTRING (80.000000 80.000000, 229.792336 87.890260)

LINESTRING (80.000000 80.000000, 162.385785 84.339643)

LINESTRING (162.385785 84.339643, 229.792336 87.890260)

LINESTRING (80.000000 80.000000, 194.274771 177.166232)

LINESTRING (80.000000 80.000000, 142.851124 133.441428)

LINESTRING (142.851124 133.441428, 194.274771 177.166232)

LINESTRING (80.000000 80.000000, 122.388727 223.886052)

LINESTRING (80.000000 80.000000, 103.313800 159.137328)

LINESTRING (103.313800 159.137328, 122.388727 223.886052)

LINESTRING (80.000000 80.000000, 33.681448 222.669519)

LINESTRING (80.000000 80.000000, 54.524797 158.468236)

LINESTRING (54.524797 158.468236, 33.681448 222.669519)

LINESTRING (80.000000 80.000000, -36.789319 174.128928)

LINESTRING (80.000000 80.000000, 15.765875 131.770910)

LINESTRING (15.765875 131.770910, -36.789319 174.128928)

LINESTRING (80.000000 80.000000, -69.746226 88.721680)

LINESTRING (80.000000 80.000000, -2.360424 84.796924)

LINESTRING (-2.360424 84.796924, -69.746226 88.721680)

LINESTRING (80.000000 80.000000, -45.537652 -2.099317)

LINESTRING (80.000000 80.000000, 10.954291 34.845375)

LINESTRING (10.954291 34.845375, -45.537652 -2.099317)

LINESTRING (80.000000 80.000000, 25.653477 -59.808639)

LINESTRING (80.000000 80.000000, 50.109412 3.105249)

LINESTRING (50.109412 3.105249, 25.653477 -59.808639)

LINESTRING (80.000000 80.000000, 136.569499 -58.924050)

LINESTRING (80.000000 80.000000, 111.113225 3.591772)

LINESTRING (111.113225 3.591772, 136.569499 -58.924050)

LINESTRING (80.000000 80.000000, 198.052658 -12.539559)

LINESTRING (80.000000 80.000000, 144.928962 29.103243)

LINESTRING (144.928962 29.103243, 198.052658 -12.539559)

LINESTRING (229.792336 87.890260, 194.274771 177.166232)

LINESTRING (194.274771 177.166232, 122.388727 223.886052)

LINESTRING (122.388727 223.886052, 33.681448 222.669519)

LINESTRING (33.681448 222.669519, -36.789319 174.128928)

LINESTRING (-36.789319 174.128928, -69.746226 88.721680)

LINESTRING (-69.746226 88.721680, -45.537652 -2.099317)

LINESTRING (-45.537652 -2.099317, 25.653477 -59.808639)

LINESTRING (25.653477 -59.808639, 136.569499 -58.924050)

LINESTRING (136.569499 -58.924050, 198.052658 -12.539559)

LINESTRING (198.052658 -12.539559, 229.792336 87.890260)

LINESTRING (280.000000 80.000000, 429.687748 89.673579)

LINESTRING (280.000000 80.000000, 362.328261 85.320469)

LINESTRING (362.328261 85.320469, 429.687748 89.673579)

LINESTRING (280.000000 80.000000, 400.266947 169.642967)

LINESTRING (280.000000 80.000000, 346.146821 129.303632)

LINESTRING (346.146821 129.303632, 400.266947 169.642967)

LINESTRING (280.000000 80.000000, 325.678521 222.875725)

LINESTRING (280.000000 80.000000, 305.123186 158.581649)

LINESTRING (305.123186 158.581649, 325.678521 222.875725)

LINESTRING (280.000000 80.000000, 244.714994 225.790838)

LINESTRING (280.000000 80.000000, 260.593246 160.184961)

LINESTRING (260.593246 160.184961, 244.714994 225.790838)

LINESTRING (280.000000 80.000000, 166.068339 177.568318)

LINESTRING (280.000000 80.000000, 217.337587 133.662575)

LINESTRING (217.337587 133.662575, 166.068339 177.568318)

LINESTRING (280.000000 80.000000, 130.032085 83.102328)

LINESTRING (280.000000 80.000000, 197.517647 81.706280)

LINESTRING (197.517647 81.706280, 130.032085 83.102328)

LINESTRING (280.000000 80.000000, 153.008544 0.167864)

LINESTRING (280.000000 80.000000, 210.154699 36.092325)

LINESTRING (210.154699 36.092325, 153.008544 0.167864)

LINESTRING (280.000000 80.000000, 231.853912 -62.063205)

LINESTRING (280.000000 80.000000, 253.519651 1.865237)

LINESTRING (253.519651 1.865237, 231.853912 -62.063205)

LINESTRING (280.000000 80.000000, 315.109376 -65.833233)

LINESTRING (280.000000 80.000000, 299.310157 -0.208278)

LINESTRING (299.310157 -0.208278, 315.109376 -65.833233)

LINESTRING (280.000000 80.000000, 407.739846 1.370922)

LINESTRING (280.000000 80.000000, 350.256915 36.754007)

LINESTRING (350.256915 36.754007, 407.739846 1.370922)

LINESTRING (429.687748 89.673579, 400.266947 169.642967)

LINESTRING (400.266947 169.642967, 325.678521 222.875725)

LINESTRING (325.678521 222.875725, 244.714994 225.790838)

LINESTRING (244.714994 225.790838, 166.068339 177.568318)

LINESTRING (166.068339 177.568318, 130.032085 83.102328)

LINESTRING (130.032085 83.102328, 153.008544 0.167864)

LINESTRING (153.008544 0.167864, 231.853912 -62.063205)

LINESTRING (231.853912 -62.063205, 315.109376 -65.833233)

LINESTRING (315.109376 -65.833233, 407.739846 1.370922)

LINESTRING (407.739846 1.370922, 429.687748 89.673579)

LINESTRING (480.000000 80.000000, 629.870190 73.760908)

LINESTRING (480.000000 80.000000, 562.428604 76.568500)

LINESTRING (562.428604 76.568500, 629.870190 73.760908)

LINESTRING (480.000000 80.000000, 595.634447 175.544099)

LINESTRING (480.000000 80.000000, 543.598946 132.549254)

LINESTRING (543.598946 132.549254, 595.634447 175.544099)

LINESTRING (480.000000 80.000000, 537.264208 218.639138)

LINESTRING (480.000000 80.000000, 511.495314 156.251526)

LINESTRING (511.495314 156.251526, 537.264208 218.639138)

LINESTRING (480.000000 80.000000, 434.325787 222.877102)

LINESTRING (480.000000 80.000000, 454.879183 158.582406)

LINESTRING (454.879183 158.582406, 434.325787 222.877102)

LINESTRING (480.000000 80.000000, 355.158953 163.154753)

LINESTRING (480.000000 80.000000, 411.337424 125.735114)

LINESTRING (411.337424 125.735114, 355.158953 163.154753)

LINESTRING (480.000000 80.000000, 330.011965 81.894546)

LINESTRING (480.000000 80.000000, 397.506581 81.042001)

LINESTRING (397.506581 81.042001, 330.011965 81.894546)

LINESTRING (480.000000 80.000000, 362.568900 -13.327042)

LINESTRING (480.000000 80.000000, 415.412895 28.670127)

LINESTRING (415.412895 28.670127, 362.568900 -13.327042)

LINESTRING (480.000000 80.000000, 437.732066 -63.921582)

LINESTRING (480.000000 80.000000, 456.752636 0.843130)

LINESTRING (456.752636 0.843130, 437.732066 -63.921582)

LINESTRING (480.000000 80.000000, 527.662366 -62.226224)

LINESTRING (480.000000 80.000000, 506.214301 1.775577)

LINESTRING (506.214301 1.775577, 527.662366 -62.226224)

LINESTRING (480.000000 80.000000, 598.226976 -12.316748)

LINESTRING (480.000000 80.000000, 545.024837 29.225788)

LINESTRING (545.024837 29.225788, 598.226976 -12.316748)

LINESTRING (629.870190 73.760908, 595.634447 175.544099)

LINESTRING (595.634447 175.544099, 537.264208 218.639138)

LINESTRING (537.264208 218.639138, 434.325787 222.877102)

LINESTRING (434.325787 222.877102, 355.158953 163.154753)

LINESTRING (355.158953 163.154753, 330.011965 81.894546)

LINESTRING (330.011965 81.894546, 362.568900 -13.327042)

LINESTRING (362.568900 -13.327042, 437.732066 -63.921582)

LINESTRING (437.732066 -63.921582, 527.662366 -62.226224)

LINESTRING (527.662366 -62.226224, 598.226976 -12.316748)

LINESTRING (598.226976 -12.316748, 629.870190 73.760908)

LINESTRING (80.000000 80.000000, 280.000000 80.000000)

LINESTRING (280.000000 80.000000, 480.000000 80.000000)

