LINESTRING (480.131261 395.271733, 466.332023 433.621348)

LINESTRING (466.332023 433.621348, 449.070492 462.024363)

LINESTRING (449.070492 462.024363, 422.389105 459.392942)

LINESTRING (422.389105 459.392942, 385.487619 472.191764)

LINESTRING (385.487619 472.191764, 387.998194 461.957576)

LINESTRING (387.998194 461.957576, 339.686576 472.320261)

LINESTRING (339.686576 472.320261, 315.518047 429.879537)

LINESTRING (315.518047 429.879537, 313.010508 415.297911)

LINESTRING (313.010508 415.297911, 328.538562 364.095458)

LINESTRING (328.538562 364.095458, 332.687355 363.294011)

LINESTRING (332.687355 363.294011, 369.049030 336.286171)

LINESTRING (369.049030 336.286171, 389.802257 314.450967)

LINESTRING (389.802257 314.450967, 433.979316 315.559014)

LINESTRING (433.979316 315.559014, 463.161978 344.116187)

LINESTRING (463.161978 344.116187, 484.571330 372.467559)

LINESTRING (484.571330 372.467559, 480.131261 395.271733)

LINESTRING (545.249138 398.587677, 557.828751 446.983985)

LINESTRING (557.828751 446.983985, 514.233386 501.308138)

LINESTRING (514.233386 501.308138, 478.891123 550.919803)

LINESTRING (478.891123 550.919803, 397.500946 570.404883)

LINESTRING (397.500946 570.404883, 348.249876 542.909570)

LINESTRING (348.249876 542.909570, 289.633876 525.078707)

LINESTRING (289.633876 525.078707, 271.000369 478.362728)

LINESTRING (271.000369 478.362728, 226.157620 418.378205)

LINESTRING (226.157620 418.378205, 260.633859 341.509678)

LINESTRING (260.633859 341.509678, 296.795256 281.822343)

LINESTRING (296.795256 281.822343, 322.677369 251.249130)

LINESTRING (322.677369 251.249130, 387.670422 223.230902)

LINESTRING (387.670422 223.230902, 441.749416 269.599751)

LINESTRING (441.749416 269.599751, 524.091613 281.050098)

LINESTRING (524.091613 281.050098, 551.043354 340.602821)

LINESTRING (551.043354 340.602821, 545.249138 398.587677)

LINESTRING (652.385412 381.532110, 617.388790 503.755686)

LINESTRING (617.388790 503.755686, 558.150587 561.703227)

LINESTRING (558.150587 561.703227, 483.651028 617.004817)

LINESTRING (483.651028 617.004817, 418.289788 635.833763)

LINESTRING (418.289788 635.833763, 320.120584 637.613157)

LINESTRING (320.120584 637.613157, 248.050555 586.291577)

LINESTRING (248.050555 586.291577, 167.198081 478.835166)

LINESTRING (167.198081 478.835166, 149.311671 381.202498)

LINESTRING (149.311671 381.202498, 194.368578 323.817904)

LINESTRING (194.368578 323.817904, 233.942918 236.754017)

LINESTRING (233.942918 236.754017, 309.011970 195.010399)

LINESTRING (309.011970 195.010399, 399.101911 171.487459)

LINESTRING (399.101911 171.487459, 495.805637 192.202077)

LINESTRING (495.805637 192.202077, 568.168186 246.510971)

LINESTRING (568.168186 246.510971, 626.546498 319.641156)

LINESTRING (626.546498 319.641156, 652.385412 381.532110)

LINESTRING (725.495984 400.670128, 681.580745 529.498454)

LINESTRING (681.580745 529.498454, 627.351731 639.504007)

LINESTRING (627.351731 639.504007, 513.814851 694.462283)

LINESTRING (513.814851 694.462283, 410.857642 703.769261)

LINESTRING (410.857642 703.769261, 270.172500 676.136798)

LINESTRING (270.172500 676.136798, 156.838188 607.331552)

LINESTRING (156.838188 607.331552, 94.847116 527.449627)

LINESTRING (94.847116 527.449627, 76.708396 413.345391)

LINESTRING (76.708396 413.345391, 93.298139 276.707626)

LINESTRING (93.298139 276.707626, 190.409094 156.855382)

LINESTRING (190.409094 156.855382, 266.483267 113.225820)

LINESTRING (266.483267 113.225820, 407.435335 72.970717)

LINESTRING (407.435335 72.970717, 536.188652 93.067290)

LINESTRING (536.188652 93.067290, 635.727794 192.891938)

LINESTRING (635.727794 192.891938, 692.075285 260.759820)

LINESTRING (692.075285 260.759820, 725.495984 400.670128)

LINESTRING (785.681389 402.978477, 766.844021 551.660478)

LINESTRING (766.844021 551.660478, 684.449405 674.781932)

LINESTRING (684.449405 674.781932, 551.076083 775.292658)

LINESTRING (551.076083 775.292658, 391.115795 803.593562)

LINESTRING (391.115795 803.593562, 247.225560 762.188937)

LINESTRING (247.225560 762.188937, 99.818275 682.070954)

LINESTRING (99.818275 682.070954, 46.543310 572.673877)

LINESTRING (46.543310 572.673877, 15.609834 411.563215)

LINESTRING (15.609834 411.563215, 42.014369 254.044994)

LINESTRING (42.014369 254.044994, 116.279365 134.079701)

LINESTRING (116.279365 134.079701, 237.114814 35.737710)

LINESTRING (237.114814 35.737710, 395.649955 4.603447)

LINESTRING (395.649955 4.603447, 569.994956 20.804464)

LINESTRING (569.994956 20.804464, 670.902018 101.036121)

LINESTRING (670.902018 101.036121, 779.249887 250.292486)

LINESTRING (779.249887 250.292486, 785.681389 402.978477)

LINESTRING (887.308114 383.976285, 851.654937 579.710352)

LINESTRING (851.654937 579.710352, 735.113593 753.759167)

LINESTRING (735.113593 753.759167, 581.680493 837.720071)

LINESTRING (581.680493 837.720071, 389.868182 860.256882)

LINESTRING (389.868182 860.256882, 227.639090 832.499121)

LINESTRING (227.639090 832.499121, 56.410419 748.682122)

LINESTRING (56.410419 748.682122, -40.484810 590.394102)

LINESTRING (-40.484810 590.394102, -72.669350 387.593120)

LINESTRING (-72.669350 387.593120, -58.760252 210.339203)

LINESTRING (-58.760252 210.339203, 78.158330 70.417210)

LINESTRING (78.158330 70.417210, 223.801979 -55.417982)

LINESTRING (223.801979 -55.417982, 389.216241 -92.292545)

LINESTRING (389.216241 -92.292545, 570.176069 -46.661514)

LINESTRING (570.176069 -46.661514, 758.804400 57.476271)

LINESTRING (758.804400 57.476271, 853.673808 232.117041)

LINESTRING (853.673808 232.117041, 887.308114 383.976285)

LINESTRING (964.955940 408.386465, 910.773271 628.492832)

LINESTRING (910.773271 628.492832, 782.993963 813.612502)

LINESTRING (782.993963 813.612502, 606.391410 935.363130)

LINESTRING (606.391410 935.363130, 384.117300 950.436308)

LINESTRING (384.117300 950.436308, 179.310540 906.144468)

LINESTRING (179.310540 906.144468, 7.071999 813.194164)

LINESTRING (7.071999 813.194164, -112.089770 605.792497)

LINESTRING (-112.089770 605.792497, -173.697387 404.927495)

LINESTRING (-173.697387 404.927495, -133.039590 200.570409)

LINESTRING (-133.039590 200.570409, -7.557010 23.290693)

LINESTRING (-7.557010 23.290693, 186.338524 -123.736670)

LINESTRING (186.338524 -123.736670, 407.257335 -176.640098)

LINESTRING (407.257335 -176.640098, 602.592619 -100.388647)

LINESTRING (602.592619 -100.388647, 805.083916 -8.489101)

LINESTRING (805.083916 -8.489101, 917.557050 173.096962)

LINESTRING (917.557050 173.096962, 964.955940 408.386465)

LINESTRING (1052.522217 383.384634, 1001.054822 635.207651)

LINESTRING (1001.054822 635.207651, 861.480813 836.768571)

LINESTRING (861.480813 836.768571, 664.513657 1008.437172)

LINESTRING (664.513657 1008.437172, 394.398557 1025.094708)

LINESTRING (394.398557 1025.094708, 148.762690 1008.229638)

LINESTRING (148.762690 1008.229638, -58.932043 852.258077)

LINESTRING (-58.932043 852.258077, -174.988585 662.843284)

LINESTRING (-174.988585 662.843284, -241.004838 415.168790)

LINESTRING (-241.004838 415.168790, -190.097056 139.892393)

LINESTRING (-190.097056 139.892393, -37.984738 -37.260107)

LINESTRING (-37.984738 -37.260107, 138.946234 -202.614879)

LINESTRING (138.946234 -202.614879, 393.714501 -227.919747)

LINESTRING (393.714501 -227.919747, 639.930691 -202.420795)

LINESTRING (639.930691 -202.420795, 853.122570 -65.868097)

LINESTRING (853.122570 -65.868097, 974.666216 157.336757)

LINESTRING (974.666216 157.336757, 1052.522217 383.384634)

LINESTRING (480.131261 395.271733, 545.249138 398.587677)

LINESTRING (545.249138 398.587677, 652.385412 381.532110)

LINESTRING (652.385412 381.532110, 725.495984 400.670128)

LINESTRING (725.495984 400.670128, 785.681389 402.978477)

LINESTRING (785.681389 402.978477, 887.308114 383.976285)

LINESTRING (887.308114 383.976285, 964.955940 408.386465)

LINESTRING (964.955940 408.386465, 1052.522217 383.384634)

LINESTRING (466.332023 433.621348, 557.828751 446.983985)

LINESTRING (557.828751 446.983985, 617.388790 503.755686)

LINESTRING (617.388790 503.755686, 681.580745 529.498454)

LINESTRING (681.580745 529.498454, 766.844021 551.660478)

LINESTRING (766.844021 551.660478, 851.654937 579.710352)

LINESTRING (851.654937 579.710352, 910.773271 628.492832)

LINESTRING (910.773271 628.492832, 1001.054822 635.207651)

LINESTRING (449.070492 462.024363, 514.233386 501.308138)

LINESTRING (514.233386 501.308138, 558.150587 561.703227)

LINESTRING (558.150587 561.703227, 627.351731 639.504007)

LINESTRING (627.351731 639.504007, 684.449405 674.781932)

LINESTRING (684.449405 674.781932, 735.113593 753.759167)

LINESTRING (735.113593 753.759167, 782.993963 813.612502)

LINESTRING (782.993963 813.612502, 861.480813 836.768571)

LINESTRING (422.389105 459.392942, 478.891123 550.919803)

LINESTRING (478.891123 550.919803, 483.651028 617.004817)

LINESTRING (483.651028 617.004817, 513.814851 694.462283)

LINESTRING (513.814851 694.462283, 551.076083 775.292658)

LINESTRING (551.076083 775.292658, 581.680493 837.720071)

LINESTRING (581.680493 837.720071, 606.391410 935.363130)

LINESTRING (606.391410 935.363130, 664.513657 1008.437172)

LINESTRING (385.487619 472.191764, 397.500946 570.404883)

LINESTRING (397.500946 570.404883, 418.289788 635.833763)

LINESTRING (418.289788 635.833763, 410.857642 703.769261)

LINESTRING (410.857642 703.769261, 391.115795 803.593562)

LINESTRING (391.115795 803.593562, 389.868182 860.256882)

LINESTRING (389.868182 860.256882, 384.117300 950.436308)

LINESTRING (384.117300 950.436308, 394.398557 1025.094708)

LINESTRING (387.998194 461.957576, 348.249876 542.909570)

LINESTRING (348.249876 542.909570, 320.120584 637.613157)

LINESTRING (320.120584 637.613157, 270.172500 676.136798)

LINESTRING (270.172500 676.136798, 247.225560 762.188937)

LINESTRING (247.225560 762.188937, 227.639090 832.499121)

LINESTRING (227.639090 832.499121, 179.310540 906.144468)

LINESTRING (179.310540 906.144468, 148.762690 1008.229638)

LINESTRING (339.686576 472.320261, 289.633876 525.078707)

LINESTRING (289.633876 525.078707, 248.050555 586.291577)

LINESTRING (248.050555 586.291577, 156.838188 607.331552)

LINESTRING (156.838188 607.331552, 99.818275 682.070954)

LINESTRING (99.818275 682.070954, 56.410419 748.682122)

LINESTRING (56.410419 748.682122, 7.071999 813.194164)

LINESTRING (7.071999 813.194164, -58.932043 852.258077)

LINESTRING (315.518047 429.879537, 271.000369 478.362728)

LINESTRING (271.000369 478.362728, 167.198081 478.835166)

LINESTRING (167.198081 478.835166, 94.847116 527.449627)

LINESTRING (94.847116 527.449627, 46.543310 572.673877)

LINESTRING (46.543310 572.673877, -40.484810 590.394102)

LINESTRING (-40.484810 590.394102, -112.089770 605.792497)

LINESTRING (-112.089770 605.792497, -174.988585 662.843284)

LINESTRING (313.010508 415.297911, 226.157620 418.378205)

LINESTRING (226.157620 418.378205, 149.311671 381.202498)

LINESTRING (149.311671 381.202498, 76.708396 413.345391)

LINESTRING (76.708396 413.345391, 15.609834 411.563215)

LINESTRING (15.609834 411.563215, -72.669350 387.593120)

LINESTRING (-72.669350 387.593120, -173.697387 404.927495)

LINESTRING (-173.697387 404.927495, -241.004838 415.168790)

LINESTRING (328.538562 364.095458, 260.633859 341.509678)

LINESTRING (260.633859 341.509678, 194.368578 323.817904)

LINESTRING (194.368578 323.817904, 93.298139 276.707626)

LINESTRING (93.298139 276.707626, 42.014369 254.044994)

LINESTRING (42.014369 254.044994, -58.760252 210.339203)

LINESTRING (-58.760252 210.339203, -133.039590 200.570409)

LINESTRING (-133.039590 200.570409, -190.097056 139.892393)

LINESTRING (332.687355 363.294011, 296.795256 281.822343)

LINESTRING (296.795256 281.822343, 233.942918 236.754017)

LINESTRING (233.942918 236.754017, 190.409094 156.855382)

LINESTRING (190.409094 156.855382, 116.279365 134.079701)

LINESTRING (116.279365 134.079701, 78.158330 70.417210)

LINESTRING (78.158330 70.417210, -7.557010 23.290693)

LINESTRING (-7.557010 23.290693, -37.984738 -37.260107)

LINESTRING (369.049030 336.286171, 322.677369 251.249130)

LINESTRING (322.677369 251.249130, 309.011970 195.010399)

LINESTRING (309.011970 195.010399, 266.483267 113.225820)

LINESTRING (266.483267 113.225820, 237.114814 35.737710)

LINESTRING (237.114814 35.737710, 223.801979 -55.417982)

LINESTRING (223.801979 -55.417982, 186.338524 -123.736670)

LINESTRING (186.338524 -123.736670, 138.946234 -202.614879)

LINESTRING (389.802257 314.450967, 387.670422 223.230902)

LINESTRING (387.670422 223.230902, 399.101911 171.487459)

LINESTRING (399.101911 171.487459, 407.435335 72.970717)

LINESTRING (407.435335 72.970717, 395.649955 4.603447)

LINESTRING (395.649955 4.603447, 389.216241 -92.292545)

LINESTRING (389.216241 -92.292545, 407.257335 -176.640098)

LINESTRING (407.257335 -176.640098, 393.714501 -227.919747)

LINESTRING (433.979316 315.559014, 441.749416 269.599751)

LINESTRING (441.749416 269.599751, 495.805637 192.202077)

LINESTRING (495.805637 192.202077, 536.188652 93.067290)

LINESTRING (536.188652 93.067290, 569.994956 20.804464)

LINESTRING (569.994956 20.804464, 570.176069 -46.661514)

LINESTRING (570.176069 -46.661514, 602.592619 -100.388647)

LINESTRING (602.592619 -100.388647, 639.930691 -202.420795)

LINESTRING (463.161978 344.116187, 524.091613 281.050098)

LINESTRING (524.091613 281.050098, 568.168186 246.510971)

LINESTRING (568.168186 246.510971, 635.727794 192.891938)

LINESTRING (635.727794 192.891938, 670.902018 101.036121)

LINESTRING (670.902018 101.036121, 758.804400 57.476271)

LINESTRING (758.804400 57.476271, 805.083916 -8.489101)

LINESTRING (805.083916 -8.489101, 853.122570 -65.868097)

LINESTRING (484.571330 372.467559, 551.043354 340.602821)

LINESTRING (551.043354 340.602821, 626.546498 319.641156)

LINESTRING (626.546498 319.641156, 692.075285 260.759820)

LINESTRING (692.075285 260.759820, 779.249887 250.292486)

LINESTRING (779.249887 250.292486, 853.673808 232.117041)

LINESTRING (853.673808 232.117041, 917.557050 173.096962)

LINESTRING (917.557050 173.096962, 974.666216 157.336757)

LINESTRING (400.000000 400.000000, 480.131261 395.271733)

