LINESTRING (3866.074271 3225.792276, 4123.562497 4590.245194)

LINESTRING (3866.074271 3225.792276, 4296.140016 3090.872509)

LINESTRING (3866.074271 3225.792276, 4421.157091 3297.460366)

LINESTRING (3866.074271 3225.792276, 3314.216514 3290.340895)

LINESTRING (3866.074271 3225.792276, 4533.084393 4755.536632)

LINESTRING (3866.074271 3225.792276, 2283.849594 3837.539537)

LINESTRING (6021.393976 1347.564390, 5490.268550 1556.846406)

LINESTRING (6021.393976 1347.564390, 4648.840766 987.321935)

LINESTRING (6021.393976 1347.564390, 6301.649123 599.769817)

LINESTRING (6021.393976 1347.564390, 6293.415915 1874.915977)

LINESTRING (6021.393976 1347.564390, 6130.815183 1519.024611)

LINESTRING (5792.367102 2375.190357, 5658.859789 3752.484963)

LINESTRING (5792.367102 2375.190357, 4620.082093 3216.304180)

LINESTRING (5792.367102 2375.190357, 5978.827006 2146.714376)

LINESTRING (5792.367102 2375.190357, 7078.105183 2089.840030)

LINESTRING (5792.367102 2375.190357, 7190.043659 2793.751133)

LINESTRING (1138.785187 644.852933, 2118.138230 1158.558230)

LINESTRING (1138.785187 644.852933, 1636.573115 780.273408)

LINESTRING (1138.785187 644.852933, 1007.438258 259.098007)

LINESTRING (1138.785187 644.852933, 1671.995706 645.058940)

LINESTRING (7392.901178 4993.549135, 6287.666432 4503.651674)

LINESTRING (7392.901178 4993.549135, 7904.277692 6264.411886)

LINESTRING (1602.047788 7440.430891, 3150.106916 8022.710782)

LINESTRING (1602.047788 7440.430891, 1974.105106 7678.940800)

LINESTRING (1602.047788 7440.430891, 2997.957190 7656.347355)

LINESTRING (1602.047788 7440.430891, 1785.995339 8196.465390)

LINESTRING (1602.047788 7440.430891, 1881.227749 7491.612092)

LINESTRING (5490.268550 1556.846406, 4293.578493 1503.437954)

LINESTRING (5490.268550 1556.846406, 4813.408640 3132.630968)

LINESTRING (5490.268550 1556.846406, 4966.851036 599.263095)

LINESTRING (5490.268550 1556.846406, 4528.127725 356.283235)

LINESTRING (5490.268550 1556.846406, 6744.965131 1737.313735)

LINESTRING (5490.268550 1556.846406, 6293.415915 1874.915977)

LINESTRING (5490.268550 1556.846406, 6130.815183 1519.024611)

LINESTRING (4054.513260 950.326041, 4648.840766 987.321935)

LINESTRING (4054.513260 950.326041, 4966.851036 599.263095)

LINESTRING (4054.513260 950.326041, 4528.127725 356.283235)

LINESTRING (4912.034350 7118.431666, 5172.250588 7660.651002)

LINESTRING (4912.034350 7118.431666, 6086.256327 6089.092917)

LINESTRING (4912.034350 7118.431666, 3975.702829 7446.539132)

LINESTRING (4912.034350 7118.431666, 4447.972144 6178.918008)

LINESTRING (4293.578493 1503.437954, 4648.840766 987.321935)

LINESTRING (4293.578493 1503.437954, 4421.157091 3297.460366)

LINESTRING (4293.578493 1503.437954, 4528.127725 356.283235)

LINESTRING (5658.859789 3752.484963, 3987.018067 3894.881961)

LINESTRING (5658.859789 3752.484963, 4123.562497 4590.245194)

LINESTRING (5658.859789 3752.484963, 5978.827006 2146.714376)

LINESTRING (3987.018067 3894.881961, 2637.885426 4629.881778)

LINESTRING (7256.018733 4311.396706, 7847.047995 4361.634801)

LINESTRING (7256.018733 4311.396706, 6287.666432 4503.651674)

LINESTRING (7256.018733 4311.396706, 6916.186376 2770.882923)

LINESTRING (7256.018733 4311.396706, 7190.043659 2793.751133)

LINESTRING (2565.159165 7171.923193, 2929.505044 6828.568090)

LINESTRING (2565.159165 7171.923193, 3975.702829 7446.539132)

LINESTRING (4620.082093 3216.304180, 4123.562497 4590.245194)

LINESTRING (4620.082093 3216.304180, 4813.408640 3132.630968)

LINESTRING (4620.082093 3216.304180, 4296.140016 3090.872509)

LINESTRING (4620.082093 3216.304180, 4421.157091 3297.460366)

LINESTRING (4620.082093 3216.304180, 3314.216514 3290.340895)

LINESTRING (2637.885426 4629.881778, 4123.562497 4590.245194)

LINESTRING (2637.885426 4629.881778, 2343.495451 4557.227943)

LINESTRING (2637.885426 4629.881778, 3530.318531 5720.550940)

LINESTRING (2637.885426 4629.881778, 2756.438355 5077.025048)

LINESTRING (2637.885426 4629.881778, 2458.104496 3343.265329)

LINESTRING (1548.557867 6108.718245, 2343.495451 4557.227943)

LINESTRING (1548.557867 6108.718245, 1974.105106 7678.940800)

LINESTRING (1548.557867 6108.718245, 668.258755 4974.165137)

LINESTRING (1548.557867 6108.718245, 1881.227749 7491.612092)

LINESTRING (6028.930922 615.236512, 6301.649123 599.769817)

LINESTRING (6028.930922 615.236512, 5978.827006 2146.714376)

LINESTRING (6028.930922 615.236512, 6744.965131 1737.313735)

LINESTRING (6028.930922 615.236512, 6490.437668 659.920906)

LINESTRING (6028.930922 615.236512, 7131.361965 371.878259)

LINESTRING (452.624621 1698.341838, 336.840668 1321.133500)

LINESTRING (452.624621 1698.341838, 1636.573115 780.273408)

LINESTRING (4648.840766 987.321935, 4966.851036 599.263095)

LINESTRING (4648.840766 987.321935, 6130.815183 1519.024611)

LINESTRING (4123.562497 4590.245194, 4533.084393 4755.536632)

LINESTRING (3150.106916 8022.710782, 4089.672479 8179.416852)

LINESTRING (3150.106916 8022.710782, 2929.505044 6828.568090)

LINESTRING (3150.106916 8022.710782, 2997.957190 7656.347355)

LINESTRING (3150.106916 8022.710782, 1881.227749 7491.612092)

LINESTRING (5172.250588 7660.651002, 3904.089473 7428.736408)

LINESTRING (5172.250588 7660.651002, 3975.702829 7446.539132)

LINESTRING (5172.250588 7660.651002, 4447.972144 6178.918008)

LINESTRING (5172.250588 7660.651002, 5394.978582 7933.597523)

LINESTRING (4813.408640 3132.630968, 4296.140016 3090.872509)

LINESTRING (4813.408640 3132.630968, 4421.157091 3297.460366)

LINESTRING (2343.495451 4557.227943, 2458.104496 3343.265329)

LINESTRING (4089.672479 8179.416852, 3975.702829 7446.539132)

LINESTRING (1004.753996 6749.978500, 1475.054049 5277.670774)

LINESTRING (6301.649123 599.769817, 4966.851036 599.263095)

LINESTRING (6301.649123 599.769817, 4528.127725 356.283235)

LINESTRING (6301.649123 599.769817, 6490.437668 659.920906)

LINESTRING (6301.649123 599.769817, 7131.361965 371.878259)

LINESTRING (1475.054049 5277.670774, 2756.438355 5077.025048)

LINESTRING (1475.054049 5277.670774, 2227.846845 3908.008398)

LINESTRING (2583.082430 1644.066280, 1636.573115 780.273408)

LINESTRING (2583.082430 1644.066280, 2458.104496 3343.265329)

LINESTRING (7539.372240 1790.670548, 7078.105183 2089.840030)

LINESTRING (7539.372240 1790.670548, 6744.965131 1737.313735)

LINESTRING (7539.372240 1790.670548, 7190.043659 2793.751133)

LINESTRING (7539.372240 1790.670548, 6293.415915 1874.915977)

LINESTRING (2929.505044 6828.568090, 3975.702829 7446.539132)

LINESTRING (2929.505044 6828.568090, 1881.227749 7491.612092)

LINESTRING (2929.505044 6828.568090, 3420.532742 6252.876421)

LINESTRING (4296.140016 3090.872509, 4421.157091 3297.460366)

LINESTRING (3904.089473 7428.736408, 3975.702829 7446.539132)

LINESTRING (2083.380570 2116.977559, 3314.216514 3290.340895)

LINESTRING (2083.380570 2116.977559, 1671.995706 645.058940)

LINESTRING (4421.157091 3297.460366, 4533.084393 4755.536632)

LINESTRING (4966.851036 599.263095, 4528.127725 356.283235)

LINESTRING (5978.827006 2146.714376, 6490.437668 659.920906)

LINESTRING (5978.827006 2146.714376, 6293.415915 1874.915977)

LINESTRING (2562.511428 3751.327738, 3314.216514 3290.340895)

LINESTRING (2562.511428 3751.327738, 2227.846845 3908.008398)

LINESTRING (2562.511428 3751.327738, 2458.104496 3343.265329)

LINESTRING (2562.511428 3751.327738, 2283.849594 3837.539537)

LINESTRING (6287.666432 4503.651674, 4533.084393 4755.536632)

LINESTRING (6086.256327 6089.092917, 4447.972144 6178.918008)

LINESTRING (3975.702829 7446.539132, 4447.972144 6178.918008)

LINESTRING (3975.702829 7446.539132, 2997.957190 7656.347355)

LINESTRING (6916.186376 2770.882923, 7078.105183 2089.840030)

LINESTRING (6916.186376 2770.882923, 7190.043659 2793.751133)

LINESTRING (6916.186376 2770.882923, 6130.815183 1519.024611)

LINESTRING (1974.105106 7678.940800, 1785.995339 8196.465390)

LINESTRING (1974.105106 7678.940800, 1881.227749 7491.612092)

LINESTRING (2118.138230 1158.558230, 1636.573115 780.273408)

LINESTRING (2118.138230 1158.558230, 1007.438258 259.098007)

LINESTRING (1636.573115 780.273408, 1671.995706 645.058940)

LINESTRING (7078.105183 2089.840030, 6744.965131 1737.313735)

LINESTRING (7078.105183 2089.840030, 8071.798046 982.636600)

LINESTRING (7078.105183 2089.840030, 6130.815183 1519.024611)

LINESTRING (3530.318531 5720.550940, 4533.084393 4755.536632)

LINESTRING (3530.318531 5720.550940, 3420.532742 6252.876421)

LINESTRING (2756.438355 5077.025048, 2227.846845 3908.008398)

LINESTRING (6744.965131 1737.313735, 6490.437668 659.920906)

LINESTRING (6744.965131 1737.313735, 7190.043659 2793.751133)

LINESTRING (6744.965131 1737.313735, 6293.415915 1874.915977)

LINESTRING (6744.965131 1737.313735, 8071.798046 982.636600)

LINESTRING (6744.965131 1737.313735, 6130.815183 1519.024611)

LINESTRING (478.211896 2722.834078, 2006.542615 3085.299350)

LINESTRING (478.211896 2722.834078, 809.333059 4329.814789)

LINESTRING (6490.437668 659.920906, 6293.415915 1874.915977)

LINESTRING (6490.437668 659.920906, 8071.798046 982.636600)

LINESTRING (6490.437668 659.920906, 7131.361965 371.878259)

LINESTRING (4447.972144 6178.918008, 4533.084393 4755.536632)

LINESTRING (668.258755 4974.165137, 809.333059 4329.814789)

LINESTRING (2997.957190 7656.347355, 1881.227749 7491.612092)

LINESTRING (2227.846845 3908.008398, 2458.104496 3343.265329)

LINESTRING (2227.846845 3908.008398, 809.333059 4329.814789)

LINESTRING (2227.846845 3908.008398, 2283.849594 3837.539537)

LINESTRING (2006.542615 3085.299350, 2458.104496 3343.265329)

LINESTRING (2006.542615 3085.299350, 809.333059 4329.814789)

LINESTRING (2006.542615 3085.299350, 2283.849594 3837.539537)

LINESTRING (6293.415915 1874.915977, 6130.815183 1519.024611)

LINESTRING (2458.104496 3343.265329, 2283.849594 3837.539537)

