LINESTRING (60.000000 60.000000, 100.000000 60.000000)

LINESTRING (60.000000 60.000000, 140.000000 60.000000)

LINESTRING (60.000000 60.000000, 180.000000 60.000000)

LINESTRING (60.000000 60.000000, 60.000000 100.000000)

LINESTRING (60.000000 60.000000, 100.000000 100.000000)

LINESTRING (60.000000 60.000000, 140.000000 100.000000)

LINESTRING (60.000000 60.000000, 180.000000 100.000000)

LINESTRING (60.000000 60.000000, 60.000000 140.000000)

LINESTRING (60.000000 60.000000, 100.000000 140.000000)

LINESTRING (60.000000 60.000000, 140.000000 140.000000)

LINESTRING (60.000000 60.000000, 180.000000 140.000000)

LINESTRING (60.000000 60.000000, 60.000000 180.000000)

LINESTRING (60.000000 60.000000, 100.000000 180.000000)

LINESTRING (100.000000 60.000000, 140.000000 60.000000)

LINESTRING (100.000000 60.000000, 180.000000 60.000000)

LINESTRING (100.000000 60.000000, 60.000000 100.000000)

LINESTRING (100.000000 60.000000, 100.000000 100.000000)

LINESTRING (100.000000 60.000000, 140.000000 100.000000)

LINESTRING (100.000000 60.000000, 180.000000 100.000000)

LINESTRING (100.000000 60.000000, 100.000000 140.000000)

LINESTRING (100.000000 60.000000, 140.000000 140.000000)

LINESTRING (100.000000 60.000000, 180.000000 140.000000)

LINESTRING (100.000000 60.000000, 60.000000 180.000000)

LINESTRING (100.000000 60.000000, 100.000000 180.000000)

LINESTRING (100.000000 60.000000, 140.000000 180.000000)

LINESTRING (140.000000 60.000000, 180.000000 60.000000)

LINESTRING (140.000000 60.000000, 60.000000 100.000000)

LINESTRING (140.000000 60.000000, 100.000000 100.000000)

LINESTRING (140.000000 60.000000, 140.000000 100.000000)

LINESTRING (140.000000 60.000000, 180.000000 100.000000)

LINESTRING (140.000000 60.000000, 60.000000 140.000000)

LINESTRING (140.000000 60.000000, 100.000000 140.000000)

LINESTRING (140.000000 60.000000, 140.000000 140.000000)

LINESTRING (140.000000 60.000000, 180.000000 140.000000)

LINESTRING (140.000000 60.000000, 60.000000 180.000000)

LINESTRING (140.000000 60.000000, 100.000000 180.000000)

LINESTRING (180.000000 60.000000, 100.000000 100.000000)

LINESTRING (180.000000 60.000000, 180.000000 100.000000)

LINESTRING (180.000000 60.000000, 60.000000 140.000000)

LINESTRING (180.000000 60.000000, 140.000000 140.000000)

LINESTRING (180.000000 60.000000, 180.000000 140.000000)

LINESTRING (180.000000 60.000000, 60.000000 180.000000)

LINESTRING (180.000000 60.000000, 100.000000 180.000000)

LINESTRING (180.000000 60.000000, 140.000000 180.000000)

LINESTRING (60.000000 100.000000, 100.000000 100.000000)

LINESTRING (60.000000 100.000000, 140.000000 100.000000)

LINESTRING (60.000000 100.000000, 180.000000 100.000000)

LINESTRING (60.000000 100.000000, 60.000000 140.000000)

LINESTRING (60.000000 100.000000, 100.000000 140.000000)

LINESTRING (60.000000 100.000000, 140.000000 140.000000)

LINESTRING (60.000000 100.000000, 180.000000 140.000000)

LINESTRING (60.000000 100.000000, 100.000000 180.000000)

LINESTRING (60.000000 100.000000, 140.000000 180.000000)

LINESTRING (100.000000 100.000000, 60.000000 140.000000)

LINESTRING (100.000000 100.000000, 100.000000 140.000000)

LINESTRING (100.000000 100.000000, 140.000000 140.000000)

LINESTRING (100.000000 100.000000, 180.000000 140.000000)

LINESTRING (100.000000 100.000000, 60.000000 180.000000)

LINESTRING (100.000000 100.000000, 100.000000 180.000000)

LINESTRING (100.000000 100.000000, 140.000000 180.000000)

LINESTRING (140.000000 100.000000, 180.000000 100.000000)

LINESTRING (140.000000 100.000000, 60.000000 140.000000)

LINESTRING (140.000000 100.000000, 100.000000 140.000000)

LINESTRING (140.000000 100.000000, 140.000000 140.000000)

LINESTRING (140.000000 100.000000, 180.000000 140.000000)

LINESTRING (140.000000 100.000000, 60.000000 180.000000)

LINESTRING (180.000000 100.000000, 60.000000 140.000000)

LINESTRING (180.000000 100.000000, 100.000000 140.000000)

LINESTRING (180.000000 100.000000, 180.000000 140.000000)

LINESTRING (180.000000 100.000000, 60.000000 180.000000)

LINESTRING (180.000000 100.000000, 140.000000 180.000000)

LINESTRING (60.000000 140.000000, 100.000000 140.000000)

LINESTRING (60.000000 140.000000, 180.000000 140.000000)

LINESTRING (60.000000 140.000000, 60.000000 180.000000)

LINESTRING (60.000000 140.000000, 100.000000 180.000000)

LINESTRING (100.000000 140.000000, 140.000000 140.000000)

LINESTRING (100.000000 140.000000, 180.000000 140.000000)

LINESTRING (100.000000 140.000000, 60.000000 180.000000)

LINESTRING (100.000000 140.000000, 100.000000 180.000000)

LINESTRING (100.000000 140.000000, 140.000000 180.000000)

LINESTRING (140.000000 140.000000, 60.000000 180.000000)

LINESTRING (140.000000 140.000000, 100.000000 180.000000)

LINESTRING (140.000000 140.000000, 140.000000 180.000000)

LINESTRING (180.000000 140.000000, 60.000000 180.000000)

LINESTRING (180.000000 140.000000, 100.000000 180.000000)

LINESTRING (180.000000 140.000000, 140.000000 180.000000)

LINESTRING (100.000000 180.000000, 140.000000 180.000000)

LINESTRING (220.000000 120.000000, 190.710678 190.710678)

LINESTRING (220.000000 120.000000, 60.000000 60.000000)

LINESTRING (190.710678 190.710678, 120.000000 220.000000)

LINESTRING (190.710678 190.710678, 100.000000 60.000000)

LINESTRING (120.000000 220.000000, 49.289322 190.710678)

LINESTRING (120.000000 220.000000, 140.000000 60.000000)

LINESTRING (49.289322 190.710678, 20.000000 120.000000)

LINESTRING (49.289322 190.710678, 180.000000 60.000000)

LINESTRING (20.000000 120.000000, 49.289322 49.289322)

LINESTRING (20.000000 120.000000, 60.000000 100.000000)

LINESTRING (49.289322 49.289322, 120.000000 20.000000)

LINESTRING (49.289322 49.289322, 100.000000 100.000000)

LINESTRING (120.000000 20.000000, 190.710678 49.289322)

LINESTRING (120.000000 20.000000, 140.000000 100.000000)

LINESTRING (190.710678 49.289322, 220.000000 120.000000)

LINESTRING (190.710678 49.289322, 180.000000 100.000000)

