LINESTRING (80.000000 80.000000, 229.666775 70.007184)

LINESTRING (80.000000 80.000000, 162.316726 74.503951)

LINESTRING (162.316726 74.503951, 229.666775 70.007184)

LINESTRING (80.000000 80.000000, 194.794849 176.551243)

LINESTRING (80.000000 80.000000, 143.137167 133.103184)

LINESTRING (143.137167 133.103184, 194.794849 176.551243)

LINESTRING (80.000000 80.000000, 117.477676 225.242638)

LINESTRING (80.000000 80.000000, 100.612722 159.883451)

LINESTRING (100.612722 159.883451, 117.477676 225.242638)

LINESTRING (80.000000 80.000000, 40.004883 224.569674)

LINESTRING (80.000000 80.000000, 58.002686 159.513321)

LINESTRING (58.002686 159.513321, 40.004883 224.569674)

LINESTRING (80.000000 80.000000, -42.388749 166.723665)

LINESTRING (80.000000 80.000000, 12.686188 127.698016)

LINESTRING (12.686188 127.698016, -42.388749 166.723665)

LINESTRING (80.000000 80.000000, -69.629892 90.530684)

LINESTRING (80.000000 80.000000, -2.296441 85.791876)

LINESTRING (-2.296441 85.791876, -69.629892 90.530684)

LINESTRING (80.000000 80.000000, -36.264823 -14.776004)

LINESTRING (80.000000 80.000000, 16.054347 27.873198)

LINESTRING (16.054347 27.873198, -36.264823 -14.776004)

LINESTRING (80.000000 80.000000, 38.849180 -64.244965)

LINESTRING (80.000000 80.000000, 57.367049 0.665269)

LINESTRING (57.367049 0.665269, 38.849180 -64.244965)

LINESTRING (80.000000 80.000000, 116.672479 -65.448030)

LINESTRING (80.000000 80.000000, 100.169863 0.003584)

LINESTRING (100.169863 0.003584, 116.672479 -65.448030)

LINESTRING (80.000000 80.000000, 195.859332 -15.271271)

LINESTRING (80.000000 80.000000, 143.722633 27.600801)

LINESTRING (143.722633 27.600801, 195.859332 -15.271271)

LINESTRING (229.666775 70.007184, 194.794849 176.551243)

LINESTRING (194.794849 176.551243, 117.477676 225.242638)

LINESTRING (117.477676 225.242638, 40.004883 224.569674)

LINESTRING (40.004883 224.569674, -42.388749 166.723665)

LINESTRING (-42.388749 166.723665, -69.629892 90.530684)

LINESTRING (-69.629892 90.530684, -36.264823 -14.776004)

LINESTRING (-36.264823 -14.776004, 38.849180 -64.244965)

LINESTRING (38.849180 -64.244965, 116.672479 -65.448030)

LINESTRING (116.672479 -65.448030, 195.859332 -15.271271)

LINESTRING (195.859332 -15.271271, 229.666775 70.007184)

LINESTRING (280.000000 80.000000, 429.679222 70.195382)

LINESTRING (280.000000 80.000000, 362.323572 74.607460)

LINESTRING (362.323572 74.607460, 429.679222 70.195382)

LINESTRING (280.000000 80.000000, 404.551710 163.587508)

LINESTRING (280.000000 80.000000, 348.503440 125.973130)

LINESTRING (348.503440 125.973130, 404.551710 163.587508)

LINESTRING (280.000000 80.000000, 334.059002 219.920064)

LINESTRING (280.000000 80.000000, 309.732451 156.956035)

LINESTRING (309.732451 156.956035, 334.059002 219.920064)

LINESTRING (280.000000 80.000000, 227.665519 220.574187)

LINESTRING (280.000000 80.000000, 251.216036 157.315803)

LINESTRING (251.216036 157.315803, 227.665519 220.574187)

LINESTRING (280.000000 80.000000, 161.797633 172.348256)

LINESTRING (280.000000 80.000000, 214.988698 130.791541)

LINESTRING (214.988698 130.791541, 161.797633 172.348256)

LINESTRING (280.000000 80.000000, 130.000795 79.511732)

LINESTRING (280.000000 80.000000, 197.500437 79.731452)

LINESTRING (197.500437 79.731452, 130.000795 79.511732)

LINESTRING (280.000000 80.000000, 162.159702 -12.809828)

LINESTRING (280.000000 80.000000, 215.187836 28.954595)

LINESTRING (215.187836 28.954595, 162.159702 -12.809828)

LINESTRING (280.000000 80.000000, 237.716634 -63.917049)

LINESTRING (280.000000 80.000000, 256.744149 0.845623)

LINESTRING (256.744149 0.845623, 237.716634 -63.917049)

LINESTRING (280.000000 80.000000, 319.600130 -64.678366)

LINESTRING (280.000000 80.000000, 301.780072 0.426899)

LINESTRING (301.780072 0.426899, 319.600130 -64.678366)

LINESTRING (280.000000 80.000000, 399.404462 -10.788625)

LINESTRING (280.000000 80.000000, 345.672454 30.066256)

LINESTRING (345.672454 30.066256, 399.404462 -10.788625)

LINESTRING (429.679222 70.195382, 404.551710 163.587508)

LINESTRING (404.551710 163.587508, 334.059002 219.920064)

LINESTRING (334.059002 219.920064, 227.665519 220.574187)

LINESTRING (227.665519 220.574187, 161.797633 172.348256)

LINESTRING (161.797633 172.348256, 130.000795 79.511732)

LINESTRING (130.000795 79.511732, 162.159702 -12.809828)

LINESTRING (162.159702 -12.809828, 237.716634 -63.917049)

LINESTRING (237.716634 -63.917049, 319.600130 -64.678366)

LINESTRING (319.600130 -64.678366, 399.404462 -10.788625)

LINESTRING (399.404462 -10.788625, 429.679222 70.195382)

LINESTRING (480.000000 80.000000, 629.722280 70.876471)

LINESTRING (480.000000 80.000000, 562.347254 74.982059)

LINESTRING (562.347254 74.982059, 629.722280 70.876471)

LINESTRING (480.000000 80.000000, 599.868924 170.174504)

LINESTRING (480.000000 80.000000, 545.927908 129.595977)

LINESTRING (545.927908 129.595977, 599.868924 170.174504)

LINESTRING (480.000000 80.000000, 535.347548 219.415383)

LINESTRING (480.000000 80.000000, 510.441151 156.678461)

LINESTRING (510.441151 156.678461, 535.347548 219.415383)

LINESTRING (480.000000 80.000000, 434.137066 222.816635)

LINESTRING (480.000000 80.000000, 454.775386 158.549149)

LINESTRING (454.775386 158.549149, 434.137066 222.816635)

LINESTRING (480.000000 80.000000, 359.102723 168.791038)

LINESTRING (480.000000 80.000000, 413.506498 128.835071)

LINESTRING (413.506498 128.835071, 359.102723 168.791038)

LINESTRING (480.000000 80.000000, 330.160602 86.939368)

LINESTRING (480.000000 80.000000, 397.588331 83.816652)

LINESTRING (397.588331 83.816652, 330.160602 86.939368)

LINESTRING (480.000000 80.000000, 353.743375 -0.989287)

LINESTRING (480.000000 80.000000, 410.558856 35.455892)

LINESTRING (410.558856 35.455892, 353.743375 -0.989287)

LINESTRING (480.000000 80.000000, 423.699524 -59.033292)

LINESTRING (480.000000 80.000000, 449.034738 3.531689)

LINESTRING (449.034738 3.531689, 423.699524 -59.033292)

LINESTRING (480.000000 80.000000, 528.888236 -61.809521)

LINESTRING (480.000000 80.000000, 506.888530 2.004763)

LINESTRING (506.888530 2.004763, 528.888236 -61.809521)

LINESTRING (480.000000 80.000000, 605.976172 -1.424837)

LINESTRING (480.000000 80.000000, 549.286895 35.216340)

LINESTRING (549.286895 35.216340, 605.976172 -1.424837)

LINESTRING (629.722280 70.876471, 599.868924 170.174504)

LINESTRING (599.868924 170.174504, 535.347548 219.415383)

LINESTRING (535.347548 219.415383, 434.137066 222.816635)

LINESTRING (434.137066 222.816635, 359.102723 168.791038)

LINESTRING (359.102723 168.791038, 330.160602 86.939368)

LINESTRING (330.160602 86.939368, 353.743375 -0.989287)

LINESTRING (353.743375 -0.989287, 423.699524 -59.033292)

LINESTRING (423.699524 -59.033292, 528.888236 -61.809521)

LINESTRING (528.888236 -61.809521, 605.976172 -1.424837)

LINESTRING (605.976172 -1.424837, 629.722280 70.876471)

LINESTRING (80.000000 80.000000, 280.000000 80.000000)

LINESTRING (280.000000 80.000000, 480.000000 80.000000)

