LINESTRING (80.000000 80.000000, 156.305531 107.141763)

LINESTRING (156.305531 107.141763, 235.280388 94.272250)

LINESTRING (235.280388 94.272250, 298.068266 34.913641)

LINESTRING (298.068266 34.913641, 308.902340 -39.739765)

LINESTRING (308.902340 -39.739765, 286.032168 -123.409006)

LINESTRING (308.902340 -39.739765, 327.400061 -124.929105)

LINESTRING (308.902340 -39.739765, 360.409099 -95.580409)

LINESTRING (298.068266 34.913641, 363.779999 -16.950827)

LINESTRING (363.779999 -16.950827, 387.739330 -89.953152)

LINESTRING (363.779999 -16.950827, 428.842117 -74.451913)

LINESTRING (363.779999 -16.950827, 442.757420 -45.527590)

LINESTRING (298.068266 34.913641, 373.618496 23.864066)

LINESTRING (373.618496 23.864066, 439.704309 -26.818890)

LINESTRING (373.618496 23.864066, 458.080257 6.591663)

LINESTRING (373.618496 23.864066, 459.572850 50.528441)

LINESTRING (235.280388 94.272250, 307.489759 71.711892)

LINESTRING (307.489759 71.711892, 372.251740 10.901771)

LINESTRING (372.251740 10.901771, 383.317840 -64.145559)

LINESTRING (372.251740 10.901771, 426.135103 -41.063058)

LINESTRING (372.251740 10.901771, 450.691082 -12.628843)

LINESTRING (307.489759 71.711892, 381.338574 60.986981)

LINESTRING (381.338574 60.986981, 444.955408 9.574494)

LINESTRING (381.338574 60.986981, 453.886553 46.959897)

LINESTRING (381.338574 60.986981, 456.581523 86.378587)

LINESTRING (307.489759 71.711892, 384.746602 97.428469)

LINESTRING (384.746602 97.428469, 452.721897 76.327230)

LINESTRING (384.746602 97.428469, 460.360010 124.875992)

LINESTRING (384.746602 97.428469, 440.867495 162.350489)

LINESTRING (235.280388 94.272250, 309.855082 111.669830)

LINESTRING (309.855082 111.669830, 394.005013 88.361413)

LINESTRING (394.005013 88.361413, 441.017926 40.217010)

LINESTRING (394.005013 88.361413, 468.944520 66.798197)

LINESTRING (394.005013 88.361413, 464.536867 106.007053)

LINESTRING (309.855082 111.669830, 382.031076 135.534761)

LINESTRING (382.031076 135.534761, 456.697069 106.001115)

LINESTRING (382.031076 135.534761, 457.749352 151.727810)

LINESTRING (382.031076 135.534761, 437.070152 183.000450)

LINESTRING (309.855082 111.669830, 360.347210 170.898721)

LINESTRING (360.347210 170.898721, 432.194917 198.317009)

LINESTRING (360.347210 170.898721, 411.567701 233.522929)

LINESTRING (360.347210 170.898721, 389.783924 247.470588)

LINESTRING (156.305531 107.141763, 227.993490 133.910829)

LINESTRING (227.993490 133.910829, 311.781217 103.596140)

LINESTRING (311.781217 103.596140, 363.981270 37.242858)

LINESTRING (363.981270 37.242858, 375.894502 -41.140615)

LINESTRING (363.981270 37.242858, 426.901421 -15.602360)

LINESTRING (363.981270 37.242858, 447.861015 23.640983)

LINESTRING (311.781217 103.596140, 398.574693 85.008727)

LINESTRING (398.574693 85.008727, 456.893890 31.690666)

LINESTRING (398.574693 85.008727, 475.957977 66.259882)

LINESTRING (398.574693 85.008727, 473.986411 105.071256)

LINESTRING (311.781217 103.596140, 387.302297 128.576342)

LINESTRING (387.302297 128.576342, 465.662690 105.041036)

LINESTRING (387.302297 128.576342, 468.908373 139.472396)

LINESTRING (387.302297 128.576342, 438.825880 185.520227)

LINESTRING (227.993490 133.910829, 311.602016 147.491355)

LINESTRING (311.602016 147.491355, 379.274046 120.487744)

LINESTRING (379.274046 120.487744, 430.008487 64.259465)

LINESTRING (379.274046 120.487744, 464.951488 96.816516)

LINESTRING (379.274046 120.487744, 458.026586 134.456649)

LINESTRING (311.602016 147.491355, 385.711744 175.995021)

LINESTRING (385.711744 175.995021, 471.187834 150.963566)

LINESTRING (385.711744 175.995021, 463.552324 202.633015)

LINESTRING (385.711744 175.995021, 436.146495 224.401604)

LINESTRING (311.602016 147.491355, 377.208413 212.772363)

LINESTRING (377.208413 212.772363, 448.913637 232.919492)

LINESTRING (377.208413 212.772363, 428.039998 277.045164)

LINESTRING (377.208413 212.772363, 396.235444 287.600547)

LINESTRING (227.993490 133.910829, 285.633533 199.612581)

LINESTRING (285.633533 199.612581, 353.633592 215.430968)

LINESTRING (353.633592 215.430968, 424.654867 190.335499)

LINESTRING (353.633592 215.430968, 421.944602 237.340755)

LINESTRING (353.633592 215.430968, 415.183611 277.149165)

LINESTRING (285.633533 199.612581, 344.082684 252.142839)

LINESTRING (344.082684 252.142839, 415.112517 276.749501)

LINESTRING (344.082684 252.142839, 400.259593 312.106848)

LINESTRING (344.082684 252.142839, 360.550241 333.972808)

LINESTRING (285.633533 199.612581, 302.524104 274.989106)

LINESTRING (302.524104 274.989106, 350.241393 327.903661)

LINESTRING (302.524104 274.989106, 323.771610 352.626858)

LINESTRING (302.524104 274.989106, 289.175587 360.549436)

LINESTRING (156.305531 107.141763, 218.205364 164.767885)

LINESTRING (218.205364 164.767885, 290.209273 181.934873)

LINESTRING (290.209273 181.934873, 362.834669 155.075355)

LINESTRING (362.834669 155.075355, 422.821922 103.648438)

LINESTRING (362.834669 155.075355, 430.270315 142.195965)

LINESTRING (362.834669 155.075355, 443.897584 185.163834)

LINESTRING (290.209273 181.934873, 372.975917 209.726119)

LINESTRING (372.975917 209.726119, 442.347108 190.679877)

LINESTRING (372.975917 209.726119, 449.959440 221.728987)

LINESTRING (372.975917 209.726119, 425.589317 269.905555)

LINESTRING (290.209273 181.934873, 353.521995 237.262818)

LINESTRING (353.521995 237.262818, 430.851689 260.436588)

LINESTRING (353.521995 237.262818, 415.926714 289.541786)

LINESTRING (353.521995 237.262818, 379.218416 315.604117)

LINESTRING (218.205364 164.767885, 279.913811 229.049353)

LINESTRING (279.913811 229.049353, 364.036416 243.843414)

LINESTRING (364.036416 243.843414, 450.271800 217.812463)

LINESTRING (364.036416 243.843414, 438.166164 270.566223)

LINESTRING (364.036416 243.843414, 424.864970 295.041250)

LINESTRING (279.913811 229.049353, 340.205257 294.198345)

LINESTRING (340.205257 294.198345, 412.445589 323.666771)

LINESTRING (340.205257 294.198345, 389.324476 353.005561)

LINESTRING (340.205257 294.198345, 354.167171 365.754074)

LINESTRING (279.913811 229.049353, 299.765762 302.505156)

LINESTRING (299.765762 302.505156, 352.220704 365.819914)

LINESTRING (299.765762 302.505156, 311.001247 379.404298)

LINESTRING (299.765762 302.505156, 280.065857 387.523787)

LINESTRING (218.205364 164.767885, 237.928980 242.011497)

LINESTRING (237.928980 242.011497, 290.244906 299.896926)

LINESTRING (290.244906 299.896926, 374.429997 316.026577)

LINESTRING (290.244906 299.896926, 346.433987 349.310185)

LINESTRING (290.244906 299.896926, 306.691280 385.843469)

LINESTRING (237.928980 242.011497, 267.763433 328.365491)

LINESTRING (267.763433 328.365491, 328.465368 391.145296)

LINESTRING (267.763433 328.365491, 295.671315 411.415496)

LINESTRING (267.763433 328.365491, 247.383836 396.166431)

LINESTRING (237.928980 242.011497, 218.254957 329.011868)

LINESTRING (218.254957 329.011868, 235.179482 413.091486)

LINESTRING (218.254957 329.011868, 204.248769 411.327868)

LINESTRING (218.254957 329.011868, 168.319833 380.197293)

LINESTRING (80.000000 80.000000, 134.159453 132.179330)

LINESTRING (134.159453 132.179330, 219.264844 155.472042)

LINESTRING (219.264844 155.472042, 288.213370 128.600168)

LINESTRING (288.213370 128.600168, 336.421881 73.265564)

LINESTRING (336.421881 73.265564, 351.066542 -3.401852)

LINESTRING (336.421881 73.265564, 397.976400 11.638265)

LINESTRING (336.421881 73.265564, 405.613553 60.106147)

LINESTRING (288.213370 128.600168, 372.530267 113.033331)

LINESTRING (372.530267 113.033331, 420.832268 55.769669)

LINESTRING (372.530267 113.033331, 457.254314 90.522007)

LINESTRING (372.530267 113.033331, 445.038406 128.967798)

LINESTRING (288.213370 128.600168, 371.091909 142.878178)

LINESTRING (371.091909 142.878178, 444.183406 112.244860)

LINESTRING (371.091909 142.878178, 455.682594 158.488986)

LINESTRING (371.091909 142.878178, 436.643011 192.243787)

LINESTRING (219.264844 155.472042, 298.441879 172.329824)

LINESTRING (298.441879 172.329824, 368.379742 147.493845)

LINESTRING (368.379742 147.493845, 421.240728 90.560131)

LINESTRING (368.379742 147.493845, 443.676065 130.110839)

LINESTRING (368.379742 147.493845, 441.307838 166.102482)

LINESTRING (298.441879 172.329824, 384.624115 198.686069)

LINESTRING (384.624115 198.686069, 454.696877 169.584295)

LINESTRING (384.624115 198.686069, 456.385059 222.147817)

LINESTRING (384.624115 198.686069, 439.013457 264.790054)

LINESTRING (298.441879 172.329824, 355.099927 237.076538)

LINESTRING (355.099927 237.076538, 435.075113 251.817632)

LINESTRING (355.099927 237.076538, 420.701227 287.282757)

LINESTRING (355.099927 237.076538, 377.571972 316.893478)

LINESTRING (219.264844 155.472042, 283.649461 210.684421)

LINESTRING (283.649461 210.684421, 352.128080 225.920769)

LINESTRING (352.128080 225.920769, 438.802110 195.605801)

LINESTRING (352.128080 225.920769, 430.495812 249.803006)

LINESTRING (352.128080 225.920769, 410.213288 277.084559)

LINESTRING (283.649461 210.684421, 330.510969 267.604740)

LINESTRING (330.510969 267.604740, 413.301312 280.290583)

LINESTRING (330.510969 267.604740, 380.012746 329.642994)

LINESTRING (330.510969 267.604740, 359.442229 348.611997)

LINESTRING (283.649461 210.684421, 295.079016 290.452001)

LINESTRING (295.079016 290.452001, 354.263392 343.438188)

LINESTRING (295.079016 290.452001, 319.965239 376.482924)

LINESTRING (295.079016 290.452001, 271.754683 377.269440)

LINESTRING (134.159453 132.179330, 192.538563 181.099444)

LINESTRING (192.538563 181.099444, 267.032615 197.434821)

LINESTRING (267.032615 197.434821, 341.179458 176.409021)

LINESTRING (341.179458 176.409021, 403.493585 113.915810)

LINESTRING (341.179458 176.409021, 415.804645 162.978826)

LINESTRING (341.179458 176.409021, 419.543888 206.484831)

LINESTRING (267.032615 197.434821, 348.560376 220.633145)

LINESTRING (348.560376 220.633145, 430.056899 202.510646)

LINESTRING (348.560376 220.633145, 422.945394 243.729431)

LINESTRING (348.560376 220.633145, 412.621989 272.510071)

LINESTRING (267.032615 197.434821, 313.792040 248.499539)

LINESTRING (313.792040 248.499539, 384.060958 278.960414)

LINESTRING (313.792040 248.499539, 363.285984 310.874048)

LINESTRING (313.792040 248.499539, 333.887771 330.372752)

LINESTRING (192.538563 181.099444, 258.004824 241.915071)

LINESTRING (258.004824 241.915071, 342.590954 271.289046)

LINESTRING (342.590954 271.289046, 424.680660 246.027873)

LINESTRING (342.590954 271.289046, 412.574270 284.664608)

LINESTRING (342.590954 271.289046, 408.316473 321.770715)

LINESTRING (258.004824 241.915071, 318.480146 307.249035)

LINESTRING (318.480146 307.249035, 397.866570 337.788430)

LINESTRING (318.480146 307.249035, 367.084456 368.921212)

LINESTRING (318.480146 307.249035, 333.201897 386.253855)

LINESTRING (258.004824 241.915071, 287.100680 324.172962)

LINESTRING (287.100680 324.172962, 346.422362 379.601525)

LINESTRING (287.100680 324.172962, 307.397860 410.224105)

LINESTRING (287.100680 324.172962, 275.394493 402.418356)

LINESTRING (192.538563 181.099444, 220.686954 248.683365)

LINESTRING (220.686954 248.683365, 284.608240 309.463132)

LINESTRING (284.608240 309.463132, 367.524093 327.386623)

LINESTRING (284.608240 309.463132, 337.862995 365.989369)

LINESTRING (284.608240 309.463132, 302.197286 384.922570)

LINESTRING (220.686954 248.683365, 250.133379 318.187973)

LINESTRING (250.133379 318.187973, 307.261624 377.631326)

LINESTRING (250.133379 318.187973, 265.424669 396.337847)

LINESTRING (250.133379 318.187973, 235.503786 403.984078)

LINESTRING (220.686954 248.683365, 193.789558 335.883767)

LINESTRING (193.789558 335.883767, 222.771003 410.332461)

LINESTRING (193.789558 335.883767, 164.605063 422.822765)

LINESTRING (193.789558 335.883767, 129.264892 397.592411)

LINESTRING (134.159453 132.179330, 148.517738 215.537004)

LINESTRING (148.517738 215.537004, 212.034346 271.252058)

LINESTRING (212.034346 271.252058, 291.029691 282.918585)

LINESTRING (291.029691 282.918585, 367.549494 268.485154)

LINESTRING (291.029691 282.918585, 365.684057 298.432390)

LINESTRING (291.029691 282.918585, 348.004593 341.121712)

LINESTRING (212.034346 271.252058, 262.601862 337.013663)

LINESTRING (262.601862 337.013663, 335.007280 350.318927)

LINESTRING (262.601862 337.013663, 319.954609 395.617841)

LINESTRING (262.601862 337.013663, 287.128350 407.752847)

LINESTRING (212.034346 271.252058, 223.813707 341.149042)

LINESTRING (223.813707 341.149042, 274.161047 406.972707)

LINESTRING (223.813707 341.149042, 252.767354 422.050907)

LINESTRING (223.813707 341.149042, 204.607524 426.925510)

LINESTRING (148.517738 215.537004, 172.867695 289.973900)

LINESTRING (172.867695 289.973900, 224.996401 343.932218)

LINESTRING (224.996401 343.932218, 307.176019 369.039773)

LINESTRING (224.996401 343.932218, 288.779823 397.110181)

LINESTRING (224.996401 343.932218, 255.026330 426.465316)

LINESTRING (172.867695 289.973900, 194.651298 367.847388)

LINESTRING (194.651298 367.847388, 242.071100 421.404000)

LINESTRING (194.651298 367.847388, 218.403865 450.611763)

LINESTRING (194.651298 367.847388, 172.567065 451.019161)

LINESTRING (172.867695 289.973900, 157.795677 367.716406)

LINESTRING (157.795677 367.716406, 183.420935 443.719803)

LINESTRING (157.795677 367.716406, 129.011489 452.839579)

LINESTRING (157.795677 367.716406, 104.895515 425.995744)

LINESTRING (148.517738 215.537004, 119.857585 300.363035)

LINESTRING (119.857585 300.363035, 139.054139 383.393398)

LINESTRING (139.054139 383.393398, 188.452240 432.215207)

LINESTRING (139.054139 383.393398, 155.385579 470.462424)

LINESTRING (139.054139 383.393398, 113.424097 451.417874)

LINESTRING (119.857585 300.363035, 97.499646 375.476802)

LINESTRING (97.499646 375.476802, 121.488481 443.098964)

LINESTRING (97.499646 375.476802, 79.252705 448.037697)

LINESTRING (97.499646 375.476802, 37.403993 439.065017)

LINESTRING (119.857585 300.363035, 55.965984 363.123377)

LINESTRING (55.965984 363.123377, 41.745996 431.977877)

LINESTRING (55.965984 363.123377, -1.433003 412.901714)

LINESTRING (55.965984 363.123377, -16.260680 382.810561)

LINESTRING (80.000000 80.000000, 96.897038 152.663712)

LINESTRING (96.897038 152.663712, 150.241053 199.787371)

LINESTRING (150.241053 199.787371, 228.561452 223.602581)

LINESTRING (228.561452 223.602581, 301.248001 196.437827)

LINESTRING (301.248001 196.437827, 352.095007 134.271533)

LINESTRING (301.248001 196.437827, 386.490293 171.560566)

LINESTRING (301.248001 196.437827, 372.809144 215.017939)

LINESTRING (228.561452 223.602581, 307.960568 248.896567)

LINESTRING (307.960568 248.896567, 393.152540 219.476904)

LINESTRING (307.960568 248.896567, 386.947656 267.666783)

LINESTRING (307.960568 248.896567, 372.773551 305.336923)

LINESTRING (228.561452 223.602581, 293.515677 272.524522)

LINESTRING (293.515677 272.524522, 368.168310 292.335071)

LINESTRING (293.515677 272.524522, 359.238869 332.673989)

LINESTRING (293.515677 272.524522, 311.839009 348.386158)

LINESTRING (150.241053 199.787371, 206.063683 254.583662)

LINESTRING (206.063683 254.583662, 291.365603 269.503210)

LINESTRING (291.365603 269.503210, 363.497467 253.426165)

LINESTRING (291.365603 269.503210, 360.935975 295.835201)

LINESTRING (291.365603 269.503210, 338.768505 324.829945)

LINESTRING (206.063683 254.583662, 271.380563 301.806809)

LINESTRING (271.380563 301.806809, 350.986335 321.875549)

LINESTRING (271.380563 301.806809, 328.790250 367.746951)

LINESTRING (271.380563 301.806809, 295.532716 380.096286)

LINESTRING (206.063683 254.583662, 224.448914 339.930993)

LINESTRING (224.448914 339.930993, 275.869738 393.408730)

LINESTRING (224.448914 339.930993, 253.472921 422.720481)

LINESTRING (224.448914 339.930993, 198.342384 425.749679)

LINESTRING (150.241053 199.787371, 174.599131 267.153539)

LINESTRING (174.599131 267.153539, 229.378264 314.574998)

LINESTRING (229.378264 314.574998, 313.909831 329.356047)

LINESTRING (229.378264 314.574998, 279.183440 369.579235)

LINESTRING (229.378264 314.574998, 243.258191 400.789819)

LINESTRING (174.599131 267.153539, 198.969086 353.484449)

LINESTRING (198.969086 353.484449, 258.223408 419.235001)

LINESTRING (198.969086 353.484449, 219.028430 432.562369)

LINESTRING (198.969086 353.484449, 177.756861 433.642247)

LINESTRING (174.599131 267.153539, 163.767353 336.812383)

LINESTRING (163.767353 336.812383, 176.688736 422.295965)

LINESTRING (163.767353 336.812383, 141.840563 413.265487)

LINESTRING (163.767353 336.812383, 99.801632 384.182246)

LINESTRING (96.897038 152.663712, 109.127678 229.058512)

LINESTRING (109.127678 229.058512, 158.970824 295.016581)

LINESTRING (158.970824 295.016581, 227.864885 307.803764)

LINESTRING (227.864885 307.803764, 314.903218 292.650571)

LINESTRING (227.864885 307.803764, 315.065758 330.459922)

LINESTRING (227.864885 307.803764, 276.561686 356.844328)

LINESTRING (158.970824 295.016581, 215.866086 342.779888)

LINESTRING (215.866086 342.779888, 288.073610 363.739763)

LINESTRING (215.866086 342.779888, 268.032814 401.380873)

LINESTRING (215.866086 342.779888, 230.007585 410.285644)

LINESTRING (158.970824 295.016581, 178.173481 365.167873)

LINESTRING (178.173481 365.167873, 240.474126 423.525923)

LINESTRING (178.173481 365.167873, 201.035036 436.692207)

LINESTRING (178.173481 365.167873, 157.640743 449.591566)

LINESTRING (109.127678 229.058512, 138.619012 303.447608)

LINESTRING (138.619012 303.447608, 204.773306 353.815324)

LINESTRING (204.773306 353.815324, 290.513439 382.258863)

LINESTRING (204.773306 353.815324, 270.635266 404.113337)

LINESTRING (204.773306 353.815324, 226.773891 430.475215)

LINESTRING (138.619012 303.447608, 159.677089 383.692354)

LINESTRING (159.677089 383.692354, 216.594521 434.826447)

LINESTRING (159.677089 383.692354, 172.101422 469.703851)

LINESTRING (159.677089 383.692354, 143.429700 454.464423)

LINESTRING (138.619012 303.447608, 115.031713 390.635026)

LINESTRING (115.031713 390.635026, 127.749901 474.353097)

LINESTRING (115.031713 390.635026, 87.673835 466.007725)

LINESTRING (115.031713 390.635026, 49.436868 446.062667)

LINESTRING (109.127678 229.058512, 92.157991 314.393429)

LINESTRING (92.157991 314.393429, 106.233865 392.453812)

LINESTRING (106.233865 392.453812, 170.003727 439.766892)

LINESTRING (106.233865 392.453812, 119.071287 478.382912)

LINESTRING (106.233865 392.453812, 92.584366 460.471366)

LINESTRING (92.157991 314.393429, 69.619723 397.168369)

LINESTRING (69.619723 397.168369, 82.128064 465.456558)

LINESTRING (69.619723 397.168369, 41.654165 476.970115)

LINESTRING (69.619723 397.168369, 20.309992 455.763373)

LINESTRING (92.157991 314.393429, 39.178132 377.968406)

LINESTRING (39.178132 377.968406, 15.411158 456.061784)

LINESTRING (39.178132 377.968406, -14.393763 436.257243)

LINESTRING (39.178132 377.968406, -47.935181 390.715467)

LINESTRING (96.897038 152.663712, 75.825227 239.611147)

LINESTRING (75.825227 239.611147, 89.631831 326.026955)

LINESTRING (89.631831 326.026955, 154.126614 391.181552)

LINESTRING (154.126614 391.181552, 235.401164 404.684549)

LINESTRING (154.126614 391.181552, 201.007820 443.766273)

LINESTRING (154.126614 391.181552, 170.819436 462.329550)

LINESTRING (89.631831 326.026955, 109.549452 404.203733)

LINESTRING (109.549452 404.203733, 167.937148 451.813559)

LINESTRING (109.549452 404.203733, 136.045390 479.900340)

LINESTRING (109.549452 404.203733, 89.114110 476.417977)

LINESTRING (89.631831 326.026955, 72.182481 395.267772)

LINESTRING (72.182481 395.267772, 93.592871 480.659952)

LINESTRING (72.182481 395.267772, 52.719452 472.797018)

LINESTRING (72.182481 395.267772, 19.530773 453.685283)

LINESTRING (75.825227 239.611147, 45.797837 308.821247)

LINESTRING (45.797837 308.821247, 58.445877 376.858154)

LINESTRING (58.445877 376.858154, 117.555466 429.835985)

LINESTRING (58.445877 376.858154, 86.965453 455.394460)

LINESTRING (58.445877 376.858154, 44.979919 463.562693)

LINESTRING (45.797837 308.821247, 28.689258 377.176811)

LINESTRING (28.689258 377.176811, 49.420258 449.431107)

LINESTRING (28.689258 377.176811, -1.483338 463.108700)

LINESTRING (28.689258 377.176811, -28.484481 439.340987)

LINESTRING (45.797837 308.821247, -16.344851 363.534320)

LINESTRING (-16.344851 363.534320, -28.559048 448.685640)

LINESTRING (-16.344851 363.534320, -72.788449 425.114435)

LINESTRING (-16.344851 363.534320, -101.580762 392.302935)

LINESTRING (75.825227 239.611147, 15.755540 288.758264)

LINESTRING (15.755540 288.758264, -3.039188 370.308196)

LINESTRING (-3.039188 370.308196, 14.637436 438.524465)

LINESTRING (-3.039188 370.308196, -13.750663 455.747265)

LINESTRING (-3.039188 370.308196, -52.626969 420.896885)

LINESTRING (15.755540 288.758264, -37.737324 336.642223)

LINESTRING (-37.737324 336.642223, -56.809531 420.269851)

LINESTRING (-37.737324 336.642223, -93.998706 388.964931)

LINESTRING (-37.737324 336.642223, -122.031149 352.030346)

LINESTRING (15.755540 288.758264, -62.909332 311.347024)

LINESTRING (-62.909332 311.347024, -113.637277 377.110258)

LINESTRING (-62.909332 311.347024, -148.528208 332.486594)

LINESTRING (-62.909332 311.347024, -136.327013 284.354296)

