LINESTRING (60.000000 60.000000, 58.815830 68.685894)

LINESTRING (60.000000 60.000000, 80.116714 62.267546)

LINESTRING (60.000000 60.000000, 56.807694 68.880741)

LINESTRING (60.000000 60.000000, 53.217664 50.639145)

LINESTRING (60.000000 60.000000, 48.993691 45.944643)

LINESTRING (60.000000 60.000000, 51.147608 69.817251)

LINESTRING (60.000000 60.000000, 36.533245 60.436823)

LINESTRING (60.000000 60.000000, 77.386243 51.570469)

LINESTRING (58.815830 68.685894, 80.116714 62.267546)

LINESTRING (58.815830 68.685894, 53.217664 50.639145)

LINESTRING (58.815830 68.685894, 77.386243 51.570469)

LINESTRING (80.116714 62.267546, 48.993691 45.944643)

LINESTRING (80.116714 62.267546, 51.147608 69.817251)

LINESTRING (80.116714 62.267546, 36.533245 60.436823)

LINESTRING (80.116714 62.267546, 77.386243 51.570469)

LINESTRING (56.807694 68.880741, 48.993691 45.944643)

LINESTRING (56.807694 68.880741, 51.147608 69.817251)

LINESTRING (56.807694 68.880741, 36.533245 60.436823)

LINESTRING (56.807694 68.880741, 77.386243 51.570469)

LINESTRING (53.217664 50.639145, 77.386243 51.570469)

LINESTRING (51.147608 69.817251, 36.533245 60.436823)

LINESTRING (51.147608 69.817251, 77.386243 51.570469)

LINESTRING (36.533245 60.436823, 77.386243 51.570469)

LINESTRING (260.000000 60.000000, 248.596537 61.143989)

LINESTRING (260.000000 60.000000, 252.088761 54.478498)

LINESTRING (260.000000 60.000000, 268.724188 58.035284)

LINESTRING (260.000000 60.000000, 267.389165 82.188255)

LINESTRING (260.000000 60.000000, 236.587463 42.953086)

LINESTRING (260.000000 60.000000, 247.020700 52.120241)

LINESTRING (260.000000 60.000000, 242.965006 36.599807)

LINESTRING (260.000000 60.000000, 246.060868 63.797908)

LINESTRING (248.596537 61.143989, 268.724188 58.035284)

LINESTRING (248.596537 61.143989, 267.389165 82.188255)

LINESTRING (248.596537 61.143989, 247.020700 52.120241)

LINESTRING (248.596537 61.143989, 246.060868 63.797908)

LINESTRING (252.088761 54.478498, 267.389165 82.188255)

LINESTRING (252.088761 54.478498, 236.587463 42.953086)

LINESTRING (252.088761 54.478498, 242.965006 36.599807)

LINESTRING (252.088761 54.478498, 246.060868 63.797908)

LINESTRING (268.724188 58.035284, 267.389165 82.188255)

LINESTRING (268.724188 58.035284, 236.587463 42.953086)

LINESTRING (268.724188 58.035284, 247.020700 52.120241)

LINESTRING (267.389165 82.188255, 247.020700 52.120241)

LINESTRING (267.389165 82.188255, 242.965006 36.599807)

LINESTRING (236.587463 42.953086, 242.965006 36.599807)

LINESTRING (236.587463 42.953086, 246.060868 63.797908)

LINESTRING (242.965006 36.599807, 246.060868 63.797908)

LINESTRING (460.000000 60.000000, 469.527429 50.125455)

LINESTRING (460.000000 60.000000, 457.760399 69.790316)

LINESTRING (460.000000 60.000000, 480.700605 77.578631)

LINESTRING (460.000000 60.000000, 441.117357 43.010472)

LINESTRING (460.000000 60.000000, 442.730022 79.871863)

LINESTRING (460.000000 60.000000, 479.241304 67.991310)

LINESTRING (460.000000 60.000000, 470.059982 48.194106)

LINESTRING (460.000000 60.000000, 437.113102 43.281974)

LINESTRING (469.527429 50.125455, 457.760399 69.790316)

LINESTRING (469.527429 50.125455, 441.117357 43.010472)

LINESTRING (469.527429 50.125455, 442.730022 79.871863)

LINESTRING (469.527429 50.125455, 470.059982 48.194106)

LINESTRING (469.527429 50.125455, 437.113102 43.281974)

LINESTRING (457.760399 69.790316, 480.700605 77.578631)

LINESTRING (457.760399 69.790316, 441.117357 43.010472)

LINESTRING (457.760399 69.790316, 442.730022 79.871863)

LINESTRING (480.700605 77.578631, 441.117357 43.010472)

LINESTRING (480.700605 77.578631, 470.059982 48.194106)

LINESTRING (480.700605 77.578631, 437.113102 43.281974)

LINESTRING (441.117357 43.010472, 437.113102 43.281974)

LINESTRING (442.730022 79.871863, 479.241304 67.991310)

LINESTRING (479.241304 67.991310, 437.113102 43.281974)

LINESTRING (60.000000 260.000000, 50.505101 277.392174)

LINESTRING (60.000000 260.000000, 63.937677 261.284149)

LINESTRING (60.000000 260.000000, 49.110504 259.523738)

LINESTRING (60.000000 260.000000, 83.097577 276.088455)

LINESTRING (60.000000 260.000000, 59.136982 265.298424)

LINESTRING (60.000000 260.000000, 76.140155 252.134653)

LINESTRING (60.000000 260.000000, 65.962270 277.105477)

LINESTRING (60.000000 260.000000, 72.062031 266.458502)

LINESTRING (50.505101 277.392174, 49.110504 259.523738)

LINESTRING (50.505101 277.392174, 59.136982 265.298424)

LINESTRING (50.505101 277.392174, 65.962270 277.105477)

LINESTRING (50.505101 277.392174, 72.062031 266.458502)

LINESTRING (63.937677 261.284149, 83.097577 276.088455)

LINESTRING (63.937677 261.284149, 59.136982 265.298424)

LINESTRING (63.937677 261.284149, 72.062031 266.458502)

LINESTRING (49.110504 259.523738, 83.097577 276.088455)

LINESTRING (49.110504 259.523738, 59.136982 265.298424)

LINESTRING (49.110504 259.523738, 76.140155 252.134653)

LINESTRING (49.110504 259.523738, 65.962270 277.105477)

LINESTRING (49.110504 259.523738, 72.062031 266.458502)

LINESTRING (83.097577 276.088455, 76.140155 252.134653)

LINESTRING (59.136982 265.298424, 76.140155 252.134653)

LINESTRING (59.136982 265.298424, 65.962270 277.105477)

LINESTRING (65.962270 277.105477, 72.062031 266.458502)

LINESTRING (260.000000 260.000000, 276.954879 252.492206)

LINESTRING (260.000000 260.000000, 239.698085 271.769535)

LINESTRING (260.000000 260.000000, 247.716572 270.478546)

LINESTRING (260.000000 260.000000, 278.495847 244.047349)

LINESTRING (260.000000 260.000000, 276.335118 267.048408)

LINESTRING (260.000000 260.000000, 268.973501 263.697877)

LINESTRING (260.000000 260.000000, 281.764124 270.130392)

LINESTRING (260.000000 260.000000, 268.217482 251.637398)

LINESTRING (276.954879 252.492206, 239.698085 271.769535)

LINESTRING (276.954879 252.492206, 247.716572 270.478546)

LINESTRING (276.954879 252.492206, 268.973501 263.697877)

LINESTRING (239.698085 271.769535, 247.716572 270.478546)

LINESTRING (239.698085 271.769535, 278.495847 244.047349)

LINESTRING (239.698085 271.769535, 276.335118 267.048408)

LINESTRING (239.698085 271.769535, 268.973501 263.697877)

LINESTRING (247.716572 270.478546, 281.764124 270.130392)

LINESTRING (278.495847 244.047349, 276.335118 267.048408)

LINESTRING (278.495847 244.047349, 268.973501 263.697877)

LINESTRING (278.495847 244.047349, 281.764124 270.130392)

LINESTRING (278.495847 244.047349, 268.217482 251.637398)

LINESTRING (276.335118 267.048408, 268.973501 263.697877)

LINESTRING (276.335118 267.048408, 281.764124 270.130392)

LINESTRING (276.335118 267.048408, 268.217482 251.637398)

LINESTRING (268.973501 263.697877, 268.217482 251.637398)

LINESTRING (460.000000 260.000000, 461.092434 264.633504)

LINESTRING (460.000000 260.000000, 468.928455 271.474549)

LINESTRING (460.000000 260.000000, 436.515475 255.751777)

LINESTRING (460.000000 260.000000, 441.483139 246.621164)

LINESTRING (460.000000 260.000000, 455.106845 269.136544)

LINESTRING (460.000000 260.000000, 466.767950 268.716129)

LINESTRING (460.000000 260.000000, 473.562486 278.673660)

LINESTRING (460.000000 260.000000, 442.659559 267.798078)

LINESTRING (461.092434 264.633504, 455.106845 269.136544)

LINESTRING (461.092434 264.633504, 466.767950 268.716129)

LINESTRING (461.092434 264.633504, 473.562486 278.673660)

LINESTRING (468.928455 271.474549, 436.515475 255.751777)

LINESTRING (468.928455 271.474549, 441.483139 246.621164)

LINESTRING (468.928455 271.474549, 455.106845 269.136544)

LINESTRING (436.515475 255.751777, 466.767950 268.716129)

LINESTRING (436.515475 255.751777, 473.562486 278.673660)

LINESTRING (436.515475 255.751777, 442.659559 267.798078)

LINESTRING (455.106845 269.136544, 466.767950 268.716129)

LINESTRING (466.767950 268.716129, 442.659559 267.798078)

LINESTRING (60.000000 460.000000, 36.938448 459.070880)

LINESTRING (60.000000 460.000000, 44.543188 441.444629)

LINESTRING (60.000000 460.000000, 76.762460 473.592026)

LINESTRING (60.000000 460.000000, 42.423799 442.387032)

LINESTRING (60.000000 460.000000, 74.806640 457.624194)

LINESTRING (60.000000 460.000000, 67.257807 472.955308)

LINESTRING (60.000000 460.000000, 81.161411 478.879092)

LINESTRING (60.000000 460.000000, 39.615323 470.308052)

LINESTRING (36.938448 459.070880, 44.543188 441.444629)

LINESTRING (36.938448 459.070880, 74.806640 457.624194)

LINESTRING (36.938448 459.070880, 67.257807 472.955308)

LINESTRING (44.543188 441.444629, 76.762460 473.592026)

LINESTRING (44.543188 441.444629, 42.423799 442.387032)

LINESTRING (44.543188 441.444629, 74.806640 457.624194)

LINESTRING (44.543188 441.444629, 67.257807 472.955308)

LINESTRING (76.762460 473.592026, 42.423799 442.387032)

LINESTRING (76.762460 473.592026, 74.806640 457.624194)

LINESTRING (76.762460 473.592026, 81.161411 478.879092)

LINESTRING (42.423799 442.387032, 74.806640 457.624194)

LINESTRING (42.423799 442.387032, 67.257807 472.955308)

LINESTRING (74.806640 457.624194, 67.257807 472.955308)

LINESTRING (81.161411 478.879092, 39.615323 470.308052)

LINESTRING (260.000000 460.000000, 262.413885 450.553533)

LINESTRING (260.000000 460.000000, 243.448958 464.372868)

LINESTRING (260.000000 460.000000, 275.301271 445.040803)

LINESTRING (260.000000 460.000000, 251.666441 466.595593)

LINESTRING (260.000000 460.000000, 280.309969 481.350385)

LINESTRING (260.000000 460.000000, 239.266299 476.587211)

LINESTRING (260.000000 460.000000, 236.264313 477.355804)

LINESTRING (260.000000 460.000000, 256.449947 437.129100)

LINESTRING (262.413885 450.553533, 275.301271 445.040803)

LINESTRING (262.413885 450.553533, 251.666441 466.595593)

LINESTRING (262.413885 450.553533, 239.266299 476.587211)

LINESTRING (262.413885 450.553533, 256.449947 437.129100)

LINESTRING (243.448958 464.372868, 251.666441 466.595593)

LINESTRING (243.448958 464.372868, 239.266299 476.587211)

LINESTRING (275.301271 445.040803, 251.666441 466.595593)

LINESTRING (275.301271 445.040803, 280.309969 481.350385)

LINESTRING (251.666441 466.595593, 280.309969 481.350385)

LINESTRING (251.666441 466.595593, 239.266299 476.587211)

LINESTRING (251.666441 466.595593, 236.264313 477.355804)

LINESTRING (251.666441 466.595593, 256.449947 437.129100)

LINESTRING (280.309969 481.350385, 239.266299 476.587211)

LINESTRING (280.309969 481.350385, 256.449947 437.129100)

LINESTRING (36.533245 60.436823, 268.724188 58.035284)

LINESTRING (80.116714 62.267546, 246.060868 63.797908)

LINESTRING (60.000000 60.000000, 260.000000 60.000000)

LINESTRING (246.060868 63.797908, 470.059982 48.194106)

LINESTRING (236.587463 42.953086, 479.241304 67.991310)

LINESTRING (260.000000 60.000000, 460.000000 60.000000)

LINESTRING (480.700605 77.578631, 59.136982 265.298424)

LINESTRING (469.527429 50.125455, 83.097577 276.088455)

LINESTRING (460.000000 60.000000, 60.000000 260.000000)

LINESTRING (72.062031 266.458502, 268.973501 263.697877)

LINESTRING (83.097577 276.088455, 276.335118 267.048408)

LINESTRING (60.000000 260.000000, 260.000000 260.000000)

LINESTRING (239.698085 271.769535, 436.515475 255.751777)

LINESTRING (276.954879 252.492206, 461.092434 264.633504)

LINESTRING (260.000000 260.000000, 460.000000 260.000000)

LINESTRING (441.483139 246.621164, 67.257807 472.955308)

LINESTRING (461.092434 264.633504, 74.806640 457.624194)

LINESTRING (460.000000 260.000000, 60.000000 460.000000)

LINESTRING (67.257807 472.955308, 256.449947 437.129100)

LINESTRING (42.423799 442.387032, 262.413885 450.553533)

LINESTRING (60.000000 460.000000, 260.000000 460.000000)

