LINESTRING (60.000000 60.000000, 65.953043 54.251415)

LINESTRING (60.000000 60.000000, 82.672642 76.825651)

LINESTRING (60.000000 60.000000, 43.757072 71.973194)

LINESTRING (60.000000 60.000000, 54.095462 70.984509)

LINESTRING (60.000000 60.000000, 69.778757 69.935426)

LINESTRING (60.000000 60.000000, 41.920956 46.572248)

LINESTRING (60.000000 60.000000, 54.394135 43.178961)

LINESTRING (60.000000 60.000000, 59.537300 51.907521)

LINESTRING (65.953043 54.251415, 43.757072 71.973194)

LINESTRING (65.953043 54.251415, 54.095462 70.984509)

LINESTRING (65.953043 54.251415, 69.778757 69.935426)

LINESTRING (65.953043 54.251415, 41.920956 46.572248)

LINESTRING (82.672642 76.825651, 54.095462 70.984509)

LINESTRING (82.672642 76.825651, 54.394135 43.178961)

LINESTRING (82.672642 76.825651, 59.537300 51.907521)

LINESTRING (43.757072 71.973194, 54.095462 70.984509)

LINESTRING (43.757072 71.973194, 69.778757 69.935426)

LINESTRING (43.757072 71.973194, 41.920956 46.572248)

LINESTRING (43.757072 71.973194, 54.394135 43.178961)

LINESTRING (43.757072 71.973194, 59.537300 51.907521)

LINESTRING (54.095462 70.984509, 69.778757 69.935426)

LINESTRING (54.095462 70.984509, 54.394135 43.178961)

LINESTRING (54.095462 70.984509, 59.537300 51.907521)

LINESTRING (69.778757 69.935426, 41.920956 46.572248)

LINESTRING (41.920956 46.572248, 54.394135 43.178961)

LINESTRING (41.920956 46.572248, 59.537300 51.907521)

LINESTRING (260.000000 60.000000, 249.053734 75.331814)

LINESTRING (260.000000 60.000000, 253.275350 72.207348)

LINESTRING (260.000000 60.000000, 280.179326 46.425214)

LINESTRING (260.000000 60.000000, 240.893555 51.437472)

LINESTRING (260.000000 60.000000, 240.093102 74.117704)

LINESTRING (260.000000 60.000000, 269.566880 76.413875)

LINESTRING (260.000000 60.000000, 271.408759 80.531579)

LINESTRING (260.000000 60.000000, 249.605901 52.670868)

LINESTRING (249.053734 75.331814, 253.275350 72.207348)

LINESTRING (249.053734 75.331814, 280.179326 46.425214)

LINESTRING (249.053734 75.331814, 240.893555 51.437472)

LINESTRING (249.053734 75.331814, 240.093102 74.117704)

LINESTRING (249.053734 75.331814, 269.566880 76.413875)

LINESTRING (249.053734 75.331814, 271.408759 80.531579)

LINESTRING (253.275350 72.207348, 280.179326 46.425214)

LINESTRING (253.275350 72.207348, 240.093102 74.117704)

LINESTRING (253.275350 72.207348, 271.408759 80.531579)

LINESTRING (253.275350 72.207348, 249.605901 52.670868)

LINESTRING (280.179326 46.425214, 269.566880 76.413875)

LINESTRING (280.179326 46.425214, 271.408759 80.531579)

LINESTRING (280.179326 46.425214, 249.605901 52.670868)

LINESTRING (240.893555 51.437472, 240.093102 74.117704)

LINESTRING (240.893555 51.437472, 269.566880 76.413875)

LINESTRING (240.893555 51.437472, 271.408759 80.531579)

LINESTRING (240.893555 51.437472, 249.605901 52.670868)

LINESTRING (240.093102 74.117704, 269.566880 76.413875)

LINESTRING (240.093102 74.117704, 271.408759 80.531579)

LINESTRING (269.566880 76.413875, 249.605901 52.670868)

LINESTRING (271.408759 80.531579, 249.605901 52.670868)

LINESTRING (60.000000 260.000000, 51.521100 282.103988)

LINESTRING (60.000000 260.000000, 54.865486 238.761325)

LINESTRING (60.000000 260.000000, 46.883623 270.871163)

LINESTRING (60.000000 260.000000, 73.202691 274.377544)

LINESTRING (60.000000 260.000000, 55.742103 283.395941)

LINESTRING (60.000000 260.000000, 37.457097 274.615868)

LINESTRING (60.000000 260.000000, 49.444616 264.160825)

LINESTRING (60.000000 260.000000, 63.683867 283.174674)

LINESTRING (51.521100 282.103988, 54.865486 238.761325)

LINESTRING (51.521100 282.103988, 46.883623 270.871163)

LINESTRING (51.521100 282.103988, 73.202691 274.377544)

LINESTRING (54.865486 238.761325, 46.883623 270.871163)

LINESTRING (54.865486 238.761325, 73.202691 274.377544)

LINESTRING (54.865486 238.761325, 37.457097 274.615868)

LINESTRING (54.865486 238.761325, 49.444616 264.160825)

LINESTRING (46.883623 270.871163, 37.457097 274.615868)

LINESTRING (46.883623 270.871163, 49.444616 264.160825)

LINESTRING (46.883623 270.871163, 63.683867 283.174674)

LINESTRING (73.202691 274.377544, 55.742103 283.395941)

LINESTRING (73.202691 274.377544, 37.457097 274.615868)

LINESTRING (73.202691 274.377544, 49.444616 264.160825)

LINESTRING (73.202691 274.377544, 63.683867 283.174674)

LINESTRING (55.742103 283.395941, 37.457097 274.615868)

LINESTRING (55.742103 283.395941, 49.444616 264.160825)

LINESTRING (55.742103 283.395941, 63.683867 283.174674)

LINESTRING (37.457097 274.615868, 49.444616 264.160825)

LINESTRING (37.457097 274.615868, 63.683867 283.174674)

LINESTRING (49.444616 264.160825, 63.683867 283.174674)

LINESTRING (54.394135 43.178961, 240.893555 51.437472)

LINESTRING (82.672642 76.825651, 249.605901 52.670868)

LINESTRING (60.000000 60.000000, 260.000000 60.000000)

LINESTRING (240.893555 51.437472, 63.683867 283.174674)

LINESTRING (249.053734 75.331814, 55.742103 283.395941)

LINESTRING (260.000000 60.000000, 60.000000 260.000000)

