LINESTRING (2108.086396 6675.485287, 2444.031029 6749.743995)

LINESTRING (2108.086396 6675.485287, 2118.610245 6830.174137)

LINESTRING (2108.086396 6675.485287, 1818.531562 6643.725067)

LINESTRING (2108.086396 6675.485287, 2316.498957 4747.830970)

LINESTRING (2108.086396 6675.485287, 1283.992536 8170.511197)

LINESTRING (5404.393089 8414.075491, 5403.081012 8455.988850)

LINESTRING (5404.393089 8414.075491, 5891.710806 8983.662486)

LINESTRING (5404.393089 8414.075491, 7220.717263 7084.235498)

LINESTRING (5404.393089 8414.075491, 5422.342176 8655.109511)

LINESTRING (5403.081012 8455.988850, 6362.805554 8522.483583)

LINESTRING (5403.081012 8455.988850, 5891.710806 8983.662486)

LINESTRING (5403.081012 8455.988850, 5422.342176 8655.109511)

LINESTRING (5403.081012 8455.988850, 4516.866351 7852.421902)

LINESTRING (6362.805554 8522.483583, 5891.710806 8983.662486)

LINESTRING (6362.805554 8522.483583, 7430.682717 8293.402904)

LINESTRING (6362.805554 8522.483583, 4516.866351 7852.421902)

LINESTRING (5870.748344 3278.160532, 7762.913688 2394.467048)

LINESTRING (5870.748344 3278.160532, 5816.237768 3267.709421)

LINESTRING (7144.452752 559.436650, 8324.081898 1099.803331)

LINESTRING (7144.452752 559.436650, 6847.022738 646.614455)

LINESTRING (7144.452752 559.436650, 4891.837599 539.381732)

LINESTRING (2850.276646 3604.065190, 1915.368173 3028.926784)

LINESTRING (2850.276646 3604.065190, 1078.460411 4689.039774)

LINESTRING (2850.276646 3604.065190, 4272.861247 2581.358498)

LINESTRING (2850.276646 3604.065190, 1490.199861 3925.674818)

LINESTRING (2850.276646 3604.065190, 3202.627962 3020.329004)

LINESTRING (2850.276646 3604.065190, 826.069963 4349.180908)

LINESTRING (2850.276646 3604.065190, 2361.928276 3505.545552)

LINESTRING (5891.710806 8983.662486, 7220.717263 7084.235498)

LINESTRING (5891.710806 8983.662486, 5422.342176 8655.109511)

LINESTRING (8324.081898 1099.803331, 9134.634926 1214.748354)

LINESTRING (3873.477693 5887.107524, 2444.031029 6749.743995)

LINESTRING (3873.477693 5887.107524, 3897.550949 3764.427640)

LINESTRING (3873.477693 5887.107524, 2118.610245 6830.174137)

LINESTRING (3873.477693 5887.107524, 5223.643114 5659.691846)

LINESTRING (3873.477693 5887.107524, 4955.741163 5751.078242)

LINESTRING (3873.477693 5887.107524, 4516.866351 7852.421902)

LINESTRING (1915.368173 3028.926784, 3188.724015 2561.047628)

LINESTRING (1915.368173 3028.926784, 3202.627962 3020.329004)

LINESTRING (1915.368173 3028.926784, 2149.461572 2963.066450)

LINESTRING (1915.368173 3028.926784, 826.069963 4349.180908)

LINESTRING (1915.368173 3028.926784, 3068.586495 998.127989)

LINESTRING (1915.368173 3028.926784, 2361.928276 3505.545552)

LINESTRING (3449.346348 1673.414543, 3897.550949 3764.427640)

LINESTRING (3449.346348 1673.414543, 3188.724015 2561.047628)

LINESTRING (3449.346348 1673.414543, 4272.861247 2581.358498)

LINESTRING (3449.346348 1673.414543, 3202.627962 3020.329004)

LINESTRING (3449.346348 1673.414543, 3084.347486 999.640774)

LINESTRING (3449.346348 1673.414543, 3068.586495 998.127989)

LINESTRING (3449.346348 1673.414543, 3335.236073 2285.084233)

LINESTRING (3449.346348 1673.414543, 2826.580448 540.787543)

LINESTRING (6567.342220 5954.451139, 5223.643114 5659.691846)

LINESTRING (9504.121275 9034.716317, 8857.949940 8879.594241)

LINESTRING (7762.913688 2394.467048, 5816.237768 3267.709421)

LINESTRING (2444.031029 6749.743995, 2118.610245 6830.174137)

LINESTRING (2444.031029 6749.743995, 922.787640 6400.765488)

LINESTRING (2444.031029 6749.743995, 1818.531562 6643.725067)

LINESTRING (2444.031029 6749.743995, 2582.471943 8848.241328)

LINESTRING (2444.031029 6749.743995, 1081.775893 6833.831084)

LINESTRING (2444.031029 6749.743995, 685.317865 5263.064869)

LINESTRING (2444.031029 6749.743995, 4516.866351 7852.421902)

LINESTRING (2444.031029 6749.743995, 757.255932 6200.631317)

LINESTRING (2444.031029 6749.743995, 1283.992536 8170.511197)

LINESTRING (3897.550949 3764.427640, 3188.724015 2561.047628)

LINESTRING (3897.550949 3764.427640, 3202.627962 3020.329004)

LINESTRING (3897.550949 3764.427640, 5816.237768 3267.709421)

LINESTRING (3188.724015 2561.047628, 4272.861247 2581.358498)

LINESTRING (3188.724015 2561.047628, 3202.627962 3020.329004)

LINESTRING (3188.724015 2561.047628, 3335.236073 2285.084233)

LINESTRING (3188.724015 2561.047628, 2826.580448 540.787543)

LINESTRING (1078.460411 4689.039774, 2118.610245 6830.174137)

LINESTRING (1078.460411 4689.039774, 1490.199861 3925.674818)

LINESTRING (1078.460411 4689.039774, 922.787640 6400.765488)

LINESTRING (1078.460411 4689.039774, 2149.461572 2963.066450)

LINESTRING (1078.460411 4689.039774, 826.069963 4349.180908)

LINESTRING (1078.460411 4689.039774, 1081.775893 6833.831084)

LINESTRING (1078.460411 4689.039774, 2361.928276 3505.545552)

LINESTRING (1078.460411 4689.039774, 2316.498957 4747.830970)

LINESTRING (1078.460411 4689.039774, 685.317865 5263.064869)

LINESTRING (2118.610245 6830.174137, 1551.960510 9019.575057)

LINESTRING (2118.610245 6830.174137, 1818.531562 6643.725067)

LINESTRING (2118.610245 6830.174137, 2582.471943 8848.241328)

LINESTRING (2118.610245 6830.174137, 1081.775893 6833.831084)

LINESTRING (2118.610245 6830.174137, 685.317865 5263.064869)

LINESTRING (1551.960510 9019.575057, 3021.860333 9000.965963)

LINESTRING (1551.960510 9019.575057, 2582.471943 8848.241328)

LINESTRING (1551.960510 9019.575057, 1081.775893 6833.831084)

LINESTRING (1551.960510 9019.575057, 1283.992536 8170.511197)

LINESTRING (3021.860333 9000.965963, 2582.471943 8848.241328)

LINESTRING (8857.949940 8879.594241, 8270.034678 7315.141051)

LINESTRING (8133.800875 5237.554408, 8270.034678 7315.141051)

LINESTRING (4272.861247 2581.358498, 3202.627962 3020.329004)

LINESTRING (4272.861247 2581.358498, 3335.236073 2285.084233)

LINESTRING (5223.643114 5659.691846, 6774.706414 4112.448613)

LINESTRING (5223.643114 5659.691846, 4955.741163 5751.078242)

LINESTRING (5223.643114 5659.691846, 4516.866351 7852.421902)

LINESTRING (6847.022738 646.614455, 9134.634926 1214.748354)

LINESTRING (6847.022738 646.614455, 4891.837599 539.381732)

LINESTRING (1490.199861 3925.674818, 3202.627962 3020.329004)

LINESTRING (1490.199861 3925.674818, 2149.461572 2963.066450)

LINESTRING (1490.199861 3925.674818, 826.069963 4349.180908)

LINESTRING (1490.199861 3925.674818, 2361.928276 3505.545552)

LINESTRING (1490.199861 3925.674818, 2316.498957 4747.830970)

LINESTRING (922.787640 6400.765488, 826.069963 4349.180908)

LINESTRING (922.787640 6400.765488, 1081.775893 6833.831084)

LINESTRING (922.787640 6400.765488, 2316.498957 4747.830970)

LINESTRING (922.787640 6400.765488, 757.255932 6200.631317)

LINESTRING (1818.531562 6643.725067, 1081.775893 6833.831084)

LINESTRING (1818.531562 6643.725067, 2316.498957 4747.830970)

LINESTRING (1818.531562 6643.725067, 685.317865 5263.064869)

LINESTRING (1818.531562 6643.725067, 1283.992536 8170.511197)

LINESTRING (3202.627962 3020.329004, 3084.347486 999.640774)

LINESTRING (3202.627962 3020.329004, 3068.586495 998.127989)

LINESTRING (3202.627962 3020.329004, 3335.236073 2285.084233)

LINESTRING (2149.461572 2963.066450, 3068.586495 998.127989)

LINESTRING (2149.461572 2963.066450, 2361.928276 3505.545552)

LINESTRING (2149.461572 2963.066450, 2316.498957 4747.830970)

LINESTRING (2149.461572 2963.066450, 761.061688 1162.317438)

LINESTRING (5816.237768 3267.709421, 6774.706414 4112.448613)

LINESTRING (7430.682717 8293.402904, 7220.717263 7084.235498)

LINESTRING (7430.682717 8293.402904, 5422.342176 8655.109511)

LINESTRING (5503.750099 325.752751, 4891.837599 539.381732)

LINESTRING (2582.471943 8848.241328, 4516.866351 7852.421902)

LINESTRING (7220.717263 7084.235498, 8270.034678 7315.141051)

LINESTRING (6774.706414 4112.448613, 8251.997904 3607.305554)

LINESTRING (9441.883687 1524.207294, 9134.634926 1214.748354)

LINESTRING (3084.347486 999.640774, 3068.586495 998.127989)

LINESTRING (3084.347486 999.640774, 2826.580448 540.787543)

LINESTRING (3084.347486 999.640774, 761.061688 1162.317438)

LINESTRING (826.069963 4349.180908, 757.255932 6200.631317)

LINESTRING (1081.775893 6833.831084, 757.255932 6200.631317)

LINESTRING (3068.586495 998.127989, 2826.580448 540.787543)

LINESTRING (4955.741163 5751.078242, 4516.866351 7852.421902)

LINESTRING (3335.236073 2285.084233, 2826.580448 540.787543)

LINESTRING (3335.236073 2285.084233, 4891.837599 539.381732)

LINESTRING (2361.928276 3505.545552, 2316.498957 4747.830970)

LINESTRING (5422.342176 8655.109511, 4516.866351 7852.421902)

