LINESTRING (520.000000 400.000000, 497.082039 470.534230)

LINESTRING (497.082039 470.534230, 437.082039 514.126782)

LINESTRING (437.082039 514.126782, 362.917961 514.126782)

LINESTRING (362.917961 514.126782, 302.917961 470.534230)

LINESTRING (302.917961 470.534230, 280.000000 400.000000)

LINESTRING (280.000000 400.000000, 302.917961 329.465770)

LINESTRING (302.917961 329.465770, 362.917961 285.873218)

LINESTRING (362.917961 285.873218, 437.082039 285.873218)

LINESTRING (437.082039 285.873218, 497.082039 329.465770)

LINESTRING (497.082039 329.465770, 520.000000 400.000000)

LINESTRING (640.000000 400.000000, 594.164079 541.068461)

LINESTRING (594.164079 541.068461, 474.164079 628.253564)

LINESTRING (474.164079 628.253564, 325.835921 628.253564)

LINESTRING (325.835921 628.253564, 205.835921 541.068461)

LINESTRING (205.835921 541.068461, 160.000000 400.000000)

LINESTRING (160.000000 400.000000, 205.835921 258.931539)

LINESTRING (205.835921 258.931539, 325.835921 171.746436)

LINESTRING (325.835921 171.746436, 474.164079 171.746436)

LINESTRING (474.164079 171.746436, 594.164079 258.931539)

LINESTRING (594.164079 258.931539, 640.000000 400.000000)

LINESTRING (760.000000 400.000000, 691.246118 611.602691)

LINESTRING (691.246118 611.602691, 511.246118 742.380346)

LINESTRING (511.246118 742.380346, 288.753882 742.380346)

LINESTRING (288.753882 742.380346, 108.753882 611.602691)

LINESTRING (108.753882 611.602691, 40.000000 400.000000)

LINESTRING (40.000000 400.000000, 108.753882 188.397309)

LINESTRING (108.753882 188.397309, 288.753882 57.619654)

LINESTRING (288.753882 57.619654, 511.246118 57.619654)

LINESTRING (511.246118 57.619654, 691.246118 188.397309)

LINESTRING (691.246118 188.397309, 760.000000 400.000000)

LINESTRING (880.000000 400.000000, 788.328157 682.136921)

LINESTRING (788.328157 682.136921, 548.328157 856.507128)

LINESTRING (548.328157 856.507128, 251.671843 856.507128)

LINESTRING (251.671843 856.507128, 11.671843 682.136921)

LINESTRING (11.671843 682.136921, -80.000000 400.000000)

LINESTRING (-80.000000 400.000000, 11.671843 117.863079)

LINESTRING (11.671843 117.863079, 251.671843 -56.507128)

LINESTRING (251.671843 -56.507128, 548.328157 -56.507128)

LINESTRING (548.328157 -56.507128, 788.328157 117.863079)

LINESTRING (788.328157 117.863079, 880.000000 400.000000)

LINESTRING (1000.000000 400.000000, 885.410197 752.671151)

LINESTRING (885.410197 752.671151, 585.410197 970.633910)

LINESTRING (585.410197 970.633910, 214.589803 970.633910)

LINESTRING (214.589803 970.633910, -85.410197 752.671151)

LINESTRING (-85.410197 752.671151, -200.000000 400.000000)

LINESTRING (-200.000000 400.000000, -85.410197 47.328849)

LINESTRING (-85.410197 47.328849, 214.589803 -170.633910)

LINESTRING (214.589803 -170.633910, 585.410197 -170.633910)

LINESTRING (585.410197 -170.633910, 885.410197 47.328849)

LINESTRING (885.410197 47.328849, 1000.000000 400.000000)

LINESTRING (520.000000 400.000000, 640.000000 400.000000)

LINESTRING (640.000000 400.000000, 760.000000 400.000000)

LINESTRING (760.000000 400.000000, 880.000000 400.000000)

LINESTRING (880.000000 400.000000, 1000.000000 400.000000)

LINESTRING (497.082039 470.534230, 594.164079 541.068461)

LINESTRING (594.164079 541.068461, 691.246118 611.602691)

LINESTRING (691.246118 611.602691, 788.328157 682.136921)

LINESTRING (788.328157 682.136921, 885.410197 752.671151)

LINESTRING (437.082039 514.126782, 474.164079 628.253564)

LINESTRING (474.164079 628.253564, 511.246118 742.380346)

LINESTRING (511.246118 742.380346, 548.328157 856.507128)

LINESTRING (548.328157 856.507128, 585.410197 970.633910)

LINESTRING (362.917961 514.126782, 325.835921 628.253564)

LINESTRING (325.835921 628.253564, 288.753882 742.380346)

LINESTRING (288.753882 742.380346, 251.671843 856.507128)

LINESTRING (251.671843 856.507128, 214.589803 970.633910)

LINESTRING (302.917961 470.534230, 205.835921 541.068461)

LINESTRING (205.835921 541.068461, 108.753882 611.602691)

LINESTRING (108.753882 611.602691, 11.671843 682.136921)

LINESTRING (11.671843 682.136921, -85.410197 752.671151)

LINESTRING (280.000000 400.000000, 160.000000 400.000000)

LINESTRING (160.000000 400.000000, 40.000000 400.000000)

LINESTRING (40.000000 400.000000, -80.000000 400.000000)

LINESTRING (-80.000000 400.000000, -200.000000 400.000000)

LINESTRING (302.917961 329.465770, 205.835921 258.931539)

LINESTRING (205.835921 258.931539, 108.753882 188.397309)

LINESTRING (108.753882 188.397309, 11.671843 117.863079)

LINESTRING (11.671843 117.863079, -85.410197 47.328849)

LINESTRING (362.917961 285.873218, 325.835921 171.746436)

LINESTRING (325.835921 171.746436, 288.753882 57.619654)

LINESTRING (288.753882 57.619654, 251.671843 -56.507128)

LINESTRING (251.671843 -56.507128, 214.589803 -170.633910)

LINESTRING (437.082039 285.873218, 474.164079 171.746436)

LINESTRING (474.164079 171.746436, 511.246118 57.619654)

LINESTRING (511.246118 57.619654, 548.328157 -56.507128)

LINESTRING (548.328157 -56.507128, 585.410197 -170.633910)

LINESTRING (497.082039 329.465770, 594.164079 258.931539)

LINESTRING (594.164079 258.931539, 691.246118 188.397309)

LINESTRING (691.246118 188.397309, 788.328157 117.863079)

LINESTRING (788.328157 117.863079, 885.410197 47.328849)

LINESTRING (400.000000 400.000000, 520.000000 400.000000)

