LINESTRING (494.231938 401.652439, 462.491022 452.379568)

LINESTRING (462.491022 452.379568, 402.873156 470.010700)

LINESTRING (402.873156 470.010700, 341.114504 447.374524)

LINESTRING (341.114504 447.374524, 325.743567 414.073503)

LINESTRING (325.743567 414.073503, 334.067942 342.397492)

LINESTRING (334.067942 342.397492, 401.063843 317.456636)

LINESTRING (401.063843 317.456636, 460.894787 347.253121)

LINESTRING (460.894787 347.253121, 494.231938 401.652439)

LINESTRING (570.798872 408.891854, 520.854862 532.025465)

LINESTRING (520.854862 532.025465, 386.589290 541.292054)

LINESTRING (386.589290 541.292054, 302.990254 494.986252)

LINESTRING (302.990254 494.986252, 253.575275 410.011520)

LINESTRING (253.575275 410.011520, 275.526406 291.455856)

LINESTRING (275.526406 291.455856, 389.279485 221.390964)

LINESTRING (389.279485 221.390964, 519.065954 306.083942)

LINESTRING (519.065954 306.083942, 570.798872 408.891854)

LINESTRING (626.742564 401.778708, 589.086227 578.183948)

LINESTRING (589.086227 578.183948, 387.449844 654.128606)

LINESTRING (387.449844 654.128606, 231.796612 582.521808)

LINESTRING (231.796612 582.521808, 176.055417 410.387905)

LINESTRING (176.055417 410.387905, 241.978496 235.026006)

LINESTRING (241.978496 235.026006, 385.324562 148.115385)

LINESTRING (385.324562 148.115385, 582.176333 221.380471)

LINESTRING (582.176333 221.380471, 626.742564 401.778708)

LINESTRING (720.746817 393.709062, 619.388414 617.593814)

LINESTRING (619.388414 617.593814, 391.730338 700.595169)

LINESTRING (391.730338 700.595169, 178.329520 632.147079)

LINESTRING (178.329520 632.147079, 63.717737 406.373707)

LINESTRING (63.717737 406.373707, 186.678092 187.167355)

LINESTRING (186.678092 187.167355, 397.323047 65.893389)

LINESTRING (397.323047 65.893389, 643.139162 191.179945)

LINESTRING (643.139162 191.179945, 720.746817 393.709062)

LINESTRING (494.231938 401.652439, 570.798872 408.891854)

LINESTRING (570.798872 408.891854, 626.742564 401.778708)

LINESTRING (626.742564 401.778708, 720.746817 393.709062)

LINESTRING (462.491022 452.379568, 520.854862 532.025465)

LINESTRING (520.854862 532.025465, 589.086227 578.183948)

LINESTRING (589.086227 578.183948, 619.388414 617.593814)

LINESTRING (402.873156 470.010700, 386.589290 541.292054)

LINESTRING (386.589290 541.292054, 387.449844 654.128606)

LINESTRING (387.449844 654.128606, 391.730338 700.595169)

LINESTRING (341.114504 447.374524, 302.990254 494.986252)

LINESTRING (302.990254 494.986252, 231.796612 582.521808)

LINESTRING (231.796612 582.521808, 178.329520 632.147079)

LINESTRING (325.743567 414.073503, 253.575275 410.011520)

LINESTRING (253.575275 410.011520, 176.055417 410.387905)

LINESTRING (176.055417 410.387905, 63.717737 406.373707)

LINESTRING (334.067942 342.397492, 275.526406 291.455856)

LINESTRING (275.526406 291.455856, 241.978496 235.026006)

LINESTRING (241.978496 235.026006, 186.678092 187.167355)

LINESTRING (401.063843 317.456636, 389.279485 221.390964)

LINESTRING (389.279485 221.390964, 385.324562 148.115385)

LINESTRING (385.324562 148.115385, 397.323047 65.893389)

LINESTRING (460.894787 347.253121, 519.065954 306.083942)

LINESTRING (519.065954 306.083942, 582.176333 221.380471)

LINESTRING (582.176333 221.380471, 643.139162 191.179945)

LINESTRING (400.000000 400.000000, 494.231938 401.652439)

