LINESTRING (60.000000 60.000000, 78.618421 70.389093)

LINESTRING (60.000000 60.000000, 68.921919 36.613807)

LINESTRING (60.000000 60.000000, 57.932114 72.899084)

LINESTRING (60.000000 60.000000, 36.059912 67.606123)

LINESTRING (60.000000 60.000000, 65.423484 78.870563)

LINESTRING (60.000000 60.000000, 83.479271 42.191099)

LINESTRING (60.000000 60.000000, 76.810435 76.803920)

LINESTRING (60.000000 60.000000, 46.961469 79.927670)

LINESTRING (60.000000 60.000000, 48.194050 68.902131)

LINESTRING (60.000000 60.000000, 64.621376 45.453093)

LINESTRING (78.618421 70.389093, 68.921919 36.613807)

LINESTRING (78.618421 70.389093, 57.932114 72.899084)

LINESTRING (78.618421 70.389093, 36.059912 67.606123)

LINESTRING (78.618421 70.389093, 65.423484 78.870563)

LINESTRING (78.618421 70.389093, 76.810435 76.803920)

LINESTRING (78.618421 70.389093, 64.621376 45.453093)

LINESTRING (68.921919 36.613807, 36.059912 67.606123)

LINESTRING (68.921919 36.613807, 76.810435 76.803920)

LINESTRING (68.921919 36.613807, 48.194050 68.902131)

LINESTRING (57.932114 72.899084, 36.059912 67.606123)

LINESTRING (57.932114 72.899084, 76.810435 76.803920)

LINESTRING (57.932114 72.899084, 46.961469 79.927670)

LINESTRING (57.932114 72.899084, 48.194050 68.902131)

LINESTRING (57.932114 72.899084, 64.621376 45.453093)

LINESTRING (36.059912 67.606123, 65.423484 78.870563)

LINESTRING (36.059912 67.606123, 46.961469 79.927670)

LINESTRING (65.423484 78.870563, 76.810435 76.803920)

LINESTRING (65.423484 78.870563, 48.194050 68.902131)

LINESTRING (83.479271 42.191099, 46.961469 79.927670)

LINESTRING (83.479271 42.191099, 64.621376 45.453093)

LINESTRING (48.194050 68.902131, 64.621376 45.453093)

LINESTRING (260.000000 60.000000, 240.820127 80.665634)

LINESTRING (260.000000 60.000000, 272.610658 64.005941)

LINESTRING (260.000000 60.000000, 253.064798 72.673207)

LINESTRING (260.000000 60.000000, 275.895767 47.027773)

LINESTRING (260.000000 60.000000, 272.786756 80.465023)

LINESTRING (260.000000 60.000000, 276.495358 47.676655)

LINESTRING (260.000000 60.000000, 250.581401 71.056193)

LINESTRING (260.000000 60.000000, 237.663408 72.307224)

LINESTRING (260.000000 60.000000, 237.713634 60.564069)

LINESTRING (260.000000 60.000000, 275.140707 64.287221)

LINESTRING (240.820127 80.665634, 253.064798 72.673207)

LINESTRING (240.820127 80.665634, 275.895767 47.027773)

LINESTRING (240.820127 80.665634, 272.786756 80.465023)

LINESTRING (240.820127 80.665634, 250.581401 71.056193)

LINESTRING (272.610658 64.005941, 253.064798 72.673207)

LINESTRING (272.610658 64.005941, 275.895767 47.027773)

LINESTRING (272.610658 64.005941, 272.786756 80.465023)

LINESTRING (253.064798 72.673207, 276.495358 47.676655)

LINESTRING (253.064798 72.673207, 237.713634 60.564069)

LINESTRING (253.064798 72.673207, 275.140707 64.287221)

LINESTRING (275.895767 47.027773, 272.786756 80.465023)

LINESTRING (275.895767 47.027773, 276.495358 47.676655)

LINESTRING (275.895767 47.027773, 237.713634 60.564069)

LINESTRING (272.786756 80.465023, 276.495358 47.676655)

LINESTRING (272.786756 80.465023, 250.581401 71.056193)

LINESTRING (272.786756 80.465023, 237.663408 72.307224)

LINESTRING (272.786756 80.465023, 237.713634 60.564069)

LINESTRING (276.495358 47.676655, 250.581401 71.056193)

LINESTRING (276.495358 47.676655, 237.663408 72.307224)

LINESTRING (276.495358 47.676655, 237.713634 60.564069)

LINESTRING (276.495358 47.676655, 275.140707 64.287221)

LINESTRING (250.581401 71.056193, 237.663408 72.307224)

LINESTRING (250.581401 71.056193, 237.713634 60.564069)

LINESTRING (237.663408 72.307224, 237.713634 60.564069)

LINESTRING (237.713634 60.564069, 275.140707 64.287221)

LINESTRING (460.000000 60.000000, 457.148772 63.515654)

LINESTRING (460.000000 60.000000, 453.095736 38.231276)

LINESTRING (460.000000 60.000000, 480.534382 60.891750)

LINESTRING (460.000000 60.000000, 443.128973 68.299637)

LINESTRING (460.000000 60.000000, 453.084811 39.078460)

LINESTRING (460.000000 60.000000, 453.962473 70.930491)

LINESTRING (460.000000 60.000000, 482.995431 57.541158)

LINESTRING (460.000000 60.000000, 461.904582 63.322792)

LINESTRING (460.000000 60.000000, 436.952759 48.649527)

LINESTRING (460.000000 60.000000, 449.992528 46.868143)

LINESTRING (457.148772 63.515654, 453.095736 38.231276)

LINESTRING (457.148772 63.515654, 443.128973 68.299637)

LINESTRING (457.148772 63.515654, 461.904582 63.322792)

LINESTRING (457.148772 63.515654, 449.992528 46.868143)

LINESTRING (453.095736 38.231276, 480.534382 60.891750)

LINESTRING (453.095736 38.231276, 443.128973 68.299637)

LINESTRING (453.095736 38.231276, 482.995431 57.541158)

LINESTRING (480.534382 60.891750, 453.084811 39.078460)

LINESTRING (480.534382 60.891750, 449.992528 46.868143)

LINESTRING (443.128973 68.299637, 482.995431 57.541158)

LINESTRING (443.128973 68.299637, 436.952759 48.649527)

LINESTRING (453.084811 39.078460, 453.962473 70.930491)

LINESTRING (453.084811 39.078460, 482.995431 57.541158)

LINESTRING (453.084811 39.078460, 436.952759 48.649527)

LINESTRING (453.084811 39.078460, 449.992528 46.868143)

LINESTRING (453.962473 70.930491, 482.995431 57.541158)

LINESTRING (482.995431 57.541158, 449.992528 46.868143)

LINESTRING (461.904582 63.322792, 436.952759 48.649527)

LINESTRING (461.904582 63.322792, 449.992528 46.868143)

LINESTRING (436.952759 48.649527, 449.992528 46.868143)

LINESTRING (60.000000 260.000000, 42.067910 283.392807)

LINESTRING (60.000000 260.000000, 83.140445 266.798807)

LINESTRING (60.000000 260.000000, 41.004228 241.586079)

LINESTRING (60.000000 260.000000, 46.565671 280.933965)

LINESTRING (60.000000 260.000000, 49.120717 274.117676)

LINESTRING (60.000000 260.000000, 75.539248 239.578058)

LINESTRING (60.000000 260.000000, 61.294589 244.687996)

LINESTRING (60.000000 260.000000, 57.019146 237.370709)

LINESTRING (60.000000 260.000000, 72.828954 260.463365)

LINESTRING (60.000000 260.000000, 54.987314 277.453988)

LINESTRING (42.067910 283.392807, 46.565671 280.933965)

LINESTRING (42.067910 283.392807, 49.120717 274.117676)

LINESTRING (42.067910 283.392807, 75.539248 239.578058)

LINESTRING (42.067910 283.392807, 61.294589 244.687996)

LINESTRING (42.067910 283.392807, 54.987314 277.453988)

LINESTRING (83.140445 266.798807, 41.004228 241.586079)

LINESTRING (83.140445 266.798807, 49.120717 274.117676)

LINESTRING (83.140445 266.798807, 75.539248 239.578058)

LINESTRING (83.140445 266.798807, 57.019146 237.370709)

LINESTRING (83.140445 266.798807, 72.828954 260.463365)

LINESTRING (41.004228 241.586079, 61.294589 244.687996)

LINESTRING (41.004228 241.586079, 57.019146 237.370709)

LINESTRING (41.004228 241.586079, 54.987314 277.453988)

LINESTRING (46.565671 280.933965, 49.120717 274.117676)

LINESTRING (46.565671 280.933965, 61.294589 244.687996)

LINESTRING (46.565671 280.933965, 57.019146 237.370709)

LINESTRING (49.120717 274.117676, 61.294589 244.687996)

LINESTRING (49.120717 274.117676, 57.019146 237.370709)

LINESTRING (49.120717 274.117676, 72.828954 260.463365)

LINESTRING (75.539248 239.578058, 61.294589 244.687996)

LINESTRING (75.539248 239.578058, 57.019146 237.370709)

LINESTRING (75.539248 239.578058, 72.828954 260.463365)

LINESTRING (75.539248 239.578058, 54.987314 277.453988)

LINESTRING (61.294589 244.687996, 57.019146 237.370709)

LINESTRING (61.294589 244.687996, 72.828954 260.463365)

LINESTRING (57.019146 237.370709, 72.828954 260.463365)

LINESTRING (260.000000 260.000000, 242.321309 247.932072)

LINESTRING (260.000000 260.000000, 249.955211 259.719930)

LINESTRING (260.000000 260.000000, 256.962956 268.601869)

LINESTRING (260.000000 260.000000, 268.632596 252.678103)

LINESTRING (260.000000 260.000000, 241.170647 248.734700)

LINESTRING (260.000000 260.000000, 273.748889 260.701000)

LINESTRING (260.000000 260.000000, 258.664227 253.807826)

LINESTRING (260.000000 260.000000, 267.246383 245.571141)

LINESTRING (260.000000 260.000000, 274.606458 279.827781)

LINESTRING (260.000000 260.000000, 240.279931 250.179430)

LINESTRING (242.321309 247.932072, 267.246383 245.571141)

LINESTRING (249.955211 259.719930, 256.962956 268.601869)

LINESTRING (249.955211 259.719930, 273.748889 260.701000)

LINESTRING (256.962956 268.601869, 240.279931 250.179430)

LINESTRING (268.632596 252.678103, 267.246383 245.571141)

LINESTRING (268.632596 252.678103, 274.606458 279.827781)

LINESTRING (268.632596 252.678103, 240.279931 250.179430)

LINESTRING (241.170647 248.734700, 273.748889 260.701000)

LINESTRING (241.170647 248.734700, 267.246383 245.571141)

LINESTRING (273.748889 260.701000, 258.664227 253.807826)

LINESTRING (273.748889 260.701000, 274.606458 279.827781)

LINESTRING (273.748889 260.701000, 240.279931 250.179430)

LINESTRING (258.664227 253.807826, 274.606458 279.827781)

LINESTRING (267.246383 245.571141, 274.606458 279.827781)

LINESTRING (267.246383 245.571141, 240.279931 250.179430)

LINESTRING (274.606458 279.827781, 240.279931 250.179430)

LINESTRING (460.000000 260.000000, 445.262093 283.251789)

LINESTRING (460.000000 260.000000, 445.846113 263.542848)

LINESTRING (460.000000 260.000000, 459.486719 276.247879)

LINESTRING (460.000000 260.000000, 455.527926 277.507997)

LINESTRING (460.000000 260.000000, 458.913216 240.732237)

LINESTRING (460.000000 260.000000, 482.239065 259.985754)

LINESTRING (460.000000 260.000000, 483.457230 278.201069)

LINESTRING (460.000000 260.000000, 480.519437 248.833852)

LINESTRING (460.000000 260.000000, 440.356616 242.988275)

LINESTRING (460.000000 260.000000, 474.146521 279.071426)

LINESTRING (445.262093 283.251789, 445.846113 263.542848)

LINESTRING (445.262093 283.251789, 459.486719 276.247879)

LINESTRING (445.262093 283.251789, 482.239065 259.985754)

LINESTRING (445.262093 283.251789, 483.457230 278.201069)

LINESTRING (445.262093 283.251789, 480.519437 248.833852)

LINESTRING (445.262093 283.251789, 440.356616 242.988275)

LINESTRING (445.846113 263.542848, 482.239065 259.985754)

LINESTRING (445.846113 263.542848, 483.457230 278.201069)

LINESTRING (459.486719 276.247879, 455.527926 277.507997)

LINESTRING (459.486719 276.247879, 482.239065 259.985754)

LINESTRING (459.486719 276.247879, 483.457230 278.201069)

LINESTRING (459.486719 276.247879, 480.519437 248.833852)

LINESTRING (459.486719 276.247879, 474.146521 279.071426)

LINESTRING (455.527926 277.507997, 458.913216 240.732237)

LINESTRING (455.527926 277.507997, 482.239065 259.985754)

LINESTRING (458.913216 240.732237, 482.239065 259.985754)

LINESTRING (458.913216 240.732237, 483.457230 278.201069)

LINESTRING (482.239065 259.985754, 480.519437 248.833852)

LINESTRING (482.239065 259.985754, 474.146521 279.071426)

LINESTRING (483.457230 278.201069, 480.519437 248.833852)

LINESTRING (480.519437 248.833852, 440.356616 242.988275)

LINESTRING (440.356616 242.988275, 474.146521 279.071426)

LINESTRING (60.000000 460.000000, 52.361029 476.989288)

LINESTRING (60.000000 460.000000, 50.191672 452.455261)

LINESTRING (60.000000 460.000000, 79.987414 477.495397)

LINESTRING (60.000000 460.000000, 64.460783 457.043789)

LINESTRING (60.000000 460.000000, 61.919968 461.946197)

LINESTRING (60.000000 460.000000, 59.860611 476.871524)

LINESTRING (60.000000 460.000000, 76.091195 440.045741)

LINESTRING (60.000000 460.000000, 70.719380 445.920510)

LINESTRING (60.000000 460.000000, 45.592477 465.219548)

LINESTRING (60.000000 460.000000, 53.832195 453.771128)

LINESTRING (52.361029 476.989288, 59.860611 476.871524)

LINESTRING (52.361029 476.989288, 76.091195 440.045741)

LINESTRING (52.361029 476.989288, 53.832195 453.771128)

LINESTRING (50.191672 452.455261, 64.460783 457.043789)

LINESTRING (50.191672 452.455261, 59.860611 476.871524)

LINESTRING (50.191672 452.455261, 70.719380 445.920510)

LINESTRING (50.191672 452.455261, 45.592477 465.219548)

LINESTRING (50.191672 452.455261, 53.832195 453.771128)

LINESTRING (79.987414 477.495397, 61.919968 461.946197)

LINESTRING (79.987414 477.495397, 59.860611 476.871524)

LINESTRING (79.987414 477.495397, 76.091195 440.045741)

LINESTRING (79.987414 477.495397, 70.719380 445.920510)

LINESTRING (64.460783 457.043789, 61.919968 461.946197)

LINESTRING (64.460783 457.043789, 59.860611 476.871524)

LINESTRING (64.460783 457.043789, 70.719380 445.920510)

LINESTRING (64.460783 457.043789, 45.592477 465.219548)

LINESTRING (64.460783 457.043789, 53.832195 453.771128)

LINESTRING (61.919968 461.946197, 59.860611 476.871524)

LINESTRING (59.860611 476.871524, 70.719380 445.920510)

LINESTRING (76.091195 440.045741, 70.719380 445.920510)

LINESTRING (76.091195 440.045741, 53.832195 453.771128)

LINESTRING (70.719380 445.920510, 53.832195 453.771128)

LINESTRING (45.592477 465.219548, 53.832195 453.771128)

LINESTRING (260.000000 460.000000, 277.998609 437.597913)

LINESTRING (260.000000 460.000000, 271.491506 447.313596)

LINESTRING (260.000000 460.000000, 276.052814 437.938915)

LINESTRING (260.000000 460.000000, 277.603296 462.355003)

LINESTRING (260.000000 460.000000, 274.766841 446.331600)

LINESTRING (260.000000 460.000000, 279.999012 477.545533)

LINESTRING (260.000000 460.000000, 274.329028 455.119230)

LINESTRING (260.000000 460.000000, 278.135777 471.987344)

LINESTRING (260.000000 460.000000, 264.134857 444.408447)

LINESTRING (260.000000 460.000000, 262.599903 461.213396)

LINESTRING (277.998609 437.597913, 274.766841 446.331600)

LINESTRING (277.998609 437.597913, 279.999012 477.545533)

LINESTRING (277.998609 437.597913, 274.329028 455.119230)

LINESTRING (277.998609 437.597913, 262.599903 461.213396)

LINESTRING (271.491506 447.313596, 276.052814 437.938915)

LINESTRING (271.491506 447.313596, 277.603296 462.355003)

LINESTRING (271.491506 447.313596, 274.766841 446.331600)

LINESTRING (276.052814 437.938915, 277.603296 462.355003)

LINESTRING (276.052814 437.938915, 274.766841 446.331600)

LINESTRING (277.603296 462.355003, 274.766841 446.331600)

LINESTRING (277.603296 462.355003, 279.999012 477.545533)

LINESTRING (277.603296 462.355003, 274.329028 455.119230)

LINESTRING (277.603296 462.355003, 278.135777 471.987344)

LINESTRING (277.603296 462.355003, 262.599903 461.213396)

LINESTRING (274.766841 446.331600, 279.999012 477.545533)

LINESTRING (274.766841 446.331600, 278.135777 471.987344)

LINESTRING (274.766841 446.331600, 262.599903 461.213396)

LINESTRING (279.999012 477.545533, 278.135777 471.987344)

LINESTRING (279.999012 477.545533, 262.599903 461.213396)

LINESTRING (278.135777 471.987344, 262.599903 461.213396)

LINESTRING (83.479271 42.191099, 275.140707 64.287221)

LINESTRING (76.810435 76.803920, 253.064798 72.673207)

LINESTRING (60.000000 60.000000, 260.000000 60.000000)

LINESTRING (272.786756 80.465023, 449.992528 46.868143)

LINESTRING (253.064798 72.673207, 453.962473 70.930491)

LINESTRING (260.000000 60.000000, 460.000000 60.000000)

LINESTRING (457.148772 63.515654, 75.539248 239.578058)

LINESTRING (480.534382 60.891750, 72.828954 260.463365)

LINESTRING (460.000000 60.000000, 60.000000 260.000000)

LINESTRING (75.539248 239.578058, 249.955211 259.719930)

LINESTRING (49.120717 274.117676, 256.962956 268.601869)

LINESTRING (60.000000 260.000000, 260.000000 260.000000)

LINESTRING (241.170647 248.734700, 474.146521 279.071426)

LINESTRING (258.664227 253.807826, 445.846113 263.542848)

LINESTRING (260.000000 260.000000, 460.000000 260.000000)

LINESTRING (458.913216 240.732237, 64.460783 457.043789)

LINESTRING (480.519437 248.833852, 52.361029 476.989288)

LINESTRING (460.000000 260.000000, 60.000000 460.000000)

LINESTRING (45.592477 465.219548, 274.766841 446.331600)

LINESTRING (79.987414 477.495397, 276.052814 437.938915)

LINESTRING (60.000000 460.000000, 260.000000 460.000000)

