LINESTRING (477.978245 402.016777, 472.465296 432.169275)

LINESTRING (472.465296 432.169275, 449.613798 464.059988)

LINESTRING (449.613798 464.059988, 415.693761 480.476179)

LINESTRING (415.693761 480.476179, 386.760517 478.603981)

LINESTRING (386.760517 478.603981, 350.283497 463.970751)

LINESTRING (350.283497 463.970751, 330.349888 439.665955)

LINESTRING (330.349888 439.665955, 316.726435 398.391895)

LINESTRING (316.726435 398.391895, 325.906360 367.188683)

LINESTRING (325.906360 367.188683, 352.546485 334.047689)

LINESTRING (352.546485 334.047689, 384.174904 323.223081)

LINESTRING (384.174904 323.223081, 418.996596 319.455718)

LINESTRING (418.996596 319.455718, 446.897647 339.244573)

LINESTRING (446.897647 339.244573, 467.471010 364.512037)

LINESTRING (467.471010 364.512037, 477.978245 402.016777)

LINESTRING (564.873430 403.548908, 545.019968 468.715536)

LINESTRING (545.019968 468.715536, 499.019029 524.882193)

LINESTRING (499.019029 524.882193, 433.347159 558.011080)

LINESTRING (433.347159 558.011080, 367.196733 553.742348)

LINESTRING (367.196733 553.742348, 302.866454 528.785730)

LINESTRING (302.866454 528.785730, 260.426998 468.361084)

LINESTRING (260.426998 468.361084, 238.282190 396.069996)

LINESTRING (238.282190 396.069996, 257.362093 333.610554)

LINESTRING (257.362093 333.610554, 303.949210 272.631372)

LINESTRING (303.949210 272.631372, 363.261173 241.776923)

LINESTRING (363.261173 241.776923, 434.509046 244.499374)

LINESTRING (434.509046 244.499374, 501.002496 275.428563)

LINESTRING (501.002496 275.428563, 542.679239 332.553954)

LINESTRING (542.679239 332.553954, 564.873430 403.548908)

LINESTRING (639.605467 403.402651, 617.192586 505.951610)

LINESTRING (617.192586 505.951610, 547.950641 584.643226)

LINESTRING (547.950641 584.643226, 449.390694 634.557136)

LINESTRING (449.390694 634.557136, 347.048893 632.644459)

LINESTRING (347.048893 632.644459, 252.402525 584.551864)

LINESTRING (252.402525 584.551864, 179.140591 504.711572)

LINESTRING (179.140591 504.711572, 164.890016 400.569746)

LINESTRING (164.890016 400.569746, 186.097801 296.771474)

LINESTRING (186.097801 296.771474, 251.740442 214.389798)

LINESTRING (251.740442 214.389798, 349.827167 162.521913)

LINESTRING (349.827167 162.521913, 457.844869 164.352059)

LINESTRING (457.844869 164.352059, 553.721941 208.534820)

LINESTRING (553.721941 208.534820, 613.208007 300.779531)

LINESTRING (613.208007 300.779531, 639.605467 403.402651)

LINESTRING (477.978245 402.016777, 564.873430 403.548908)

LINESTRING (564.873430 403.548908, 639.605467 403.402651)

LINESTRING (472.465296 432.169275, 545.019968 468.715536)

LINESTRING (545.019968 468.715536, 617.192586 505.951610)

LINESTRING (449.613798 464.059988, 499.019029 524.882193)

LINESTRING (499.019029 524.882193, 547.950641 584.643226)

LINESTRING (415.693761 480.476179, 433.347159 558.011080)

LINESTRING (433.347159 558.011080, 449.390694 634.557136)

LINESTRING (386.760517 478.603981, 367.196733 553.742348)

LINESTRING (367.196733 553.742348, 347.048893 632.644459)

LINESTRING (350.283497 463.970751, 302.866454 528.785730)

LINESTRING (302.866454 528.785730, 252.402525 584.551864)

LINESTRING (330.349888 439.665955, 260.426998 468.361084)

LINESTRING (260.426998 468.361084, 179.140591 504.711572)

LINESTRING (316.726435 398.391895, 238.282190 396.069996)

LINESTRING (238.282190 396.069996, 164.890016 400.569746)

LINESTRING (325.906360 367.188683, 257.362093 333.610554)

LINESTRING (257.362093 333.610554, 186.097801 296.771474)

LINESTRING (352.546485 334.047689, 303.949210 272.631372)

LINESTRING (303.949210 272.631372, 251.740442 214.389798)

LINESTRING (384.174904 323.223081, 363.261173 241.776923)

LINESTRING (363.261173 241.776923, 349.827167 162.521913)

LINESTRING (418.996596 319.455718, 434.509046 244.499374)

LINESTRING (434.509046 244.499374, 457.844869 164.352059)

LINESTRING (446.897647 339.244573, 501.002496 275.428563)

LINESTRING (501.002496 275.428563, 553.721941 208.534820)

LINESTRING (467.471010 364.512037, 542.679239 332.553954)

LINESTRING (542.679239 332.553954, 613.208007 300.779531)

LINESTRING (400.000000 400.000000, 477.978245 402.016777)

