LINESTRING (2583.379199 6067.544719, 955.612556 5723.638815)

LINESTRING (2583.379199 6067.544719, 944.594341 5306.434564)

LINESTRING (2187.864258 1811.671036, 3364.982142 2919.036466)

LINESTRING (2187.864258 1811.671036, 2900.585110 3899.725988)

LINESTRING (2187.864258 1811.671036, 463.276933 2614.778440)

LINESTRING (5969.241510 3388.962341, 5599.420263 3208.307813)

LINESTRING (5969.241510 3388.962341, 6080.530729 4297.549999)

LINESTRING (5969.241510 3388.962341, 3968.413111 2948.790733)

LINESTRING (5969.241510 3388.962341, 5679.711477 3089.888421)

LINESTRING (3586.594284 1448.125051, 3721.274082 358.697979)

LINESTRING (3586.594284 1448.125051, 3364.982142 2919.036466)

LINESTRING (3586.594284 1448.125051, 3298.870847 717.074753)

LINESTRING (3586.594284 1448.125051, 3968.413111 2948.790733)

LINESTRING (3586.594284 1448.125051, 5113.107257 634.515937)

LINESTRING (3586.594284 1448.125051, 4789.467151 674.949392)

LINESTRING (3586.594284 1448.125051, 1643.489219 1225.041409)

LINESTRING (2685.627633 4599.615636, 2524.869512 4770.904535)

LINESTRING (2685.627633 4599.615636, 3364.982142 2919.036466)

LINESTRING (2685.627633 4599.615636, 1067.165400 5274.409780)

LINESTRING (2685.627633 4599.615636, 1090.932601 5390.882509)

LINESTRING (2685.627633 4599.615636, 2900.585110 3899.725988)

LINESTRING (2685.627633 4599.615636, 3737.978133 4847.127380)

LINESTRING (595.157114 5202.906980, 955.612556 5723.638815)

LINESTRING (595.157114 5202.906980, 1067.165400 5274.409780)

LINESTRING (595.157114 5202.906980, 944.594341 5306.434564)

LINESTRING (595.157114 5202.906980, 1090.932601 5390.882509)

LINESTRING (595.157114 5202.906980, 175.543137 5243.342737)

LINESTRING (3721.274082 358.697979, 3298.870847 717.074753)

LINESTRING (3721.274082 358.697979, 4789.467151 674.949392)

LINESTRING (2524.869512 4770.904535, 3364.982142 2919.036466)

LINESTRING (2524.869512 4770.904535, 3968.413111 2948.790733)

LINESTRING (2524.869512 4770.904535, 3737.978133 4847.127380)

LINESTRING (955.612556 5723.638815, 1067.165400 5274.409780)

LINESTRING (955.612556 5723.638815, 944.594341 5306.434564)

LINESTRING (955.612556 5723.638815, 120.480390 4226.219455)

LINESTRING (955.612556 5723.638815, 1090.932601 5390.882509)

LINESTRING (3364.982142 2919.036466, 3968.413111 2948.790733)

LINESTRING (3364.982142 2919.036466, 5679.711477 3089.888421)

LINESTRING (5599.420263 3208.307813, 3968.413111 2948.790733)

LINESTRING (5599.420263 3208.307813, 5679.711477 3089.888421)

LINESTRING (6343.169130 1994.829684, 5783.732369 1681.376236)

LINESTRING (3298.870847 717.074753, 3968.413111 2948.790733)

LINESTRING (3298.870847 717.074753, 4789.467151 674.949392)

LINESTRING (6080.530729 4297.549999, 5679.711477 3089.888421)

LINESTRING (1067.165400 5274.409780, 944.594341 5306.434564)

LINESTRING (1067.165400 5274.409780, 120.480390 4226.219455)

LINESTRING (1067.165400 5274.409780, 1090.932601 5390.882509)

LINESTRING (944.594341 5306.434564, 1090.932601 5390.882509)

LINESTRING (944.594341 5306.434564, 175.543137 5243.342737)

LINESTRING (1090.932601 5390.882509, 175.543137 5243.342737)

LINESTRING (2900.585110 3899.725988, 3737.978133 4847.127380)

LINESTRING (5113.107257 634.515937, 4789.467151 674.949392)

LINESTRING (463.276933 2614.778440, 1643.489219 1225.041409)

LINESTRING (4773.650175 6614.056785, 4140.007437 6590.427202)

