LINESTRING (60.000000 60.000000, 72.340105 57.648083)

LINESTRING (60.000000 60.000000, 67.533232 81.364335)

LINESTRING (60.000000 60.000000, 54.795917 71.908011)

LINESTRING (60.000000 60.000000, 77.403426 48.855911)

LINESTRING (60.000000 60.000000, 78.126800 45.411069)

LINESTRING (60.000000 60.000000, 44.553202 66.650701)

LINESTRING (60.000000 60.000000, 56.622940 82.718593)

LINESTRING (60.000000 60.000000, 43.449485 83.606530)

LINESTRING (72.340105 57.648083, 67.533232 81.364335)

LINESTRING (72.340105 57.648083, 54.795917 71.908011)

LINESTRING (72.340105 57.648083, 78.126800 45.411069)

LINESTRING (72.340105 57.648083, 44.553202 66.650701)

LINESTRING (72.340105 57.648083, 56.622940 82.718593)

LINESTRING (72.340105 57.648083, 43.449485 83.606530)

LINESTRING (67.533232 81.364335, 54.795917 71.908011)

LINESTRING (67.533232 81.364335, 78.126800 45.411069)

LINESTRING (67.533232 81.364335, 43.449485 83.606530)

LINESTRING (54.795917 71.908011, 77.403426 48.855911)

LINESTRING (54.795917 71.908011, 78.126800 45.411069)

LINESTRING (54.795917 71.908011, 44.553202 66.650701)

LINESTRING (54.795917 71.908011, 56.622940 82.718593)

LINESTRING (54.795917 71.908011, 43.449485 83.606530)

LINESTRING (77.403426 48.855911, 78.126800 45.411069)

LINESTRING (77.403426 48.855911, 56.622940 82.718593)

LINESTRING (78.126800 45.411069, 44.553202 66.650701)

LINESTRING (78.126800 45.411069, 43.449485 83.606530)

LINESTRING (44.553202 66.650701, 56.622940 82.718593)

LINESTRING (56.622940 82.718593, 43.449485 83.606530)

LINESTRING (260.000000 60.000000, 262.764167 81.011449)

LINESTRING (260.000000 60.000000, 266.899725 59.929974)

LINESTRING (260.000000 60.000000, 271.463027 41.129075)

LINESTRING (260.000000 60.000000, 242.237795 40.830909)

LINESTRING (260.000000 60.000000, 274.996108 51.444148)

LINESTRING (260.000000 60.000000, 281.219729 82.322766)

LINESTRING (260.000000 60.000000, 267.517623 83.655968)

LINESTRING (260.000000 60.000000, 247.116313 50.668184)

LINESTRING (262.764167 81.011449, 266.899725 59.929974)

LINESTRING (262.764167 81.011449, 271.463027 41.129075)

LINESTRING (262.764167 81.011449, 242.237795 40.830909)

LINESTRING (262.764167 81.011449, 274.996108 51.444148)

LINESTRING (262.764167 81.011449, 281.219729 82.322766)

LINESTRING (262.764167 81.011449, 247.116313 50.668184)

LINESTRING (266.899725 59.929974, 242.237795 40.830909)

LINESTRING (266.899725 59.929974, 274.996108 51.444148)

LINESTRING (266.899725 59.929974, 281.219729 82.322766)

LINESTRING (266.899725 59.929974, 267.517623 83.655968)

LINESTRING (271.463027 41.129075, 242.237795 40.830909)

LINESTRING (271.463027 41.129075, 281.219729 82.322766)

LINESTRING (271.463027 41.129075, 267.517623 83.655968)

LINESTRING (271.463027 41.129075, 247.116313 50.668184)

LINESTRING (242.237795 40.830909, 274.996108 51.444148)

LINESTRING (242.237795 40.830909, 281.219729 82.322766)

LINESTRING (242.237795 40.830909, 267.517623 83.655968)

LINESTRING (242.237795 40.830909, 247.116313 50.668184)

LINESTRING (274.996108 51.444148, 281.219729 82.322766)

LINESTRING (281.219729 82.322766, 267.517623 83.655968)

LINESTRING (281.219729 82.322766, 247.116313 50.668184)

LINESTRING (60.000000 260.000000, 41.172249 264.118157)

LINESTRING (60.000000 260.000000, 67.996112 283.879141)

LINESTRING (60.000000 260.000000, 60.360811 249.666665)

LINESTRING (60.000000 260.000000, 75.715876 255.616798)

LINESTRING (60.000000 260.000000, 63.710304 271.740155)

LINESTRING (60.000000 260.000000, 39.195820 252.055321)

LINESTRING (60.000000 260.000000, 50.426835 256.943605)

LINESTRING (60.000000 260.000000, 53.671705 278.159102)

LINESTRING (41.172249 264.118157, 60.360811 249.666665)

LINESTRING (41.172249 264.118157, 75.715876 255.616798)

LINESTRING (41.172249 264.118157, 63.710304 271.740155)

LINESTRING (41.172249 264.118157, 39.195820 252.055321)

LINESTRING (41.172249 264.118157, 50.426835 256.943605)

LINESTRING (41.172249 264.118157, 53.671705 278.159102)

LINESTRING (67.996112 283.879141, 60.360811 249.666665)

LINESTRING (67.996112 283.879141, 75.715876 255.616798)

LINESTRING (67.996112 283.879141, 63.710304 271.740155)

LINESTRING (67.996112 283.879141, 39.195820 252.055321)

LINESTRING (67.996112 283.879141, 53.671705 278.159102)

LINESTRING (60.360811 249.666665, 75.715876 255.616798)

LINESTRING (60.360811 249.666665, 63.710304 271.740155)

LINESTRING (60.360811 249.666665, 39.195820 252.055321)

LINESTRING (60.360811 249.666665, 50.426835 256.943605)

LINESTRING (60.360811 249.666665, 53.671705 278.159102)

LINESTRING (75.715876 255.616798, 63.710304 271.740155)

LINESTRING (75.715876 255.616798, 39.195820 252.055321)

LINESTRING (63.710304 271.740155, 39.195820 252.055321)

LINESTRING (39.195820 252.055321, 53.671705 278.159102)

LINESTRING (50.426835 256.943605, 53.671705 278.159102)

LINESTRING (260.000000 260.000000, 242.879712 267.251722)

LINESTRING (260.000000 260.000000, 253.465386 249.549606)

LINESTRING (260.000000 260.000000, 250.006998 249.590369)

LINESTRING (260.000000 260.000000, 237.246564 271.387234)

LINESTRING (260.000000 260.000000, 272.544275 259.618658)

LINESTRING (260.000000 260.000000, 242.919814 273.747172)

LINESTRING (260.000000 260.000000, 275.429391 247.554044)

LINESTRING (260.000000 260.000000, 257.270919 248.282910)

LINESTRING (242.879712 267.251722, 253.465386 249.549606)

LINESTRING (242.879712 267.251722, 250.006998 249.590369)

LINESTRING (242.879712 267.251722, 237.246564 271.387234)

LINESTRING (242.879712 267.251722, 272.544275 259.618658)

LINESTRING (242.879712 267.251722, 242.919814 273.747172)

LINESTRING (242.879712 267.251722, 257.270919 248.282910)

LINESTRING (253.465386 249.549606, 250.006998 249.590369)

LINESTRING (253.465386 249.549606, 237.246564 271.387234)

LINESTRING (253.465386 249.549606, 272.544275 259.618658)

LINESTRING (253.465386 249.549606, 242.919814 273.747172)

LINESTRING (253.465386 249.549606, 275.429391 247.554044)

LINESTRING (250.006998 249.590369, 237.246564 271.387234)

LINESTRING (250.006998 249.590369, 272.544275 259.618658)

LINESTRING (250.006998 249.590369, 257.270919 248.282910)

LINESTRING (237.246564 271.387234, 272.544275 259.618658)

LINESTRING (237.246564 271.387234, 242.919814 273.747172)

LINESTRING (237.246564 271.387234, 275.429391 247.554044)

LINESTRING (237.246564 271.387234, 257.270919 248.282910)

LINESTRING (272.544275 259.618658, 242.919814 273.747172)

LINESTRING (272.544275 259.618658, 257.270919 248.282910)

LINESTRING (242.919814 273.747172, 275.429391 247.554044)

LINESTRING (242.919814 273.747172, 257.270919 248.282910)

LINESTRING (275.429391 247.554044, 257.270919 248.282910)

LINESTRING (54.795917 71.908011, 266.899725 59.929974)

LINESTRING (60.000000 60.000000, 260.000000 60.000000)

LINESTRING (281.219729 82.322766, 41.172249 264.118157)

LINESTRING (260.000000 60.000000, 60.000000 260.000000)

LINESTRING (41.172249 264.118157, 253.465386 249.549606)

LINESTRING (60.000000 260.000000, 260.000000 260.000000)

