LINESTRING (179.772829 159.655218, 138.540977 120.523416)

LINESTRING (179.772829 159.655218, 116.085052 100.222905)

LINESTRING (179.772829 159.655218, 172.822297 106.052438)

LINESTRING (179.772829 159.655218, 141.295171 171.528541)

LINESTRING (179.772829 159.655218, 129.737808 156.465746)

LINESTRING (179.772829 159.655218, 153.338998 155.703018)

LINESTRING (179.772829 159.655218, 173.796010 179.662989)

LINESTRING (179.772829 159.655218, 126.324397 173.867901)

LINESTRING (179.772829 159.655218, 148.874445 147.582906)

LINESTRING (179.772829 159.655218, 122.407402 134.653271)

LINESTRING (179.772829 159.655218, 167.459687 123.593442)

LINESTRING (179.772829 159.655218, 163.007618 151.028947)

LINESTRING (179.772829 159.655218, 102.853288 128.804181)

LINESTRING (179.772829 159.655218, 178.534696 130.204233)

LINESTRING (179.772829 159.655218, 173.274660 151.059796)

LINESTRING (179.772829 159.655218, 176.485577 148.301127)

LINESTRING (179.772829 159.655218, 104.355427 141.828005)

LINESTRING (179.772829 159.655218, 112.448349 119.530100)

LINESTRING (179.772829 159.655218, 164.071197 172.862471)

LINESTRING (179.772829 159.655218, 104.898434 101.849199)

LINESTRING (179.772829 159.655218, 176.737541 109.606777)

LINESTRING (179.772829 159.655218, 178.868558 104.315820)

LINESTRING (179.772829 159.655218, 125.526229 101.705798)

LINESTRING (179.772829 159.655218, 150.253379 110.564572)

LINESTRING (138.540977 120.523416, 172.822297 106.052438)

LINESTRING (138.540977 120.523416, 141.295171 171.528541)

LINESTRING (138.540977 120.523416, 129.737808 156.465746)

LINESTRING (138.540977 120.523416, 171.589635 144.723959)

LINESTRING (138.540977 120.523416, 153.338998 155.703018)

LINESTRING (138.540977 120.523416, 126.324397 173.867901)

LINESTRING (138.540977 120.523416, 164.786414 124.657456)

LINESTRING (138.540977 120.523416, 165.012101 111.131101)

LINESTRING (138.540977 120.523416, 162.215313 171.187859)

LINESTRING (138.540977 120.523416, 133.818793 110.975901)

LINESTRING (138.540977 120.523416, 167.459687 123.593442)

LINESTRING (138.540977 120.523416, 159.301577 129.236593)

LINESTRING (138.540977 120.523416, 178.534696 130.204233)

LINESTRING (138.540977 120.523416, 176.485577 148.301127)

LINESTRING (138.540977 120.523416, 154.837058 109.714194)

LINESTRING (138.540977 120.523416, 112.448349 119.530100)

LINESTRING (138.540977 120.523416, 164.071197 172.862471)

LINESTRING (138.540977 120.523416, 104.898434 101.849199)

LINESTRING (138.540977 120.523416, 176.737541 109.606777)

LINESTRING (138.540977 120.523416, 178.868558 104.315820)

LINESTRING (138.540977 120.523416, 137.883066 109.102505)

LINESTRING (116.085052 100.222905, 172.822297 106.052438)

LINESTRING (116.085052 100.222905, 141.295171 171.528541)

LINESTRING (116.085052 100.222905, 153.338998 155.703018)

LINESTRING (116.085052 100.222905, 173.796010 179.662989)

LINESTRING (116.085052 100.222905, 126.324397 173.867901)

LINESTRING (116.085052 100.222905, 165.012101 111.131101)

LINESTRING (116.085052 100.222905, 148.874445 147.582906)

LINESTRING (116.085052 100.222905, 133.818793 110.975901)

LINESTRING (116.085052 100.222905, 122.407402 134.653271)

LINESTRING (116.085052 100.222905, 159.301577 129.236593)

LINESTRING (116.085052 100.222905, 178.534696 130.204233)

LINESTRING (116.085052 100.222905, 173.274660 151.059796)

LINESTRING (116.085052 100.222905, 169.990305 139.211479)

LINESTRING (116.085052 100.222905, 176.485577 148.301127)

LINESTRING (116.085052 100.222905, 172.135771 174.251054)

LINESTRING (116.085052 100.222905, 104.355427 141.828005)

LINESTRING (116.085052 100.222905, 154.837058 109.714194)

LINESTRING (116.085052 100.222905, 132.716271 152.334237)

LINESTRING (116.085052 100.222905, 125.526229 101.705798)

LINESTRING (116.085052 100.222905, 150.253379 110.564572)

LINESTRING (172.822297 106.052438, 126.324397 173.867901)

LINESTRING (172.822297 106.052438, 164.786414 124.657456)

LINESTRING (172.822297 106.052438, 165.012101 111.131101)

LINESTRING (172.822297 106.052438, 148.874445 147.582906)

LINESTRING (172.822297 106.052438, 174.640924 150.793598)

LINESTRING (172.822297 106.052438, 133.818793 110.975901)

LINESTRING (172.822297 106.052438, 167.459687 123.593442)

LINESTRING (172.822297 106.052438, 159.301577 129.236593)

LINESTRING (172.822297 106.052438, 135.496069 146.120644)

LINESTRING (172.822297 106.052438, 163.007618 151.028947)

LINESTRING (172.822297 106.052438, 102.853288 128.804181)

LINESTRING (172.822297 106.052438, 173.274660 151.059796)

LINESTRING (172.822297 106.052438, 169.990305 139.211479)

LINESTRING (172.822297 106.052438, 176.485577 148.301127)

LINESTRING (172.822297 106.052438, 104.355427 141.828005)

LINESTRING (172.822297 106.052438, 154.837058 109.714194)

LINESTRING (172.822297 106.052438, 164.071197 172.862471)

LINESTRING (172.822297 106.052438, 104.898434 101.849199)

LINESTRING (172.822297 106.052438, 176.737541 109.606777)

LINESTRING (172.822297 106.052438, 178.868558 104.315820)

LINESTRING (172.822297 106.052438, 125.526229 101.705798)

LINESTRING (141.295171 171.528541, 129.737808 156.465746)

LINESTRING (141.295171 171.528541, 153.338998 155.703018)

LINESTRING (141.295171 171.528541, 126.324397 173.867901)

LINESTRING (141.295171 171.528541, 164.786414 124.657456)

LINESTRING (141.295171 171.528541, 148.874445 147.582906)

LINESTRING (141.295171 171.528541, 174.640924 150.793598)

LINESTRING (141.295171 171.528541, 162.215313 171.187859)

LINESTRING (141.295171 171.528541, 133.818793 110.975901)

LINESTRING (141.295171 171.528541, 122.407402 134.653271)

LINESTRING (141.295171 171.528541, 159.301577 129.236593)

LINESTRING (141.295171 171.528541, 135.496069 146.120644)

LINESTRING (141.295171 171.528541, 163.007618 151.028947)

LINESTRING (141.295171 171.528541, 169.990305 139.211479)

LINESTRING (141.295171 171.528541, 176.485577 148.301127)

LINESTRING (141.295171 171.528541, 172.135771 174.251054)

LINESTRING (141.295171 171.528541, 104.355427 141.828005)

LINESTRING (141.295171 171.528541, 154.837058 109.714194)

LINESTRING (141.295171 171.528541, 112.988379 146.256398)

LINESTRING (141.295171 171.528541, 164.071197 172.862471)

LINESTRING (141.295171 171.528541, 176.737541 109.606777)

LINESTRING (141.295171 171.528541, 132.716271 152.334237)

LINESTRING (141.295171 171.528541, 178.868558 104.315820)

LINESTRING (141.295171 171.528541, 125.526229 101.705798)

LINESTRING (141.295171 171.528541, 137.883066 109.102505)

LINESTRING (129.737808 156.465746, 171.589635 144.723959)

LINESTRING (129.737808 156.465746, 153.338998 155.703018)

LINESTRING (129.737808 156.465746, 173.796010 179.662989)

LINESTRING (129.737808 156.465746, 126.324397 173.867901)

LINESTRING (129.737808 156.465746, 164.786414 124.657456)

LINESTRING (129.737808 156.465746, 165.012101 111.131101)

LINESTRING (129.737808 156.465746, 148.874445 147.582906)

LINESTRING (129.737808 156.465746, 174.640924 150.793598)

LINESTRING (129.737808 156.465746, 133.818793 110.975901)

LINESTRING (129.737808 156.465746, 122.407402 134.653271)

LINESTRING (129.737808 156.465746, 167.459687 123.593442)

LINESTRING (129.737808 156.465746, 135.496069 146.120644)

LINESTRING (129.737808 156.465746, 152.489740 140.554060)

LINESTRING (129.737808 156.465746, 102.853288 128.804181)

LINESTRING (129.737808 156.465746, 178.534696 130.204233)

LINESTRING (129.737808 156.465746, 173.274660 151.059796)

LINESTRING (129.737808 156.465746, 172.135771 174.251054)

LINESTRING (129.737808 156.465746, 104.355427 141.828005)

LINESTRING (129.737808 156.465746, 154.837058 109.714194)

LINESTRING (129.737808 156.465746, 112.988379 146.256398)

LINESTRING (129.737808 156.465746, 112.448349 119.530100)

LINESTRING (129.737808 156.465746, 164.071197 172.862471)

LINESTRING (129.737808 156.465746, 176.737541 109.606777)

LINESTRING (129.737808 156.465746, 132.716271 152.334237)

LINESTRING (129.737808 156.465746, 178.868558 104.315820)

LINESTRING (129.737808 156.465746, 150.253379 110.564572)

LINESTRING (171.589635 144.723959, 153.338998 155.703018)

LINESTRING (171.589635 144.723959, 173.796010 179.662989)

LINESTRING (171.589635 144.723959, 164.786414 124.657456)

LINESTRING (171.589635 144.723959, 148.874445 147.582906)

LINESTRING (171.589635 144.723959, 174.640924 150.793598)

LINESTRING (171.589635 144.723959, 133.818793 110.975901)

LINESTRING (171.589635 144.723959, 167.459687 123.593442)

LINESTRING (171.589635 144.723959, 159.301577 129.236593)

LINESTRING (171.589635 144.723959, 135.496069 146.120644)

LINESTRING (171.589635 144.723959, 163.007618 151.028947)

LINESTRING (171.589635 144.723959, 152.489740 140.554060)

LINESTRING (171.589635 144.723959, 173.274660 151.059796)

LINESTRING (171.589635 144.723959, 176.485577 148.301127)

LINESTRING (171.589635 144.723959, 154.837058 109.714194)

LINESTRING (171.589635 144.723959, 112.448349 119.530100)

LINESTRING (171.589635 144.723959, 164.071197 172.862471)

LINESTRING (171.589635 144.723959, 104.898434 101.849199)

LINESTRING (171.589635 144.723959, 176.737541 109.606777)

LINESTRING (171.589635 144.723959, 132.716271 152.334237)

LINESTRING (171.589635 144.723959, 178.868558 104.315820)

LINESTRING (153.338998 155.703018, 173.796010 179.662989)

LINESTRING (153.338998 155.703018, 126.324397 173.867901)

LINESTRING (153.338998 155.703018, 164.786414 124.657456)

LINESTRING (153.338998 155.703018, 148.874445 147.582906)

LINESTRING (153.338998 155.703018, 162.215313 171.187859)

LINESTRING (153.338998 155.703018, 133.818793 110.975901)

LINESTRING (153.338998 155.703018, 167.459687 123.593442)

LINESTRING (153.338998 155.703018, 159.301577 129.236593)

LINESTRING (153.338998 155.703018, 135.496069 146.120644)

LINESTRING (153.338998 155.703018, 163.007618 151.028947)

LINESTRING (153.338998 155.703018, 102.853288 128.804181)

LINESTRING (153.338998 155.703018, 178.534696 130.204233)

LINESTRING (153.338998 155.703018, 169.990305 139.211479)

LINESTRING (153.338998 155.703018, 176.485577 148.301127)

LINESTRING (153.338998 155.703018, 104.355427 141.828005)

LINESTRING (153.338998 155.703018, 112.448349 119.530100)

LINESTRING (153.338998 155.703018, 164.071197 172.862471)

LINESTRING (153.338998 155.703018, 125.526229 101.705798)

LINESTRING (153.338998 155.703018, 150.253379 110.564572)

LINESTRING (173.796010 179.662989, 164.786414 124.657456)

LINESTRING (173.796010 179.662989, 148.874445 147.582906)

LINESTRING (173.796010 179.662989, 133.818793 110.975901)

LINESTRING (173.796010 179.662989, 167.459687 123.593442)

LINESTRING (173.796010 179.662989, 159.301577 129.236593)

LINESTRING (173.796010 179.662989, 152.489740 140.554060)

LINESTRING (173.796010 179.662989, 102.853288 128.804181)

LINESTRING (173.796010 179.662989, 178.534696 130.204233)

LINESTRING (173.796010 179.662989, 173.274660 151.059796)

LINESTRING (173.796010 179.662989, 176.485577 148.301127)

LINESTRING (173.796010 179.662989, 172.135771 174.251054)

LINESTRING (173.796010 179.662989, 104.355427 141.828005)

LINESTRING (173.796010 179.662989, 154.837058 109.714194)

LINESTRING (173.796010 179.662989, 164.071197 172.862471)

LINESTRING (173.796010 179.662989, 104.898434 101.849199)

LINESTRING (173.796010 179.662989, 178.868558 104.315820)

LINESTRING (173.796010 179.662989, 125.526229 101.705798)

LINESTRING (173.796010 179.662989, 137.883066 109.102505)

LINESTRING (173.796010 179.662989, 150.253379 110.564572)

LINESTRING (126.324397 173.867901, 164.786414 124.657456)

LINESTRING (126.324397 173.867901, 165.012101 111.131101)

LINESTRING (126.324397 173.867901, 148.874445 147.582906)

LINESTRING (126.324397 173.867901, 174.640924 150.793598)

LINESTRING (126.324397 173.867901, 133.818793 110.975901)

LINESTRING (126.324397 173.867901, 159.301577 129.236593)

LINESTRING (126.324397 173.867901, 152.489740 140.554060)

LINESTRING (126.324397 173.867901, 178.534696 130.204233)

LINESTRING (126.324397 173.867901, 173.274660 151.059796)

LINESTRING (126.324397 173.867901, 172.135771 174.251054)

LINESTRING (126.324397 173.867901, 112.988379 146.256398)

LINESTRING (126.324397 173.867901, 112.448349 119.530100)

LINESTRING (126.324397 173.867901, 164.071197 172.862471)

LINESTRING (126.324397 173.867901, 104.898434 101.849199)

LINESTRING (126.324397 173.867901, 132.716271 152.334237)

LINESTRING (126.324397 173.867901, 178.868558 104.315820)

LINESTRING (126.324397 173.867901, 125.526229 101.705798)

LINESTRING (126.324397 173.867901, 137.883066 109.102505)

LINESTRING (164.786414 124.657456, 148.874445 147.582906)

LINESTRING (164.786414 124.657456, 174.640924 150.793598)

LINESTRING (164.786414 124.657456, 162.215313 171.187859)

LINESTRING (164.786414 124.657456, 122.407402 134.653271)

LINESTRING (164.786414 124.657456, 159.301577 129.236593)

LINESTRING (164.786414 124.657456, 135.496069 146.120644)

LINESTRING (164.786414 124.657456, 152.489740 140.554060)

LINESTRING (164.786414 124.657456, 178.534696 130.204233)

LINESTRING (164.786414 124.657456, 169.990305 139.211479)

LINESTRING (164.786414 124.657456, 176.485577 148.301127)

LINESTRING (164.786414 124.657456, 104.355427 141.828005)

LINESTRING (164.786414 124.657456, 154.837058 109.714194)

LINESTRING (164.786414 124.657456, 112.448349 119.530100)

LINESTRING (164.786414 124.657456, 104.898434 101.849199)

LINESTRING (164.786414 124.657456, 176.737541 109.606777)

LINESTRING (164.786414 124.657456, 132.716271 152.334237)

LINESTRING (164.786414 124.657456, 178.868558 104.315820)

LINESTRING (164.786414 124.657456, 125.526229 101.705798)

LINESTRING (165.012101 111.131101, 148.874445 147.582906)

LINESTRING (165.012101 111.131101, 174.640924 150.793598)

LINESTRING (165.012101 111.131101, 162.215313 171.187859)

LINESTRING (165.012101 111.131101, 133.818793 110.975901)

LINESTRING (165.012101 111.131101, 122.407402 134.653271)

LINESTRING (165.012101 111.131101, 159.301577 129.236593)

LINESTRING (165.012101 111.131101, 135.496069 146.120644)

LINESTRING (165.012101 111.131101, 163.007618 151.028947)

LINESTRING (165.012101 111.131101, 102.853288 128.804181)

LINESTRING (165.012101 111.131101, 173.274660 151.059796)

LINESTRING (165.012101 111.131101, 169.990305 139.211479)

LINESTRING (165.012101 111.131101, 176.485577 148.301127)

LINESTRING (165.012101 111.131101, 172.135771 174.251054)

LINESTRING (165.012101 111.131101, 154.837058 109.714194)

LINESTRING (165.012101 111.131101, 112.448349 119.530100)

LINESTRING (165.012101 111.131101, 104.898434 101.849199)

LINESTRING (165.012101 111.131101, 176.737541 109.606777)

LINESTRING (165.012101 111.131101, 178.868558 104.315820)

LINESTRING (165.012101 111.131101, 137.883066 109.102505)

LINESTRING (165.012101 111.131101, 150.253379 110.564572)

LINESTRING (148.874445 147.582906, 162.215313 171.187859)

LINESTRING (148.874445 147.582906, 133.818793 110.975901)

LINESTRING (148.874445 147.582906, 122.407402 134.653271)

LINESTRING (148.874445 147.582906, 167.459687 123.593442)

LINESTRING (148.874445 147.582906, 159.301577 129.236593)

LINESTRING (148.874445 147.582906, 135.496069 146.120644)

LINESTRING (148.874445 147.582906, 163.007618 151.028947)

LINESTRING (148.874445 147.582906, 152.489740 140.554060)

LINESTRING (148.874445 147.582906, 178.534696 130.204233)

LINESTRING (148.874445 147.582906, 169.990305 139.211479)

LINESTRING (148.874445 147.582906, 176.485577 148.301127)

LINESTRING (148.874445 147.582906, 112.988379 146.256398)

LINESTRING (148.874445 147.582906, 112.448349 119.530100)

LINESTRING (148.874445 147.582906, 104.898434 101.849199)

LINESTRING (148.874445 147.582906, 176.737541 109.606777)

LINESTRING (148.874445 147.582906, 132.716271 152.334237)

LINESTRING (148.874445 147.582906, 178.868558 104.315820)

LINESTRING (148.874445 147.582906, 137.883066 109.102505)

LINESTRING (148.874445 147.582906, 150.253379 110.564572)

LINESTRING (174.640924 150.793598, 162.215313 171.187859)

LINESTRING (174.640924 150.793598, 122.407402 134.653271)

LINESTRING (174.640924 150.793598, 167.459687 123.593442)

LINESTRING (174.640924 150.793598, 159.301577 129.236593)

LINESTRING (174.640924 150.793598, 135.496069 146.120644)

LINESTRING (174.640924 150.793598, 163.007618 151.028947)

LINESTRING (174.640924 150.793598, 152.489740 140.554060)

LINESTRING (174.640924 150.793598, 102.853288 128.804181)

LINESTRING (174.640924 150.793598, 178.534696 130.204233)

LINESTRING (174.640924 150.793598, 173.274660 151.059796)

LINESTRING (174.640924 150.793598, 172.135771 174.251054)

LINESTRING (174.640924 150.793598, 154.837058 109.714194)

LINESTRING (174.640924 150.793598, 112.988379 146.256398)

LINESTRING (174.640924 150.793598, 112.448349 119.530100)

LINESTRING (174.640924 150.793598, 164.071197 172.862471)

LINESTRING (174.640924 150.793598, 104.898434 101.849199)

LINESTRING (174.640924 150.793598, 178.868558 104.315820)

LINESTRING (174.640924 150.793598, 125.526229 101.705798)

LINESTRING (174.640924 150.793598, 137.883066 109.102505)

LINESTRING (174.640924 150.793598, 150.253379 110.564572)

LINESTRING (162.215313 171.187859, 122.407402 134.653271)

LINESTRING (162.215313 171.187859, 135.496069 146.120644)

LINESTRING (162.215313 171.187859, 152.489740 140.554060)

LINESTRING (162.215313 171.187859, 102.853288 128.804181)

LINESTRING (162.215313 171.187859, 173.274660 151.059796)

LINESTRING (162.215313 171.187859, 169.990305 139.211479)

LINESTRING (162.215313 171.187859, 176.485577 148.301127)

LINESTRING (162.215313 171.187859, 172.135771 174.251054)

LINESTRING (162.215313 171.187859, 104.355427 141.828005)

LINESTRING (162.215313 171.187859, 154.837058 109.714194)

LINESTRING (162.215313 171.187859, 112.988379 146.256398)

LINESTRING (162.215313 171.187859, 176.737541 109.606777)

LINESTRING (162.215313 171.187859, 132.716271 152.334237)

LINESTRING (162.215313 171.187859, 178.868558 104.315820)

LINESTRING (162.215313 171.187859, 137.883066 109.102505)

LINESTRING (162.215313 171.187859, 150.253379 110.564572)

LINESTRING (133.818793 110.975901, 122.407402 134.653271)

LINESTRING (133.818793 110.975901, 167.459687 123.593442)

LINESTRING (133.818793 110.975901, 159.301577 129.236593)

LINESTRING (133.818793 110.975901, 135.496069 146.120644)

LINESTRING (133.818793 110.975901, 102.853288 128.804181)

LINESTRING (133.818793 110.975901, 173.274660 151.059796)

LINESTRING (133.818793 110.975901, 154.837058 109.714194)

LINESTRING (133.818793 110.975901, 112.988379 146.256398)

LINESTRING (133.818793 110.975901, 112.448349 119.530100)

LINESTRING (133.818793 110.975901, 176.737541 109.606777)

LINESTRING (133.818793 110.975901, 132.716271 152.334237)

LINESTRING (133.818793 110.975901, 178.868558 104.315820)

LINESTRING (133.818793 110.975901, 150.253379 110.564572)

LINESTRING (122.407402 134.653271, 167.459687 123.593442)

LINESTRING (122.407402 134.653271, 159.301577 129.236593)

LINESTRING (122.407402 134.653271, 163.007618 151.028947)

LINESTRING (122.407402 134.653271, 152.489740 140.554060)

LINESTRING (122.407402 134.653271, 102.853288 128.804181)

LINESTRING (122.407402 134.653271, 173.274660 151.059796)

LINESTRING (122.407402 134.653271, 172.135771 174.251054)

LINESTRING (122.407402 134.653271, 154.837058 109.714194)

LINESTRING (122.407402 134.653271, 112.448349 119.530100)

LINESTRING (122.407402 134.653271, 164.071197 172.862471)

LINESTRING (122.407402 134.653271, 176.737541 109.606777)

LINESTRING (122.407402 134.653271, 178.868558 104.315820)

LINESTRING (122.407402 134.653271, 125.526229 101.705798)

LINESTRING (122.407402 134.653271, 150.253379 110.564572)

LINESTRING (167.459687 123.593442, 159.301577 129.236593)

LINESTRING (167.459687 123.593442, 163.007618 151.028947)

LINESTRING (167.459687 123.593442, 152.489740 140.554060)

LINESTRING (167.459687 123.593442, 102.853288 128.804181)

LINESTRING (167.459687 123.593442, 178.534696 130.204233)

LINESTRING (167.459687 123.593442, 173.274660 151.059796)

LINESTRING (167.459687 123.593442, 176.485577 148.301127)

LINESTRING (167.459687 123.593442, 172.135771 174.251054)

LINESTRING (167.459687 123.593442, 154.837058 109.714194)

LINESTRING (167.459687 123.593442, 164.071197 172.862471)

LINESTRING (167.459687 123.593442, 104.898434 101.849199)

LINESTRING (167.459687 123.593442, 132.716271 152.334237)

LINESTRING (167.459687 123.593442, 178.868558 104.315820)

LINESTRING (167.459687 123.593442, 137.883066 109.102505)

LINESTRING (159.301577 129.236593, 135.496069 146.120644)

LINESTRING (159.301577 129.236593, 163.007618 151.028947)

LINESTRING (159.301577 129.236593, 152.489740 140.554060)

LINESTRING (159.301577 129.236593, 178.534696 130.204233)

LINESTRING (159.301577 129.236593, 169.990305 139.211479)

LINESTRING (159.301577 129.236593, 176.485577 148.301127)

LINESTRING (159.301577 129.236593, 112.448349 119.530100)

LINESTRING (159.301577 129.236593, 104.898434 101.849199)

LINESTRING (159.301577 129.236593, 176.737541 109.606777)

LINESTRING (159.301577 129.236593, 178.868558 104.315820)

LINESTRING (159.301577 129.236593, 137.883066 109.102505)

LINESTRING (135.496069 146.120644, 152.489740 140.554060)

LINESTRING (135.496069 146.120644, 178.534696 130.204233)

LINESTRING (135.496069 146.120644, 173.274660 151.059796)

LINESTRING (135.496069 146.120644, 169.990305 139.211479)

LINESTRING (135.496069 146.120644, 176.485577 148.301127)

LINESTRING (135.496069 146.120644, 172.135771 174.251054)

LINESTRING (135.496069 146.120644, 104.355427 141.828005)

LINESTRING (135.496069 146.120644, 112.448349 119.530100)

LINESTRING (135.496069 146.120644, 164.071197 172.862471)

LINESTRING (135.496069 146.120644, 176.737541 109.606777)

LINESTRING (135.496069 146.120644, 132.716271 152.334237)

LINESTRING (135.496069 146.120644, 150.253379 110.564572)

LINESTRING (163.007618 151.028947, 102.853288 128.804181)

LINESTRING (163.007618 151.028947, 178.534696 130.204233)

LINESTRING (163.007618 151.028947, 173.274660 151.059796)

LINESTRING (163.007618 151.028947, 169.990305 139.211479)

LINESTRING (163.007618 151.028947, 172.135771 174.251054)

LINESTRING (163.007618 151.028947, 154.837058 109.714194)

LINESTRING (163.007618 151.028947, 112.988379 146.256398)

LINESTRING (163.007618 151.028947, 112.448349 119.530100)

LINESTRING (163.007618 151.028947, 104.898434 101.849199)

LINESTRING (163.007618 151.028947, 132.716271 152.334237)

LINESTRING (163.007618 151.028947, 178.868558 104.315820)

LINESTRING (163.007618 151.028947, 125.526229 101.705798)

LINESTRING (163.007618 151.028947, 137.883066 109.102505)

LINESTRING (152.489740 140.554060, 178.534696 130.204233)

LINESTRING (152.489740 140.554060, 169.990305 139.211479)

LINESTRING (152.489740 140.554060, 172.135771 174.251054)

LINESTRING (152.489740 140.554060, 112.988379 146.256398)

LINESTRING (152.489740 140.554060, 112.448349 119.530100)

LINESTRING (152.489740 140.554060, 176.737541 109.606777)

LINESTRING (152.489740 140.554060, 132.716271 152.334237)

LINESTRING (152.489740 140.554060, 125.526229 101.705798)

LINESTRING (152.489740 140.554060, 137.883066 109.102505)

LINESTRING (152.489740 140.554060, 150.253379 110.564572)

LINESTRING (102.853288 128.804181, 178.534696 130.204233)

LINESTRING (102.853288 128.804181, 173.274660 151.059796)

LINESTRING (102.853288 128.804181, 169.990305 139.211479)

LINESTRING (102.853288 128.804181, 176.485577 148.301127)

LINESTRING (102.853288 128.804181, 104.355427 141.828005)

LINESTRING (102.853288 128.804181, 112.988379 146.256398)

LINESTRING (102.853288 128.804181, 112.448349 119.530100)

LINESTRING (102.853288 128.804181, 104.898434 101.849199)

LINESTRING (102.853288 128.804181, 132.716271 152.334237)

LINESTRING (102.853288 128.804181, 178.868558 104.315820)

LINESTRING (102.853288 128.804181, 125.526229 101.705798)

LINESTRING (102.853288 128.804181, 150.253379 110.564572)

LINESTRING (178.534696 130.204233, 173.274660 151.059796)

LINESTRING (178.534696 130.204233, 169.990305 139.211479)

LINESTRING (178.534696 130.204233, 176.485577 148.301127)

LINESTRING (178.534696 130.204233, 172.135771 174.251054)

LINESTRING (178.534696 130.204233, 154.837058 109.714194)

LINESTRING (178.534696 130.204233, 112.988379 146.256398)

LINESTRING (178.534696 130.204233, 104.898434 101.849199)

LINESTRING (178.534696 130.204233, 132.716271 152.334237)

LINESTRING (178.534696 130.204233, 178.868558 104.315820)

LINESTRING (178.534696 130.204233, 125.526229 101.705798)

LINESTRING (178.534696 130.204233, 137.883066 109.102505)

LINESTRING (173.274660 151.059796, 169.990305 139.211479)

LINESTRING (173.274660 151.059796, 176.485577 148.301127)

LINESTRING (173.274660 151.059796, 172.135771 174.251054)

LINESTRING (173.274660 151.059796, 112.988379 146.256398)

LINESTRING (173.274660 151.059796, 164.071197 172.862471)

LINESTRING (173.274660 151.059796, 104.898434 101.849199)

LINESTRING (173.274660 151.059796, 176.737541 109.606777)

LINESTRING (173.274660 151.059796, 132.716271 152.334237)

LINESTRING (173.274660 151.059796, 178.868558 104.315820)

LINESTRING (173.274660 151.059796, 125.526229 101.705798)

LINESTRING (173.274660 151.059796, 137.883066 109.102505)

LINESTRING (169.990305 139.211479, 172.135771 174.251054)

LINESTRING (169.990305 139.211479, 104.355427 141.828005)

LINESTRING (169.990305 139.211479, 154.837058 109.714194)

LINESTRING (169.990305 139.211479, 112.988379 146.256398)

LINESTRING (169.990305 139.211479, 112.448349 119.530100)

LINESTRING (169.990305 139.211479, 104.898434 101.849199)

LINESTRING (169.990305 139.211479, 176.737541 109.606777)

LINESTRING (169.990305 139.211479, 132.716271 152.334237)

LINESTRING (169.990305 139.211479, 178.868558 104.315820)

LINESTRING (169.990305 139.211479, 125.526229 101.705798)

LINESTRING (169.990305 139.211479, 137.883066 109.102505)

LINESTRING (169.990305 139.211479, 150.253379 110.564572)

LINESTRING (176.485577 148.301127, 104.355427 141.828005)

LINESTRING (176.485577 148.301127, 154.837058 109.714194)

LINESTRING (176.485577 148.301127, 112.988379 146.256398)

LINESTRING (176.485577 148.301127, 112.448349 119.530100)

LINESTRING (176.485577 148.301127, 176.737541 109.606777)

LINESTRING (176.485577 148.301127, 178.868558 104.315820)

LINESTRING (176.485577 148.301127, 137.883066 109.102505)

LINESTRING (172.135771 174.251054, 112.988379 146.256398)

LINESTRING (172.135771 174.251054, 112.448349 119.530100)

LINESTRING (172.135771 174.251054, 164.071197 172.862471)

LINESTRING (172.135771 174.251054, 104.898434 101.849199)

LINESTRING (172.135771 174.251054, 176.737541 109.606777)

LINESTRING (172.135771 174.251054, 178.868558 104.315820)

LINESTRING (172.135771 174.251054, 125.526229 101.705798)

LINESTRING (172.135771 174.251054, 150.253379 110.564572)

LINESTRING (104.355427 141.828005, 154.837058 109.714194)

LINESTRING (104.355427 141.828005, 112.988379 146.256398)

LINESTRING (104.355427 141.828005, 112.448349 119.530100)

LINESTRING (104.355427 141.828005, 104.898434 101.849199)

LINESTRING (104.355427 141.828005, 176.737541 109.606777)

LINESTRING (104.355427 141.828005, 132.716271 152.334237)

LINESTRING (104.355427 141.828005, 178.868558 104.315820)

LINESTRING (104.355427 141.828005, 125.526229 101.705798)

LINESTRING (104.355427 141.828005, 137.883066 109.102505)

LINESTRING (104.355427 141.828005, 150.253379 110.564572)

LINESTRING (154.837058 109.714194, 164.071197 172.862471)

LINESTRING (154.837058 109.714194, 176.737541 109.606777)

LINESTRING (154.837058 109.714194, 132.716271 152.334237)

LINESTRING (154.837058 109.714194, 178.868558 104.315820)

LINESTRING (154.837058 109.714194, 125.526229 101.705798)

LINESTRING (154.837058 109.714194, 137.883066 109.102505)

LINESTRING (112.988379 146.256398, 164.071197 172.862471)

LINESTRING (112.988379 146.256398, 176.737541 109.606777)

LINESTRING (112.988379 146.256398, 132.716271 152.334237)

LINESTRING (112.988379 146.256398, 125.526229 101.705798)

LINESTRING (112.988379 146.256398, 137.883066 109.102505)

LINESTRING (112.448349 119.530100, 176.737541 109.606777)

LINESTRING (112.448349 119.530100, 132.716271 152.334237)

LINESTRING (112.448349 119.530100, 178.868558 104.315820)

LINESTRING (112.448349 119.530100, 125.526229 101.705798)

LINESTRING (112.448349 119.530100, 150.253379 110.564572)

LINESTRING (164.071197 172.862471, 104.898434 101.849199)

LINESTRING (164.071197 172.862471, 178.868558 104.315820)

LINESTRING (164.071197 172.862471, 125.526229 101.705798)

LINESTRING (164.071197 172.862471, 150.253379 110.564572)

LINESTRING (104.898434 101.849199, 176.737541 109.606777)

LINESTRING (104.898434 101.849199, 132.716271 152.334237)

LINESTRING (104.898434 101.849199, 125.526229 101.705798)

LINESTRING (176.737541 109.606777, 132.716271 152.334237)

LINESTRING (176.737541 109.606777, 178.868558 104.315820)

LINESTRING (176.737541 109.606777, 125.526229 101.705798)

LINESTRING (176.737541 109.606777, 137.883066 109.102505)

LINESTRING (176.737541 109.606777, 150.253379 110.564572)

LINESTRING (132.716271 152.334237, 125.526229 101.705798)

LINESTRING (132.716271 152.334237, 137.883066 109.102505)

LINESTRING (132.716271 152.334237, 150.253379 110.564572)

LINESTRING (178.868558 104.315820, 150.253379 110.564572)

LINESTRING (125.526229 101.705798, 150.253379 110.564572)

LINESTRING (137.883066 109.102505, 150.253379 110.564572)

LINESTRING (523.736755 102.373585, 507.601934 124.334883)

LINESTRING (523.736755 102.373585, 506.003580 135.116967)

LINESTRING (523.736755 102.373585, 470.680318 107.773892)

LINESTRING (523.736755 102.373585, 498.316236 149.481671)

LINESTRING (523.736755 102.373585, 474.878246 120.260062)

LINESTRING (523.736755 102.373585, 497.004448 171.529208)

LINESTRING (523.736755 102.373585, 451.323601 117.189005)

LINESTRING (523.736755 102.373585, 498.298891 128.813821)

LINESTRING (523.736755 102.373585, 496.241522 158.946438)

LINESTRING (523.736755 102.373585, 496.028795 119.241801)

LINESTRING (523.736755 102.373585, 471.950653 145.227243)

LINESTRING (523.736755 102.373585, 489.748760 103.740803)

LINESTRING (523.736755 102.373585, 475.781093 105.387509)

LINESTRING (523.736755 102.373585, 472.689089 174.903355)

LINESTRING (523.736755 102.373585, 520.552139 145.518431)

LINESTRING (523.736755 102.373585, 474.252218 167.906605)

LINESTRING (523.736755 102.373585, 514.024440 134.911663)

LINESTRING (523.736755 102.373585, 475.812468 150.035594)

LINESTRING (523.736755 102.373585, 479.887708 123.021301)

LINESTRING (523.736755 102.373585, 467.383707 152.622980)

LINESTRING (523.736755 102.373585, 512.958514 144.466150)

LINESTRING (523.736755 102.373585, 478.473577 123.151701)

LINESTRING (507.601934 124.334883, 462.060539 110.143766)

LINESTRING (507.601934 124.334883, 469.635853 101.835629)

LINESTRING (507.601934 124.334883, 461.637704 161.067087)

LINESTRING (507.601934 124.334883, 498.316236 149.481671)

LINESTRING (507.601934 124.334883, 497.004448 171.529208)

LINESTRING (507.601934 124.334883, 460.096243 141.587236)

LINESTRING (507.601934 124.334883, 496.241522 158.946438)

LINESTRING (507.601934 124.334883, 496.028795 119.241801)

LINESTRING (507.601934 124.334883, 470.705472 126.460819)

LINESTRING (507.601934 124.334883, 471.950653 145.227243)

LINESTRING (507.601934 124.334883, 489.748760 103.740803)

LINESTRING (507.601934 124.334883, 522.533252 116.541188)

LINESTRING (507.601934 124.334883, 475.781093 105.387509)

LINESTRING (507.601934 124.334883, 472.689089 174.903355)

LINESTRING (507.601934 124.334883, 503.294927 171.285901)

LINESTRING (507.601934 124.334883, 524.395465 112.730360)

LINESTRING (507.601934 124.334883, 514.024440 134.911663)

LINESTRING (507.601934 124.334883, 475.812468 150.035594)

LINESTRING (507.601934 124.334883, 516.118015 115.583814)

LINESTRING (507.601934 124.334883, 500.199033 108.795257)

LINESTRING (507.601934 124.334883, 487.609959 114.458082)

LINESTRING (507.601934 124.334883, 525.802080 176.245077)

LINESTRING (507.601934 124.334883, 463.217564 172.128998)

LINESTRING (507.601934 124.334883, 467.383707 152.622980)

LINESTRING (506.003580 135.116967, 506.082184 177.261177)

LINESTRING (506.003580 135.116967, 462.060539 110.143766)

LINESTRING (506.003580 135.116967, 469.635853 101.835629)

LINESTRING (506.003580 135.116967, 470.680318 107.773892)

LINESTRING (506.003580 135.116967, 498.316236 149.481671)

LINESTRING (506.003580 135.116967, 460.096243 141.587236)

LINESTRING (506.003580 135.116967, 498.298891 128.813821)

LINESTRING (506.003580 135.116967, 496.028795 119.241801)

LINESTRING (506.003580 135.116967, 487.099894 174.133326)

LINESTRING (506.003580 135.116967, 470.705472 126.460819)

LINESTRING (506.003580 135.116967, 471.950653 145.227243)

LINESTRING (506.003580 135.116967, 489.748760 103.740803)

LINESTRING (506.003580 135.116967, 522.533252 116.541188)

LINESTRING (506.003580 135.116967, 520.552139 145.518431)

LINESTRING (506.003580 135.116967, 474.252218 167.906605)

LINESTRING (506.003580 135.116967, 524.395465 112.730360)

LINESTRING (506.003580 135.116967, 500.199033 108.795257)

LINESTRING (506.003580 135.116967, 479.887708 123.021301)

LINESTRING (506.003580 135.116967, 525.802080 176.245077)

LINESTRING (506.003580 135.116967, 463.217564 172.128998)

LINESTRING (506.003580 135.116967, 467.383707 152.622980)

LINESTRING (506.082184 177.261177, 461.637704 161.067087)

LINESTRING (506.082184 177.261177, 498.316236 149.481671)

LINESTRING (506.082184 177.261177, 473.181371 177.340707)

LINESTRING (506.082184 177.261177, 497.004448 171.529208)

LINESTRING (506.082184 177.261177, 460.096243 141.587236)

LINESTRING (506.082184 177.261177, 451.323601 117.189005)

LINESTRING (506.082184 177.261177, 498.298891 128.813821)

LINESTRING (506.082184 177.261177, 496.241522 158.946438)

LINESTRING (506.082184 177.261177, 496.028795 119.241801)

LINESTRING (506.082184 177.261177, 487.099894 174.133326)

LINESTRING (506.082184 177.261177, 470.705472 126.460819)

LINESTRING (506.082184 177.261177, 522.533252 116.541188)

LINESTRING (506.082184 177.261177, 475.781093 105.387509)

LINESTRING (506.082184 177.261177, 472.689089 174.903355)

LINESTRING (506.082184 177.261177, 520.552139 145.518431)

LINESTRING (506.082184 177.261177, 503.294927 171.285901)

LINESTRING (506.082184 177.261177, 514.024440 134.911663)

LINESTRING (506.082184 177.261177, 475.812468 150.035594)

LINESTRING (506.082184 177.261177, 516.118015 115.583814)

LINESTRING (506.082184 177.261177, 500.199033 108.795257)

LINESTRING (506.082184 177.261177, 487.609959 114.458082)

LINESTRING (506.082184 177.261177, 512.958514 144.466150)

LINESTRING (506.082184 177.261177, 478.473577 123.151701)

LINESTRING (504.922656 123.315743, 469.635853 101.835629)

LINESTRING (504.922656 123.315743, 461.637704 161.067087)

LINESTRING (504.922656 123.315743, 497.004448 171.529208)

LINESTRING (504.922656 123.315743, 451.323601 117.189005)

LINESTRING (504.922656 123.315743, 498.298891 128.813821)

LINESTRING (504.922656 123.315743, 496.241522 158.946438)

LINESTRING (504.922656 123.315743, 496.028795 119.241801)

LINESTRING (504.922656 123.315743, 487.099894 174.133326)

LINESTRING (504.922656 123.315743, 471.950653 145.227243)

LINESTRING (504.922656 123.315743, 489.748760 103.740803)

LINESTRING (504.922656 123.315743, 475.781093 105.387509)

LINESTRING (504.922656 123.315743, 472.689089 174.903355)

LINESTRING (504.922656 123.315743, 474.252218 167.906605)

LINESTRING (504.922656 123.315743, 524.395465 112.730360)

LINESTRING (504.922656 123.315743, 514.024440 134.911663)

LINESTRING (504.922656 123.315743, 475.812468 150.035594)

LINESTRING (504.922656 123.315743, 500.199033 108.795257)

LINESTRING (504.922656 123.315743, 479.887708 123.021301)

LINESTRING (504.922656 123.315743, 525.802080 176.245077)

LINESTRING (504.922656 123.315743, 463.217564 172.128998)

LINESTRING (504.922656 123.315743, 467.383707 152.622980)

LINESTRING (504.922656 123.315743, 478.473577 123.151701)

LINESTRING (462.060539 110.143766, 469.635853 101.835629)

LINESTRING (462.060539 110.143766, 474.878246 120.260062)

LINESTRING (462.060539 110.143766, 473.181371 177.340707)

LINESTRING (462.060539 110.143766, 497.004448 171.529208)

LINESTRING (462.060539 110.143766, 451.323601 117.189005)

LINESTRING (462.060539 110.143766, 498.298891 128.813821)

LINESTRING (462.060539 110.143766, 496.028795 119.241801)

LINESTRING (462.060539 110.143766, 470.705472 126.460819)

LINESTRING (462.060539 110.143766, 471.950653 145.227243)

LINESTRING (462.060539 110.143766, 475.781093 105.387509)

LINESTRING (462.060539 110.143766, 472.689089 174.903355)

LINESTRING (462.060539 110.143766, 503.294927 171.285901)

LINESTRING (462.060539 110.143766, 524.395465 112.730360)

LINESTRING (462.060539 110.143766, 516.118015 115.583814)

LINESTRING (462.060539 110.143766, 500.199033 108.795257)

LINESTRING (462.060539 110.143766, 479.887708 123.021301)

LINESTRING (462.060539 110.143766, 487.609959 114.458082)

LINESTRING (462.060539 110.143766, 478.473577 123.151701)

LINESTRING (469.635853 101.835629, 461.637704 161.067087)

LINESTRING (469.635853 101.835629, 470.680318 107.773892)

LINESTRING (469.635853 101.835629, 498.316236 149.481671)

LINESTRING (469.635853 101.835629, 474.878246 120.260062)

LINESTRING (469.635853 101.835629, 473.181371 177.340707)

LINESTRING (469.635853 101.835629, 497.004448 171.529208)

LINESTRING (469.635853 101.835629, 451.323601 117.189005)

LINESTRING (469.635853 101.835629, 498.298891 128.813821)

LINESTRING (469.635853 101.835629, 496.028795 119.241801)

LINESTRING (469.635853 101.835629, 470.705472 126.460819)

LINESTRING (469.635853 101.835629, 471.950653 145.227243)

LINESTRING (469.635853 101.835629, 522.533252 116.541188)

LINESTRING (469.635853 101.835629, 475.781093 105.387509)

LINESTRING (469.635853 101.835629, 472.689089 174.903355)

LINESTRING (469.635853 101.835629, 520.552139 145.518431)

LINESTRING (469.635853 101.835629, 503.294927 171.285901)

LINESTRING (469.635853 101.835629, 474.252218 167.906605)

LINESTRING (469.635853 101.835629, 524.395465 112.730360)

LINESTRING (469.635853 101.835629, 475.812468 150.035594)

LINESTRING (469.635853 101.835629, 479.887708 123.021301)

LINESTRING (469.635853 101.835629, 487.609959 114.458082)

LINESTRING (469.635853 101.835629, 525.802080 176.245077)

LINESTRING (469.635853 101.835629, 467.383707 152.622980)

LINESTRING (469.635853 101.835629, 512.958514 144.466150)

LINESTRING (469.635853 101.835629, 478.473577 123.151701)

LINESTRING (461.637704 161.067087, 470.680318 107.773892)

LINESTRING (461.637704 161.067087, 498.316236 149.481671)

LINESTRING (461.637704 161.067087, 474.878246 120.260062)

LINESTRING (461.637704 161.067087, 473.181371 177.340707)

LINESTRING (461.637704 161.067087, 460.096243 141.587236)

LINESTRING (461.637704 161.067087, 496.241522 158.946438)

LINESTRING (461.637704 161.067087, 470.705472 126.460819)

LINESTRING (461.637704 161.067087, 475.781093 105.387509)

LINESTRING (461.637704 161.067087, 503.294927 171.285901)

LINESTRING (461.637704 161.067087, 474.252218 167.906605)

LINESTRING (461.637704 161.067087, 500.199033 108.795257)

LINESTRING (461.637704 161.067087, 479.887708 123.021301)

LINESTRING (461.637704 161.067087, 487.609959 114.458082)

LINESTRING (461.637704 161.067087, 463.217564 172.128998)

LINESTRING (470.680318 107.773892, 498.316236 149.481671)

LINESTRING (470.680318 107.773892, 473.181371 177.340707)

LINESTRING (470.680318 107.773892, 497.004448 171.529208)

LINESTRING (470.680318 107.773892, 460.096243 141.587236)

LINESTRING (470.680318 107.773892, 451.323601 117.189005)

LINESTRING (470.680318 107.773892, 496.241522 158.946438)

LINESTRING (470.680318 107.773892, 496.028795 119.241801)

LINESTRING (470.680318 107.773892, 487.099894 174.133326)

LINESTRING (470.680318 107.773892, 522.533252 116.541188)

LINESTRING (470.680318 107.773892, 475.781093 105.387509)

LINESTRING (470.680318 107.773892, 472.689089 174.903355)

LINESTRING (470.680318 107.773892, 520.552139 145.518431)

LINESTRING (470.680318 107.773892, 503.294927 171.285901)

LINESTRING (470.680318 107.773892, 474.252218 167.906605)

LINESTRING (470.680318 107.773892, 524.395465 112.730360)

LINESTRING (470.680318 107.773892, 514.024440 134.911663)

LINESTRING (470.680318 107.773892, 475.812468 150.035594)

LINESTRING (470.680318 107.773892, 500.199033 108.795257)

LINESTRING (470.680318 107.773892, 479.887708 123.021301)

LINESTRING (470.680318 107.773892, 487.609959 114.458082)

LINESTRING (470.680318 107.773892, 525.802080 176.245077)

LINESTRING (470.680318 107.773892, 463.217564 172.128998)

LINESTRING (470.680318 107.773892, 467.383707 152.622980)

LINESTRING (498.316236 149.481671, 474.878246 120.260062)

LINESTRING (498.316236 149.481671, 497.004448 171.529208)

LINESTRING (498.316236 149.481671, 460.096243 141.587236)

LINESTRING (498.316236 149.481671, 451.323601 117.189005)

LINESTRING (498.316236 149.481671, 496.241522 158.946438)

LINESTRING (498.316236 149.481671, 496.028795 119.241801)

LINESTRING (498.316236 149.481671, 487.099894 174.133326)

LINESTRING (498.316236 149.481671, 470.705472 126.460819)

LINESTRING (498.316236 149.481671, 471.950653 145.227243)

LINESTRING (498.316236 149.481671, 489.748760 103.740803)

LINESTRING (498.316236 149.481671, 522.533252 116.541188)

LINESTRING (498.316236 149.481671, 475.781093 105.387509)

LINESTRING (498.316236 149.481671, 472.689089 174.903355)

LINESTRING (498.316236 149.481671, 520.552139 145.518431)

LINESTRING (498.316236 149.481671, 474.252218 167.906605)

LINESTRING (498.316236 149.481671, 524.395465 112.730360)

LINESTRING (498.316236 149.481671, 514.024440 134.911663)

LINESTRING (498.316236 149.481671, 479.887708 123.021301)

LINESTRING (498.316236 149.481671, 487.609959 114.458082)

LINESTRING (498.316236 149.481671, 512.958514 144.466150)

LINESTRING (498.316236 149.481671, 478.473577 123.151701)

LINESTRING (474.878246 120.260062, 473.181371 177.340707)

LINESTRING (474.878246 120.260062, 460.096243 141.587236)

LINESTRING (474.878246 120.260062, 451.323601 117.189005)

LINESTRING (474.878246 120.260062, 496.028795 119.241801)

LINESTRING (474.878246 120.260062, 470.705472 126.460819)

LINESTRING (474.878246 120.260062, 489.748760 103.740803)

LINESTRING (474.878246 120.260062, 522.533252 116.541188)

LINESTRING (474.878246 120.260062, 474.252218 167.906605)

LINESTRING (474.878246 120.260062, 514.024440 134.911663)

LINESTRING (474.878246 120.260062, 500.199033 108.795257)

LINESTRING (474.878246 120.260062, 479.887708 123.021301)

LINESTRING (474.878246 120.260062, 463.217564 172.128998)

LINESTRING (474.878246 120.260062, 467.383707 152.622980)

LINESTRING (473.181371 177.340707, 497.004448 171.529208)

LINESTRING (473.181371 177.340707, 460.096243 141.587236)

LINESTRING (473.181371 177.340707, 451.323601 117.189005)

LINESTRING (473.181371 177.340707, 496.241522 158.946438)

LINESTRING (473.181371 177.340707, 487.099894 174.133326)

LINESTRING (473.181371 177.340707, 470.705472 126.460819)

LINESTRING (473.181371 177.340707, 471.950653 145.227243)

LINESTRING (473.181371 177.340707, 489.748760 103.740803)

LINESTRING (473.181371 177.340707, 522.533252 116.541188)

LINESTRING (473.181371 177.340707, 475.781093 105.387509)

LINESTRING (473.181371 177.340707, 520.552139 145.518431)

LINESTRING (473.181371 177.340707, 503.294927 171.285901)

LINESTRING (473.181371 177.340707, 524.395465 112.730360)

LINESTRING (473.181371 177.340707, 475.812468 150.035594)

LINESTRING (473.181371 177.340707, 516.118015 115.583814)

LINESTRING (473.181371 177.340707, 479.887708 123.021301)

LINESTRING (473.181371 177.340707, 487.609959 114.458082)

LINESTRING (473.181371 177.340707, 525.802080 176.245077)

LINESTRING (473.181371 177.340707, 463.217564 172.128998)

LINESTRING (473.181371 177.340707, 512.958514 144.466150)

LINESTRING (497.004448 171.529208, 451.323601 117.189005)

LINESTRING (497.004448 171.529208, 496.028795 119.241801)

LINESTRING (497.004448 171.529208, 487.099894 174.133326)

LINESTRING (497.004448 171.529208, 471.950653 145.227243)

LINESTRING (497.004448 171.529208, 522.533252 116.541188)

LINESTRING (497.004448 171.529208, 475.781093 105.387509)

LINESTRING (497.004448 171.529208, 520.552139 145.518431)

LINESTRING (497.004448 171.529208, 503.294927 171.285901)

LINESTRING (497.004448 171.529208, 474.252218 167.906605)

LINESTRING (497.004448 171.529208, 514.024440 134.911663)

LINESTRING (497.004448 171.529208, 516.118015 115.583814)

LINESTRING (497.004448 171.529208, 487.609959 114.458082)

LINESTRING (497.004448 171.529208, 525.802080 176.245077)

LINESTRING (497.004448 171.529208, 467.383707 152.622980)

LINESTRING (497.004448 171.529208, 512.958514 144.466150)

LINESTRING (460.096243 141.587236, 496.241522 158.946438)

LINESTRING (460.096243 141.587236, 496.028795 119.241801)

LINESTRING (460.096243 141.587236, 470.705472 126.460819)

LINESTRING (460.096243 141.587236, 489.748760 103.740803)

LINESTRING (460.096243 141.587236, 475.781093 105.387509)

LINESTRING (460.096243 141.587236, 472.689089 174.903355)

LINESTRING (460.096243 141.587236, 520.552139 145.518431)

LINESTRING (460.096243 141.587236, 524.395465 112.730360)

LINESTRING (460.096243 141.587236, 514.024440 134.911663)

LINESTRING (460.096243 141.587236, 475.812468 150.035594)

LINESTRING (460.096243 141.587236, 516.118015 115.583814)

LINESTRING (460.096243 141.587236, 479.887708 123.021301)

LINESTRING (460.096243 141.587236, 525.802080 176.245077)

LINESTRING (451.323601 117.189005, 496.241522 158.946438)

LINESTRING (451.323601 117.189005, 470.705472 126.460819)

LINESTRING (451.323601 117.189005, 471.950653 145.227243)

LINESTRING (451.323601 117.189005, 489.748760 103.740803)

LINESTRING (451.323601 117.189005, 522.533252 116.541188)

LINESTRING (451.323601 117.189005, 475.781093 105.387509)

LINESTRING (451.323601 117.189005, 472.689089 174.903355)

LINESTRING (451.323601 117.189005, 474.252218 167.906605)

LINESTRING (451.323601 117.189005, 524.395465 112.730360)

LINESTRING (451.323601 117.189005, 475.812468 150.035594)

LINESTRING (451.323601 117.189005, 516.118015 115.583814)

LINESTRING (451.323601 117.189005, 500.199033 108.795257)

LINESTRING (451.323601 117.189005, 479.887708 123.021301)

LINESTRING (451.323601 117.189005, 487.609959 114.458082)

LINESTRING (451.323601 117.189005, 463.217564 172.128998)

LINESTRING (451.323601 117.189005, 467.383707 152.622980)

LINESTRING (451.323601 117.189005, 512.958514 144.466150)

LINESTRING (451.323601 117.189005, 478.473577 123.151701)

LINESTRING (498.298891 128.813821, 496.241522 158.946438)

LINESTRING (498.298891 128.813821, 487.099894 174.133326)

LINESTRING (498.298891 128.813821, 522.533252 116.541188)

LINESTRING (498.298891 128.813821, 475.781093 105.387509)

LINESTRING (498.298891 128.813821, 474.252218 167.906605)

LINESTRING (498.298891 128.813821, 524.395465 112.730360)

LINESTRING (498.298891 128.813821, 514.024440 134.911663)

LINESTRING (498.298891 128.813821, 475.812468 150.035594)

LINESTRING (498.298891 128.813821, 479.887708 123.021301)

LINESTRING (498.298891 128.813821, 487.609959 114.458082)

LINESTRING (498.298891 128.813821, 525.802080 176.245077)

LINESTRING (498.298891 128.813821, 512.958514 144.466150)

LINESTRING (496.241522 158.946438, 496.028795 119.241801)

LINESTRING (496.241522 158.946438, 470.705472 126.460819)

LINESTRING (496.241522 158.946438, 489.748760 103.740803)

LINESTRING (496.241522 158.946438, 522.533252 116.541188)

LINESTRING (496.241522 158.946438, 475.781093 105.387509)

LINESTRING (496.241522 158.946438, 472.689089 174.903355)

LINESTRING (496.241522 158.946438, 475.812468 150.035594)

LINESTRING (496.241522 158.946438, 516.118015 115.583814)

LINESTRING (496.241522 158.946438, 500.199033 108.795257)

LINESTRING (496.241522 158.946438, 525.802080 176.245077)

LINESTRING (496.241522 158.946438, 467.383707 152.622980)

LINESTRING (496.241522 158.946438, 478.473577 123.151701)

LINESTRING (496.028795 119.241801, 522.533252 116.541188)

LINESTRING (496.028795 119.241801, 475.781093 105.387509)

LINESTRING (496.028795 119.241801, 520.552139 145.518431)

LINESTRING (496.028795 119.241801, 503.294927 171.285901)

LINESTRING (496.028795 119.241801, 474.252218 167.906605)

LINESTRING (496.028795 119.241801, 524.395465 112.730360)

LINESTRING (496.028795 119.241801, 514.024440 134.911663)

LINESTRING (496.028795 119.241801, 500.199033 108.795257)

LINESTRING (496.028795 119.241801, 463.217564 172.128998)

LINESTRING (496.028795 119.241801, 512.958514 144.466150)

LINESTRING (496.028795 119.241801, 478.473577 123.151701)

LINESTRING (487.099894 174.133326, 470.705472 126.460819)

LINESTRING (487.099894 174.133326, 522.533252 116.541188)

LINESTRING (487.099894 174.133326, 475.781093 105.387509)

LINESTRING (487.099894 174.133326, 472.689089 174.903355)

LINESTRING (487.099894 174.133326, 520.552139 145.518431)

LINESTRING (487.099894 174.133326, 500.199033 108.795257)

LINESTRING (487.099894 174.133326, 479.887708 123.021301)

LINESTRING (487.099894 174.133326, 463.217564 172.128998)

LINESTRING (487.099894 174.133326, 467.383707 152.622980)

LINESTRING (487.099894 174.133326, 478.473577 123.151701)

LINESTRING (470.705472 126.460819, 489.748760 103.740803)

LINESTRING (470.705472 126.460819, 475.781093 105.387509)

LINESTRING (470.705472 126.460819, 503.294927 171.285901)

LINESTRING (470.705472 126.460819, 474.252218 167.906605)

LINESTRING (470.705472 126.460819, 524.395465 112.730360)

LINESTRING (470.705472 126.460819, 514.024440 134.911663)

LINESTRING (470.705472 126.460819, 475.812468 150.035594)

LINESTRING (470.705472 126.460819, 516.118015 115.583814)

LINESTRING (470.705472 126.460819, 500.199033 108.795257)

LINESTRING (470.705472 126.460819, 479.887708 123.021301)

LINESTRING (470.705472 126.460819, 487.609959 114.458082)

LINESTRING (470.705472 126.460819, 525.802080 176.245077)

LINESTRING (470.705472 126.460819, 512.958514 144.466150)

LINESTRING (470.705472 126.460819, 478.473577 123.151701)

LINESTRING (471.950653 145.227243, 489.748760 103.740803)

LINESTRING (471.950653 145.227243, 522.533252 116.541188)

LINESTRING (471.950653 145.227243, 475.781093 105.387509)

LINESTRING (471.950653 145.227243, 472.689089 174.903355)

LINESTRING (471.950653 145.227243, 503.294927 171.285901)

LINESTRING (471.950653 145.227243, 475.812468 150.035594)

LINESTRING (471.950653 145.227243, 479.887708 123.021301)

LINESTRING (471.950653 145.227243, 487.609959 114.458082)

LINESTRING (471.950653 145.227243, 463.217564 172.128998)

LINESTRING (471.950653 145.227243, 512.958514 144.466150)

LINESTRING (471.950653 145.227243, 478.473577 123.151701)

LINESTRING (489.748760 103.740803, 520.552139 145.518431)

LINESTRING (489.748760 103.740803, 503.294927 171.285901)

LINESTRING (489.748760 103.740803, 474.252218 167.906605)

LINESTRING (489.748760 103.740803, 524.395465 112.730360)

LINESTRING (489.748760 103.740803, 514.024440 134.911663)

LINESTRING (489.748760 103.740803, 487.609959 114.458082)

LINESTRING (489.748760 103.740803, 525.802080 176.245077)

LINESTRING (489.748760 103.740803, 512.958514 144.466150)

LINESTRING (489.748760 103.740803, 478.473577 123.151701)

LINESTRING (522.533252 116.541188, 475.781093 105.387509)

LINESTRING (522.533252 116.541188, 520.552139 145.518431)

LINESTRING (522.533252 116.541188, 503.294927 171.285901)

LINESTRING (522.533252 116.541188, 474.252218 167.906605)

LINESTRING (522.533252 116.541188, 524.395465 112.730360)

LINESTRING (522.533252 116.541188, 516.118015 115.583814)

LINESTRING (522.533252 116.541188, 500.199033 108.795257)

LINESTRING (522.533252 116.541188, 479.887708 123.021301)

LINESTRING (522.533252 116.541188, 487.609959 114.458082)

LINESTRING (522.533252 116.541188, 463.217564 172.128998)

LINESTRING (522.533252 116.541188, 478.473577 123.151701)

LINESTRING (475.781093 105.387509, 472.689089 174.903355)

LINESTRING (475.781093 105.387509, 520.552139 145.518431)

LINESTRING (475.781093 105.387509, 503.294927 171.285901)

LINESTRING (475.781093 105.387509, 474.252218 167.906605)

LINESTRING (475.781093 105.387509, 514.024440 134.911663)

LINESTRING (475.781093 105.387509, 475.812468 150.035594)

LINESTRING (475.781093 105.387509, 516.118015 115.583814)

LINESTRING (475.781093 105.387509, 479.887708 123.021301)

LINESTRING (475.781093 105.387509, 487.609959 114.458082)

LINESTRING (475.781093 105.387509, 525.802080 176.245077)

LINESTRING (475.781093 105.387509, 512.958514 144.466150)

LINESTRING (472.689089 174.903355, 524.395465 112.730360)

LINESTRING (472.689089 174.903355, 514.024440 134.911663)

LINESTRING (472.689089 174.903355, 500.199033 108.795257)

LINESTRING (472.689089 174.903355, 479.887708 123.021301)

LINESTRING (472.689089 174.903355, 487.609959 114.458082)

LINESTRING (472.689089 174.903355, 525.802080 176.245077)

LINESTRING (472.689089 174.903355, 463.217564 172.128998)

LINESTRING (472.689089 174.903355, 512.958514 144.466150)

LINESTRING (472.689089 174.903355, 478.473577 123.151701)

LINESTRING (520.552139 145.518431, 474.252218 167.906605)

LINESTRING (520.552139 145.518431, 524.395465 112.730360)

LINESTRING (520.552139 145.518431, 514.024440 134.911663)

LINESTRING (520.552139 145.518431, 475.812468 150.035594)

LINESTRING (520.552139 145.518431, 479.887708 123.021301)

LINESTRING (520.552139 145.518431, 467.383707 152.622980)

LINESTRING (503.294927 171.285901, 474.252218 167.906605)

LINESTRING (503.294927 171.285901, 524.395465 112.730360)

LINESTRING (503.294927 171.285901, 514.024440 134.911663)

LINESTRING (503.294927 171.285901, 516.118015 115.583814)

LINESTRING (503.294927 171.285901, 487.609959 114.458082)

LINESTRING (503.294927 171.285901, 525.802080 176.245077)

LINESTRING (503.294927 171.285901, 463.217564 172.128998)

LINESTRING (503.294927 171.285901, 467.383707 152.622980)

LINESTRING (503.294927 171.285901, 512.958514 144.466150)

LINESTRING (503.294927 171.285901, 478.473577 123.151701)

LINESTRING (474.252218 167.906605, 524.395465 112.730360)

LINESTRING (474.252218 167.906605, 514.024440 134.911663)

LINESTRING (474.252218 167.906605, 475.812468 150.035594)

LINESTRING (474.252218 167.906605, 487.609959 114.458082)

LINESTRING (474.252218 167.906605, 525.802080 176.245077)

LINESTRING (474.252218 167.906605, 463.217564 172.128998)

LINESTRING (474.252218 167.906605, 467.383707 152.622980)

LINESTRING (474.252218 167.906605, 512.958514 144.466150)

LINESTRING (474.252218 167.906605, 478.473577 123.151701)

LINESTRING (524.395465 112.730360, 514.024440 134.911663)

LINESTRING (524.395465 112.730360, 475.812468 150.035594)

LINESTRING (524.395465 112.730360, 516.118015 115.583814)

LINESTRING (524.395465 112.730360, 500.199033 108.795257)

LINESTRING (524.395465 112.730360, 487.609959 114.458082)

LINESTRING (524.395465 112.730360, 525.802080 176.245077)

LINESTRING (524.395465 112.730360, 463.217564 172.128998)

LINESTRING (524.395465 112.730360, 512.958514 144.466150)

LINESTRING (524.395465 112.730360, 478.473577 123.151701)

LINESTRING (514.024440 134.911663, 516.118015 115.583814)

LINESTRING (514.024440 134.911663, 479.887708 123.021301)

LINESTRING (514.024440 134.911663, 525.802080 176.245077)

LINESTRING (514.024440 134.911663, 467.383707 152.622980)

LINESTRING (514.024440 134.911663, 512.958514 144.466150)

LINESTRING (475.812468 150.035594, 516.118015 115.583814)

LINESTRING (475.812468 150.035594, 487.609959 114.458082)

LINESTRING (475.812468 150.035594, 525.802080 176.245077)

LINESTRING (475.812468 150.035594, 463.217564 172.128998)

LINESTRING (475.812468 150.035594, 467.383707 152.622980)

LINESTRING (475.812468 150.035594, 512.958514 144.466150)

LINESTRING (475.812468 150.035594, 478.473577 123.151701)

LINESTRING (516.118015 115.583814, 500.199033 108.795257)

LINESTRING (516.118015 115.583814, 487.609959 114.458082)

LINESTRING (516.118015 115.583814, 525.802080 176.245077)

LINESTRING (516.118015 115.583814, 463.217564 172.128998)

LINESTRING (516.118015 115.583814, 467.383707 152.622980)

LINESTRING (500.199033 108.795257, 479.887708 123.021301)

LINESTRING (500.199033 108.795257, 487.609959 114.458082)

LINESTRING (500.199033 108.795257, 525.802080 176.245077)

LINESTRING (500.199033 108.795257, 467.383707 152.622980)

LINESTRING (500.199033 108.795257, 512.958514 144.466150)

LINESTRING (500.199033 108.795257, 478.473577 123.151701)

LINESTRING (479.887708 123.021301, 525.802080 176.245077)

LINESTRING (479.887708 123.021301, 463.217564 172.128998)

LINESTRING (479.887708 123.021301, 512.958514 144.466150)

LINESTRING (479.887708 123.021301, 478.473577 123.151701)

LINESTRING (487.609959 114.458082, 463.217564 172.128998)

LINESTRING (487.609959 114.458082, 467.383707 152.622980)

LINESTRING (487.609959 114.458082, 512.958514 144.466150)

LINESTRING (487.609959 114.458082, 478.473577 123.151701)

LINESTRING (525.802080 176.245077, 463.217564 172.128998)

LINESTRING (525.802080 176.245077, 467.383707 152.622980)

LINESTRING (525.802080 176.245077, 478.473577 123.151701)

LINESTRING (463.217564 172.128998, 478.473577 123.151701)

LINESTRING (467.383707 152.622980, 478.473577 123.151701)

LINESTRING (877.021568 135.746298, 811.963875 172.273766)

LINESTRING (877.021568 135.746298, 841.110272 135.066077)

LINESTRING (877.021568 135.746298, 859.394403 161.599852)

LINESTRING (877.021568 135.746298, 864.129122 127.425597)

LINESTRING (877.021568 135.746298, 800.251635 158.442930)

LINESTRING (877.021568 135.746298, 830.532347 123.226026)

LINESTRING (877.021568 135.746298, 873.831507 102.815597)

LINESTRING (877.021568 135.746298, 804.142216 132.779555)

LINESTRING (877.021568 135.746298, 833.227258 124.180513)

LINESTRING (877.021568 135.746298, 844.889111 154.535703)

LINESTRING (877.021568 135.746298, 830.586650 114.206368)

LINESTRING (877.021568 135.746298, 849.691613 153.807684)

LINESTRING (877.021568 135.746298, 855.203042 138.082080)

LINESTRING (877.021568 135.746298, 803.056307 136.509644)

LINESTRING (877.021568 135.746298, 828.488557 100.058485)

LINESTRING (877.021568 135.746298, 846.862163 101.325816)

LINESTRING (877.021568 135.746298, 858.429305 129.082913)

LINESTRING (877.021568 135.746298, 877.115677 120.702676)

LINESTRING (877.021568 135.746298, 867.950734 176.206742)

LINESTRING (877.021568 135.746298, 814.130577 102.971290)

LINESTRING (877.021568 135.746298, 867.500356 161.486361)

LINESTRING (809.499292 146.322797, 806.404298 129.970085)

LINESTRING (809.499292 146.322797, 841.110272 135.066077)

LINESTRING (809.499292 146.322797, 835.501362 147.815595)

LINESTRING (809.499292 146.322797, 859.394403 161.599852)

LINESTRING (809.499292 146.322797, 800.251635 158.442930)

LINESTRING (809.499292 146.322797, 815.049778 149.069970)

LINESTRING (809.499292 146.322797, 873.831507 102.815597)

LINESTRING (809.499292 146.322797, 865.231403 134.978994)

LINESTRING (809.499292 146.322797, 830.586650 114.206368)

LINESTRING (809.499292 146.322797, 855.203042 138.082080)

LINESTRING (809.499292 146.322797, 803.056307 136.509644)

LINESTRING (809.499292 146.322797, 835.906554 141.043545)

LINESTRING (809.499292 146.322797, 858.429305 129.082913)

LINESTRING (809.499292 146.322797, 877.115677 120.702676)

LINESTRING (809.499292 146.322797, 867.950734 176.206742)

LINESTRING (809.499292 146.322797, 872.401096 168.389245)

LINESTRING (809.499292 146.322797, 809.939207 114.278592)

LINESTRING (809.499292 146.322797, 814.130577 102.971290)

LINESTRING (809.499292 146.322797, 825.626641 100.784641)

LINESTRING (809.499292 146.322797, 835.935405 109.194019)

LINESTRING (809.499292 146.322797, 867.500356 161.486361)

LINESTRING (806.404298 129.970085, 841.110272 135.066077)

LINESTRING (806.404298 129.970085, 806.955892 132.749554)

LINESTRING (806.404298 129.970085, 835.501362 147.815595)

LINESTRING (806.404298 129.970085, 859.394403 161.599852)

LINESTRING (806.404298 129.970085, 864.129122 127.425597)

LINESTRING (806.404298 129.970085, 800.251635 158.442930)

LINESTRING (806.404298 129.970085, 815.049778 149.069970)

LINESTRING (806.404298 129.970085, 804.142216 132.779555)

LINESTRING (806.404298 129.970085, 865.231403 134.978994)

LINESTRING (806.404298 129.970085, 833.227258 124.180513)

LINESTRING (806.404298 129.970085, 803.971366 154.514740)

LINESTRING (806.404298 129.970085, 835.906554 141.043545)

LINESTRING (806.404298 129.970085, 868.718161 159.136285)

LINESTRING (806.404298 129.970085, 867.950734 176.206742)

LINESTRING (806.404298 129.970085, 809.939207 114.278592)

LINESTRING (806.404298 129.970085, 814.130577 102.971290)

LINESTRING (806.404298 129.970085, 810.632161 133.624067)

LINESTRING (806.404298 129.970085, 816.875093 131.301230)

LINESTRING (811.963875 172.273766, 806.955892 132.749554)

LINESTRING (811.963875 172.273766, 859.394403 161.599852)

LINESTRING (811.963875 172.273766, 864.129122 127.425597)

LINESTRING (811.963875 172.273766, 830.532347 123.226026)

LINESTRING (811.963875 172.273766, 873.096096 135.070658)

LINESTRING (811.963875 172.273766, 804.142216 132.779555)

LINESTRING (811.963875 172.273766, 833.227258 124.180513)

LINESTRING (811.963875 172.273766, 830.586650 114.206368)

LINESTRING (811.963875 172.273766, 803.056307 136.509644)

LINESTRING (811.963875 172.273766, 835.906554 141.043545)

LINESTRING (811.963875 172.273766, 828.488557 100.058485)

LINESTRING (811.963875 172.273766, 855.113007 111.980327)

LINESTRING (811.963875 172.273766, 846.862163 101.325816)

LINESTRING (811.963875 172.273766, 858.429305 129.082913)

LINESTRING (811.963875 172.273766, 877.115677 120.702676)

LINESTRING (811.963875 172.273766, 872.401096 168.389245)

LINESTRING (811.963875 172.273766, 814.130577 102.971290)

LINESTRING (811.963875 172.273766, 825.626641 100.784641)

LINESTRING (811.963875 172.273766, 835.935405 109.194019)

LINESTRING (811.963875 172.273766, 814.190697 155.290931)

LINESTRING (811.963875 172.273766, 810.632161 133.624067)

LINESTRING (841.110272 135.066077, 806.955892 132.749554)

LINESTRING (841.110272 135.066077, 864.129122 127.425597)

LINESTRING (841.110272 135.066077, 800.251635 158.442930)

LINESTRING (841.110272 135.066077, 873.096096 135.070658)

LINESTRING (841.110272 135.066077, 873.831507 102.815597)

LINESTRING (841.110272 135.066077, 865.231403 134.978994)

LINESTRING (841.110272 135.066077, 844.889111 154.535703)

LINESTRING (841.110272 135.066077, 803.971366 154.514740)

LINESTRING (841.110272 135.066077, 830.586650 114.206368)

LINESTRING (841.110272 135.066077, 849.691613 153.807684)

LINESTRING (841.110272 135.066077, 855.203042 138.082080)

LINESTRING (841.110272 135.066077, 803.056307 136.509644)

LINESTRING (841.110272 135.066077, 828.488557 100.058485)

LINESTRING (841.110272 135.066077, 855.113007 111.980327)

LINESTRING (841.110272 135.066077, 846.862163 101.325816)

LINESTRING (841.110272 135.066077, 858.429305 129.082913)

LINESTRING (841.110272 135.066077, 877.115677 120.702676)

LINESTRING (841.110272 135.066077, 867.950734 176.206742)

LINESTRING (841.110272 135.066077, 872.401096 168.389245)

LINESTRING (841.110272 135.066077, 809.939207 114.278592)

LINESTRING (841.110272 135.066077, 814.130577 102.971290)

LINESTRING (841.110272 135.066077, 814.190697 155.290931)

LINESTRING (841.110272 135.066077, 810.632161 133.624067)

LINESTRING (806.955892 132.749554, 835.501362 147.815595)

LINESTRING (806.955892 132.749554, 859.394403 161.599852)

LINESTRING (806.955892 132.749554, 864.129122 127.425597)

LINESTRING (806.955892 132.749554, 800.251635 158.442930)

LINESTRING (806.955892 132.749554, 830.532347 123.226026)

LINESTRING (806.955892 132.749554, 865.231403 134.978994)

LINESTRING (806.955892 132.749554, 844.889111 154.535703)

LINESTRING (806.955892 132.749554, 803.971366 154.514740)

LINESTRING (806.955892 132.749554, 830.586650 114.206368)

LINESTRING (806.955892 132.749554, 849.691613 153.807684)

LINESTRING (806.955892 132.749554, 855.203042 138.082080)

LINESTRING (806.955892 132.749554, 835.906554 141.043545)

LINESTRING (806.955892 132.749554, 868.718161 159.136285)

LINESTRING (806.955892 132.749554, 855.113007 111.980327)

LINESTRING (806.955892 132.749554, 846.862163 101.325816)

LINESTRING (806.955892 132.749554, 858.429305 129.082913)

LINESTRING (806.955892 132.749554, 877.115677 120.702676)

LINESTRING (806.955892 132.749554, 867.950734 176.206742)

LINESTRING (806.955892 132.749554, 872.401096 168.389245)

LINESTRING (806.955892 132.749554, 835.935405 109.194019)

LINESTRING (806.955892 132.749554, 814.190697 155.290931)

LINESTRING (806.955892 132.749554, 816.875093 131.301230)

LINESTRING (835.501362 147.815595, 859.394403 161.599852)

LINESTRING (835.501362 147.815595, 864.129122 127.425597)

LINESTRING (835.501362 147.815595, 800.251635 158.442930)

LINESTRING (835.501362 147.815595, 830.532347 123.226026)

LINESTRING (835.501362 147.815595, 804.142216 132.779555)

LINESTRING (835.501362 147.815595, 865.231403 134.978994)

LINESTRING (835.501362 147.815595, 803.971366 154.514740)

LINESTRING (835.501362 147.815595, 830.586650 114.206368)

LINESTRING (835.501362 147.815595, 849.691613 153.807684)

LINESTRING (835.501362 147.815595, 855.203042 138.082080)

LINESTRING (835.501362 147.815595, 803.056307 136.509644)

LINESTRING (835.501362 147.815595, 828.488557 100.058485)

LINESTRING (835.501362 147.815595, 868.718161 159.136285)

LINESTRING (835.501362 147.815595, 846.862163 101.325816)

LINESTRING (835.501362 147.815595, 858.429305 129.082913)

LINESTRING (835.501362 147.815595, 867.950734 176.206742)

LINESTRING (835.501362 147.815595, 872.401096 168.389245)

LINESTRING (835.501362 147.815595, 809.939207 114.278592)

LINESTRING (835.501362 147.815595, 825.626641 100.784641)

LINESTRING (835.501362 147.815595, 867.500356 161.486361)

LINESTRING (859.394403 161.599852, 864.129122 127.425597)

LINESTRING (859.394403 161.599852, 815.049778 149.069970)

LINESTRING (859.394403 161.599852, 873.831507 102.815597)

LINESTRING (859.394403 161.599852, 865.231403 134.978994)

LINESTRING (859.394403 161.599852, 833.227258 124.180513)

LINESTRING (859.394403 161.599852, 844.889111 154.535703)

LINESTRING (859.394403 161.599852, 803.971366 154.514740)

LINESTRING (859.394403 161.599852, 830.586650 114.206368)

LINESTRING (859.394403 161.599852, 855.203042 138.082080)

LINESTRING (859.394403 161.599852, 803.056307 136.509644)

LINESTRING (859.394403 161.599852, 835.906554 141.043545)

LINESTRING (859.394403 161.599852, 828.488557 100.058485)

LINESTRING (859.394403 161.599852, 868.718161 159.136285)

LINESTRING (859.394403 161.599852, 855.113007 111.980327)

LINESTRING (859.394403 161.599852, 846.862163 101.325816)

LINESTRING (859.394403 161.599852, 877.115677 120.702676)

LINESTRING (859.394403 161.599852, 867.950734 176.206742)

LINESTRING (859.394403 161.599852, 809.939207 114.278592)

LINESTRING (859.394403 161.599852, 814.130577 102.971290)

LINESTRING (859.394403 161.599852, 867.500356 161.486361)

LINESTRING (859.394403 161.599852, 814.190697 155.290931)

LINESTRING (859.394403 161.599852, 810.632161 133.624067)

LINESTRING (859.394403 161.599852, 816.875093 131.301230)

LINESTRING (864.129122 127.425597, 830.532347 123.226026)

LINESTRING (864.129122 127.425597, 815.049778 149.069970)

LINESTRING (864.129122 127.425597, 873.831507 102.815597)

LINESTRING (864.129122 127.425597, 804.142216 132.779555)

LINESTRING (864.129122 127.425597, 865.231403 134.978994)

LINESTRING (864.129122 127.425597, 833.227258 124.180513)

LINESTRING (864.129122 127.425597, 844.889111 154.535703)

LINESTRING (864.129122 127.425597, 803.971366 154.514740)

LINESTRING (864.129122 127.425597, 803.056307 136.509644)

LINESTRING (864.129122 127.425597, 868.718161 159.136285)

LINESTRING (864.129122 127.425597, 846.862163 101.325816)

LINESTRING (864.129122 127.425597, 877.115677 120.702676)

LINESTRING (864.129122 127.425597, 814.130577 102.971290)

LINESTRING (864.129122 127.425597, 835.935405 109.194019)

LINESTRING (864.129122 127.425597, 867.500356 161.486361)

LINESTRING (864.129122 127.425597, 814.190697 155.290931)

LINESTRING (864.129122 127.425597, 816.875093 131.301230)

LINESTRING (800.251635 158.442930, 815.049778 149.069970)

LINESTRING (800.251635 158.442930, 804.142216 132.779555)

LINESTRING (800.251635 158.442930, 865.231403 134.978994)

LINESTRING (800.251635 158.442930, 833.227258 124.180513)

LINESTRING (800.251635 158.442930, 803.971366 154.514740)

LINESTRING (800.251635 158.442930, 855.203042 138.082080)

LINESTRING (800.251635 158.442930, 803.056307 136.509644)

LINESTRING (800.251635 158.442930, 835.906554 141.043545)

LINESTRING (800.251635 158.442930, 828.488557 100.058485)

LINESTRING (800.251635 158.442930, 868.718161 159.136285)

LINESTRING (800.251635 158.442930, 846.862163 101.325816)

LINESTRING (800.251635 158.442930, 858.429305 129.082913)

LINESTRING (800.251635 158.442930, 877.115677 120.702676)

LINESTRING (800.251635 158.442930, 867.950734 176.206742)

LINESTRING (800.251635 158.442930, 809.939207 114.278592)

LINESTRING (800.251635 158.442930, 814.130577 102.971290)

LINESTRING (800.251635 158.442930, 825.626641 100.784641)

LINESTRING (800.251635 158.442930, 835.935405 109.194019)

LINESTRING (800.251635 158.442930, 867.500356 161.486361)

LINESTRING (800.251635 158.442930, 814.190697 155.290931)

LINESTRING (800.251635 158.442930, 810.632161 133.624067)

LINESTRING (800.251635 158.442930, 816.875093 131.301230)

LINESTRING (830.532347 123.226026, 815.049778 149.069970)

LINESTRING (830.532347 123.226026, 873.096096 135.070658)

LINESTRING (830.532347 123.226026, 873.831507 102.815597)

LINESTRING (830.532347 123.226026, 804.142216 132.779555)

LINESTRING (830.532347 123.226026, 833.227258 124.180513)

LINESTRING (830.532347 123.226026, 844.889111 154.535703)

LINESTRING (830.532347 123.226026, 830.586650 114.206368)

LINESTRING (830.532347 123.226026, 849.691613 153.807684)

LINESTRING (830.532347 123.226026, 803.056307 136.509644)

LINESTRING (830.532347 123.226026, 835.906554 141.043545)

LINESTRING (830.532347 123.226026, 828.488557 100.058485)

LINESTRING (830.532347 123.226026, 868.718161 159.136285)

LINESTRING (830.532347 123.226026, 855.113007 111.980327)

LINESTRING (830.532347 123.226026, 858.429305 129.082913)

LINESTRING (830.532347 123.226026, 877.115677 120.702676)

LINESTRING (830.532347 123.226026, 867.950734 176.206742)

LINESTRING (830.532347 123.226026, 872.401096 168.389245)

LINESTRING (830.532347 123.226026, 809.939207 114.278592)

LINESTRING (830.532347 123.226026, 814.130577 102.971290)

LINESTRING (830.532347 123.226026, 867.500356 161.486361)

LINESTRING (830.532347 123.226026, 814.190697 155.290931)

LINESTRING (830.532347 123.226026, 810.632161 133.624067)

LINESTRING (815.049778 149.069970, 873.096096 135.070658)

LINESTRING (815.049778 149.069970, 804.142216 132.779555)

LINESTRING (815.049778 149.069970, 833.227258 124.180513)

LINESTRING (815.049778 149.069970, 803.971366 154.514740)

LINESTRING (815.049778 149.069970, 830.586650 114.206368)

LINESTRING (815.049778 149.069970, 849.691613 153.807684)

LINESTRING (815.049778 149.069970, 835.906554 141.043545)

LINESTRING (815.049778 149.069970, 828.488557 100.058485)

LINESTRING (815.049778 149.069970, 868.718161 159.136285)

LINESTRING (815.049778 149.069970, 846.862163 101.325816)

LINESTRING (815.049778 149.069970, 858.429305 129.082913)

LINESTRING (815.049778 149.069970, 877.115677 120.702676)

LINESTRING (815.049778 149.069970, 867.950734 176.206742)

LINESTRING (815.049778 149.069970, 872.401096 168.389245)

LINESTRING (815.049778 149.069970, 809.939207 114.278592)

LINESTRING (815.049778 149.069970, 814.130577 102.971290)

LINESTRING (815.049778 149.069970, 810.632161 133.624067)

LINESTRING (815.049778 149.069970, 816.875093 131.301230)

LINESTRING (873.096096 135.070658, 873.831507 102.815597)

LINESTRING (873.096096 135.070658, 804.142216 132.779555)

LINESTRING (873.096096 135.070658, 865.231403 134.978994)

LINESTRING (873.096096 135.070658, 833.227258 124.180513)

LINESTRING (873.096096 135.070658, 803.971366 154.514740)

LINESTRING (873.096096 135.070658, 830.586650 114.206368)

LINESTRING (873.096096 135.070658, 849.691613 153.807684)

LINESTRING (873.096096 135.070658, 855.203042 138.082080)

LINESTRING (873.096096 135.070658, 803.056307 136.509644)

LINESTRING (873.096096 135.070658, 828.488557 100.058485)

LINESTRING (873.096096 135.070658, 846.862163 101.325816)

LINESTRING (873.096096 135.070658, 877.115677 120.702676)

LINESTRING (873.096096 135.070658, 867.950734 176.206742)

LINESTRING (873.096096 135.070658, 872.401096 168.389245)

LINESTRING (873.096096 135.070658, 809.939207 114.278592)

LINESTRING (873.096096 135.070658, 814.130577 102.971290)

LINESTRING (873.096096 135.070658, 825.626641 100.784641)

LINESTRING (873.096096 135.070658, 835.935405 109.194019)

LINESTRING (873.096096 135.070658, 867.500356 161.486361)

LINESTRING (873.096096 135.070658, 816.875093 131.301230)

LINESTRING (873.831507 102.815597, 804.142216 132.779555)

LINESTRING (873.831507 102.815597, 833.227258 124.180513)

LINESTRING (873.831507 102.815597, 803.056307 136.509644)

LINESTRING (873.831507 102.815597, 868.718161 159.136285)

LINESTRING (873.831507 102.815597, 846.862163 101.325816)

LINESTRING (873.831507 102.815597, 877.115677 120.702676)

LINESTRING (873.831507 102.815597, 867.950734 176.206742)

LINESTRING (873.831507 102.815597, 872.401096 168.389245)

LINESTRING (873.831507 102.815597, 814.130577 102.971290)

LINESTRING (873.831507 102.815597, 835.935405 109.194019)

LINESTRING (873.831507 102.815597, 814.190697 155.290931)

LINESTRING (804.142216 132.779555, 865.231403 134.978994)

LINESTRING (804.142216 132.779555, 833.227258 124.180513)

LINESTRING (804.142216 132.779555, 844.889111 154.535703)

LINESTRING (804.142216 132.779555, 803.971366 154.514740)

LINESTRING (804.142216 132.779555, 855.203042 138.082080)

LINESTRING (804.142216 132.779555, 835.906554 141.043545)

LINESTRING (804.142216 132.779555, 828.488557 100.058485)

LINESTRING (804.142216 132.779555, 846.862163 101.325816)

LINESTRING (804.142216 132.779555, 858.429305 129.082913)

LINESTRING (804.142216 132.779555, 877.115677 120.702676)

LINESTRING (804.142216 132.779555, 867.950734 176.206742)

LINESTRING (804.142216 132.779555, 872.401096 168.389245)

LINESTRING (804.142216 132.779555, 809.939207 114.278592)

LINESTRING (804.142216 132.779555, 814.130577 102.971290)

LINESTRING (804.142216 132.779555, 825.626641 100.784641)

LINESTRING (804.142216 132.779555, 867.500356 161.486361)

LINESTRING (804.142216 132.779555, 816.875093 131.301230)

LINESTRING (865.231403 134.978994, 844.889111 154.535703)

LINESTRING (865.231403 134.978994, 803.971366 154.514740)

LINESTRING (865.231403 134.978994, 830.586650 114.206368)

LINESTRING (865.231403 134.978994, 849.691613 153.807684)

LINESTRING (865.231403 134.978994, 855.203042 138.082080)

LINESTRING (865.231403 134.978994, 835.906554 141.043545)

LINESTRING (865.231403 134.978994, 828.488557 100.058485)

LINESTRING (865.231403 134.978994, 868.718161 159.136285)

LINESTRING (865.231403 134.978994, 855.113007 111.980327)

LINESTRING (865.231403 134.978994, 877.115677 120.702676)

LINESTRING (865.231403 134.978994, 867.950734 176.206742)

LINESTRING (865.231403 134.978994, 814.130577 102.971290)

LINESTRING (865.231403 134.978994, 814.190697 155.290931)

LINESTRING (865.231403 134.978994, 810.632161 133.624067)

LINESTRING (833.227258 124.180513, 844.889111 154.535703)

LINESTRING (833.227258 124.180513, 803.971366 154.514740)

LINESTRING (833.227258 124.180513, 803.056307 136.509644)

LINESTRING (833.227258 124.180513, 835.906554 141.043545)

LINESTRING (833.227258 124.180513, 828.488557 100.058485)

LINESTRING (833.227258 124.180513, 868.718161 159.136285)

LINESTRING (833.227258 124.180513, 855.113007 111.980327)

LINESTRING (833.227258 124.180513, 846.862163 101.325816)

LINESTRING (833.227258 124.180513, 858.429305 129.082913)

LINESTRING (833.227258 124.180513, 867.950734 176.206742)

LINESTRING (833.227258 124.180513, 814.130577 102.971290)

LINESTRING (833.227258 124.180513, 835.935405 109.194019)

LINESTRING (833.227258 124.180513, 814.190697 155.290931)

LINESTRING (833.227258 124.180513, 810.632161 133.624067)

LINESTRING (844.889111 154.535703, 803.971366 154.514740)

LINESTRING (844.889111 154.535703, 830.586650 114.206368)

LINESTRING (844.889111 154.535703, 855.203042 138.082080)

LINESTRING (844.889111 154.535703, 803.056307 136.509644)

LINESTRING (844.889111 154.535703, 828.488557 100.058485)

LINESTRING (844.889111 154.535703, 855.113007 111.980327)

LINESTRING (844.889111 154.535703, 877.115677 120.702676)

LINESTRING (844.889111 154.535703, 867.950734 176.206742)

LINESTRING (844.889111 154.535703, 872.401096 168.389245)

LINESTRING (844.889111 154.535703, 809.939207 114.278592)

LINESTRING (844.889111 154.535703, 814.130577 102.971290)

LINESTRING (844.889111 154.535703, 825.626641 100.784641)

LINESTRING (844.889111 154.535703, 867.500356 161.486361)

LINESTRING (844.889111 154.535703, 810.632161 133.624067)

LINESTRING (803.971366 154.514740, 830.586650 114.206368)

LINESTRING (803.971366 154.514740, 849.691613 153.807684)

LINESTRING (803.971366 154.514740, 855.203042 138.082080)

LINESTRING (803.971366 154.514740, 803.056307 136.509644)

LINESTRING (803.971366 154.514740, 835.906554 141.043545)

LINESTRING (803.971366 154.514740, 828.488557 100.058485)

LINESTRING (803.971366 154.514740, 846.862163 101.325816)

LINESTRING (803.971366 154.514740, 858.429305 129.082913)

LINESTRING (803.971366 154.514740, 809.939207 114.278592)

LINESTRING (803.971366 154.514740, 814.130577 102.971290)

LINESTRING (803.971366 154.514740, 835.935405 109.194019)

LINESTRING (803.971366 154.514740, 867.500356 161.486361)

LINESTRING (803.971366 154.514740, 814.190697 155.290931)

LINESTRING (803.971366 154.514740, 810.632161 133.624067)

LINESTRING (803.971366 154.514740, 816.875093 131.301230)

LINESTRING (830.586650 114.206368, 849.691613 153.807684)

LINESTRING (830.586650 114.206368, 803.056307 136.509644)

LINESTRING (830.586650 114.206368, 828.488557 100.058485)

LINESTRING (830.586650 114.206368, 868.718161 159.136285)

LINESTRING (830.586650 114.206368, 855.113007 111.980327)

LINESTRING (830.586650 114.206368, 846.862163 101.325816)

LINESTRING (830.586650 114.206368, 877.115677 120.702676)

LINESTRING (830.586650 114.206368, 872.401096 168.389245)

LINESTRING (830.586650 114.206368, 809.939207 114.278592)

LINESTRING (830.586650 114.206368, 814.130577 102.971290)

LINESTRING (830.586650 114.206368, 810.632161 133.624067)

LINESTRING (830.586650 114.206368, 816.875093 131.301230)

LINESTRING (849.691613 153.807684, 828.488557 100.058485)

LINESTRING (849.691613 153.807684, 868.718161 159.136285)

LINESTRING (849.691613 153.807684, 877.115677 120.702676)

LINESTRING (849.691613 153.807684, 867.950734 176.206742)

LINESTRING (849.691613 153.807684, 872.401096 168.389245)

LINESTRING (849.691613 153.807684, 835.935405 109.194019)

LINESTRING (849.691613 153.807684, 814.190697 155.290931)

LINESTRING (849.691613 153.807684, 810.632161 133.624067)

LINESTRING (855.203042 138.082080, 803.056307 136.509644)

LINESTRING (855.203042 138.082080, 835.906554 141.043545)

LINESTRING (855.203042 138.082080, 868.718161 159.136285)

LINESTRING (855.203042 138.082080, 855.113007 111.980327)

LINESTRING (855.203042 138.082080, 846.862163 101.325816)

LINESTRING (855.203042 138.082080, 858.429305 129.082913)

LINESTRING (855.203042 138.082080, 877.115677 120.702676)

LINESTRING (855.203042 138.082080, 872.401096 168.389245)

LINESTRING (855.203042 138.082080, 809.939207 114.278592)

LINESTRING (855.203042 138.082080, 814.130577 102.971290)

LINESTRING (855.203042 138.082080, 825.626641 100.784641)

LINESTRING (855.203042 138.082080, 835.935405 109.194019)

LINESTRING (855.203042 138.082080, 814.190697 155.290931)

LINESTRING (855.203042 138.082080, 810.632161 133.624067)

LINESTRING (803.056307 136.509644, 835.906554 141.043545)

LINESTRING (803.056307 136.509644, 828.488557 100.058485)

LINESTRING (803.056307 136.509644, 868.718161 159.136285)

LINESTRING (803.056307 136.509644, 855.113007 111.980327)

LINESTRING (803.056307 136.509644, 877.115677 120.702676)

LINESTRING (803.056307 136.509644, 867.950734 176.206742)

LINESTRING (803.056307 136.509644, 814.130577 102.971290)

LINESTRING (803.056307 136.509644, 825.626641 100.784641)

LINESTRING (803.056307 136.509644, 835.935405 109.194019)

LINESTRING (803.056307 136.509644, 810.632161 133.624067)

LINESTRING (803.056307 136.509644, 816.875093 131.301230)

LINESTRING (835.906554 141.043545, 828.488557 100.058485)

LINESTRING (835.906554 141.043545, 855.113007 111.980327)

LINESTRING (835.906554 141.043545, 858.429305 129.082913)

LINESTRING (835.906554 141.043545, 877.115677 120.702676)

LINESTRING (835.906554 141.043545, 867.950734 176.206742)

LINESTRING (835.906554 141.043545, 835.935405 109.194019)

LINESTRING (835.906554 141.043545, 867.500356 161.486361)

LINESTRING (835.906554 141.043545, 810.632161 133.624067)

LINESTRING (835.906554 141.043545, 816.875093 131.301230)

LINESTRING (828.488557 100.058485, 868.718161 159.136285)

LINESTRING (828.488557 100.058485, 855.113007 111.980327)

LINESTRING (828.488557 100.058485, 877.115677 120.702676)

LINESTRING (828.488557 100.058485, 872.401096 168.389245)

LINESTRING (828.488557 100.058485, 809.939207 114.278592)

LINESTRING (828.488557 100.058485, 814.130577 102.971290)

LINESTRING (828.488557 100.058485, 825.626641 100.784641)

LINESTRING (828.488557 100.058485, 814.190697 155.290931)

LINESTRING (828.488557 100.058485, 810.632161 133.624067)

LINESTRING (828.488557 100.058485, 816.875093 131.301230)

LINESTRING (868.718161 159.136285, 855.113007 111.980327)

LINESTRING (868.718161 159.136285, 858.429305 129.082913)

LINESTRING (868.718161 159.136285, 867.950734 176.206742)

LINESTRING (868.718161 159.136285, 809.939207 114.278592)

LINESTRING (868.718161 159.136285, 825.626641 100.784641)

LINESTRING (868.718161 159.136285, 835.935405 109.194019)

LINESTRING (868.718161 159.136285, 810.632161 133.624067)

LINESTRING (855.113007 111.980327, 877.115677 120.702676)

LINESTRING (855.113007 111.980327, 867.950734 176.206742)

LINESTRING (855.113007 111.980327, 872.401096 168.389245)

LINESTRING (855.113007 111.980327, 809.939207 114.278592)

LINESTRING (855.113007 111.980327, 825.626641 100.784641)

LINESTRING (855.113007 111.980327, 835.935405 109.194019)

LINESTRING (855.113007 111.980327, 867.500356 161.486361)

LINESTRING (855.113007 111.980327, 810.632161 133.624067)

LINESTRING (855.113007 111.980327, 816.875093 131.301230)

LINESTRING (846.862163 101.325816, 877.115677 120.702676)

LINESTRING (846.862163 101.325816, 867.950734 176.206742)

LINESTRING (846.862163 101.325816, 872.401096 168.389245)

LINESTRING (846.862163 101.325816, 809.939207 114.278592)

LINESTRING (846.862163 101.325816, 814.130577 102.971290)

LINESTRING (846.862163 101.325816, 825.626641 100.784641)

LINESTRING (846.862163 101.325816, 835.935405 109.194019)

LINESTRING (846.862163 101.325816, 867.500356 161.486361)

LINESTRING (846.862163 101.325816, 814.190697 155.290931)

LINESTRING (858.429305 129.082913, 872.401096 168.389245)

LINESTRING (858.429305 129.082913, 809.939207 114.278592)

LINESTRING (858.429305 129.082913, 814.130577 102.971290)

LINESTRING (858.429305 129.082913, 835.935405 109.194019)

LINESTRING (858.429305 129.082913, 867.500356 161.486361)

LINESTRING (858.429305 129.082913, 814.190697 155.290931)

LINESTRING (858.429305 129.082913, 810.632161 133.624067)

LINESTRING (858.429305 129.082913, 816.875093 131.301230)

LINESTRING (877.115677 120.702676, 814.130577 102.971290)

LINESTRING (877.115677 120.702676, 814.190697 155.290931)

LINESTRING (877.115677 120.702676, 810.632161 133.624067)

LINESTRING (877.115677 120.702676, 816.875093 131.301230)

LINESTRING (867.950734 176.206742, 872.401096 168.389245)

LINESTRING (867.950734 176.206742, 809.939207 114.278592)

LINESTRING (867.950734 176.206742, 814.190697 155.290931)

LINESTRING (867.950734 176.206742, 816.875093 131.301230)

LINESTRING (872.401096 168.389245, 809.939207 114.278592)

LINESTRING (872.401096 168.389245, 867.500356 161.486361)

LINESTRING (872.401096 168.389245, 810.632161 133.624067)

LINESTRING (872.401096 168.389245, 816.875093 131.301230)

LINESTRING (809.939207 114.278592, 814.130577 102.971290)

LINESTRING (809.939207 114.278592, 825.626641 100.784641)

LINESTRING (809.939207 114.278592, 835.935405 109.194019)

LINESTRING (809.939207 114.278592, 867.500356 161.486361)

LINESTRING (809.939207 114.278592, 814.190697 155.290931)

LINESTRING (809.939207 114.278592, 810.632161 133.624067)

LINESTRING (809.939207 114.278592, 816.875093 131.301230)

LINESTRING (814.130577 102.971290, 835.935405 109.194019)

LINESTRING (814.130577 102.971290, 867.500356 161.486361)

LINESTRING (814.130577 102.971290, 814.190697 155.290931)

LINESTRING (814.130577 102.971290, 810.632161 133.624067)

LINESTRING (814.130577 102.971290, 816.875093 131.301230)

LINESTRING (825.626641 100.784641, 867.500356 161.486361)

LINESTRING (825.626641 100.784641, 814.190697 155.290931)

LINESTRING (825.626641 100.784641, 810.632161 133.624067)

LINESTRING (835.935405 109.194019, 867.500356 161.486361)

LINESTRING (835.935405 109.194019, 810.632161 133.624067)

LINESTRING (835.935405 109.194019, 816.875093 131.301230)

LINESTRING (867.500356 161.486361, 814.190697 155.290931)

LINESTRING (814.190697 155.290931, 810.632161 133.624067)

LINESTRING (814.190697 155.290931, 816.875093 131.301230)

LINESTRING (148.874445 147.582906, 472.689089 174.903355)

LINESTRING (173.796010 179.662989, 474.252218 167.906605)

LINESTRING (179.772829 159.655218, 523.736755 102.373585)

LINESTRING (496.028795 119.241801, 806.404298 129.970085)

LINESTRING (471.950653 145.227243, 855.203042 138.082080)

LINESTRING (523.736755 102.373585, 877.021568 135.746298)

