LINESTRING (149.604625 157.043667, 138.165486 163.921492)

LINESTRING (149.604625 157.043667, 156.566792 149.519116)

LINESTRING (149.604625 157.043667, 179.547062 112.755993)

LINESTRING (149.604625 157.043667, 146.499965 177.138414)

LINESTRING (149.604625 157.043667, 165.213202 175.403967)

LINESTRING (149.604625 157.043667, 141.145591 122.080141)

LINESTRING (149.604625 157.043667, 118.740540 154.251244)

LINESTRING (149.604625 157.043667, 150.615686 165.976098)

LINESTRING (149.604625 157.043667, 101.820880 168.286654)

LINESTRING (149.604625 157.043667, 109.356438 124.076716)

LINESTRING (149.604625 157.043667, 104.930173 152.175114)

LINESTRING (149.604625 157.043667, 170.410964 145.799346)

LINESTRING (149.604625 157.043667, 159.380570 112.643823)

LINESTRING (149.604625 157.043667, 145.780070 141.857614)

LINESTRING (149.604625 157.043667, 139.851149 153.648502)

LINESTRING (149.604625 157.043667, 176.312725 179.294953)

LINESTRING (149.604625 157.043667, 127.620729 139.379620)

LINESTRING (135.353585 150.484547, 113.568644 104.027725)

LINESTRING (135.353585 150.484547, 138.165486 163.921492)

LINESTRING (135.353585 150.484547, 122.501026 117.193851)

LINESTRING (135.353585 150.484547, 156.566792 149.519116)

LINESTRING (135.353585 150.484547, 170.710312 114.133403)

LINESTRING (135.353585 150.484547, 179.547062 112.755993)

LINESTRING (135.353585 150.484547, 141.554274 140.428286)

LINESTRING (135.353585 150.484547, 105.265239 103.089042)

LINESTRING (135.353585 150.484547, 130.804775 102.509591)

LINESTRING (135.353585 150.484547, 165.213202 175.403967)

LINESTRING (135.353585 150.484547, 145.618323 167.324543)

LINESTRING (135.353585 150.484547, 123.259912 122.647216)

LINESTRING (135.353585 150.484547, 118.740540 154.251244)

LINESTRING (135.353585 150.484547, 124.934751 133.404088)

LINESTRING (135.353585 150.484547, 150.615686 165.976098)

LINESTRING (135.353585 150.484547, 101.820880 168.286654)

LINESTRING (135.353585 150.484547, 104.930173 152.175114)

LINESTRING (135.353585 150.484547, 156.041674 178.221029)

LINESTRING (135.353585 150.484547, 170.410964 145.799346)

LINESTRING (135.353585 150.484547, 159.380570 112.643823)

LINESTRING (135.353585 150.484547, 151.019042 144.950359)

LINESTRING (135.353585 150.484547, 144.315455 129.339674)

LINESTRING (135.353585 150.484547, 156.769302 118.180857)

LINESTRING (113.568644 104.027725, 138.165486 163.921492)

LINESTRING (113.568644 104.027725, 156.566792 149.519116)

LINESTRING (113.568644 104.027725, 141.554274 140.428286)

LINESTRING (113.568644 104.027725, 105.265239 103.089042)

LINESTRING (113.568644 104.027725, 146.499965 177.138414)

LINESTRING (113.568644 104.027725, 130.804775 102.509591)

LINESTRING (113.568644 104.027725, 165.213202 175.403967)

LINESTRING (113.568644 104.027725, 141.145591 122.080141)

LINESTRING (113.568644 104.027725, 104.930173 152.175114)

LINESTRING (113.568644 104.027725, 124.550995 120.625027)

LINESTRING (113.568644 104.027725, 156.769302 118.180857)

LINESTRING (138.165486 163.921492, 141.554274 140.428286)

LINESTRING (138.165486 163.921492, 105.265239 103.089042)

LINESTRING (138.165486 163.921492, 146.499965 177.138414)

LINESTRING (138.165486 163.921492, 163.863703 161.477772)

LINESTRING (138.165486 163.921492, 145.618323 167.324543)

LINESTRING (138.165486 163.921492, 154.059922 110.679088)

LINESTRING (138.165486 163.921492, 141.145591 122.080141)

LINESTRING (138.165486 163.921492, 123.259912 122.647216)

LINESTRING (138.165486 163.921492, 140.882648 112.036940)

LINESTRING (138.165486 163.921492, 124.934751 133.404088)

LINESTRING (138.165486 163.921492, 124.550995 120.625027)

LINESTRING (138.165486 163.921492, 156.041674 178.221029)

LINESTRING (138.165486 163.921492, 159.380570 112.643823)

LINESTRING (138.165486 163.921492, 145.780070 141.857614)

LINESTRING (138.165486 163.921492, 156.769302 118.180857)

LINESTRING (138.165486 163.921492, 139.851149 153.648502)

LINESTRING (138.165486 163.921492, 127.620729 139.379620)

LINESTRING (122.097699 147.690445, 141.554274 140.428286)

LINESTRING (122.097699 147.690445, 165.213202 175.403967)

LINESTRING (122.097699 147.690445, 107.602359 135.519157)

LINESTRING (122.097699 147.690445, 141.145591 122.080141)

LINESTRING (122.097699 147.690445, 143.378840 120.284951)

LINESTRING (122.097699 147.690445, 124.550995 120.625027)

LINESTRING (122.097699 147.690445, 156.041674 178.221029)

LINESTRING (122.097699 147.690445, 170.410964 145.799346)

LINESTRING (122.097699 147.690445, 159.380570 112.643823)

LINESTRING (122.097699 147.690445, 151.019042 144.950359)

LINESTRING (122.097699 147.690445, 119.658430 116.149298)

LINESTRING (122.501026 117.193851, 105.265239 103.089042)

LINESTRING (122.501026 117.193851, 146.499965 177.138414)

LINESTRING (122.501026 117.193851, 154.059922 110.679088)

LINESTRING (122.501026 117.193851, 141.145591 122.080141)

LINESTRING (122.501026 117.193851, 123.259912 122.647216)

LINESTRING (122.501026 117.193851, 140.882648 112.036940)

LINESTRING (122.501026 117.193851, 150.615686 165.976098)

LINESTRING (122.501026 117.193851, 124.550995 120.625027)

LINESTRING (122.501026 117.193851, 170.410964 145.799346)

LINESTRING (122.501026 117.193851, 119.658430 116.149298)

LINESTRING (122.501026 117.193851, 176.312725 179.294953)

LINESTRING (156.566792 149.519116, 170.710312 114.133403)

LINESTRING (156.566792 149.519116, 179.547062 112.755993)

LINESTRING (156.566792 149.519116, 141.554274 140.428286)

LINESTRING (156.566792 149.519116, 165.213202 175.403967)

LINESTRING (156.566792 149.519116, 163.863703 161.477772)

LINESTRING (156.566792 149.519116, 140.882648 112.036940)

LINESTRING (156.566792 149.519116, 124.934751 133.404088)

LINESTRING (156.566792 149.519116, 101.820880 168.286654)

LINESTRING (156.566792 149.519116, 124.550995 120.625027)

LINESTRING (156.566792 149.519116, 170.410964 145.799346)

LINESTRING (156.566792 149.519116, 159.380570 112.643823)

LINESTRING (156.566792 149.519116, 156.769302 118.180857)

LINESTRING (156.566792 149.519116, 176.312725 179.294953)

LINESTRING (170.710312 114.133403, 141.554274 140.428286)

LINESTRING (170.710312 114.133403, 105.265239 103.089042)

LINESTRING (170.710312 114.133403, 130.804775 102.509591)

LINESTRING (170.710312 114.133403, 165.213202 175.403967)

LINESTRING (170.710312 114.133403, 163.863703 161.477772)

LINESTRING (170.710312 114.133403, 123.259912 122.647216)

LINESTRING (170.710312 114.133403, 118.740540 154.251244)

LINESTRING (170.710312 114.133403, 150.615686 165.976098)

LINESTRING (170.710312 114.133403, 104.930173 152.175114)

LINESTRING (170.710312 114.133403, 151.019042 144.950359)

LINESTRING (170.710312 114.133403, 145.780070 141.857614)

LINESTRING (170.710312 114.133403, 156.769302 118.180857)

LINESTRING (170.710312 114.133403, 139.851149 153.648502)

LINESTRING (170.710312 114.133403, 176.312725 179.294953)

LINESTRING (179.547062 112.755993, 141.554274 140.428286)

LINESTRING (179.547062 112.755993, 146.499965 177.138414)

LINESTRING (179.547062 112.755993, 130.804775 102.509591)

LINESTRING (179.547062 112.755993, 165.213202 175.403967)

LINESTRING (179.547062 112.755993, 154.059922 110.679088)

LINESTRING (179.547062 112.755993, 141.145591 122.080141)

LINESTRING (179.547062 112.755993, 150.615686 165.976098)

LINESTRING (179.547062 112.755993, 143.378840 120.284951)

LINESTRING (179.547062 112.755993, 156.769302 118.180857)

LINESTRING (179.547062 112.755993, 127.620729 139.379620)

LINESTRING (141.554274 140.428286, 165.213202 175.403967)

LINESTRING (141.554274 140.428286, 107.602359 135.519157)

LINESTRING (141.554274 140.428286, 163.863703 161.477772)

LINESTRING (141.554274 140.428286, 145.618323 167.324543)

LINESTRING (141.554274 140.428286, 101.820880 168.286654)

LINESTRING (141.554274 140.428286, 109.356438 124.076716)

LINESTRING (141.554274 140.428286, 124.550995 120.625027)

LINESTRING (141.554274 140.428286, 119.658430 116.149298)

LINESTRING (141.554274 140.428286, 156.769302 118.180857)

LINESTRING (141.554274 140.428286, 139.851149 153.648502)

LINESTRING (105.265239 103.089042, 130.804775 102.509591)

LINESTRING (105.265239 103.089042, 107.602359 135.519157)

LINESTRING (105.265239 103.089042, 154.059922 110.679088)

LINESTRING (105.265239 103.089042, 141.145591 122.080141)

LINESTRING (105.265239 103.089042, 104.930173 152.175114)

LINESTRING (105.265239 103.089042, 156.041674 178.221029)

LINESTRING (105.265239 103.089042, 159.380570 112.643823)

LINESTRING (105.265239 103.089042, 119.658430 116.149298)

LINESTRING (105.265239 103.089042, 139.851149 153.648502)

LINESTRING (105.265239 103.089042, 176.312725 179.294953)

LINESTRING (105.265239 103.089042, 127.620729 139.379620)

LINESTRING (146.499965 177.138414, 107.602359 135.519157)

LINESTRING (146.499965 177.138414, 163.863703 161.477772)

LINESTRING (146.499965 177.138414, 154.059922 110.679088)

LINESTRING (146.499965 177.138414, 141.145591 122.080141)

LINESTRING (146.499965 177.138414, 118.740540 154.251244)

LINESTRING (146.499965 177.138414, 140.882648 112.036940)

LINESTRING (146.499965 177.138414, 124.934751 133.404088)

LINESTRING (146.499965 177.138414, 143.378840 120.284951)

LINESTRING (146.499965 177.138414, 124.550995 120.625027)

LINESTRING (146.499965 177.138414, 170.410964 145.799346)

LINESTRING (146.499965 177.138414, 159.380570 112.643823)

LINESTRING (146.499965 177.138414, 151.019042 144.950359)

LINESTRING (146.499965 177.138414, 145.780070 141.857614)

LINESTRING (146.499965 177.138414, 144.315455 129.339674)

LINESTRING (146.499965 177.138414, 156.769302 118.180857)

LINESTRING (146.499965 177.138414, 176.312725 179.294953)

LINESTRING (146.499965 177.138414, 127.620729 139.379620)

LINESTRING (130.804775 102.509591, 165.213202 175.403967)

LINESTRING (130.804775 102.509591, 145.618323 167.324543)

LINESTRING (130.804775 102.509591, 141.145591 122.080141)

LINESTRING (130.804775 102.509591, 123.259912 122.647216)

LINESTRING (130.804775 102.509591, 140.882648 112.036940)

LINESTRING (130.804775 102.509591, 143.378840 120.284951)

LINESTRING (165.213202 175.403967, 154.059922 110.679088)

LINESTRING (165.213202 175.403967, 141.145591 122.080141)

LINESTRING (165.213202 175.403967, 101.820880 168.286654)

LINESTRING (165.213202 175.403967, 104.930173 152.175114)

LINESTRING (165.213202 175.403967, 159.380570 112.643823)

LINESTRING (165.213202 175.403967, 119.658430 116.149298)

LINESTRING (165.213202 175.403967, 144.315455 129.339674)

LINESTRING (165.213202 175.403967, 156.769302 118.180857)

LINESTRING (165.213202 175.403967, 127.620729 139.379620)

LINESTRING (107.602359 135.519157, 163.863703 161.477772)

LINESTRING (107.602359 135.519157, 141.145591 122.080141)

LINESTRING (107.602359 135.519157, 140.882648 112.036940)

LINESTRING (107.602359 135.519157, 124.934751 133.404088)

LINESTRING (107.602359 135.519157, 150.615686 165.976098)

LINESTRING (107.602359 135.519157, 109.356438 124.076716)

LINESTRING (107.602359 135.519157, 104.930173 152.175114)

LINESTRING (107.602359 135.519157, 124.550995 120.625027)

LINESTRING (107.602359 135.519157, 170.410964 145.799346)

LINESTRING (107.602359 135.519157, 151.019042 144.950359)

LINESTRING (107.602359 135.519157, 145.780070 141.857614)

LINESTRING (107.602359 135.519157, 119.658430 116.149298)

LINESTRING (107.602359 135.519157, 176.312725 179.294953)

LINESTRING (163.863703 161.477772, 141.145591 122.080141)

LINESTRING (163.863703 161.477772, 124.934751 133.404088)

LINESTRING (163.863703 161.477772, 150.615686 165.976098)

LINESTRING (163.863703 161.477772, 143.378840 120.284951)

LINESTRING (163.863703 161.477772, 104.930173 152.175114)

LINESTRING (163.863703 161.477772, 145.780070 141.857614)

LINESTRING (163.863703 161.477772, 119.658430 116.149298)

LINESTRING (163.863703 161.477772, 156.769302 118.180857)

LINESTRING (163.863703 161.477772, 176.312725 179.294953)

LINESTRING (145.618323 167.324543, 141.145591 122.080141)

LINESTRING (145.618323 167.324543, 123.259912 122.647216)

LINESTRING (145.618323 167.324543, 118.740540 154.251244)

LINESTRING (145.618323 167.324543, 124.934751 133.404088)

LINESTRING (145.618323 167.324543, 150.615686 165.976098)

LINESTRING (145.618323 167.324543, 124.550995 120.625027)

LINESTRING (145.618323 167.324543, 170.410964 145.799346)

LINESTRING (145.618323 167.324543, 159.380570 112.643823)

LINESTRING (145.618323 167.324543, 119.658430 116.149298)

LINESTRING (145.618323 167.324543, 156.769302 118.180857)

LINESTRING (154.059922 110.679088, 141.145591 122.080141)

LINESTRING (154.059922 110.679088, 123.259912 122.647216)

LINESTRING (154.059922 110.679088, 150.615686 165.976098)

LINESTRING (154.059922 110.679088, 143.378840 120.284951)

LINESTRING (154.059922 110.679088, 170.410964 145.799346)

LINESTRING (154.059922 110.679088, 159.380570 112.643823)

LINESTRING (154.059922 110.679088, 144.315455 129.339674)

LINESTRING (141.145591 122.080141, 124.934751 133.404088)

LINESTRING (141.145591 122.080141, 150.615686 165.976098)

LINESTRING (141.145591 122.080141, 143.378840 120.284951)

LINESTRING (141.145591 122.080141, 170.410964 145.799346)

LINESTRING (141.145591 122.080141, 151.019042 144.950359)

LINESTRING (141.145591 122.080141, 144.315455 129.339674)

LINESTRING (141.145591 122.080141, 139.851149 153.648502)

LINESTRING (141.145591 122.080141, 176.312725 179.294953)

LINESTRING (141.145591 122.080141, 127.620729 139.379620)

LINESTRING (123.259912 122.647216, 118.740540 154.251244)

LINESTRING (123.259912 122.647216, 140.882648 112.036940)

LINESTRING (123.259912 122.647216, 101.820880 168.286654)

LINESTRING (123.259912 122.647216, 124.550995 120.625027)

LINESTRING (123.259912 122.647216, 145.780070 141.857614)

LINESTRING (123.259912 122.647216, 119.658430 116.149298)

LINESTRING (123.259912 122.647216, 144.315455 129.339674)

LINESTRING (123.259912 122.647216, 139.851149 153.648502)

LINESTRING (123.259912 122.647216, 176.312725 179.294953)

LINESTRING (118.740540 154.251244, 124.934751 133.404088)

LINESTRING (118.740540 154.251244, 109.356438 124.076716)

LINESTRING (118.740540 154.251244, 104.930173 152.175114)

LINESTRING (118.740540 154.251244, 124.550995 120.625027)

LINESTRING (118.740540 154.251244, 159.380570 112.643823)

LINESTRING (118.740540 154.251244, 151.019042 144.950359)

LINESTRING (118.740540 154.251244, 145.780070 141.857614)

LINESTRING (118.740540 154.251244, 156.769302 118.180857)

LINESTRING (118.740540 154.251244, 139.851149 153.648502)

LINESTRING (140.882648 112.036940, 150.615686 165.976098)

LINESTRING (140.882648 112.036940, 143.378840 120.284951)

LINESTRING (140.882648 112.036940, 109.356438 124.076716)

LINESTRING (140.882648 112.036940, 151.019042 144.950359)

LINESTRING (140.882648 112.036940, 145.780070 141.857614)

LINESTRING (140.882648 112.036940, 144.315455 129.339674)

LINESTRING (140.882648 112.036940, 156.769302 118.180857)

LINESTRING (140.882648 112.036940, 176.312725 179.294953)

LINESTRING (140.882648 112.036940, 127.620729 139.379620)

LINESTRING (124.934751 133.404088, 109.356438 124.076716)

LINESTRING (124.934751 133.404088, 124.550995 120.625027)

LINESTRING (124.934751 133.404088, 151.019042 144.950359)

LINESTRING (124.934751 133.404088, 145.780070 141.857614)

LINESTRING (124.934751 133.404088, 156.769302 118.180857)

LINESTRING (124.934751 133.404088, 139.851149 153.648502)

LINESTRING (150.615686 165.976098, 143.378840 120.284951)

LINESTRING (150.615686 165.976098, 109.356438 124.076716)

LINESTRING (150.615686 165.976098, 170.410964 145.799346)

LINESTRING (150.615686 165.976098, 159.380570 112.643823)

LINESTRING (150.615686 165.976098, 151.019042 144.950359)

LINESTRING (150.615686 165.976098, 145.780070 141.857614)

LINESTRING (150.615686 165.976098, 119.658430 116.149298)

LINESTRING (150.615686 165.976098, 144.315455 129.339674)

LINESTRING (150.615686 165.976098, 139.851149 153.648502)

LINESTRING (150.615686 165.976098, 127.620729 139.379620)

LINESTRING (143.378840 120.284951, 104.930173 152.175114)

LINESTRING (143.378840 120.284951, 170.410964 145.799346)

LINESTRING (143.378840 120.284951, 159.380570 112.643823)

LINESTRING (143.378840 120.284951, 151.019042 144.950359)

LINESTRING (143.378840 120.284951, 119.658430 116.149298)

LINESTRING (143.378840 120.284951, 156.769302 118.180857)

LINESTRING (101.820880 168.286654, 104.930173 152.175114)

LINESTRING (101.820880 168.286654, 170.410964 145.799346)

LINESTRING (101.820880 168.286654, 145.780070 141.857614)

LINESTRING (101.820880 168.286654, 139.851149 153.648502)

LINESTRING (109.356438 124.076716, 124.550995 120.625027)

LINESTRING (109.356438 124.076716, 119.658430 116.149298)

LINESTRING (109.356438 124.076716, 156.769302 118.180857)

LINESTRING (109.356438 124.076716, 139.851149 153.648502)

LINESTRING (109.356438 124.076716, 127.620729 139.379620)

LINESTRING (104.930173 152.175114, 170.410964 145.799346)

LINESTRING (104.930173 152.175114, 159.380570 112.643823)

LINESTRING (104.930173 152.175114, 145.780070 141.857614)

LINESTRING (104.930173 152.175114, 176.312725 179.294953)

LINESTRING (124.550995 120.625027, 156.041674 178.221029)

LINESTRING (124.550995 120.625027, 145.780070 141.857614)

LINESTRING (124.550995 120.625027, 156.769302 118.180857)

LINESTRING (124.550995 120.625027, 139.851149 153.648502)

LINESTRING (124.550995 120.625027, 127.620729 139.379620)

LINESTRING (156.041674 178.221029, 159.380570 112.643823)

LINESTRING (156.041674 178.221029, 151.019042 144.950359)

LINESTRING (156.041674 178.221029, 144.315455 129.339674)

LINESTRING (156.041674 178.221029, 156.769302 118.180857)

LINESTRING (170.410964 145.799346, 151.019042 144.950359)

LINESTRING (170.410964 145.799346, 119.658430 116.149298)

LINESTRING (170.410964 145.799346, 144.315455 129.339674)

LINESTRING (159.380570 112.643823, 151.019042 144.950359)

LINESTRING (159.380570 112.643823, 145.780070 141.857614)

LINESTRING (159.380570 112.643823, 119.658430 116.149298)

LINESTRING (159.380570 112.643823, 144.315455 129.339674)

LINESTRING (159.380570 112.643823, 176.312725 179.294953)

LINESTRING (151.019042 144.950359, 119.658430 116.149298)

LINESTRING (151.019042 144.950359, 139.851149 153.648502)

LINESTRING (151.019042 144.950359, 176.312725 179.294953)

LINESTRING (145.780070 141.857614, 144.315455 129.339674)

LINESTRING (145.780070 141.857614, 156.769302 118.180857)

LINESTRING (119.658430 116.149298, 144.315455 129.339674)

LINESTRING (119.658430 116.149298, 156.769302 118.180857)

LINESTRING (119.658430 116.149298, 127.620729 139.379620)

LINESTRING (144.315455 129.339674, 156.769302 118.180857)

LINESTRING (144.315455 129.339674, 139.851149 153.648502)

LINESTRING (139.851149 153.648502, 176.312725 179.294953)

LINESTRING (139.851149 153.648502, 127.620729 139.379620)

LINESTRING (176.312725 179.294953, 127.620729 139.379620)

LINESTRING (450.533722 124.521722, 517.766110 122.229578)

LINESTRING (450.533722 124.521722, 461.558867 172.249266)

LINESTRING (450.533722 124.521722, 498.483713 158.590489)

LINESTRING (450.533722 124.521722, 500.744471 119.482757)

LINESTRING (450.533722 124.521722, 483.382647 169.168315)

LINESTRING (450.533722 124.521722, 520.600348 146.491608)

LINESTRING (450.533722 124.521722, 460.461384 100.308545)

LINESTRING (450.533722 124.521722, 527.615334 161.361286)

LINESTRING (450.533722 124.521722, 475.980367 171.500063)

LINESTRING (450.533722 124.521722, 470.538985 115.177792)

LINESTRING (450.533722 124.521722, 476.191441 153.612174)

LINESTRING (450.533722 124.521722, 529.539316 179.393533)

LINESTRING (517.766110 122.229578, 465.201941 114.532507)

LINESTRING (517.766110 122.229578, 455.990030 156.254163)

LINESTRING (517.766110 122.229578, 461.558867 172.249266)

LINESTRING (517.766110 122.229578, 470.875446 125.913821)

LINESTRING (517.766110 122.229578, 498.483713 158.590489)

LINESTRING (517.766110 122.229578, 517.327281 122.823455)

LINESTRING (517.766110 122.229578, 495.404153 177.934410)

LINESTRING (517.766110 122.229578, 500.744471 119.482757)

LINESTRING (517.766110 122.229578, 520.600348 146.491608)

LINESTRING (517.766110 122.229578, 460.461384 100.308545)

LINESTRING (517.766110 122.229578, 500.751537 161.083301)

LINESTRING (517.766110 122.229578, 515.292628 161.522902)

LINESTRING (517.766110 122.229578, 470.538985 115.177792)

LINESTRING (517.766110 122.229578, 476.777290 113.255119)

LINESTRING (517.766110 122.229578, 529.539316 179.393533)

LINESTRING (517.766110 122.229578, 493.798865 100.700036)

LINESTRING (517.766110 122.229578, 529.207948 171.889686)

LINESTRING (517.766110 122.229578, 528.174339 153.083375)

LINESTRING (465.201941 114.532507, 470.875446 125.913821)

LINESTRING (465.201941 114.532507, 498.483713 158.590489)

LINESTRING (465.201941 114.532507, 528.047329 118.796348)

LINESTRING (465.201941 114.532507, 477.796270 116.483805)

LINESTRING (465.201941 114.532507, 460.461384 100.308545)

LINESTRING (465.201941 114.532507, 527.615334 161.361286)

LINESTRING (465.201941 114.532507, 476.777290 113.255119)

LINESTRING (465.201941 114.532507, 482.447380 124.480710)

LINESTRING (465.201941 114.532507, 529.539316 179.393533)

LINESTRING (465.201941 114.532507, 495.638725 142.268226)

LINESTRING (465.201941 114.532507, 494.905474 111.367392)

LINESTRING (465.201941 114.532507, 529.207948 171.889686)

LINESTRING (524.695035 121.924212, 470.875446 125.913821)

LINESTRING (524.695035 121.924212, 517.327281 122.823455)

LINESTRING (524.695035 121.924212, 483.382647 169.168315)

LINESTRING (524.695035 121.924212, 465.547497 137.980675)

LINESTRING (524.695035 121.924212, 528.047329 118.796348)

LINESTRING (524.695035 121.924212, 460.461384 100.308545)

LINESTRING (524.695035 121.924212, 527.463401 152.317965)

LINESTRING (524.695035 121.924212, 527.615334 161.361286)

LINESTRING (524.695035 121.924212, 475.980367 171.500063)

LINESTRING (524.695035 121.924212, 470.538985 115.177792)

LINESTRING (524.695035 121.924212, 476.191441 153.612174)

LINESTRING (524.695035 121.924212, 482.447380 124.480710)

LINESTRING (524.695035 121.924212, 529.539316 179.393533)

LINESTRING (524.695035 121.924212, 507.401347 136.277168)

LINESTRING (524.695035 121.924212, 528.174339 153.083375)

LINESTRING (455.990030 156.254163, 461.558867 172.249266)

LINESTRING (455.990030 156.254163, 521.376761 158.838825)

LINESTRING (455.990030 156.254163, 507.945906 139.607488)

LINESTRING (455.990030 156.254163, 478.874430 119.721030)

LINESTRING (455.990030 156.254163, 477.796270 116.483805)

LINESTRING (455.990030 156.254163, 515.292628 161.522902)

LINESTRING (455.990030 156.254163, 527.615334 161.361286)

LINESTRING (455.990030 156.254163, 470.538985 115.177792)

LINESTRING (455.990030 156.254163, 476.191441 153.612174)

LINESTRING (455.990030 156.254163, 467.566074 165.539327)

LINESTRING (455.990030 156.254163, 507.401347 136.277168)

LINESTRING (455.990030 156.254163, 528.174339 153.083375)

LINESTRING (461.558867 172.249266, 521.376761 158.838825)

LINESTRING (461.558867 172.249266, 517.327281 122.823455)

LINESTRING (461.558867 172.249266, 495.404153 177.934410)

LINESTRING (461.558867 172.249266, 519.518695 133.292796)

LINESTRING (461.558867 172.249266, 500.744471 119.482757)

LINESTRING (461.558867 172.249266, 483.382647 169.168315)

LINESTRING (461.558867 172.249266, 477.796270 116.483805)

LINESTRING (461.558867 172.249266, 527.463401 152.317965)

LINESTRING (461.558867 172.249266, 500.751537 161.083301)

LINESTRING (461.558867 172.249266, 527.615334 161.361286)

LINESTRING (461.558867 172.249266, 475.980367 171.500063)

LINESTRING (461.558867 172.249266, 470.538985 115.177792)

LINESTRING (461.558867 172.249266, 476.191441 153.612174)

LINESTRING (461.558867 172.249266, 476.777290 113.255119)

LINESTRING (461.558867 172.249266, 494.905474 111.367392)

LINESTRING (461.558867 172.249266, 529.207948 171.889686)

LINESTRING (470.875446 125.913821, 498.483713 158.590489)

LINESTRING (470.875446 125.913821, 507.945906 139.607488)

LINESTRING (470.875446 125.913821, 500.744471 119.482757)

LINESTRING (470.875446 125.913821, 483.382647 169.168315)

LINESTRING (470.875446 125.913821, 465.547497 137.980675)

LINESTRING (470.875446 125.913821, 520.600348 146.491608)

LINESTRING (470.875446 125.913821, 477.796270 116.483805)

LINESTRING (470.875446 125.913821, 500.751537 161.083301)

LINESTRING (470.875446 125.913821, 528.003612 145.982362)

LINESTRING (470.875446 125.913821, 527.615334 161.361286)

LINESTRING (470.875446 125.913821, 476.777290 113.255119)

LINESTRING (470.875446 125.913821, 482.447380 124.480710)

LINESTRING (470.875446 125.913821, 493.798865 100.700036)

LINESTRING (470.875446 125.913821, 529.207948 171.889686)

LINESTRING (470.875446 125.913821, 528.174339 153.083375)

LINESTRING (498.483713 158.590489, 495.404153 177.934410)

LINESTRING (498.483713 158.590489, 519.518695 133.292796)

LINESTRING (498.483713 158.590489, 528.047329 118.796348)

LINESTRING (498.483713 158.590489, 469.030610 111.728609)

LINESTRING (498.483713 158.590489, 500.751537 161.083301)

LINESTRING (498.483713 158.590489, 528.003612 145.982362)

LINESTRING (498.483713 158.590489, 475.980367 171.500063)

LINESTRING (498.483713 158.590489, 470.538985 115.177792)

LINESTRING (498.483713 158.590489, 476.191441 153.612174)

LINESTRING (498.483713 158.590489, 482.447380 124.480710)

LINESTRING (498.483713 158.590489, 467.566074 165.539327)

LINESTRING (498.483713 158.590489, 495.638725 142.268226)

LINESTRING (498.483713 158.590489, 494.905474 111.367392)

LINESTRING (498.483713 158.590489, 507.401347 136.277168)

LINESTRING (498.483713 158.590489, 528.174339 153.083375)

LINESTRING (521.376761 158.838825, 507.945906 139.607488)

LINESTRING (521.376761 158.838825, 478.874430 119.721030)

LINESTRING (521.376761 158.838825, 465.547497 137.980675)

LINESTRING (521.376761 158.838825, 500.751537 161.083301)

LINESTRING (521.376761 158.838825, 527.615334 161.361286)

LINESTRING (521.376761 158.838825, 475.980367 171.500063)

LINESTRING (521.376761 158.838825, 476.191441 153.612174)

LINESTRING (521.376761 158.838825, 482.447380 124.480710)

LINESTRING (521.376761 158.838825, 493.798865 100.700036)

LINESTRING (521.376761 158.838825, 495.638725 142.268226)

LINESTRING (521.376761 158.838825, 529.207948 171.889686)

LINESTRING (507.945906 139.607488, 500.744471 119.482757)

LINESTRING (507.945906 139.607488, 465.547497 137.980675)

LINESTRING (507.945906 139.607488, 528.047329 118.796348)

LINESTRING (507.945906 139.607488, 477.796270 116.483805)

LINESTRING (507.945906 139.607488, 460.461384 100.308545)

LINESTRING (507.945906 139.607488, 515.292628 161.522902)

LINESTRING (507.945906 139.607488, 475.980367 171.500063)

LINESTRING (507.945906 139.607488, 470.538985 115.177792)

LINESTRING (507.945906 139.607488, 476.777290 113.255119)

LINESTRING (507.945906 139.607488, 482.447380 124.480710)

LINESTRING (517.327281 122.823455, 495.404153 177.934410)

LINESTRING (517.327281 122.823455, 500.744471 119.482757)

LINESTRING (517.327281 122.823455, 465.547497 137.980675)

LINESTRING (517.327281 122.823455, 528.047329 118.796348)

LINESTRING (517.327281 122.823455, 469.030610 111.728609)

LINESTRING (517.327281 122.823455, 515.292628 161.522902)

LINESTRING (517.327281 122.823455, 527.615334 161.361286)

LINESTRING (517.327281 122.823455, 476.191441 153.612174)

LINESTRING (517.327281 122.823455, 493.798865 100.700036)

LINESTRING (517.327281 122.823455, 467.566074 165.539327)

LINESTRING (517.327281 122.823455, 495.638725 142.268226)

LINESTRING (517.327281 122.823455, 494.905474 111.367392)

LINESTRING (495.404153 177.934410, 500.744471 119.482757)

LINESTRING (495.404153 177.934410, 483.382647 169.168315)

LINESTRING (495.404153 177.934410, 465.547497 137.980675)

LINESTRING (495.404153 177.934410, 528.003612 145.982362)

LINESTRING (495.404153 177.934410, 515.292628 161.522902)

LINESTRING (495.404153 177.934410, 470.538985 115.177792)

LINESTRING (495.404153 177.934410, 476.777290 113.255119)

LINESTRING (519.518695 133.292796, 500.744471 119.482757)

LINESTRING (519.518695 133.292796, 478.874430 119.721030)

LINESTRING (519.518695 133.292796, 465.547497 137.980675)

LINESTRING (519.518695 133.292796, 528.047329 118.796348)

LINESTRING (519.518695 133.292796, 477.796270 116.483805)

LINESTRING (519.518695 133.292796, 527.463401 152.317965)

LINESTRING (519.518695 133.292796, 527.615334 161.361286)

LINESTRING (519.518695 133.292796, 475.980367 171.500063)

LINESTRING (519.518695 133.292796, 470.538985 115.177792)

LINESTRING (519.518695 133.292796, 476.777290 113.255119)

LINESTRING (519.518695 133.292796, 482.447380 124.480710)

LINESTRING (519.518695 133.292796, 467.566074 165.539327)

LINESTRING (519.518695 133.292796, 494.905474 111.367392)

LINESTRING (500.744471 119.482757, 465.547497 137.980675)

LINESTRING (500.744471 119.482757, 520.600348 146.491608)

LINESTRING (500.744471 119.482757, 469.030610 111.728609)

LINESTRING (500.744471 119.482757, 477.796270 116.483805)

LINESTRING (500.744471 119.482757, 500.751537 161.083301)

LINESTRING (500.744471 119.482757, 528.003612 145.982362)

LINESTRING (500.744471 119.482757, 515.292628 161.522902)

LINESTRING (500.744471 119.482757, 470.538985 115.177792)

LINESTRING (500.744471 119.482757, 476.777290 113.255119)

LINESTRING (500.744471 119.482757, 529.539316 179.393533)

LINESTRING (500.744471 119.482757, 494.905474 111.367392)

LINESTRING (500.744471 119.482757, 507.401347 136.277168)

LINESTRING (483.382647 169.168315, 500.751537 161.083301)

LINESTRING (483.382647 169.168315, 527.615334 161.361286)

LINESTRING (483.382647 169.168315, 475.980367 171.500063)

LINESTRING (483.382647 169.168315, 476.191441 153.612174)

LINESTRING (483.382647 169.168315, 493.798865 100.700036)

LINESTRING (483.382647 169.168315, 494.905474 111.367392)

LINESTRING (483.382647 169.168315, 507.401347 136.277168)

LINESTRING (478.874430 119.721030, 465.547497 137.980675)

LINESTRING (478.874430 119.721030, 528.047329 118.796348)

LINESTRING (478.874430 119.721030, 460.461384 100.308545)

LINESTRING (478.874430 119.721030, 528.003612 145.982362)

LINESTRING (478.874430 119.721030, 476.777290 113.255119)

LINESTRING (478.874430 119.721030, 495.638725 142.268226)

LINESTRING (478.874430 119.721030, 494.905474 111.367392)

LINESTRING (478.874430 119.721030, 528.174339 153.083375)

LINESTRING (465.547497 137.980675, 520.600348 146.491608)

LINESTRING (465.547497 137.980675, 460.461384 100.308545)

LINESTRING (465.547497 137.980675, 527.615334 161.361286)

LINESTRING (465.547497 137.980675, 475.980367 171.500063)

LINESTRING (465.547497 137.980675, 476.777290 113.255119)

LINESTRING (465.547497 137.980675, 482.447380 124.480710)

LINESTRING (465.547497 137.980675, 529.539316 179.393533)

LINESTRING (465.547497 137.980675, 467.566074 165.539327)

LINESTRING (465.547497 137.980675, 494.905474 111.367392)

LINESTRING (465.547497 137.980675, 529.207948 171.889686)

LINESTRING (465.547497 137.980675, 528.174339 153.083375)

LINESTRING (528.047329 118.796348, 469.030610 111.728609)

LINESTRING (528.047329 118.796348, 477.796270 116.483805)

LINESTRING (528.047329 118.796348, 460.461384 100.308545)

LINESTRING (528.047329 118.796348, 527.463401 152.317965)

LINESTRING (528.047329 118.796348, 476.777290 113.255119)

LINESTRING (528.047329 118.796348, 493.798865 100.700036)

LINESTRING (528.047329 118.796348, 467.566074 165.539327)

LINESTRING (528.047329 118.796348, 495.638725 142.268226)

LINESTRING (528.047329 118.796348, 507.401347 136.277168)

LINESTRING (528.047329 118.796348, 529.207948 171.889686)

LINESTRING (528.047329 118.796348, 528.174339 153.083375)

LINESTRING (520.600348 146.491608, 469.030610 111.728609)

LINESTRING (520.600348 146.491608, 477.796270 116.483805)

LINESTRING (520.600348 146.491608, 460.461384 100.308545)

LINESTRING (520.600348 146.491608, 500.751537 161.083301)

LINESTRING (520.600348 146.491608, 528.003612 145.982362)

LINESTRING (520.600348 146.491608, 515.292628 161.522902)

LINESTRING (520.600348 146.491608, 470.538985 115.177792)

LINESTRING (520.600348 146.491608, 507.401347 136.277168)

LINESTRING (469.030610 111.728609, 527.463401 152.317965)

LINESTRING (469.030610 111.728609, 476.777290 113.255119)

LINESTRING (469.030610 111.728609, 493.798865 100.700036)

LINESTRING (469.030610 111.728609, 495.638725 142.268226)

LINESTRING (469.030610 111.728609, 507.401347 136.277168)

LINESTRING (477.796270 116.483805, 527.615334 161.361286)

LINESTRING (477.796270 116.483805, 475.980367 171.500063)

LINESTRING (477.796270 116.483805, 482.447380 124.480710)

LINESTRING (477.796270 116.483805, 529.539316 179.393533)

LINESTRING (477.796270 116.483805, 493.798865 100.700036)

LINESTRING (477.796270 116.483805, 467.566074 165.539327)

LINESTRING (460.461384 100.308545, 500.751537 161.083301)

LINESTRING (460.461384 100.308545, 515.292628 161.522902)

LINESTRING (460.461384 100.308545, 529.539316 179.393533)

LINESTRING (460.461384 100.308545, 493.798865 100.700036)

LINESTRING (460.461384 100.308545, 494.905474 111.367392)

LINESTRING (460.461384 100.308545, 507.401347 136.277168)

LINESTRING (527.463401 152.317965, 528.003612 145.982362)

LINESTRING (527.463401 152.317965, 515.292628 161.522902)

LINESTRING (527.463401 152.317965, 470.538985 115.177792)

LINESTRING (527.463401 152.317965, 476.191441 153.612174)

LINESTRING (527.463401 152.317965, 482.447380 124.480710)

LINESTRING (527.463401 152.317965, 493.798865 100.700036)

LINESTRING (527.463401 152.317965, 467.566074 165.539327)

LINESTRING (527.463401 152.317965, 495.638725 142.268226)

LINESTRING (527.463401 152.317965, 507.401347 136.277168)

LINESTRING (500.751537 161.083301, 528.003612 145.982362)

LINESTRING (500.751537 161.083301, 515.292628 161.522902)

LINESTRING (500.751537 161.083301, 475.980367 171.500063)

LINESTRING (500.751537 161.083301, 476.191441 153.612174)

LINESTRING (500.751537 161.083301, 476.777290 113.255119)

LINESTRING (500.751537 161.083301, 529.539316 179.393533)

LINESTRING (500.751537 161.083301, 494.905474 111.367392)

LINESTRING (500.751537 161.083301, 507.401347 136.277168)

LINESTRING (528.003612 145.982362, 515.292628 161.522902)

LINESTRING (528.003612 145.982362, 476.191441 153.612174)

LINESTRING (528.003612 145.982362, 476.777290 113.255119)

LINESTRING (528.003612 145.982362, 482.447380 124.480710)

LINESTRING (528.003612 145.982362, 493.798865 100.700036)

LINESTRING (528.003612 145.982362, 467.566074 165.539327)

LINESTRING (528.003612 145.982362, 495.638725 142.268226)

LINESTRING (528.003612 145.982362, 494.905474 111.367392)

LINESTRING (528.003612 145.982362, 507.401347 136.277168)

LINESTRING (515.292628 161.522902, 470.538985 115.177792)

LINESTRING (515.292628 161.522902, 493.798865 100.700036)

LINESTRING (515.292628 161.522902, 495.638725 142.268226)

LINESTRING (515.292628 161.522902, 494.905474 111.367392)

LINESTRING (515.292628 161.522902, 528.174339 153.083375)

LINESTRING (527.615334 161.361286, 475.980367 171.500063)

LINESTRING (527.615334 161.361286, 476.777290 113.255119)

LINESTRING (527.615334 161.361286, 529.539316 179.393533)

LINESTRING (527.615334 161.361286, 467.566074 165.539327)

LINESTRING (527.615334 161.361286, 529.207948 171.889686)

LINESTRING (475.980367 171.500063, 470.538985 115.177792)

LINESTRING (475.980367 171.500063, 476.777290 113.255119)

LINESTRING (475.980367 171.500063, 529.539316 179.393533)

LINESTRING (475.980367 171.500063, 494.905474 111.367392)

LINESTRING (475.980367 171.500063, 528.174339 153.083375)

LINESTRING (470.538985 115.177792, 482.447380 124.480710)

LINESTRING (470.538985 115.177792, 493.798865 100.700036)

LINESTRING (470.538985 115.177792, 528.174339 153.083375)

LINESTRING (476.191441 153.612174, 493.798865 100.700036)

LINESTRING (476.191441 153.612174, 467.566074 165.539327)

LINESTRING (476.191441 153.612174, 528.174339 153.083375)

LINESTRING (476.777290 113.255119, 467.566074 165.539327)

LINESTRING (476.777290 113.255119, 494.905474 111.367392)

LINESTRING (476.777290 113.255119, 529.207948 171.889686)

LINESTRING (482.447380 124.480710, 529.539316 179.393533)

LINESTRING (482.447380 124.480710, 493.798865 100.700036)

LINESTRING (529.539316 179.393533, 493.798865 100.700036)

LINESTRING (529.539316 179.393533, 467.566074 165.539327)

LINESTRING (493.798865 100.700036, 495.638725 142.268226)

LINESTRING (493.798865 100.700036, 529.207948 171.889686)

LINESTRING (493.798865 100.700036, 528.174339 153.083375)

LINESTRING (467.566074 165.539327, 494.905474 111.367392)

LINESTRING (467.566074 165.539327, 507.401347 136.277168)

LINESTRING (495.638725 142.268226, 494.905474 111.367392)

LINESTRING (495.638725 142.268226, 507.401347 136.277168)

LINESTRING (507.401347 136.277168, 529.207948 171.889686)

LINESTRING (863.485814 150.978905, 851.858476 179.957406)

LINESTRING (863.485814 150.978905, 868.326854 136.366801)

LINESTRING (863.485814 150.978905, 844.736315 155.505498)

LINESTRING (863.485814 150.978905, 855.934306 153.728388)

LINESTRING (863.485814 150.978905, 878.539848 116.606675)

LINESTRING (863.485814 150.978905, 801.959149 144.332165)

LINESTRING (863.485814 150.978905, 867.707866 148.066990)

LINESTRING (863.485814 150.978905, 814.196611 102.383869)

LINESTRING (863.485814 150.978905, 830.379558 175.347853)

LINESTRING (863.485814 150.978905, 877.635296 154.007352)

LINESTRING (863.485814 150.978905, 857.955720 149.448898)

LINESTRING (863.485814 150.978905, 828.392355 168.708120)

LINESTRING (863.485814 150.978905, 818.101512 176.373310)

LINESTRING (863.485814 150.978905, 871.328216 125.761703)

LINESTRING (863.485814 150.978905, 821.592828 144.545890)

LINESTRING (863.485814 150.978905, 863.882139 114.901444)

LINESTRING (851.858476 179.957406, 835.273736 139.876871)

LINESTRING (851.858476 179.957406, 808.373213 172.997653)

LINESTRING (851.858476 179.957406, 874.885384 137.818960)

LINESTRING (851.858476 179.957406, 832.919108 140.037447)

LINESTRING (851.858476 179.957406, 843.430328 105.504719)

LINESTRING (851.858476 179.957406, 823.842535 157.230924)

LINESTRING (851.858476 179.957406, 876.786933 110.469796)

LINESTRING (851.858476 179.957406, 855.934306 153.728388)

LINESTRING (851.858476 179.957406, 845.731994 173.067574)

LINESTRING (851.858476 179.957406, 813.240820 131.638237)

LINESTRING (851.858476 179.957406, 865.568495 175.247652)

LINESTRING (851.858476 179.957406, 867.707866 148.066990)

LINESTRING (851.858476 179.957406, 814.196611 102.383869)

LINESTRING (851.858476 179.957406, 844.792317 114.590416)

LINESTRING (851.858476 179.957406, 874.529180 142.390109)

LINESTRING (851.858476 179.957406, 818.101512 176.373310)

LINESTRING (851.858476 179.957406, 828.538316 113.545528)

LINESTRING (851.858476 179.957406, 873.265506 112.604399)

LINESTRING (851.858476 179.957406, 821.592828 144.545890)

LINESTRING (868.326854 136.366801, 808.373213 172.997653)

LINESTRING (868.326854 136.366801, 874.885384 137.818960)

LINESTRING (868.326854 136.366801, 844.569495 137.541415)

LINESTRING (868.326854 136.366801, 844.736315 155.505498)

LINESTRING (868.326854 136.366801, 843.430328 105.504719)

LINESTRING (868.326854 136.366801, 855.934306 153.728388)

LINESTRING (868.326854 136.366801, 845.731994 173.067574)

LINESTRING (868.326854 136.366801, 813.240820 131.638237)

LINESTRING (868.326854 136.366801, 878.539848 116.606675)

LINESTRING (868.326854 136.366801, 867.425889 156.487250)

LINESTRING (868.326854 136.366801, 831.783751 122.435815)

LINESTRING (868.326854 136.366801, 867.707866 148.066990)

LINESTRING (868.326854 136.366801, 844.792317 114.590416)

LINESTRING (868.326854 136.366801, 857.955720 149.448898)

LINESTRING (868.326854 136.366801, 828.392355 168.708120)

LINESTRING (868.326854 136.366801, 824.920428 121.908275)

LINESTRING (868.326854 136.366801, 836.685937 177.382386)

LINESTRING (868.326854 136.366801, 828.538316 113.545528)

LINESTRING (868.326854 136.366801, 871.328216 125.761703)

LINESTRING (868.326854 136.366801, 821.592828 144.545890)

LINESTRING (868.326854 136.366801, 863.882139 114.901444)

LINESTRING (835.273736 139.876871, 844.569495 137.541415)

LINESTRING (835.273736 139.876871, 844.736315 155.505498)

LINESTRING (835.273736 139.876871, 832.919108 140.037447)

LINESTRING (835.273736 139.876871, 843.430328 105.504719)

LINESTRING (835.273736 139.876871, 813.240820 131.638237)

LINESTRING (835.273736 139.876871, 878.539848 116.606675)

LINESTRING (835.273736 139.876871, 801.541226 138.302554)

LINESTRING (835.273736 139.876871, 801.959149 144.332165)

LINESTRING (835.273736 139.876871, 867.425889 156.487250)

LINESTRING (835.273736 139.876871, 865.568495 175.247652)

LINESTRING (835.273736 139.876871, 830.379558 175.347853)

LINESTRING (835.273736 139.876871, 830.892835 106.743519)

LINESTRING (835.273736 139.876871, 844.792317 114.590416)

LINESTRING (835.273736 139.876871, 877.635296 154.007352)

LINESTRING (835.273736 139.876871, 857.955720 149.448898)

LINESTRING (835.273736 139.876871, 836.685937 177.382386)

LINESTRING (835.273736 139.876871, 818.101512 176.373310)

LINESTRING (835.273736 139.876871, 828.538316 113.545528)

LINESTRING (808.373213 172.997653, 874.885384 137.818960)

LINESTRING (808.373213 172.997653, 832.919108 140.037447)

LINESTRING (808.373213 172.997653, 811.587678 139.361637)

LINESTRING (808.373213 172.997653, 801.959149 144.332165)

LINESTRING (808.373213 172.997653, 831.783751 122.435815)

LINESTRING (808.373213 172.997653, 830.379558 175.347853)

LINESTRING (808.373213 172.997653, 844.792317 114.590416)

LINESTRING (808.373213 172.997653, 819.919307 105.070793)

LINESTRING (808.373213 172.997653, 824.920428 121.908275)

LINESTRING (808.373213 172.997653, 836.685937 177.382386)

LINESTRING (808.373213 172.997653, 828.538316 113.545528)

LINESTRING (808.373213 172.997653, 871.328216 125.761703)

LINESTRING (808.373213 172.997653, 863.882139 114.901444)

LINESTRING (874.885384 137.818960, 844.736315 155.505498)

LINESTRING (874.885384 137.818960, 843.430328 105.504719)

LINESTRING (874.885384 137.818960, 876.786933 110.469796)

LINESTRING (874.885384 137.818960, 845.731994 173.067574)

LINESTRING (874.885384 137.818960, 813.240820 131.638237)

LINESTRING (874.885384 137.818960, 801.959149 144.332165)

LINESTRING (874.885384 137.818960, 867.707866 148.066990)

LINESTRING (874.885384 137.818960, 814.196611 102.383869)

LINESTRING (874.885384 137.818960, 830.892835 106.743519)

LINESTRING (874.885384 137.818960, 844.792317 114.590416)

LINESTRING (874.885384 137.818960, 828.538316 113.545528)

LINESTRING (874.885384 137.818960, 873.265506 112.604399)

LINESTRING (874.885384 137.818960, 821.592828 144.545890)

LINESTRING (844.569495 137.541415, 844.736315 155.505498)

LINESTRING (844.569495 137.541415, 843.430328 105.504719)

LINESTRING (844.569495 137.541415, 823.842535 157.230924)

LINESTRING (844.569495 137.541415, 876.786933 110.469796)

LINESTRING (844.569495 137.541415, 855.934306 153.728388)

LINESTRING (844.569495 137.541415, 813.240820 131.638237)

LINESTRING (844.569495 137.541415, 867.707866 148.066990)

LINESTRING (844.569495 137.541415, 814.196611 102.383869)

LINESTRING (844.569495 137.541415, 830.379558 175.347853)

LINESTRING (844.569495 137.541415, 877.635296 154.007352)

LINESTRING (844.569495 137.541415, 857.955720 149.448898)

LINESTRING (844.569495 137.541415, 828.392355 168.708120)

LINESTRING (844.569495 137.541415, 874.529180 142.390109)

LINESTRING (844.569495 137.541415, 818.101512 176.373310)

LINESTRING (844.569495 137.541415, 828.538316 113.545528)

LINESTRING (844.569495 137.541415, 863.882139 114.901444)

LINESTRING (844.736315 155.505498, 813.240820 131.638237)

LINESTRING (844.736315 155.505498, 801.541226 138.302554)

LINESTRING (844.736315 155.505498, 801.959149 144.332165)

LINESTRING (844.736315 155.505498, 867.425889 156.487250)

LINESTRING (844.736315 155.505498, 831.783751 122.435815)

LINESTRING (844.736315 155.505498, 867.707866 148.066990)

LINESTRING (844.736315 155.505498, 819.919307 105.070793)

LINESTRING (844.736315 155.505498, 828.392355 168.708120)

LINESTRING (844.736315 155.505498, 818.101512 176.373310)

LINESTRING (844.736315 155.505498, 821.592828 144.545890)

LINESTRING (844.736315 155.505498, 863.882139 114.901444)

LINESTRING (832.919108 140.037447, 823.842535 157.230924)

LINESTRING (832.919108 140.037447, 876.786933 110.469796)

LINESTRING (832.919108 140.037447, 855.934306 153.728388)

LINESTRING (832.919108 140.037447, 813.240820 131.638237)

LINESTRING (832.919108 140.037447, 878.539848 116.606675)

LINESTRING (832.919108 140.037447, 830.892835 106.743519)

LINESTRING (832.919108 140.037447, 844.792317 114.590416)

LINESTRING (832.919108 140.037447, 819.919307 105.070793)

LINESTRING (832.919108 140.037447, 857.955720 149.448898)

LINESTRING (832.919108 140.037447, 874.529180 142.390109)

LINESTRING (832.919108 140.037447, 871.328216 125.761703)

LINESTRING (832.919108 140.037447, 873.265506 112.604399)

LINESTRING (843.430328 105.504719, 823.842535 157.230924)

LINESTRING (843.430328 105.504719, 876.786933 110.469796)

LINESTRING (843.430328 105.504719, 813.240820 131.638237)

LINESTRING (843.430328 105.504719, 814.196611 102.383869)

LINESTRING (843.430328 105.504719, 830.379558 175.347853)

LINESTRING (843.430328 105.504719, 844.792317 114.590416)

LINESTRING (843.430328 105.504719, 877.635296 154.007352)

LINESTRING (843.430328 105.504719, 828.392355 168.708120)

LINESTRING (843.430328 105.504719, 874.529180 142.390109)

LINESTRING (843.430328 105.504719, 818.101512 176.373310)

LINESTRING (843.430328 105.504719, 828.538316 113.545528)

LINESTRING (843.430328 105.504719, 821.592828 144.545890)

LINESTRING (843.430328 105.504719, 863.882139 114.901444)

LINESTRING (823.842535 157.230924, 845.731994 173.067574)

LINESTRING (823.842535 157.230924, 878.539848 116.606675)

LINESTRING (823.842535 157.230924, 801.541226 138.302554)

LINESTRING (823.842535 157.230924, 801.959149 144.332165)

LINESTRING (823.842535 157.230924, 865.568495 175.247652)

LINESTRING (823.842535 157.230924, 831.783751 122.435815)

LINESTRING (823.842535 157.230924, 830.892835 106.743519)

LINESTRING (823.842535 157.230924, 844.792317 114.590416)

LINESTRING (823.842535 157.230924, 857.955720 149.448898)

LINESTRING (823.842535 157.230924, 836.685937 177.382386)

LINESTRING (823.842535 157.230924, 871.328216 125.761703)

LINESTRING (811.587678 139.361637, 876.786933 110.469796)

LINESTRING (811.587678 139.361637, 855.934306 153.728388)

LINESTRING (811.587678 139.361637, 813.240820 131.638237)

LINESTRING (811.587678 139.361637, 801.541226 138.302554)

LINESTRING (811.587678 139.361637, 801.959149 144.332165)

LINESTRING (811.587678 139.361637, 865.568495 175.247652)

LINESTRING (811.587678 139.361637, 831.783751 122.435815)

LINESTRING (811.587678 139.361637, 819.919307 105.070793)

LINESTRING (811.587678 139.361637, 857.955720 149.448898)

LINESTRING (811.587678 139.361637, 824.920428 121.908275)

LINESTRING (811.587678 139.361637, 836.685937 177.382386)

LINESTRING (811.587678 139.361637, 871.328216 125.761703)

LINESTRING (811.587678 139.361637, 873.265506 112.604399)

LINESTRING (811.587678 139.361637, 863.882139 114.901444)

LINESTRING (876.786933 110.469796, 855.934306 153.728388)

LINESTRING (876.786933 110.469796, 813.240820 131.638237)

LINESTRING (876.786933 110.469796, 801.959149 144.332165)

LINESTRING (876.786933 110.469796, 867.425889 156.487250)

LINESTRING (876.786933 110.469796, 831.783751 122.435815)

LINESTRING (876.786933 110.469796, 830.892835 106.743519)

LINESTRING (876.786933 110.469796, 857.955720 149.448898)

LINESTRING (876.786933 110.469796, 824.920428 121.908275)

LINESTRING (876.786933 110.469796, 873.265506 112.604399)

LINESTRING (855.934306 153.728388, 878.539848 116.606675)

LINESTRING (855.934306 153.728388, 801.541226 138.302554)

LINESTRING (855.934306 153.728388, 865.568495 175.247652)

LINESTRING (855.934306 153.728388, 814.196611 102.383869)

LINESTRING (855.934306 153.728388, 830.379558 175.347853)

LINESTRING (855.934306 153.728388, 877.635296 154.007352)

LINESTRING (855.934306 153.728388, 857.955720 149.448898)

LINESTRING (855.934306 153.728388, 828.392355 168.708120)

LINESTRING (855.934306 153.728388, 874.529180 142.390109)

LINESTRING (855.934306 153.728388, 863.882139 114.901444)

LINESTRING (845.731994 173.067574, 801.959149 144.332165)

LINESTRING (845.731994 173.067574, 831.783751 122.435815)

LINESTRING (845.731994 173.067574, 814.196611 102.383869)

LINESTRING (845.731994 173.067574, 830.379558 175.347853)

LINESTRING (845.731994 173.067574, 830.892835 106.743519)

LINESTRING (845.731994 173.067574, 819.919307 105.070793)

LINESTRING (845.731994 173.067574, 857.955720 149.448898)

LINESTRING (845.731994 173.067574, 874.529180 142.390109)

LINESTRING (845.731994 173.067574, 818.101512 176.373310)

LINESTRING (845.731994 173.067574, 871.328216 125.761703)

LINESTRING (845.731994 173.067574, 873.265506 112.604399)

LINESTRING (845.731994 173.067574, 863.882139 114.901444)

LINESTRING (813.240820 131.638237, 801.541226 138.302554)

LINESTRING (813.240820 131.638237, 867.425889 156.487250)

LINESTRING (813.240820 131.638237, 867.707866 148.066990)

LINESTRING (813.240820 131.638237, 814.196611 102.383869)

LINESTRING (813.240820 131.638237, 830.892835 106.743519)

LINESTRING (813.240820 131.638237, 844.792317 114.590416)

LINESTRING (813.240820 131.638237, 819.919307 105.070793)

LINESTRING (813.240820 131.638237, 877.635296 154.007352)

LINESTRING (813.240820 131.638237, 857.955720 149.448898)

LINESTRING (813.240820 131.638237, 828.392355 168.708120)

LINESTRING (813.240820 131.638237, 874.529180 142.390109)

LINESTRING (813.240820 131.638237, 818.101512 176.373310)

LINESTRING (813.240820 131.638237, 828.538316 113.545528)

LINESTRING (813.240820 131.638237, 871.328216 125.761703)

LINESTRING (813.240820 131.638237, 821.592828 144.545890)

LINESTRING (878.539848 116.606675, 801.541226 138.302554)

LINESTRING (878.539848 116.606675, 801.959149 144.332165)

LINESTRING (878.539848 116.606675, 867.425889 156.487250)

LINESTRING (878.539848 116.606675, 819.919307 105.070793)

LINESTRING (878.539848 116.606675, 857.955720 149.448898)

LINESTRING (878.539848 116.606675, 824.920428 121.908275)

LINESTRING (878.539848 116.606675, 874.529180 142.390109)

LINESTRING (878.539848 116.606675, 818.101512 176.373310)

LINESTRING (878.539848 116.606675, 863.882139 114.901444)

LINESTRING (801.541226 138.302554, 867.425889 156.487250)

LINESTRING (801.541226 138.302554, 865.568495 175.247652)

LINESTRING (801.541226 138.302554, 831.783751 122.435815)

LINESTRING (801.541226 138.302554, 867.707866 148.066990)

LINESTRING (801.541226 138.302554, 814.196611 102.383869)

LINESTRING (801.541226 138.302554, 857.955720 149.448898)

LINESTRING (801.541226 138.302554, 828.392355 168.708120)

LINESTRING (801.541226 138.302554, 874.529180 142.390109)

LINESTRING (801.541226 138.302554, 818.101512 176.373310)

LINESTRING (801.541226 138.302554, 871.328216 125.761703)

LINESTRING (801.541226 138.302554, 821.592828 144.545890)

LINESTRING (801.959149 144.332165, 867.425889 156.487250)

LINESTRING (801.959149 144.332165, 831.783751 122.435815)

LINESTRING (801.959149 144.332165, 814.196611 102.383869)

LINESTRING (801.959149 144.332165, 830.892835 106.743519)

LINESTRING (801.959149 144.332165, 819.919307 105.070793)

LINESTRING (801.959149 144.332165, 877.635296 154.007352)

LINESTRING (801.959149 144.332165, 824.920428 121.908275)

LINESTRING (801.959149 144.332165, 874.529180 142.390109)

LINESTRING (801.959149 144.332165, 821.592828 144.545890)

LINESTRING (867.425889 156.487250, 831.783751 122.435815)

LINESTRING (867.425889 156.487250, 867.707866 148.066990)

LINESTRING (867.425889 156.487250, 877.635296 154.007352)

LINESTRING (867.425889 156.487250, 824.920428 121.908275)

LINESTRING (867.425889 156.487250, 836.685937 177.382386)

LINESTRING (867.425889 156.487250, 818.101512 176.373310)

LINESTRING (867.425889 156.487250, 873.265506 112.604399)

LINESTRING (867.425889 156.487250, 821.592828 144.545890)

LINESTRING (867.425889 156.487250, 863.882139 114.901444)

LINESTRING (865.568495 175.247652, 867.707866 148.066990)

LINESTRING (865.568495 175.247652, 814.196611 102.383869)

LINESTRING (865.568495 175.247652, 830.379558 175.347853)

LINESTRING (865.568495 175.247652, 830.892835 106.743519)

LINESTRING (865.568495 175.247652, 824.920428 121.908275)

LINESTRING (865.568495 175.247652, 836.685937 177.382386)

LINESTRING (865.568495 175.247652, 818.101512 176.373310)

LINESTRING (865.568495 175.247652, 828.538316 113.545528)

LINESTRING (865.568495 175.247652, 871.328216 125.761703)

LINESTRING (865.568495 175.247652, 821.592828 144.545890)

LINESTRING (831.783751 122.435815, 867.707866 148.066990)

LINESTRING (831.783751 122.435815, 844.792317 114.590416)

LINESTRING (831.783751 122.435815, 819.919307 105.070793)

LINESTRING (831.783751 122.435815, 877.635296 154.007352)

LINESTRING (831.783751 122.435815, 857.955720 149.448898)

LINESTRING (831.783751 122.435815, 828.392355 168.708120)

LINESTRING (831.783751 122.435815, 824.920428 121.908275)

LINESTRING (831.783751 122.435815, 818.101512 176.373310)

LINESTRING (831.783751 122.435815, 873.265506 112.604399)

LINESTRING (831.783751 122.435815, 821.592828 144.545890)

LINESTRING (831.783751 122.435815, 863.882139 114.901444)

LINESTRING (867.707866 148.066990, 830.892835 106.743519)

LINESTRING (867.707866 148.066990, 819.919307 105.070793)

LINESTRING (867.707866 148.066990, 877.635296 154.007352)

LINESTRING (867.707866 148.066990, 857.955720 149.448898)

LINESTRING (867.707866 148.066990, 828.392355 168.708120)

LINESTRING (867.707866 148.066990, 828.538316 113.545528)

LINESTRING (867.707866 148.066990, 863.882139 114.901444)

LINESTRING (814.196611 102.383869, 844.792317 114.590416)

LINESTRING (814.196611 102.383869, 874.529180 142.390109)

LINESTRING (814.196611 102.383869, 836.685937 177.382386)

LINESTRING (814.196611 102.383869, 818.101512 176.373310)

LINESTRING (814.196611 102.383869, 828.538316 113.545528)

LINESTRING (814.196611 102.383869, 821.592828 144.545890)

LINESTRING (830.379558 175.347853, 824.920428 121.908275)

LINESTRING (830.379558 175.347853, 871.328216 125.761703)

LINESTRING (830.379558 175.347853, 873.265506 112.604399)

LINESTRING (830.379558 175.347853, 821.592828 144.545890)

LINESTRING (830.379558 175.347853, 863.882139 114.901444)

LINESTRING (830.892835 106.743519, 828.392355 168.708120)

LINESTRING (830.892835 106.743519, 836.685937 177.382386)

LINESTRING (830.892835 106.743519, 818.101512 176.373310)

LINESTRING (830.892835 106.743519, 871.328216 125.761703)

LINESTRING (830.892835 106.743519, 873.265506 112.604399)

LINESTRING (830.892835 106.743519, 821.592828 144.545890)

LINESTRING (844.792317 114.590416, 828.392355 168.708120)

LINESTRING (844.792317 114.590416, 874.529180 142.390109)

LINESTRING (844.792317 114.590416, 836.685937 177.382386)

LINESTRING (844.792317 114.590416, 818.101512 176.373310)

LINESTRING (844.792317 114.590416, 871.328216 125.761703)

LINESTRING (844.792317 114.590416, 873.265506 112.604399)

LINESTRING (844.792317 114.590416, 821.592828 144.545890)

LINESTRING (819.919307 105.070793, 874.529180 142.390109)

LINESTRING (819.919307 105.070793, 836.685937 177.382386)

LINESTRING (819.919307 105.070793, 818.101512 176.373310)

LINESTRING (819.919307 105.070793, 828.538316 113.545528)

LINESTRING (877.635296 154.007352, 828.392355 168.708120)

LINESTRING (877.635296 154.007352, 828.538316 113.545528)

LINESTRING (877.635296 154.007352, 871.328216 125.761703)

LINESTRING (877.635296 154.007352, 821.592828 144.545890)

LINESTRING (857.955720 149.448898, 824.920428 121.908275)

LINESTRING (857.955720 149.448898, 863.882139 114.901444)

LINESTRING (828.392355 168.708120, 824.920428 121.908275)

LINESTRING (828.392355 168.708120, 818.101512 176.373310)

LINESTRING (828.392355 168.708120, 828.538316 113.545528)

LINESTRING (828.392355 168.708120, 821.592828 144.545890)

LINESTRING (828.392355 168.708120, 863.882139 114.901444)

LINESTRING (824.920428 121.908275, 818.101512 176.373310)

LINESTRING (824.920428 121.908275, 828.538316 113.545528)

LINESTRING (824.920428 121.908275, 873.265506 112.604399)

LINESTRING (824.920428 121.908275, 821.592828 144.545890)

LINESTRING (874.529180 142.390109, 836.685937 177.382386)

LINESTRING (874.529180 142.390109, 818.101512 176.373310)

LINESTRING (874.529180 142.390109, 828.538316 113.545528)

LINESTRING (874.529180 142.390109, 821.592828 144.545890)

LINESTRING (874.529180 142.390109, 863.882139 114.901444)

LINESTRING (836.685937 177.382386, 828.538316 113.545528)

LINESTRING (818.101512 176.373310, 828.538316 113.545528)

LINESTRING (818.101512 176.373310, 871.328216 125.761703)

LINESTRING (818.101512 176.373310, 863.882139 114.901444)

LINESTRING (828.538316 113.545528, 871.328216 125.761703)

LINESTRING (873.265506 112.604399, 821.592828 144.545890)

LINESTRING (873.265506 112.604399, 863.882139 114.901444)

LINESTRING (821.592828 144.545890, 863.882139 114.901444)

LINESTRING (156.566792 149.519116, 529.207948 171.889686)

LINESTRING (149.604625 157.043667, 450.533722 124.521722)

LINESTRING (460.461384 100.308545, 873.265506 112.604399)

LINESTRING (450.533722 124.521722, 863.485814 150.978905)

