LINESTRING (2201.264815 1166.288038, 2674.600191 1003.691213)

LINESTRING (2201.264815 1166.288038, 1903.129138 994.426872)

LINESTRING (846.986573 3463.374838, 1021.286942 3355.989795)

LINESTRING (2941.362615 3801.193097, 2697.229356 3861.374934)

LINESTRING (2941.362615 3801.193097, 3506.626050 3064.145365)

LINESTRING (2941.362615 3801.193097, 3245.927922 3830.688051)

LINESTRING (2941.362615 3801.193097, 2714.447501 3725.253728)

LINESTRING (1261.119096 2217.182314, 1885.394170 2378.876220)

LINESTRING (1261.119096 2217.182314, 224.432296 1702.410972)

LINESTRING (3472.972639 3891.658941, 3133.390095 3367.071389)

LINESTRING (3472.972639 3891.658941, 3245.927922 3830.688051)

LINESTRING (3472.972639 3891.658941, 2714.447501 3725.253728)

LINESTRING (2893.495204 1435.377849, 3990.609468 1773.253460)

LINESTRING (2893.495204 1435.377849, 3148.644483 1593.786261)

LINESTRING (3605.632125 686.059052, 3298.586149 548.450887)

LINESTRING (2697.229356 3861.374934, 2714.447501 3725.253728)

LINESTRING (2806.372820 2820.718651, 1885.394170 2378.876220)

LINESTRING (2806.372820 2820.718651, 3790.377305 2238.460764)

LINESTRING (2806.372820 2820.718651, 1766.890050 2896.346311)

LINESTRING (1885.394170 2378.876220, 3026.186519 2329.105105)

LINESTRING (1885.394170 2378.876220, 1766.890050 2896.346311)

LINESTRING (1571.564159 526.192074, 2473.451015 610.814983)

LINESTRING (1571.564159 526.192074, 1903.129138 994.426872)

LINESTRING (3899.202977 1776.238229, 3990.609468 1773.253460)

LINESTRING (1021.286942 3355.989795, 1766.890050 2896.346311)

LINESTRING (224.432296 1702.410972, 489.000423 1778.908818)

LINESTRING (224.432296 1702.410972, 612.921371 1743.684553)

LINESTRING (1667.191184 1878.284198, 1903.129138 994.426872)

LINESTRING (2473.451015 610.814983, 2674.600191 1003.691213)

LINESTRING (2473.451015 610.814983, 3298.586149 548.450887)

LINESTRING (2473.451015 610.814983, 3148.644483 1593.786261)

LINESTRING (2473.451015 610.814983, 1903.129138 994.426872)

LINESTRING (3026.186519 2329.105105, 2202.494632 1901.026829)

LINESTRING (489.000423 1778.908818, 612.921371 1743.684553)

LINESTRING (489.000423 1778.908818, 689.533771 1563.610876)

LINESTRING (489.000423 1778.908818, 650.082014 1511.707082)

LINESTRING (3298.586149 548.450887, 3148.644483 1593.786261)

LINESTRING (612.921371 1743.684553, 689.533771 1563.610876)

LINESTRING (612.921371 1743.684553, 650.082014 1511.707082)

LINESTRING (689.533771 1563.610876, 650.082014 1511.707082)

