LINESTRING (80.000000 80.000000, 379.547097 63.521624)

LINESTRING (80.000000 80.000000, 244.750903 70.936893)

LINESTRING (244.750903 70.936893, 379.547097 63.521624)

LINESTRING (80.000000 80.000000, 308.105613 274.853353)

LINESTRING (80.000000 80.000000, 205.458087 187.169344)

LINESTRING (205.458087 187.169344, 308.105613 274.853353)

LINESTRING (80.000000 80.000000, 174.346644 364.778354)

LINESTRING (80.000000 80.000000, 131.890654 236.628095)

LINESTRING (131.890654 236.628095, 174.346644 364.778354)

LINESTRING (80.000000 80.000000, 10.365701 371.806553)

LINESTRING (80.000000 80.000000, 41.701136 240.493604)

LINESTRING (41.701136 240.493604, 10.365701 371.806553)

LINESTRING (80.000000 80.000000, -175.226332 237.669019)

LINESTRING (80.000000 80.000000, -60.374483 166.717960)

LINESTRING (-60.374483 166.717960, -175.226332 237.669019)

LINESTRING (80.000000 80.000000, -219.273954 100.859062)

LINESTRING (80.000000 80.000000, -84.600675 91.472484)

LINESTRING (-84.600675 91.472484, -219.273954 100.859062)

LINESTRING (80.000000 80.000000, -160.761588 -98.980049)

LINESTRING (80.000000 80.000000, -52.418873 -18.439027)

LINESTRING (-52.418873 -18.439027, -160.761588 -98.980049)

LINESTRING (80.000000 80.000000, 9.397606 -211.573836)

LINESTRING (80.000000 80.000000, 41.168684 -80.365610)

LINESTRING (41.168684 -80.365610, 9.397606 -211.573836)

LINESTRING (80.000000 80.000000, 163.782787 -208.063265)

LINESTRING (80.000000 80.000000, 126.080533 -78.434796)

LINESTRING (126.080533 -78.434796, 163.782787 -208.063265)

LINESTRING (80.000000 80.000000, 324.515049 -93.817119)

LINESTRING (80.000000 80.000000, 214.483277 -15.599415)

LINESTRING (214.483277 -15.599415, 324.515049 -93.817119)

LINESTRING (379.547097 63.521624, 308.105613 274.853353)

LINESTRING (308.105613 274.853353, 174.346644 364.778354)

LINESTRING (174.346644 364.778354, 10.365701 371.806553)

LINESTRING (10.365701 371.806553, -175.226332 237.669019)

LINESTRING (-175.226332 237.669019, -219.273954 100.859062)

LINESTRING (-219.273954 100.859062, -160.761588 -98.980049)

LINESTRING (-160.761588 -98.980049, 9.397606 -211.573836)

LINESTRING (9.397606 -211.573836, 163.782787 -208.063265)

LINESTRING (163.782787 -208.063265, 324.515049 -93.817119)

LINESTRING (324.515049 -93.817119, 379.547097 63.521624)

LINESTRING (280.000000 80.000000, 579.929756 73.508357)

LINESTRING (280.000000 80.000000, 444.961366 76.429596)

LINESTRING (444.961366 76.429596, 579.929756 73.508357)

LINESTRING (280.000000 80.000000, 531.590901 243.407523)

LINESTRING (280.000000 80.000000, 418.374995 169.874138)

LINESTRING (418.374995 169.874138, 531.590901 243.407523)

LINESTRING (280.000000 80.000000, 349.761034 371.776281)

LINESTRING (280.000000 80.000000, 318.368569 240.476954)

LINESTRING (318.368569 240.476954, 349.761034 371.776281)

LINESTRING (280.000000 80.000000, 198.514651 368.721558)

LINESTRING (280.000000 80.000000, 235.183058 238.796857)

LINESTRING (235.183058 238.796857, 198.514651 368.721558)

LINESTRING (280.000000 80.000000, 33.469127 250.945981)

LINESTRING (280.000000 80.000000, 144.408020 174.020290)

LINESTRING (144.408020 174.020290, 33.469127 250.945981)

LINESTRING (280.000000 80.000000, -19.993147 82.027744)

LINESTRING (280.000000 80.000000, 115.003769 81.115259)

LINESTRING (115.003769 81.115259, -19.993147 82.027744)

LINESTRING (280.000000 80.000000, 47.803456 -109.959904)

LINESTRING (280.000000 80.000000, 152.291901 -24.477947)

LINESTRING (152.291901 -24.477947, 47.803456 -109.959904)

LINESTRING (280.000000 80.000000, 200.289930 -209.216709)

LINESTRING (280.000000 80.000000, 236.159461 -79.069190)

LINESTRING (236.159461 -79.069190, 200.289930 -209.216709)

LINESTRING (280.000000 80.000000, 387.566684 -200.052510)

LINESTRING (280.000000 80.000000, 339.161676 -74.028881)

LINESTRING (339.161676 -74.028881, 387.566684 -200.052510)

LINESTRING (280.000000 80.000000, 527.727965 -89.206546)

LINESTRING (280.000000 80.000000, 416.250381 -13.063600)

LINESTRING (416.250381 -13.063600, 527.727965 -89.206546)

LINESTRING (579.929756 73.508357, 531.590901 243.407523)

LINESTRING (531.590901 243.407523, 349.761034 371.776281)

LINESTRING (349.761034 371.776281, 198.514651 368.721558)

LINESTRING (198.514651 368.721558, 33.469127 250.945981)

LINESTRING (33.469127 250.945981, -19.993147 82.027744)

LINESTRING (-19.993147 82.027744, 47.803456 -109.959904)

LINESTRING (47.803456 -109.959904, 200.289930 -209.216709)

LINESTRING (200.289930 -209.216709, 387.566684 -200.052510)

LINESTRING (387.566684 -200.052510, 527.727965 -89.206546)

LINESTRING (527.727965 -89.206546, 579.929756 73.508357)

LINESTRING (480.000000 80.000000, 779.589411 95.690279)

LINESTRING (480.000000 80.000000, 644.774176 88.629653)

LINESTRING (644.774176 88.629653, 779.589411 95.690279)

LINESTRING (480.000000 80.000000, 719.649390 260.466534)

LINESTRING (480.000000 80.000000, 611.807165 179.256594)

LINESTRING (611.807165 179.256594, 719.649390 260.466534)

LINESTRING (480.000000 80.000000, 562.127707 368.539494)

LINESTRING (480.000000 80.000000, 525.170239 238.696722)

LINESTRING (525.170239 238.696722, 562.127707 368.539494)

LINESTRING (480.000000 80.000000, 379.771112 362.761684)

LINESTRING (480.000000 80.000000, 424.874111 235.518926)

LINESTRING (424.874111 235.518926, 379.771112 362.761684)

LINESTRING (480.000000 80.000000, 232.959195 250.208227)

LINESTRING (480.000000 80.000000, 344.127557 173.614525)

LINESTRING (344.127557 173.614525, 232.959195 250.208227)

LINESTRING (480.000000 80.000000, 180.267677 92.670216)

LINESTRING (480.000000 80.000000, 315.147222 86.968619)

LINESTRING (315.147222 86.968619, 180.267677 92.670216)

LINESTRING (480.000000 80.000000, 245.185366 -106.713920)

LINESTRING (480.000000 80.000000, 350.851951 -22.692656)

LINESTRING (350.851951 -22.692656, 245.185366 -106.713920)

LINESTRING (480.000000 80.000000, 371.167230 -199.562924)

LINESTRING (480.000000 80.000000, 420.141977 -73.759608)

LINESTRING (420.141977 -73.759608, 371.167230 -199.562924)

LINESTRING (480.000000 80.000000, 578.070705 -203.517436)

LINESTRING (480.000000 80.000000, 533.938888 -75.934590)

LINESTRING (533.938888 -75.934590, 578.070705 -203.517436)

LINESTRING (480.000000 80.000000, 730.702886 -84.766692)

LINESTRING (480.000000 80.000000, 617.886587 -10.621681)

LINESTRING (617.886587 -10.621681, 730.702886 -84.766692)

LINESTRING (779.589411 95.690279, 719.649390 260.466534)

LINESTRING (719.649390 260.466534, 562.127707 368.539494)

LINESTRING (562.127707 368.539494, 379.771112 362.761684)

LINESTRING (379.771112 362.761684, 232.959195 250.208227)

LINESTRING (232.959195 250.208227, 180.267677 92.670216)

LINESTRING (180.267677 92.670216, 245.185366 -106.713920)

LINESTRING (245.185366 -106.713920, 371.167230 -199.562924)

LINESTRING (371.167230 -199.562924, 578.070705 -203.517436)

LINESTRING (578.070705 -203.517436, 730.702886 -84.766692)

LINESTRING (730.702886 -84.766692, 779.589411 95.690279)

LINESTRING (80.000000 80.000000, 280.000000 80.000000)

LINESTRING (280.000000 80.000000, 480.000000 80.000000)

