LINESTRING (5529.728876 777.832127, 5048.482486 805.246444)

LINESTRING (5529.728876 777.832127, 5662.773655 338.148652)

LINESTRING (3518.208701 2171.522756, 4968.335865 2268.200234)

LINESTRING (3518.208701 2171.522756, 4594.478155 1984.117525)

LINESTRING (3518.208701 2171.522756, 3983.514388 3825.040540)

LINESTRING (3518.208701 2171.522756, 3743.728814 855.027647)

LINESTRING (3518.208701 2171.522756, 3142.293694 2598.662203)

LINESTRING (3518.208701 2171.522756, 4577.301885 2973.698039)

LINESTRING (3518.208701 2171.522756, 3890.342369 2476.068959)

LINESTRING (4276.968681 860.684094, 4594.478155 1984.117525)

LINESTRING (4276.968681 860.684094, 4399.508369 459.552987)

LINESTRING (4276.968681 860.684094, 3425.268962 751.244299)

LINESTRING (4276.968681 860.684094, 5662.773655 338.148652)

LINESTRING (4276.968681 860.684094, 3743.728814 855.027647)

LINESTRING (4276.968681 860.684094, 4255.896793 443.203699)

LINESTRING (4276.968681 860.684094, 4112.568348 128.675146)

LINESTRING (4965.718965 5559.794569, 4200.836998 6289.775902)

LINESTRING (4965.718965 5559.794569, 4371.348866 5507.974128)

LINESTRING (4968.335865 2268.200234, 4594.478155 1984.117525)

LINESTRING (4968.335865 2268.200234, 5037.075729 2750.711479)

LINESTRING (4968.335865 2268.200234, 4577.301885 2973.698039)

LINESTRING (4968.335865 2268.200234, 3890.342369 2476.068959)

LINESTRING (4594.478155 1984.117525, 3185.597688 3081.400294)

LINESTRING (5842.445479 3547.445106, 4615.113275 4010.927090)

LINESTRING (5842.445479 3547.445106, 5037.075729 2750.711479)

LINESTRING (5842.445479 3547.445106, 4577.301885 2973.698039)

LINESTRING (1012.224560 3915.728578, 1032.250413 3352.959902)

LINESTRING (1012.224560 3915.728578, 813.912839 3974.106160)

LINESTRING (1012.224560 3915.728578, 2227.272625 4267.204162)

LINESTRING (1012.224560 3915.728578, 272.493911 5502.532671)

LINESTRING (4399.508369 459.552987, 3743.728814 855.027647)

LINESTRING (4399.508369 459.552987, 4255.896793 443.203699)

LINESTRING (4399.508369 459.552987, 4112.568348 128.675146)

LINESTRING (5048.482486 805.246444, 3425.268962 751.244299)

LINESTRING (3425.268962 751.244299, 3743.728814 855.027647)

LINESTRING (3425.268962 751.244299, 4255.896793 443.203699)

LINESTRING (1032.250413 3352.959902, 1203.943566 3276.719950)

LINESTRING (1032.250413 3352.959902, 810.150804 2310.063498)

LINESTRING (3788.097367 5745.194361, 2171.349540 4959.826449)

LINESTRING (3788.097367 5745.194361, 2617.064628 5424.214821)

LINESTRING (3788.097367 5745.194361, 3521.088271 4303.353485)

LINESTRING (3788.097367 5745.194361, 3791.471310 5243.575105)

LINESTRING (2092.549467 2769.686124, 813.912839 3974.106160)

LINESTRING (2092.549467 2769.686124, 708.475282 1909.686786)

LINESTRING (2092.549467 2769.686124, 2646.891604 3943.795453)

LINESTRING (813.912839 3974.106160, 272.493911 5502.532671)

LINESTRING (813.912839 3974.106160, 810.150804 2310.063498)

LINESTRING (4371.348866 5507.974128, 4584.914553 4363.009269)

LINESTRING (4371.348866 5507.974128, 4605.893458 5018.951896)

LINESTRING (4584.914553 4363.009269, 4615.113275 4010.927090)

LINESTRING (4584.914553 4363.009269, 5037.075729 2750.711479)

LINESTRING (4584.914553 4363.009269, 4577.301885 2973.698039)

LINESTRING (6424.200916 3149.388868, 5037.075729 2750.711479)

LINESTRING (2227.272625 4267.204162, 1203.943566 3276.719950)

LINESTRING (2227.272625 4267.204162, 2002.100837 5150.889895)

LINESTRING (2227.272625 4267.204162, 2646.891604 3943.795453)

LINESTRING (3983.514388 3825.040540, 3185.597688 3081.400294)

LINESTRING (3983.514388 3825.040540, 3890.342369 2476.068959)

LINESTRING (2171.349540 4959.826449, 1218.946218 5854.657796)

LINESTRING (2171.349540 4959.826449, 2617.064628 5424.214821)

LINESTRING (2171.349540 4959.826449, 2002.100837 5150.889895)

LINESTRING (1218.946218 5854.657796, 2617.064628 5424.214821)

LINESTRING (1218.946218 5854.657796, 272.493911 5502.532671)

LINESTRING (1218.946218 5854.657796, 670.597123 6270.081220)

LINESTRING (3743.728814 855.027647, 4255.896793 443.203699)

LINESTRING (3743.728814 855.027647, 2397.852720 723.514056)

LINESTRING (3743.728814 855.027647, 4112.568348 128.675146)

LINESTRING (1203.943566 3276.719950, 2646.891604 3943.795453)

LINESTRING (3142.293694 2598.662203, 3185.597688 3081.400294)

LINESTRING (3142.293694 2598.662203, 3262.129209 2877.927676)

LINESTRING (4615.113275 4010.927090, 3521.088271 4303.353485)

LINESTRING (4615.113275 4010.927090, 3791.471310 5243.575105)

LINESTRING (4615.113275 4010.927090, 3262.129209 2877.927676)

LINESTRING (4615.113275 4010.927090, 3890.342369 2476.068959)

LINESTRING (3185.597688 3081.400294, 3262.129209 2877.927676)

LINESTRING (3185.597688 3081.400294, 4577.301885 2973.698039)

LINESTRING (3521.088271 4303.353485, 3791.471310 5243.575105)

LINESTRING (3521.088271 4303.353485, 4605.893458 5018.951896)

LINESTRING (3521.088271 4303.353485, 4577.301885 2973.698039)

LINESTRING (3791.471310 5243.575105, 4605.893458 5018.951896)

LINESTRING (440.045612 820.879574, 496.331592 1264.151476)

LINESTRING (440.045612 820.879574, 810.150804 2310.063498)

LINESTRING (496.331592 1264.151476, 810.150804 2310.063498)

LINESTRING (708.475282 1909.686786, 810.150804 2310.063498)

LINESTRING (3262.129209 2877.927676, 3890.342369 2476.068959)

LINESTRING (3262.129209 2877.927676, 2646.891604 3943.795453)

LINESTRING (4255.896793 443.203699, 4112.568348 128.675146)

LINESTRING (5653.632748 2654.282898, 5037.075729 2750.711479)

LINESTRING (5037.075729 2750.711479, 4577.301885 2973.698039)

