LINESTRING (80.000000 80.000000, 288.894681 143.476728)

LINESTRING (288.894681 143.476728, 491.330569 74.569968)

LINESTRING (491.330569 74.569968, 645.065775 -81.227558)

LINESTRING (645.065775 -81.227558, 691.481392 -291.290504)

LINESTRING (691.481392 -291.290504, 632.067475 -491.832540)

LINESTRING (691.481392 -291.290504, 824.186760 -432.418648)

LINESTRING (645.065775 -81.227558, 849.933058 -139.355571)

LINESTRING (849.933058 -139.355571, 994.724992 -267.699520)

LINESTRING (849.933058 -139.355571, 1054.356428 -84.242769)

LINESTRING (491.330569 74.569968, 685.272182 120.384406)

LINESTRING (685.272182 120.384406, 867.596630 78.502341)

LINESTRING (867.596630 78.502341, 1028.369536 -53.178190)

LINESTRING (867.596630 78.502341, 1072.607585 120.241863)

LINESTRING (685.272182 120.384406, 816.186249 252.397423)

LINESTRING (816.186249 252.397423, 1012.112651 311.481433)

LINESTRING (816.186249 252.397423, 861.342622 448.067732)

LINESTRING (288.894681 143.476728, 410.788937 294.348144)

LINESTRING (410.788937 294.348144, 586.284242 363.576393)

LINESTRING (586.284242 363.576393, 780.631772 309.737773)

LINESTRING (780.631772 309.737773, 932.538689 178.655450)

LINESTRING (780.631772 309.737773, 955.957156 366.520580)

LINESTRING (586.284242 363.576393, 712.878488 495.802515)

LINESTRING (712.878488 495.802515, 895.961724 558.156141)

LINESTRING (712.878488 495.802515, 763.132574 704.115048)

LINESTRING (410.788937 294.348144, 461.490156 507.448517)

LINESTRING (461.490156 507.448517, 602.944123 649.193972)

LINESTRING (602.944123 649.193972, 786.399901 686.978180)

LINESTRING (602.944123 649.193972, 645.177761 842.501034)

LINESTRING (461.490156 507.448517, 423.710788 707.763663)

LINESTRING (423.710788 707.763663, 473.730921 882.857107)

LINESTRING (423.710788 707.763663, 294.341109 852.554089)

LINESTRING (80.000000 80.000000, 114.154206 262.699888)

LINESTRING (114.154206 262.699888, 246.004384 422.122300)

LINESTRING (246.004384 422.122300, 433.490175 470.844292)

LINESTRING (433.490175 470.844292, 643.341804 430.853347)

LINESTRING (643.341804 430.853347, 780.200701 303.959888)

LINESTRING (643.341804 430.853347, 834.230487 462.985503)

LINESTRING (433.490175 470.844292, 570.520667 599.799188)

LINESTRING (570.520667 599.799188, 769.805559 663.091499)

LINESTRING (570.520667 599.799188, 618.268706 785.756868)

LINESTRING (246.004384 422.122300, 293.416484 607.346198)

LINESTRING (293.416484 607.346198, 422.445961 733.230013)

LINESTRING (422.445961 733.230013, 611.085862 765.869214)

LINESTRING (422.445961 733.230013, 480.908713 930.226054)

LINESTRING (293.416484 607.346198, 226.949945 801.667227)

LINESTRING (226.949945 801.667227, 281.077485 987.343073)

LINESTRING (226.949945 801.667227, 71.726453 942.408005)

LINESTRING (114.154206 262.699888, 55.981665 467.791488)

LINESTRING (55.981665 467.791488, 90.232576 653.340358)

LINESTRING (90.232576 653.340358, 241.736199 806.296399)

LINESTRING (241.736199 806.296399, 422.954973 840.073914)

LINESTRING (241.736199 806.296399, 308.675169 987.021404)

LINESTRING (90.232576 653.340358, 24.230868 833.691476)

LINESTRING (24.230868 833.691476, 59.894645 1018.080871)

LINESTRING (24.230868 833.691476, -111.788745 985.480274)

LINESTRING (55.981665 467.791488, -65.898911 610.575689)

LINESTRING (-65.898911 610.575689, -120.118162 785.876082)

LINESTRING (-120.118162 785.876082, -57.478371 966.876137)

LINESTRING (-120.118162 785.876082, -242.814691 910.958610)

LINESTRING (-65.898911 610.575689, -256.567678 679.413353)

LINESTRING (-256.567678 679.413353, -396.005350 837.995214)

LINESTRING (-256.567678 679.413353, -437.874314 615.196415)

