LINESTRING (4907.208286 2058.862975, 3798.401695 779.692054)

LINESTRING (4907.208286 2058.862975, 5856.982019 3064.862937)

LINESTRING (4907.208286 2058.862975, 4205.313300 830.119348)

LINESTRING (4907.208286 2058.862975, 5471.065240 1552.332752)

LINESTRING (6506.590404 1011.186095, 5471.065240 1552.332752)

LINESTRING (4649.157123 5128.583770, 4914.092129 5533.826034)

LINESTRING (4649.157123 5128.583770, 4740.543083 5740.034245)

LINESTRING (4649.157123 5128.583770, 5824.061884 4646.963506)

LINESTRING (4649.157123 5128.583770, 4304.093994 4820.938526)

LINESTRING (4649.157123 5128.583770, 3864.677113 6378.754527)

LINESTRING (6166.527389 4976.496233, 5760.933568 3384.242277)

LINESTRING (6166.527389 4976.496233, 5824.061884 4646.963506)

LINESTRING (616.877033 2027.391856, 881.889027 1005.559989)

LINESTRING (616.877033 2027.391856, 2185.197959 1152.381462)

LINESTRING (3798.401695 779.692054, 3416.114582 483.359503)

LINESTRING (3798.401695 779.692054, 2209.906147 312.400946)

LINESTRING (3798.401695 779.692054, 3470.307482 670.344443)

LINESTRING (3798.401695 779.692054, 4205.313300 830.119348)

LINESTRING (2992.226463 1840.523244, 2703.549825 2046.680849)

LINESTRING (2992.226463 1840.523244, 1557.003616 1206.201335)

LINESTRING (2992.226463 1840.523244, 3241.813228 2376.058951)

LINESTRING (238.871399 3877.460546, 549.084024 5273.843567)

LINESTRING (2731.500331 3994.558216, 2867.189482 3593.101594)

LINESTRING (2731.500331 3994.558216, 2574.654504 2510.385086)

LINESTRING (2731.500331 3994.558216, 3241.813228 2376.058951)

LINESTRING (3009.138904 2879.328009, 2703.549825 2046.680849)

LINESTRING (3009.138904 2879.328009, 3344.407343 2970.946365)

LINESTRING (3009.138904 2879.328009, 2867.189482 3593.101594)

LINESTRING (3009.138904 2879.328009, 2574.654504 2510.385086)

LINESTRING (3009.138904 2879.328009, 3241.813228 2376.058951)

LINESTRING (2703.549825 2046.680849, 3344.407343 2970.946365)

LINESTRING (2703.549825 2046.680849, 3416.114582 483.359503)

LINESTRING (2703.549825 2046.680849, 2574.654504 2510.385086)

LINESTRING (549.084024 5273.843567, 1954.073879 5368.251520)

LINESTRING (549.084024 5273.843567, 1009.712528 5335.605557)

LINESTRING (6522.204408 2363.806735, 5856.982019 3064.862937)

LINESTRING (3344.407343 2970.946365, 2867.189482 3593.101594)

LINESTRING (3344.407343 2970.946365, 3623.660053 3090.128215)

LINESTRING (1954.073879 5368.251520, 1681.552716 5013.818553)

LINESTRING (1954.073879 5368.251520, 1611.833849 5838.277661)

LINESTRING (3416.114582 483.359503, 3152.070598 810.031511)

LINESTRING (3416.114582 483.359503, 3470.307482 670.344443)

LINESTRING (3416.114582 483.359503, 2185.197959 1152.381462)

LINESTRING (2209.906147 312.400946, 1361.840319 221.084297)

LINESTRING (2209.906147 312.400946, 796.923024 1301.350153)

LINESTRING (5856.982019 3064.862937, 5760.933568 3384.242277)

LINESTRING (5856.982019 3064.862937, 5422.010900 2658.529650)

LINESTRING (4420.538455 6312.316504, 2683.861075 6245.607861)

LINESTRING (4420.538455 6312.316504, 3864.677113 6378.754527)

LINESTRING (3152.070598 810.031511, 3470.307482 670.344443)

LINESTRING (3152.070598 810.031511, 1575.870947 1438.027981)

LINESTRING (4914.092129 5533.826034, 4740.543083 5740.034245)

LINESTRING (4914.092129 5533.826034, 5824.061884 4646.963506)

LINESTRING (3470.307482 670.344443, 4904.021550 1365.862089)

LINESTRING (5760.933568 3384.242277, 5824.061884 4646.963506)

LINESTRING (5760.933568 3384.242277, 5422.010900 2658.529650)

LINESTRING (1361.840319 221.084297, 1557.003616 1206.201335)

LINESTRING (5201.771003 3162.679117, 5422.010900 2658.529650)

LINESTRING (1681.552716 5013.818553, 1009.712528 5335.605557)

LINESTRING (1681.552716 5013.818553, 237.490725 4743.546432)

LINESTRING (1557.003616 1206.201335, 1575.870947 1438.027981)

LINESTRING (2683.861075 6245.607861, 2434.192233 6171.080698)

LINESTRING (5471.065240 1552.332752, 4904.021550 1365.862089)

LINESTRING (881.889027 1005.559989, 796.923024 1301.350153)

LINESTRING (881.889027 1005.559989, 2185.197959 1152.381462)

LINESTRING (717.682842 6027.986926, 1611.833849 5838.277661)

LINESTRING (717.682842 6027.986926, 2434.192233 6171.080698)

LINESTRING (1009.712528 5335.605557, 237.490725 4743.546432)

LINESTRING (796.923024 1301.350153, 1575.870947 1438.027981)

LINESTRING (796.923024 1301.350153, 2185.197959 1152.381462)

