LINESTRING (5601.194470 3799.868886, 4806.582842 2800.580803)

LINESTRING (5601.194470 3799.868886, 5804.307074 4114.463166)

LINESTRING (6415.533907 4251.366163, 6507.890218 4041.442594)

LINESTRING (6415.533907 4251.366163, 5891.893058 4348.333768)

LINESTRING (4474.295121 2324.108577, 4806.582842 2800.580803)

LINESTRING (4474.295121 2324.108577, 2930.076628 3003.552879)

LINESTRING (4474.295121 2324.108577, 4544.005067 2377.870335)

LINESTRING (4474.295121 2324.108577, 3727.292679 3265.582346)

LINESTRING (4474.295121 2324.108577, 4115.466264 1975.385880)

LINESTRING (4474.295121 2324.108577, 4210.549725 2252.575629)

LINESTRING (4474.295121 2324.108577, 5179.330269 757.630334)

LINESTRING (4921.965106 6391.088589, 4400.481571 6412.230795)

LINESTRING (1833.762383 909.545248, 879.151480 120.547348)

LINESTRING (1833.762383 909.545248, 2156.248366 976.956407)

LINESTRING (1833.762383 909.545248, 1818.698408 950.271690)

LINESTRING (6507.890218 4041.442594, 5804.307074 4114.463166)

LINESTRING (6507.890218 4041.442594, 5891.893058 4348.333768)

LINESTRING (183.586297 3359.297716, 563.834114 2997.123845)

LINESTRING (5258.308884 912.498595, 5276.238764 1162.608330)

LINESTRING (5258.308884 912.498595, 5179.330269 757.630334)

LINESTRING (5611.068117 4650.820052, 5804.307074 4114.463166)

LINESTRING (5611.068117 4650.820052, 5891.893058 4348.333768)

LINESTRING (866.611812 4221.440445, 1141.737472 5847.816356)

LINESTRING (866.611812 4221.440445, 719.279628 4314.052653)

LINESTRING (879.151480 120.547348, 405.632752 1090.660816)

LINESTRING (337.935676 2487.095949, 563.834114 2997.123845)

LINESTRING (876.658207 5165.171522, 484.340773 5027.510575)

LINESTRING (405.632752 1090.660816, 395.561658 593.370552)

LINESTRING (4806.582842 2800.580803, 4544.005067 2377.870335)

LINESTRING (4806.582842 2800.580803, 5092.674495 2882.278030)

LINESTRING (4806.582842 2800.580803, 4210.549725 2252.575629)

LINESTRING (2156.248366 976.956407, 1818.698408 950.271690)

LINESTRING (2156.248366 976.956407, 2627.311687 918.023230)

LINESTRING (5804.307074 4114.463166, 5891.893058 4348.333768)

LINESTRING (3900.517355 2040.779390, 2627.311687 918.023230)

LINESTRING (3900.517355 2040.779390, 4115.466264 1975.385880)

LINESTRING (3900.517355 2040.779390, 4210.549725 2252.575629)

LINESTRING (1476.480486 6261.050791, 1141.737472 5847.816356)

LINESTRING (3584.541180 5390.830862, 4526.475587 4479.082005)

LINESTRING (5891.893058 4348.333768, 4526.475587 4479.082005)

LINESTRING (5276.238764 1162.608330, 5179.330269 757.630334)

LINESTRING (2930.076628 3003.552879, 4544.005067 2377.870335)

LINESTRING (2930.076628 3003.552879, 2454.564489 2756.535585)

LINESTRING (563.834114 2997.123845, 719.279628 4314.052653)

LINESTRING (4544.005067 2377.870335, 4115.466264 1975.385880)

LINESTRING (4544.005067 2377.870335, 5092.674495 2882.278030)

LINESTRING (4544.005067 2377.870335, 4210.549725 2252.575629)

LINESTRING (4544.005067 2377.870335, 3522.964198 1248.854575)

LINESTRING (4115.466264 1975.385880, 4210.549725 2252.575629)

LINESTRING (5179.330269 757.630334, 4640.716995 844.530122)

