LINESTRING (80.000000 80.000000, 779.966252 86.873615)

LINESTRING (80.000000 80.000000, 464.981438 83.780488)

LINESTRING (464.981438 83.780488, 779.966252 86.873615)

LINESTRING (80.000000 80.000000, 660.263622 471.527942)

LINESTRING (80.000000 80.000000, 399.144992 295.340368)

LINESTRING (399.144992 295.340368, 660.263622 471.527942)

LINESTRING (80.000000 80.000000, 274.034900 752.570039)

LINESTRING (80.000000 80.000000, 186.719195 449.913522)

LINESTRING (186.719195 449.913522, 274.034900 752.570039)

LINESTRING (80.000000 80.000000, -171.064884 733.426678)

LINESTRING (80.000000 80.000000, -58.085686 439.384673)

LINESTRING (-58.085686 439.384673, -171.064884 733.426678)

LINESTRING (80.000000 80.000000, -461.666553 523.392992)

LINESTRING (80.000000 80.000000, -217.916604 323.866146)

LINESTRING (-217.916604 323.866146, -461.666553 523.392992)

LINESTRING (80.000000 80.000000, -619.762678 61.773778)

LINESTRING (80.000000 80.000000, -304.869473 69.975578)

LINESTRING (-304.869473 69.975578, -619.762678 61.773778)

LINESTRING (80.000000 80.000000, -512.296246 -293.075270)

LINESTRING (80.000000 80.000000, -245.762935 -125.191398)

LINESTRING (-245.762935 -125.191398, -512.296246 -293.075270)

LINESTRING (80.000000 80.000000, -115.567412 -592.126020)

LINESTRING (80.000000 80.000000, -27.562077 -289.669311)

LINESTRING (-27.562077 -289.669311, -115.567412 -592.126020)

LINESTRING (80.000000 80.000000, 244.233026 -600.461250)

LINESTRING (80.000000 80.000000, 170.328165 -294.253688)

LINESTRING (170.328165 -294.253688, 244.233026 -600.461250)

LINESTRING (80.000000 80.000000, 631.144971 -351.554424)

LINESTRING (80.000000 80.000000, 383.129734 -157.354933)

LINESTRING (383.129734 -157.354933, 631.144971 -351.554424)

LINESTRING (779.966252 86.873615, 660.263622 471.527942)

LINESTRING (660.263622 471.527942, 274.034900 752.570039)

LINESTRING (274.034900 752.570039, -171.064884 733.426678)

LINESTRING (-171.064884 733.426678, -461.666553 523.392992)

LINESTRING (-461.666553 523.392992, -619.762678 61.773778)

LINESTRING (-619.762678 61.773778, -512.296246 -293.075270)

LINESTRING (-512.296246 -293.075270, -115.567412 -592.126020)

LINESTRING (-115.567412 -592.126020, 244.233026 -600.461250)

LINESTRING (244.233026 -600.461250, 631.144971 -351.554424)

LINESTRING (631.144971 -351.554424, 779.966252 86.873615)

LINESTRING (880.000000 80.000000, 1579.182832 113.813714)

LINESTRING (880.000000 80.000000, 1264.550558 98.597543)

LINESTRING (1264.550558 98.597543, 1579.182832 113.813714)

LINESTRING (880.000000 80.000000, 1424.539199 519.860274)

LINESTRING (880.000000 80.000000, 1179.496560 321.923150)

LINESTRING (1179.496560 321.923150, 1424.539199 519.860274)

LINESTRING (880.000000 80.000000, 1123.246876 736.377146)

LINESTRING (880.000000 80.000000, 1013.785782 441.007430)

LINESTRING (1013.785782 441.007430, 1123.246876 736.377146)

LINESTRING (880.000000 80.000000, 688.101968 753.182847)

LINESTRING (880.000000 80.000000, 774.456083 450.250566)

LINESTRING (774.456083 450.250566, 688.101968 753.182847)

LINESTRING (880.000000 80.000000, 346.015165 532.614843)

LINESTRING (880.000000 80.000000, 586.308341 328.938164)

LINESTRING (586.308341 328.938164, 346.015165 532.614843)

LINESTRING (880.000000 80.000000, 180.061442 70.725605)

LINESTRING (880.000000 80.000000, 495.033793 74.899083)

LINESTRING (495.033793 74.899083, 180.061442 70.725605)

LINESTRING (880.000000 80.000000, 347.374706 -374.213932)

LINESTRING (880.000000 80.000000, 587.056088 -169.817662)

LINESTRING (587.056088 -169.817662, 347.374706 -374.213932)

LINESTRING (880.000000 80.000000, 691.242610 -594.070210)

LINESTRING (880.000000 80.000000, 776.183436 -290.738615)

LINESTRING (776.183436 -290.738615, 691.242610 -594.070210)

LINESTRING (880.000000 80.000000, 1105.311990 -582.747695)

LINESTRING (880.000000 80.000000, 1003.921595 -284.511232)

LINESTRING (1003.921595 -284.511232, 1105.311990 -582.747695)

LINESTRING (880.000000 80.000000, 1464.082425 -305.807881)

LINESTRING (880.000000 80.000000, 1201.245334 -132.194335)

LINESTRING (1201.245334 -132.194335, 1464.082425 -305.807881)

LINESTRING (1579.182832 113.813714, 1424.539199 519.860274)

LINESTRING (1424.539199 519.860274, 1123.246876 736.377146)

LINESTRING (1123.246876 736.377146, 688.101968 753.182847)

LINESTRING (688.101968 753.182847, 346.015165 532.614843)

LINESTRING (346.015165 532.614843, 180.061442 70.725605)

LINESTRING (180.061442 70.725605, 347.374706 -374.213932)

LINESTRING (347.374706 -374.213932, 691.242610 -594.070210)

LINESTRING (691.242610 -594.070210, 1105.311990 -582.747695)

LINESTRING (1105.311990 -582.747695, 1464.082425 -305.807881)

LINESTRING (1464.082425 -305.807881, 1579.182832 113.813714)

LINESTRING (80.000000 80.000000, 880.000000 80.000000)

