LINESTRING (60.000000 60.000000, 77.969413 81.815830)

LINESTRING (60.000000 60.000000, 72.961326 81.147909)

LINESTRING (60.000000 60.000000, 58.367955 62.271100)

LINESTRING (60.000000 60.000000, 79.855049 57.051159)

LINESTRING (60.000000 60.000000, 42.985397 55.880179)

LINESTRING (60.000000 60.000000, 78.521185 82.149104)

LINESTRING (60.000000 60.000000, 52.747783 57.040966)

LINESTRING (60.000000 60.000000, 48.253143 59.242991)

LINESTRING (77.969413 81.815830, 72.961326 81.147909)

LINESTRING (77.969413 81.815830, 58.367955 62.271100)

LINESTRING (77.969413 81.815830, 42.985397 55.880179)

LINESTRING (77.969413 81.815830, 78.521185 82.149104)

LINESTRING (77.969413 81.815830, 52.747783 57.040966)

LINESTRING (77.969413 81.815830, 48.253143 59.242991)

LINESTRING (72.961326 81.147909, 79.855049 57.051159)

LINESTRING (72.961326 81.147909, 42.985397 55.880179)

LINESTRING (72.961326 81.147909, 48.253143 59.242991)

LINESTRING (58.367955 62.271100, 42.985397 55.880179)

LINESTRING (58.367955 62.271100, 78.521185 82.149104)

LINESTRING (58.367955 62.271100, 48.253143 59.242991)

LINESTRING (79.855049 57.051159, 42.985397 55.880179)

LINESTRING (79.855049 57.051159, 78.521185 82.149104)

LINESTRING (79.855049 57.051159, 52.747783 57.040966)

LINESTRING (42.985397 55.880179, 78.521185 82.149104)

LINESTRING (42.985397 55.880179, 52.747783 57.040966)

LINESTRING (42.985397 55.880179, 48.253143 59.242991)

LINESTRING (78.521185 82.149104, 52.747783 57.040966)

LINESTRING (78.521185 82.149104, 48.253143 59.242991)

LINESTRING (52.747783 57.040966, 48.253143 59.242991)

LINESTRING (260.000000 60.000000, 281.041756 73.480386)

LINESTRING (260.000000 60.000000, 264.384879 81.259892)

LINESTRING (260.000000 60.000000, 283.179234 64.566479)

LINESTRING (260.000000 60.000000, 254.101930 68.824644)

LINESTRING (260.000000 60.000000, 243.166681 53.430688)

LINESTRING (260.000000 60.000000, 269.106524 73.180780)

LINESTRING (260.000000 60.000000, 275.425353 68.646110)

LINESTRING (260.000000 60.000000, 271.081829 50.761243)

LINESTRING (281.041756 73.480386, 283.179234 64.566479)

LINESTRING (281.041756 73.480386, 254.101930 68.824644)

LINESTRING (281.041756 73.480386, 243.166681 53.430688)

LINESTRING (281.041756 73.480386, 269.106524 73.180780)

LINESTRING (281.041756 73.480386, 271.081829 50.761243)

LINESTRING (264.384879 81.259892, 283.179234 64.566479)

LINESTRING (264.384879 81.259892, 254.101930 68.824644)

LINESTRING (264.384879 81.259892, 269.106524 73.180780)

LINESTRING (264.384879 81.259892, 275.425353 68.646110)

LINESTRING (283.179234 64.566479, 254.101930 68.824644)

LINESTRING (283.179234 64.566479, 243.166681 53.430688)

LINESTRING (283.179234 64.566479, 269.106524 73.180780)

LINESTRING (283.179234 64.566479, 275.425353 68.646110)

LINESTRING (283.179234 64.566479, 271.081829 50.761243)

LINESTRING (254.101930 68.824644, 243.166681 53.430688)

LINESTRING (254.101930 68.824644, 269.106524 73.180780)

LINESTRING (254.101930 68.824644, 275.425353 68.646110)

LINESTRING (243.166681 53.430688, 269.106524 73.180780)

LINESTRING (243.166681 53.430688, 275.425353 68.646110)

LINESTRING (243.166681 53.430688, 271.081829 50.761243)

LINESTRING (269.106524 73.180780, 271.081829 50.761243)

LINESTRING (275.425353 68.646110, 271.081829 50.761243)

LINESTRING (60.000000 260.000000, 46.563576 257.037661)

LINESTRING (60.000000 260.000000, 45.094635 240.820824)

LINESTRING (60.000000 260.000000, 36.039671 243.464151)

LINESTRING (60.000000 260.000000, 80.999114 280.663603)

LINESTRING (60.000000 260.000000, 77.131863 242.384510)

LINESTRING (60.000000 260.000000, 60.204714 267.283468)

LINESTRING (60.000000 260.000000, 46.912686 258.584673)

LINESTRING (60.000000 260.000000, 81.734075 251.081102)

LINESTRING (46.563576 257.037661, 77.131863 242.384510)

LINESTRING (46.563576 257.037661, 60.204714 267.283468)

LINESTRING (46.563576 257.037661, 46.912686 258.584673)

LINESTRING (46.563576 257.037661, 81.734075 251.081102)

LINESTRING (45.094635 240.820824, 36.039671 243.464151)

LINESTRING (45.094635 240.820824, 77.131863 242.384510)

LINESTRING (45.094635 240.820824, 60.204714 267.283468)

LINESTRING (45.094635 240.820824, 46.912686 258.584673)

LINESTRING (45.094635 240.820824, 81.734075 251.081102)

LINESTRING (36.039671 243.464151, 80.999114 280.663603)

LINESTRING (36.039671 243.464151, 46.912686 258.584673)

LINESTRING (36.039671 243.464151, 81.734075 251.081102)

LINESTRING (80.999114 280.663603, 77.131863 242.384510)

LINESTRING (80.999114 280.663603, 60.204714 267.283468)

LINESTRING (80.999114 280.663603, 46.912686 258.584673)

LINESTRING (80.999114 280.663603, 81.734075 251.081102)

LINESTRING (77.131863 242.384510, 46.912686 258.584673)

LINESTRING (77.131863 242.384510, 81.734075 251.081102)

LINESTRING (60.204714 267.283468, 81.734075 251.081102)

LINESTRING (58.367955 62.271100, 271.081829 50.761243)

LINESTRING (52.747783 57.040966, 243.166681 53.430688)

LINESTRING (60.000000 60.000000, 260.000000 60.000000)

LINESTRING (271.081829 50.761243, 36.039671 243.464151)

LINESTRING (281.041756 73.480386, 46.563576 257.037661)

LINESTRING (260.000000 60.000000, 60.000000 260.000000)

