LINESTRING (37.338208 25.065816, 117.160352 33.766196)

LINESTRING (117.160352 33.766196, 189.268640 67.979587)

LINESTRING (189.268640 67.979587, 263.452641 69.034137)

LINESTRING (263.452641 69.034137, 391.762528 27.828273)

LINESTRING (391.762528 27.828273, 478.073942 78.545826)

LINESTRING (478.073942 78.545826, 552.335326 54.242022)

LINESTRING (552.335326 54.242022, 583.702454 74.349364)

LINESTRING (583.702454 74.349364, 702.416816 59.806614)

LINESTRING (702.416816 59.806614, 753.133538 79.684177)

LINESTRING (753.133538 79.684177, 861.308764 45.105563)

LINESTRING (861.308764 45.105563, 949.147288 29.847615)

LINESTRING (949.147288 29.847615, 1012.988711 28.146164)

LINESTRING (1012.988711 28.146164, 1076.719916 47.576111)

LINESTRING (1076.719916 47.576111, 1187.361236 56.066558)

LINESTRING (1187.361236 56.066558, 1230.505174 23.674413)

LINESTRING (78.758229 153.822346, 112.872921 122.092519)

LINESTRING (112.872921 122.092519, 208.476433 151.429208)

LINESTRING (208.476433 151.429208, 291.962852 100.547822)

LINESTRING (291.962852 100.547822, 344.030595 137.804187)

LINESTRING (344.030595 137.804187, 474.317666 132.286975)

LINESTRING (474.317666 132.286975, 504.221466 108.745377)

LINESTRING (504.221466 108.745377, 616.972675 123.161971)

LINESTRING (616.972675 123.161971, 679.970538 104.835763)

LINESTRING (679.970538 104.835763, 743.429590 117.574531)

LINESTRING (743.429590 117.574531, 822.235913 149.814037)

LINESTRING (822.235913 149.814037, 933.346881 117.478804)

LINESTRING (933.346881 117.478804, 1005.334673 106.828556)

LINESTRING (1005.334673 106.828556, 1094.571851 131.916347)

LINESTRING (1094.571851 131.916347, 1153.486215 139.293640)

LINESTRING (1153.486215 139.293640, 1248.136242 151.286208)

LINESTRING (60.169011 233.338981, 136.330001 195.301386)

LINESTRING (136.330001 195.301386, 199.812743 209.290510)

LINESTRING (199.812743 209.290510, 263.902175 208.924679)

LINESTRING (263.902175 208.924679, 379.124642 233.720894)

LINESTRING (379.124642 233.720894, 465.818136 220.076784)

LINESTRING (465.818136 220.076784, 508.832577 187.730413)

LINESTRING (508.832577 187.730413, 603.417997 226.071875)

LINESTRING (603.417997 226.071875, 712.436734 197.770702)

LINESTRING (712.436734 197.770702, 769.028594 200.087417)

LINESTRING (769.028594 200.087417, 822.166705 218.315510)

LINESTRING (822.166705 218.315510, 915.825628 225.301596)

LINESTRING (915.825628 225.301596, 987.642878 221.295964)

LINESTRING (987.642878 221.295964, 1084.016200 207.692588)

LINESTRING (1084.016200 207.692588, 1163.707511 210.082914)

LINESTRING (1163.707511 210.082914, 1267.012959 206.232847)

LINESTRING (50.586654 262.266371, 123.589250 308.731957)

LINESTRING (123.589250 308.731957, 196.120783 289.032710)

LINESTRING (196.120783 289.032710, 307.239729 284.521199)

LINESTRING (307.239729 284.521199, 395.710053 266.123530)

LINESTRING (395.710053 266.123530, 420.713589 293.285401)

LINESTRING (420.713589 293.285401, 507.956531 301.229437)

LINESTRING (507.956531 301.229437, 617.903704 303.974283)

LINESTRING (617.903704 303.974283, 675.658910 268.712232)

LINESTRING (675.658910 268.712232, 740.526151 260.578799)

LINESTRING (740.526151 260.578799, 858.585094 276.046254)

LINESTRING (858.585094 276.046254, 941.058761 280.120825)

LINESTRING (941.058761 280.120825, 1028.198345 305.140093)

LINESTRING (1028.198345 305.140093, 1062.333393 316.955543)

LINESTRING (1062.333393 316.955543, 1173.072861 310.477292)

LINESTRING (1173.072861 310.477292, 1249.105322 266.759054)

LINESTRING (68.012274 393.012715, 109.289035 357.327786)

LINESTRING (109.289035 357.327786, 237.157222 397.165678)

LINESTRING (237.157222 397.165678, 309.556480 341.337109)

LINESTRING (309.556480 341.337109, 357.892637 375.790116)

LINESTRING (357.892637 375.790116, 420.152721 387.136391)

LINESTRING (420.152721 387.136391, 511.575064 374.227376)

LINESTRING (511.575064 374.227376, 628.949060 372.275704)

LINESTRING (628.949060 372.275704, 678.518924 376.478378)

LINESTRING (678.518924 376.478378, 751.514333 374.022570)

LINESTRING (751.514333 374.022570, 842.424922 358.154480)

LINESTRING (842.424922 358.154480, 923.188836 377.266121)

LINESTRING (923.188836 377.266121, 999.564434 342.091003)

LINESTRING (999.564434 342.091003, 1060.183801 383.889064)

LINESTRING (1060.183801 383.889064, 1185.999571 376.977277)

LINESTRING (1185.999571 376.977277, 1274.434493 393.164604)

LINESTRING (27.324590 443.025937, 153.258337 433.970775)

LINESTRING (153.258337 433.970775, 187.455393 439.603290)

LINESTRING (187.455393 439.603290, 318.701132 445.885435)

LINESTRING (318.701132 445.885435, 340.817113 434.201676)

LINESTRING (340.817113 434.201676, 465.724284 452.529246)

LINESTRING (465.724284 452.529246, 524.593749 445.651830)

LINESTRING (524.593749 445.651830, 596.313184 437.931417)

LINESTRING (596.313184 437.931417, 672.576197 469.848894)

LINESTRING (672.576197 469.848894, 754.495868 440.413044)

LINESTRING (754.495868 440.413044, 861.434612 440.575386)

LINESTRING (861.434612 440.575386, 932.721602 457.072871)

LINESTRING (932.721602 457.072871, 983.133463 438.182536)

LINESTRING (983.133463 438.182536, 1074.328607 436.865892)

LINESTRING (1074.328607 436.865892, 1186.429837 452.388923)

LINESTRING (1186.429837 452.388923, 1246.361440 442.034117)

LINESTRING (63.609891 537.706791, 119.366737 511.391385)

LINESTRING (119.366737 511.391385, 233.402830 526.877738)

LINESTRING (233.402830 526.877738, 317.641254 553.296998)

LINESTRING (317.641254 553.296998, 374.368816 505.887975)

LINESTRING (374.368816 505.887975, 444.478936 500.514278)

LINESTRING (444.478936 500.514278, 521.289994 550.486674)

LINESTRING (521.289994 550.486674, 599.051597 508.900812)

LINESTRING (599.051597 508.900812, 710.360932 507.481412)

LINESTRING (710.360932 507.481412, 778.354330 548.144067)

LINESTRING (778.354330 548.144067, 859.497355 557.516752)

LINESTRING (859.497355 557.516752, 947.075095 538.662516)

LINESTRING (947.075095 538.662516, 998.831244 507.144133)

LINESTRING (998.831244 507.144133, 1118.937515 515.240376)

LINESTRING (1118.937515 515.240376, 1158.080762 509.926135)

LINESTRING (1158.080762 509.926135, 1279.380747 543.174171)

LINESTRING (32.420731 613.603291, 138.972605 639.370530)

LINESTRING (138.972605 639.370530, 232.019448 635.993235)

LINESTRING (232.019448 635.993235, 300.192117 590.048429)

LINESTRING (300.192117 590.048429, 390.202343 601.246427)

LINESTRING (390.202343 601.246427, 435.512562 595.232044)

LINESTRING (435.512562 595.232044, 529.804467 606.495019)

LINESTRING (529.804467 606.495019, 615.858927 636.780059)

LINESTRING (615.858927 636.780059, 693.517479 623.222284)

LINESTRING (693.517479 623.222284, 791.407768 597.905005)

LINESTRING (791.407768 597.905005, 851.116820 639.065119)

LINESTRING (851.116820 639.065119, 912.397835 586.296879)

LINESTRING (912.397835 586.296879, 1013.060067 583.179925)

LINESTRING (1013.060067 583.179925, 1065.673871 636.672395)

LINESTRING (1065.673871 636.672395, 1146.818531 634.961692)

LINESTRING (1146.818531 634.961692, 1279.198421 632.833551)

LINESTRING (40.658217 679.063255, 123.785747 715.986274)

LINESTRING (123.785747 715.986274, 215.106922 697.807800)

LINESTRING (215.106922 697.807800, 298.308779 660.307795)

LINESTRING (298.308779 660.307795, 382.834628 704.147403)

LINESTRING (382.834628 704.147403, 455.272843 662.561988)

LINESTRING (455.272843 662.561988, 544.435845 679.872408)

LINESTRING (544.435845 679.872408, 609.034233 660.739988)

LINESTRING (609.034233 660.739988, 678.775223 690.238540)

LINESTRING (678.775223 690.238540, 783.360240 716.415068)

LINESTRING (783.360240 716.415068, 820.285888 666.241748)

LINESTRING (820.285888 666.241748, 944.400905 718.125632)

LINESTRING (944.400905 718.125632, 1018.030582 678.237153)

LINESTRING (1018.030582 678.237153, 1082.168801 682.183295)

LINESTRING (1082.168801 682.183295, 1172.035399 713.326241)

LINESTRING (1172.035399 713.326241, 1248.615581 707.492943)

LINESTRING (25.283547 747.283109, 115.535262 757.335359)

LINESTRING (115.535262 757.335359, 191.977721 777.608471)

LINESTRING (191.977721 777.608471, 289.102941 766.984557)

LINESTRING (289.102941 766.984557, 369.215015 759.359737)

LINESTRING (369.215015 759.359737, 460.251523 792.443552)

LINESTRING (460.251523 792.443552, 502.224707 789.326700)

LINESTRING (502.224707 789.326700, 618.258172 742.712594)

LINESTRING (618.258172 742.712594, 684.997053 781.962974)

LINESTRING (684.997053 781.962974, 755.324440 757.784663)

LINESTRING (755.324440 757.784663, 857.064389 750.414421)

LINESTRING (857.064389 750.414421, 929.789500 755.859413)

LINESTRING (929.789500 755.859413, 1001.073274 757.732035)

LINESTRING (1001.073274 757.732035, 1116.289908 769.145370)

LINESTRING (1116.289908 769.145370, 1163.415873 782.052207)

LINESTRING (1163.415873 782.052207, 1259.590804 768.643913)

LINESTRING (24.527522 876.187083, 135.109120 856.063742)

LINESTRING (135.109120 856.063742, 235.887598 858.895485)

LINESTRING (235.887598 858.895485, 274.019511 858.068293)

LINESTRING (274.019511 858.068293, 378.010826 855.606722)

LINESTRING (378.010826 855.606722, 460.882848 833.380582)

LINESTRING (460.882848 833.380582, 501.132943 868.874354)

LINESTRING (501.132943 868.874354, 580.519349 833.095631)

LINESTRING (580.519349 833.095631, 671.125299 823.187446)

LINESTRING (671.125299 823.187446, 781.940587 873.679897)

LINESTRING (781.940587 873.679897, 854.282241 838.659771)

LINESTRING (854.282241 838.659771, 933.335337 821.695419)

LINESTRING (933.335337 821.695419, 1016.441108 858.056451)

LINESTRING (1016.441108 858.056451, 1070.472255 845.339912)

LINESTRING (1070.472255 845.339912, 1199.145488 865.239125)

LINESTRING (1199.145488 865.239125, 1257.192056 822.458678)

LINESTRING (66.016479 926.968658, 147.672185 903.131922)

LINESTRING (147.672185 903.131922, 227.406224 915.210114)

LINESTRING (227.406224 915.210114, 296.743052 933.075003)

LINESTRING (296.743052 933.075003, 352.307483 922.945331)

LINESTRING (352.307483 922.945331, 437.350797 912.062270)

LINESTRING (437.350797 912.062270, 501.190687 909.168810)

LINESTRING (501.190687 909.168810, 625.012703 948.693360)

LINESTRING (625.012703 948.693360, 713.666722 928.330234)

LINESTRING (713.666722 928.330234, 761.633387 908.678921)

LINESTRING (761.633387 908.678921, 835.031390 914.663420)

LINESTRING (835.031390 914.663420, 945.557896 956.864454)

LINESTRING (945.557896 956.864454, 993.823712 959.453346)

LINESTRING (993.823712 959.453346, 1090.776625 920.376875)

LINESTRING (1090.776625 920.376875, 1196.618734 957.512702)

LINESTRING (1196.618734 957.512702, 1231.102063 912.585176)

LINESTRING (68.348794 1003.218793, 130.354431 1027.568447)

LINESTRING (130.354431 1027.568447, 219.998052 1023.054836)

LINESTRING (219.998052 1023.054836, 300.650919 994.543001)

LINESTRING (300.650919 994.543001, 352.495686 1026.815432)

LINESTRING (352.495686 1026.815432, 428.396372 1026.942350)

LINESTRING (428.396372 1026.942350, 523.458248 1013.575326)

LINESTRING (523.458248 1013.575326, 582.866211 983.219086)

LINESTRING (582.866211 983.219086, 686.613693 1024.970678)

LINESTRING (686.613693 1024.970678, 782.792454 1017.789732)

LINESTRING (782.792454 1017.789732, 831.480178 1006.089363)

LINESTRING (831.480178 1006.089363, 901.483110 998.649738)

LINESTRING (901.483110 998.649738, 1039.926357 984.254373)

LINESTRING (1039.926357 984.254373, 1087.931861 1000.488203)

LINESTRING (1087.931861 1000.488203, 1158.290084 1013.114911)

LINESTRING (1158.290084 1013.114911, 1276.969544 981.849955)

LINESTRING (65.077181 1101.402322, 110.626705 1081.882396)

LINESTRING (110.626705 1081.882396, 230.804708 1083.374851)

LINESTRING (230.804708 1083.374851, 272.578683 1091.266647)

LINESTRING (272.578683 1091.266647, 392.678115 1071.475028)

LINESTRING (392.678115 1071.475028, 424.190338 1076.430979)

LINESTRING (424.190338 1076.430979, 550.837473 1116.771010)

LINESTRING (550.837473 1116.771010, 626.040044 1104.717276)

LINESTRING (626.040044 1104.717276, 692.227453 1082.066414)

LINESTRING (692.227453 1082.066414, 776.736664 1101.043365)

LINESTRING (776.736664 1101.043365, 834.648377 1077.351750)

LINESTRING (834.648377 1077.351750, 924.267166 1082.974055)

LINESTRING (924.267166 1082.974055, 1019.701513 1082.436074)

LINESTRING (1019.701513 1082.436074, 1087.326780 1097.826555)

LINESTRING (1087.326780 1097.826555, 1180.260421 1093.191022)

LINESTRING (1180.260421 1093.191022, 1229.854025 1089.221250)

LINESTRING (58.475130 1182.218375, 152.520340 1164.856478)

LINESTRING (152.520340 1164.856478, 196.819489 1191.044002)

LINESTRING (196.819489 1191.044002, 310.057923 1159.914184)

LINESTRING (310.057923 1159.914184, 375.705915 1188.536529)

LINESTRING (375.705915 1188.536529, 442.718897 1187.719186)

LINESTRING (442.718897 1187.719186, 550.651009 1166.657383)

LINESTRING (550.651009 1166.657383, 635.135754 1173.376767)

LINESTRING (635.135754 1173.376767, 668.098629 1172.136397)

LINESTRING (668.098629 1172.136397, 762.614928 1148.892983)

LINESTRING (762.614928 1148.892983, 858.588901 1186.693016)

LINESTRING (858.588901 1186.693016, 906.892051 1145.660680)

LINESTRING (906.892051 1145.660680, 1027.791913 1177.107694)

LINESTRING (1027.791913 1177.107694, 1074.374708 1181.727787)

LINESTRING (1074.374708 1181.727787, 1163.331325 1147.987130)

LINESTRING (1163.331325 1147.987130, 1235.511122 1196.555507)

LINESTRING (76.413675 1220.882519, 142.164858 1236.166796)

LINESTRING (142.164858 1236.166796, 198.107378 1267.983990)

LINESTRING (198.107378 1267.983990, 278.410378 1258.193759)

LINESTRING (278.410378 1258.193759, 364.863822 1273.103703)

LINESTRING (364.863822 1273.103703, 443.933530 1258.963969)

LINESTRING (443.933530 1258.963969, 524.242473 1236.807752)

LINESTRING (524.242473 1236.807752, 608.307201 1221.812407)

LINESTRING (608.307201 1221.812407, 704.374771 1253.048502)

LINESTRING (704.374771 1253.048502, 782.713250 1225.693020)

LINESTRING (782.713250 1225.693020, 830.602419 1247.843416)

LINESTRING (830.602419 1247.843416, 926.974001 1276.644810)

LINESTRING (926.974001 1276.644810, 985.479660 1273.693518)

LINESTRING (985.479660 1273.693518, 1066.024856 1272.011807)

LINESTRING (1066.024856 1272.011807, 1149.740811 1245.220896)

LINESTRING (1149.740811 1245.220896, 1270.508260 1249.449438)

LINESTRING (37.338208 25.065816, 78.758229 153.822346)

LINESTRING (117.160352 33.766196, 112.872921 122.092519)

LINESTRING (189.268640 67.979587, 208.476433 151.429208)

LINESTRING (263.452641 69.034137, 291.962852 100.547822)

LINESTRING (391.762528 27.828273, 344.030595 137.804187)

LINESTRING (478.073942 78.545826, 474.317666 132.286975)

LINESTRING (552.335326 54.242022, 504.221466 108.745377)

LINESTRING (583.702454 74.349364, 616.972675 123.161971)

LINESTRING (702.416816 59.806614, 679.970538 104.835763)

LINESTRING (753.133538 79.684177, 743.429590 117.574531)

LINESTRING (861.308764 45.105563, 822.235913 149.814037)

LINESTRING (949.147288 29.847615, 933.346881 117.478804)

LINESTRING (1012.988711 28.146164, 1005.334673 106.828556)

LINESTRING (1076.719916 47.576111, 1094.571851 131.916347)

LINESTRING (1187.361236 56.066558, 1153.486215 139.293640)

LINESTRING (1230.505174 23.674413, 1248.136242 151.286208)

LINESTRING (78.758229 153.822346, 60.169011 233.338981)

LINESTRING (112.872921 122.092519, 136.330001 195.301386)

LINESTRING (208.476433 151.429208, 199.812743 209.290510)

LINESTRING (291.962852 100.547822, 263.902175 208.924679)

LINESTRING (344.030595 137.804187, 379.124642 233.720894)

LINESTRING (474.317666 132.286975, 465.818136 220.076784)

LINESTRING (504.221466 108.745377, 508.832577 187.730413)

LINESTRING (616.972675 123.161971, 603.417997 226.071875)

LINESTRING (679.970538 104.835763, 712.436734 197.770702)

LINESTRING (743.429590 117.574531, 769.028594 200.087417)

LINESTRING (822.235913 149.814037, 822.166705 218.315510)

LINESTRING (933.346881 117.478804, 915.825628 225.301596)

LINESTRING (1005.334673 106.828556, 987.642878 221.295964)

LINESTRING (1094.571851 131.916347, 1084.016200 207.692588)

LINESTRING (1153.486215 139.293640, 1163.707511 210.082914)

LINESTRING (1248.136242 151.286208, 1267.012959 206.232847)

LINESTRING (60.169011 233.338981, 50.586654 262.266371)

LINESTRING (136.330001 195.301386, 123.589250 308.731957)

LINESTRING (199.812743 209.290510, 196.120783 289.032710)

LINESTRING (263.902175 208.924679, 307.239729 284.521199)

LINESTRING (379.124642 233.720894, 395.710053 266.123530)

LINESTRING (465.818136 220.076784, 420.713589 293.285401)

LINESTRING (508.832577 187.730413, 507.956531 301.229437)

LINESTRING (603.417997 226.071875, 617.903704 303.974283)

LINESTRING (712.436734 197.770702, 675.658910 268.712232)

LINESTRING (769.028594 200.087417, 740.526151 260.578799)

LINESTRING (822.166705 218.315510, 858.585094 276.046254)

LINESTRING (915.825628 225.301596, 941.058761 280.120825)

LINESTRING (987.642878 221.295964, 1028.198345 305.140093)

LINESTRING (1084.016200 207.692588, 1062.333393 316.955543)

LINESTRING (1163.707511 210.082914, 1173.072861 310.477292)

LINESTRING (1267.012959 206.232847, 1249.105322 266.759054)

LINESTRING (50.586654 262.266371, 68.012274 393.012715)

LINESTRING (123.589250 308.731957, 109.289035 357.327786)

LINESTRING (196.120783 289.032710, 237.157222 397.165678)

LINESTRING (307.239729 284.521199, 309.556480 341.337109)

LINESTRING (395.710053 266.123530, 357.892637 375.790116)

LINESTRING (420.713589 293.285401, 420.152721 387.136391)

LINESTRING (507.956531 301.229437, 511.575064 374.227376)

LINESTRING (617.903704 303.974283, 628.949060 372.275704)

LINESTRING (675.658910 268.712232, 678.518924 376.478378)

LINESTRING (740.526151 260.578799, 751.514333 374.022570)

LINESTRING (858.585094 276.046254, 842.424922 358.154480)

LINESTRING (941.058761 280.120825, 923.188836 377.266121)

LINESTRING (1028.198345 305.140093, 999.564434 342.091003)

LINESTRING (1062.333393 316.955543, 1060.183801 383.889064)

LINESTRING (1173.072861 310.477292, 1185.999571 376.977277)

LINESTRING (1249.105322 266.759054, 1274.434493 393.164604)

LINESTRING (68.012274 393.012715, 27.324590 443.025937)

LINESTRING (109.289035 357.327786, 153.258337 433.970775)

LINESTRING (237.157222 397.165678, 187.455393 439.603290)

LINESTRING (309.556480 341.337109, 318.701132 445.885435)

LINESTRING (357.892637 375.790116, 340.817113 434.201676)

LINESTRING (420.152721 387.136391, 465.724284 452.529246)

LINESTRING (511.575064 374.227376, 524.593749 445.651830)

LINESTRING (628.949060 372.275704, 596.313184 437.931417)

LINESTRING (678.518924 376.478378, 672.576197 469.848894)

LINESTRING (751.514333 374.022570, 754.495868 440.413044)

LINESTRING (842.424922 358.154480, 861.434612 440.575386)

LINESTRING (923.188836 377.266121, 932.721602 457.072871)

LINESTRING (999.564434 342.091003, 983.133463 438.182536)

LINESTRING (1060.183801 383.889064, 1074.328607 436.865892)

LINESTRING (1185.999571 376.977277, 1186.429837 452.388923)

LINESTRING (1274.434493 393.164604, 1246.361440 442.034117)

LINESTRING (27.324590 443.025937, 63.609891 537.706791)

LINESTRING (153.258337 433.970775, 119.366737 511.391385)

LINESTRING (187.455393 439.603290, 233.402830 526.877738)

LINESTRING (318.701132 445.885435, 317.641254 553.296998)

LINESTRING (340.817113 434.201676, 374.368816 505.887975)

LINESTRING (465.724284 452.529246, 444.478936 500.514278)

LINESTRING (524.593749 445.651830, 521.289994 550.486674)

LINESTRING (596.313184 437.931417, 599.051597 508.900812)

LINESTRING (672.576197 469.848894, 710.360932 507.481412)

LINESTRING (754.495868 440.413044, 778.354330 548.144067)

LINESTRING (861.434612 440.575386, 859.497355 557.516752)

LINESTRING (932.721602 457.072871, 947.075095 538.662516)

LINESTRING (983.133463 438.182536, 998.831244 507.144133)

LINESTRING (1074.328607 436.865892, 1118.937515 515.240376)

LINESTRING (1186.429837 452.388923, 1158.080762 509.926135)

LINESTRING (1246.361440 442.034117, 1279.380747 543.174171)

LINESTRING (63.609891 537.706791, 32.420731 613.603291)

LINESTRING (119.366737 511.391385, 138.972605 639.370530)

LINESTRING (233.402830 526.877738, 232.019448 635.993235)

LINESTRING (317.641254 553.296998, 300.192117 590.048429)

LINESTRING (374.368816 505.887975, 390.202343 601.246427)

LINESTRING (444.478936 500.514278, 435.512562 595.232044)

LINESTRING (521.289994 550.486674, 529.804467 606.495019)

LINESTRING (599.051597 508.900812, 615.858927 636.780059)

LINESTRING (710.360932 507.481412, 693.517479 623.222284)

LINESTRING (778.354330 548.144067, 791.407768 597.905005)

LINESTRING (859.497355 557.516752, 851.116820 639.065119)

LINESTRING (947.075095 538.662516, 912.397835 586.296879)

LINESTRING (998.831244 507.144133, 1013.060067 583.179925)

LINESTRING (1118.937515 515.240376, 1065.673871 636.672395)

LINESTRING (1158.080762 509.926135, 1146.818531 634.961692)

LINESTRING (1279.380747 543.174171, 1279.198421 632.833551)

LINESTRING (32.420731 613.603291, 40.658217 679.063255)

LINESTRING (138.972605 639.370530, 123.785747 715.986274)

LINESTRING (232.019448 635.993235, 215.106922 697.807800)

LINESTRING (300.192117 590.048429, 298.308779 660.307795)

LINESTRING (390.202343 601.246427, 382.834628 704.147403)

LINESTRING (435.512562 595.232044, 455.272843 662.561988)

LINESTRING (529.804467 606.495019, 544.435845 679.872408)

LINESTRING (615.858927 636.780059, 609.034233 660.739988)

LINESTRING (693.517479 623.222284, 678.775223 690.238540)

LINESTRING (791.407768 597.905005, 783.360240 716.415068)

LINESTRING (851.116820 639.065119, 820.285888 666.241748)

LINESTRING (912.397835 586.296879, 944.400905 718.125632)

LINESTRING (1013.060067 583.179925, 1018.030582 678.237153)

LINESTRING (1065.673871 636.672395, 1082.168801 682.183295)

LINESTRING (1146.818531 634.961692, 1172.035399 713.326241)

LINESTRING (1279.198421 632.833551, 1248.615581 707.492943)

LINESTRING (40.658217 679.063255, 25.283547 747.283109)

LINESTRING (123.785747 715.986274, 115.535262 757.335359)

LINESTRING (215.106922 697.807800, 191.977721 777.608471)

LINESTRING (298.308779 660.307795, 289.102941 766.984557)

LINESTRING (382.834628 704.147403, 369.215015 759.359737)

LINESTRING (455.272843 662.561988, 460.251523 792.443552)

LINESTRING (544.435845 679.872408, 502.224707 789.326700)

LINESTRING (609.034233 660.739988, 618.258172 742.712594)

LINESTRING (678.775223 690.238540, 684.997053 781.962974)

LINESTRING (783.360240 716.415068, 755.324440 757.784663)

LINESTRING (820.285888 666.241748, 857.064389 750.414421)

LINESTRING (944.400905 718.125632, 929.789500 755.859413)

LINESTRING (1018.030582 678.237153, 1001.073274 757.732035)

LINESTRING (1082.168801 682.183295, 1116.289908 769.145370)

LINESTRING (1172.035399 713.326241, 1163.415873 782.052207)

LINESTRING (1248.615581 707.492943, 1259.590804 768.643913)

LINESTRING (25.283547 747.283109, 24.527522 876.187083)

LINESTRING (115.535262 757.335359, 135.109120 856.063742)

LINESTRING (191.977721 777.608471, 235.887598 858.895485)

LINESTRING (289.102941 766.984557, 274.019511 858.068293)

LINESTRING (369.215015 759.359737, 378.010826 855.606722)

LINESTRING (460.251523 792.443552, 460.882848 833.380582)

LINESTRING (502.224707 789.326700, 501.132943 868.874354)

LINESTRING (618.258172 742.712594, 580.519349 833.095631)

LINESTRING (684.997053 781.962974, 671.125299 823.187446)

LINESTRING (755.324440 757.784663, 781.940587 873.679897)

LINESTRING (857.064389 750.414421, 854.282241 838.659771)

LINESTRING (929.789500 755.859413, 933.335337 821.695419)

LINESTRING (1001.073274 757.732035, 1016.441108 858.056451)

LINESTRING (1116.289908 769.145370, 1070.472255 845.339912)

LINESTRING (1163.415873 782.052207, 1199.145488 865.239125)

LINESTRING (1259.590804 768.643913, 1257.192056 822.458678)

LINESTRING (24.527522 876.187083, 66.016479 926.968658)

LINESTRING (135.109120 856.063742, 147.672185 903.131922)

LINESTRING (235.887598 858.895485, 227.406224 915.210114)

LINESTRING (274.019511 858.068293, 296.743052 933.075003)

LINESTRING (378.010826 855.606722, 352.307483 922.945331)

LINESTRING (460.882848 833.380582, 437.350797 912.062270)

LINESTRING (501.132943 868.874354, 501.190687 909.168810)

LINESTRING (580.519349 833.095631, 625.012703 948.693360)

LINESTRING (671.125299 823.187446, 713.666722 928.330234)

LINESTRING (781.940587 873.679897, 761.633387 908.678921)

LINESTRING (854.282241 838.659771, 835.031390 914.663420)

LINESTRING (933.335337 821.695419, 945.557896 956.864454)

LINESTRING (1016.441108 858.056451, 993.823712 959.453346)

LINESTRING (1070.472255 845.339912, 1090.776625 920.376875)

LINESTRING (1199.145488 865.239125, 1196.618734 957.512702)

LINESTRING (1257.192056 822.458678, 1231.102063 912.585176)

LINESTRING (66.016479 926.968658, 68.348794 1003.218793)

LINESTRING (147.672185 903.131922, 130.354431 1027.568447)

LINESTRING (227.406224 915.210114, 219.998052 1023.054836)

LINESTRING (296.743052 933.075003, 300.650919 994.543001)

LINESTRING (352.307483 922.945331, 352.495686 1026.815432)

LINESTRING (437.350797 912.062270, 428.396372 1026.942350)

LINESTRING (501.190687 909.168810, 523.458248 1013.575326)

LINESTRING (625.012703 948.693360, 582.866211 983.219086)

LINESTRING (713.666722 928.330234, 686.613693 1024.970678)

LINESTRING (761.633387 908.678921, 782.792454 1017.789732)

LINESTRING (835.031390 914.663420, 831.480178 1006.089363)

LINESTRING (945.557896 956.864454, 901.483110 998.649738)

LINESTRING (993.823712 959.453346, 1039.926357 984.254373)

LINESTRING (1090.776625 920.376875, 1087.931861 1000.488203)

LINESTRING (1196.618734 957.512702, 1158.290084 1013.114911)

LINESTRING (1231.102063 912.585176, 1276.969544 981.849955)

LINESTRING (68.348794 1003.218793, 65.077181 1101.402322)

LINESTRING (130.354431 1027.568447, 110.626705 1081.882396)

LINESTRING (219.998052 1023.054836, 230.804708 1083.374851)

LINESTRING (300.650919 994.543001, 272.578683 1091.266647)

LINESTRING (352.495686 1026.815432, 392.678115 1071.475028)

LINESTRING (428.396372 1026.942350, 424.190338 1076.430979)

LINESTRING (523.458248 1013.575326, 550.837473 1116.771010)

LINESTRING (582.866211 983.219086, 626.040044 1104.717276)

LINESTRING (686.613693 1024.970678, 692.227453 1082.066414)

LINESTRING (782.792454 1017.789732, 776.736664 1101.043365)

LINESTRING (831.480178 1006.089363, 834.648377 1077.351750)

LINESTRING (901.483110 998.649738, 924.267166 1082.974055)

LINESTRING (1039.926357 984.254373, 1019.701513 1082.436074)

LINESTRING (1087.931861 1000.488203, 1087.326780 1097.826555)

LINESTRING (1158.290084 1013.114911, 1180.260421 1093.191022)

LINESTRING (1276.969544 981.849955, 1229.854025 1089.221250)

LINESTRING (65.077181 1101.402322, 58.475130 1182.218375)

LINESTRING (110.626705 1081.882396, 152.520340 1164.856478)

LINESTRING (230.804708 1083.374851, 196.819489 1191.044002)

LINESTRING (272.578683 1091.266647, 310.057923 1159.914184)

LINESTRING (392.678115 1071.475028, 375.705915 1188.536529)

LINESTRING (424.190338 1076.430979, 442.718897 1187.719186)

LINESTRING (550.837473 1116.771010, 550.651009 1166.657383)

LINESTRING (626.040044 1104.717276, 635.135754 1173.376767)

LINESTRING (692.227453 1082.066414, 668.098629 1172.136397)

LINESTRING (776.736664 1101.043365, 762.614928 1148.892983)

LINESTRING (834.648377 1077.351750, 858.588901 1186.693016)

LINESTRING (924.267166 1082.974055, 906.892051 1145.660680)

LINESTRING (1019.701513 1082.436074, 1027.791913 1177.107694)

LINESTRING (1087.326780 1097.826555, 1074.374708 1181.727787)

LINESTRING (1180.260421 1093.191022, 1163.331325 1147.987130)

LINESTRING (1229.854025 1089.221250, 1235.511122 1196.555507)

LINESTRING (58.475130 1182.218375, 76.413675 1220.882519)

LINESTRING (152.520340 1164.856478, 142.164858 1236.166796)

LINESTRING (196.819489 1191.044002, 198.107378 1267.983990)

LINESTRING (310.057923 1159.914184, 278.410378 1258.193759)

LINESTRING (375.705915 1188.536529, 364.863822 1273.103703)

LINESTRING (442.718897 1187.719186, 443.933530 1258.963969)

LINESTRING (550.651009 1166.657383, 524.242473 1236.807752)

LINESTRING (635.135754 1173.376767, 608.307201 1221.812407)

LINESTRING (668.098629 1172.136397, 704.374771 1253.048502)

LINESTRING (762.614928 1148.892983, 782.713250 1225.693020)

LINESTRING (858.588901 1186.693016, 830.602419 1247.843416)

LINESTRING (906.892051 1145.660680, 926.974001 1276.644810)

LINESTRING (1027.791913 1177.107694, 985.479660 1273.693518)

LINESTRING (1074.374708 1181.727787, 1066.024856 1272.011807)

LINESTRING (1163.331325 1147.987130, 1149.740811 1245.220896)

LINESTRING (1235.511122 1196.555507, 1270.508260 1249.449438)

