LINESTRING (60.000000 60.000000, 52.183890 74.811946)

LINESTRING (60.000000 60.000000, 42.417859 54.058484)

LINESTRING (60.000000 60.000000, 45.724490 45.943486)

LINESTRING (60.000000 60.000000, 56.412833 36.929228)

LINESTRING (60.000000 60.000000, 42.027087 43.652556)

LINESTRING (60.000000 60.000000, 41.869352 43.889343)

LINESTRING (60.000000 60.000000, 40.000484 51.243705)

LINESTRING (60.000000 60.000000, 47.280541 51.173285)

LINESTRING (52.183890 74.811946, 42.417859 54.058484)

LINESTRING (52.183890 74.811946, 56.412833 36.929228)

LINESTRING (52.183890 74.811946, 42.027087 43.652556)

LINESTRING (52.183890 74.811946, 41.869352 43.889343)

LINESTRING (52.183890 74.811946, 47.280541 51.173285)

LINESTRING (42.417859 54.058484, 56.412833 36.929228)

LINESTRING (42.417859 54.058484, 42.027087 43.652556)

LINESTRING (42.417859 54.058484, 41.869352 43.889343)

LINESTRING (42.417859 54.058484, 40.000484 51.243705)

LINESTRING (45.724490 45.943486, 41.869352 43.889343)

LINESTRING (45.724490 45.943486, 40.000484 51.243705)

LINESTRING (45.724490 45.943486, 47.280541 51.173285)

LINESTRING (56.412833 36.929228, 40.000484 51.243705)

LINESTRING (56.412833 36.929228, 47.280541 51.173285)

LINESTRING (42.027087 43.652556, 41.869352 43.889343)

LINESTRING (42.027087 43.652556, 40.000484 51.243705)

LINESTRING (41.869352 43.889343, 40.000484 51.243705)

LINESTRING (41.869352 43.889343, 47.280541 51.173285)

LINESTRING (40.000484 51.243705, 47.280541 51.173285)

LINESTRING (260.000000 60.000000, 280.324271 65.893282)

LINESTRING (260.000000 60.000000, 252.398021 38.576389)

LINESTRING (260.000000 60.000000, 252.288275 71.263169)

LINESTRING (260.000000 60.000000, 241.885363 41.126951)

LINESTRING (260.000000 60.000000, 281.915417 73.670702)

LINESTRING (260.000000 60.000000, 281.145748 36.436493)

LINESTRING (260.000000 60.000000, 251.352338 67.344201)

LINESTRING (260.000000 60.000000, 274.224486 80.457112)

LINESTRING (280.324271 65.893282, 252.398021 38.576389)

LINESTRING (280.324271 65.893282, 252.288275 71.263169)

LINESTRING (280.324271 65.893282, 281.145748 36.436493)

LINESTRING (280.324271 65.893282, 274.224486 80.457112)

LINESTRING (252.398021 38.576389, 241.885363 41.126951)

LINESTRING (252.398021 38.576389, 281.915417 73.670702)

LINESTRING (252.398021 38.576389, 251.352338 67.344201)

LINESTRING (252.398021 38.576389, 274.224486 80.457112)

LINESTRING (252.288275 71.263169, 241.885363 41.126951)

LINESTRING (252.288275 71.263169, 251.352338 67.344201)

LINESTRING (252.288275 71.263169, 274.224486 80.457112)

LINESTRING (241.885363 41.126951, 251.352338 67.344201)

LINESTRING (241.885363 41.126951, 274.224486 80.457112)

LINESTRING (281.915417 73.670702, 281.145748 36.436493)

LINESTRING (281.145748 36.436493, 251.352338 67.344201)

LINESTRING (281.145748 36.436493, 274.224486 80.457112)

LINESTRING (60.000000 260.000000, 37.854743 241.008892)

LINESTRING (60.000000 260.000000, 38.325362 247.429300)

LINESTRING (60.000000 260.000000, 64.909991 282.486912)

LINESTRING (60.000000 260.000000, 80.072879 262.340360)

LINESTRING (60.000000 260.000000, 37.655089 274.630854)

LINESTRING (60.000000 260.000000, 53.928173 254.971949)

LINESTRING (60.000000 260.000000, 71.633448 242.768139)

LINESTRING (60.000000 260.000000, 62.738850 264.461296)

LINESTRING (37.854743 241.008892, 38.325362 247.429300)

LINESTRING (37.854743 241.008892, 64.909991 282.486912)

LINESTRING (37.854743 241.008892, 80.072879 262.340360)

LINESTRING (37.854743 241.008892, 37.655089 274.630854)

LINESTRING (37.854743 241.008892, 53.928173 254.971949)

LINESTRING (37.854743 241.008892, 62.738850 264.461296)

LINESTRING (38.325362 247.429300, 37.655089 274.630854)

LINESTRING (38.325362 247.429300, 53.928173 254.971949)

LINESTRING (38.325362 247.429300, 71.633448 242.768139)

LINESTRING (64.909991 282.486912, 80.072879 262.340360)

LINESTRING (64.909991 282.486912, 37.655089 274.630854)

LINESTRING (64.909991 282.486912, 53.928173 254.971949)

LINESTRING (64.909991 282.486912, 71.633448 242.768139)

LINESTRING (80.072879 262.340360, 37.655089 274.630854)

LINESTRING (80.072879 262.340360, 53.928173 254.971949)

LINESTRING (80.072879 262.340360, 71.633448 242.768139)

LINESTRING (80.072879 262.340360, 62.738850 264.461296)

LINESTRING (37.655089 274.630854, 71.633448 242.768139)

LINESTRING (37.655089 274.630854, 62.738850 264.461296)

LINESTRING (53.928173 254.971949, 71.633448 242.768139)

LINESTRING (71.633448 242.768139, 62.738850 264.461296)

LINESTRING (45.724490 45.943486, 241.885363 41.126951)

LINESTRING (41.869352 43.889343, 281.915417 73.670702)

LINESTRING (60.000000 60.000000, 260.000000 60.000000)

LINESTRING (281.145748 36.436493, 37.655089 274.630854)

LINESTRING (241.885363 41.126951, 80.072879 262.340360)

LINESTRING (260.000000 60.000000, 60.000000 260.000000)

