LINESTRING (2304.334963 2124.460051, 2266.039108 1220.879305)

LINESTRING (2304.334963 2124.460051, 1843.326947 782.343421)

LINESTRING (2304.334963 2124.460051, 3785.431463 1577.208645)

LINESTRING (4832.638437 4057.239048, 5508.462860 3463.207084)

LINESTRING (4832.638437 4057.239048, 5633.578265 5097.973705)

LINESTRING (4832.638437 4057.239048, 4895.667750 4325.292976)

LINESTRING (4832.638437 4057.239048, 4975.731465 3203.271300)

LINESTRING (4832.638437 4057.239048, 3179.033798 4122.214074)

LINESTRING (4733.642503 7668.621575, 4446.928244 7490.907601)

LINESTRING (4733.642503 7668.621575, 3573.136822 8002.145113)

LINESTRING (4733.642503 7668.621575, 5813.745772 6763.128451)

LINESTRING (4733.642503 7668.621575, 3576.686761 7936.040549)

LINESTRING (2490.097148 5176.754974, 1238.368580 6121.691125)

LINESTRING (2490.097148 5176.754974, 1220.554745 4096.636511)

LINESTRING (2490.097148 5176.754974, 3846.666326 4043.705294)

LINESTRING (2490.097148 5176.754974, 2460.116878 4419.016988)

LINESTRING (2490.097148 5176.754974, 1813.665643 4191.234858)

LINESTRING (2490.097148 5176.754974, 1547.484245 5663.487082)

LINESTRING (2490.097148 5176.754974, 3286.898861 5176.730519)

LINESTRING (2490.097148 5176.754974, 3526.386814 6256.598327)

LINESTRING (114.477668 2359.873529, 105.218042 1628.866705)

LINESTRING (114.477668 2359.873529, 839.221412 3352.172141)

LINESTRING (8161.889597 1269.848154, 7972.089932 843.326246)

LINESTRING (8161.889597 1269.848154, 8156.917070 1234.303175)

LINESTRING (8161.889597 1269.848154, 8199.801172 2813.089176)

LINESTRING (7223.831165 4175.861437, 6374.809767 2926.108348)

LINESTRING (7223.831165 4175.861437, 7566.066083 3745.645146)

LINESTRING (1238.368580 6121.691125, 2182.806392 7002.356740)

LINESTRING (1238.368580 6121.691125, 1547.484245 5663.487082)

LINESTRING (1238.368580 6121.691125, 1465.429087 7210.452892)

LINESTRING (1238.368580 6121.691125, 2890.858247 6034.592801)

LINESTRING (1238.368580 6121.691125, 1798.571045 6921.715797)

LINESTRING (7280.839189 1943.743673, 7972.089932 843.326246)

LINESTRING (7280.839189 1943.743673, 7407.979897 2061.773798)

LINESTRING (7280.839189 1943.743673, 8199.801172 2813.089176)

LINESTRING (3691.717050 1825.266545, 5359.614402 1907.565669)

LINESTRING (3691.717050 1825.266545, 4292.570080 1876.970820)

LINESTRING (3691.717050 1825.266545, 4755.868138 1036.800602)

LINESTRING (3691.717050 1825.266545, 3574.911536 2195.355054)

LINESTRING (3691.717050 1825.266545, 3785.431463 1577.208645)

LINESTRING (4669.431699 5852.307384, 5633.578265 5097.973705)

LINESTRING (4669.431699 5852.307384, 4895.667750 4325.292976)

LINESTRING (4669.431699 5852.307384, 5813.745772 6763.128451)

LINESTRING (4669.431699 5852.307384, 3526.386814 6256.598327)

LINESTRING (4669.431699 5852.307384, 2890.858247 6034.592801)

LINESTRING (4669.431699 5852.307384, 4670.822731 5255.101969)

LINESTRING (5359.614402 1907.565669, 6473.843167 3301.394366)

LINESTRING (5359.614402 1907.565669, 5308.135230 2070.327319)

LINESTRING (5359.614402 1907.565669, 5804.068654 1354.845445)

LINESTRING (5359.614402 1907.565669, 5779.493234 1834.155070)

LINESTRING (5359.614402 1907.565669, 4527.772878 2649.693532)

LINESTRING (899.907857 6684.003007, 498.479573 7820.337009)

LINESTRING (899.907857 6684.003007, 1184.741970 7449.993967)

LINESTRING (899.907857 6684.003007, 1547.484245 5663.487082)

LINESTRING (899.907857 6684.003007, 1798.571045 6921.715797)

LINESTRING (899.907857 6684.003007, 1430.406078 8201.184482)

LINESTRING (498.479573 7820.337009, 1184.741970 7449.993967)

LINESTRING (498.479573 7820.337009, 1798.571045 6921.715797)

LINESTRING (1155.950398 3146.139082, 206.607246 4280.063926)

LINESTRING (1155.950398 3146.139082, 2011.949655 3433.081166)

LINESTRING (1155.950398 3146.139082, 189.406560 4516.181300)

LINESTRING (1155.950398 3146.139082, 839.221412 3352.172141)

LINESTRING (4446.928244 7490.907601, 3573.136822 8002.145113)

LINESTRING (4292.570080 1876.970820, 5308.135230 2070.327319)

LINESTRING (4292.570080 1876.970820, 5804.068654 1354.845445)

LINESTRING (4292.570080 1876.970820, 3574.911536 2195.355054)

LINESTRING (4292.570080 1876.970820, 5779.493234 1834.155070)

LINESTRING (4292.570080 1876.970820, 3785.431463 1577.208645)

LINESTRING (2875.672679 4126.200656, 2460.116878 4419.016988)

LINESTRING (2875.672679 4126.200656, 1813.665643 4191.234858)

LINESTRING (2875.672679 4126.200656, 3179.033798 4122.214074)

LINESTRING (7972.089932 843.326246, 8156.917070 1234.303175)

LINESTRING (7972.089932 843.326246, 7402.258496 851.760078)

LINESTRING (5508.462860 3463.207084, 4895.667750 4325.292976)

LINESTRING (5508.462860 3463.207084, 5308.135230 2070.327319)

LINESTRING (5508.462860 3463.207084, 3846.666326 4043.705294)

LINESTRING (5508.462860 3463.207084, 6423.575279 3267.335239)

LINESTRING (5508.462860 3463.207084, 5197.028207 2989.318744)

LINESTRING (5508.462860 3463.207084, 4975.731465 3203.271300)

LINESTRING (1184.741970 7449.993967, 2182.806392 7002.356740)

LINESTRING (1184.741970 7449.993967, 1465.429087 7210.452892)

LINESTRING (5633.578265 5097.973705, 5933.239374 4559.821686)

LINESTRING (5633.578265 5097.973705, 4670.822731 5255.101969)

LINESTRING (4895.667750 4325.292976, 4527.772878 2649.693532)

LINESTRING (4895.667750 4325.292976, 4670.822731 5255.101969)

LINESTRING (8156.917070 1234.303175, 8199.801172 2813.089176)

LINESTRING (6473.843167 3301.394366, 8084.294717 4063.232576)

LINESTRING (6473.843167 3301.394366, 6374.809767 2926.108348)

LINESTRING (6473.843167 3301.394366, 6423.575279 3267.335239)

LINESTRING (2182.806392 7002.356740, 1798.571045 6921.715797)

LINESTRING (2182.806392 7002.356740, 1430.406078 8201.184482)

LINESTRING (2182.806392 7002.356740, 3576.686761 7936.040549)

LINESTRING (5308.135230 2070.327319, 4755.868138 1036.800602)

LINESTRING (5308.135230 2070.327319, 5804.068654 1354.845445)

LINESTRING (5308.135230 2070.327319, 5779.493234 1834.155070)

LINESTRING (5308.135230 2070.327319, 4527.772878 2649.693532)

LINESTRING (5308.135230 2070.327319, 4975.731465 3203.271300)

LINESTRING (5308.135230 2070.327319, 5871.203793 2246.110129)

LINESTRING (5308.135230 2070.327319, 3785.431463 1577.208645)

LINESTRING (3573.136822 8002.145113, 3576.686761 7936.040549)

LINESTRING (206.607246 4280.063926, 145.674515 4767.874241)

LINESTRING (206.607246 4280.063926, 189.406560 4516.181300)

LINESTRING (206.607246 4280.063926, 1813.665643 4191.234858)

LINESTRING (7407.979897 2061.773798, 5804.068654 1354.845445)

LINESTRING (7407.979897 2061.773798, 7566.066083 3745.645146)

LINESTRING (7407.979897 2061.773798, 5871.203793 2246.110129)

LINESTRING (7118.351065 6962.773158, 7200.463361 6882.917976)

LINESTRING (7118.351065 6962.773158, 7377.386515 7091.423867)

LINESTRING (145.674515 4767.874241, 1220.554745 4096.636511)

LINESTRING (145.674515 4767.874241, 189.406560 4516.181300)

LINESTRING (2910.195704 7424.599814, 2890.858247 6034.592801)

LINESTRING (2910.195704 7424.599814, 1430.406078 8201.184482)

LINESTRING (2011.949655 3433.081166, 2460.116878 4419.016988)

LINESTRING (2011.949655 3433.081166, 1813.665643 4191.234858)

LINESTRING (2011.949655 3433.081166, 978.449735 2100.523736)

LINESTRING (2011.949655 3433.081166, 839.221412 3352.172141)

LINESTRING (1220.554745 4096.636511, 189.406560 4516.181300)

LINESTRING (1220.554745 4096.636511, 1547.484245 5663.487082)

LINESTRING (1220.554745 4096.636511, 839.221412 3352.172141)

LINESTRING (105.218042 1628.866705, 1226.063729 1052.833187)

LINESTRING (105.218042 1628.866705, 250.272008 949.942025)

LINESTRING (105.218042 1628.866705, 1029.457332 771.709726)

LINESTRING (4755.868138 1036.800602, 4527.772878 2649.693532)

LINESTRING (4755.868138 1036.800602, 5871.203793 2246.110129)

LINESTRING (6374.809767 2926.108348, 5779.493234 1834.155070)

LINESTRING (6374.809767 2926.108348, 6423.575279 3267.335239)

LINESTRING (6374.809767 2926.108348, 5933.239374 4559.821686)

LINESTRING (1226.063729 1052.833187, 1029.457332 771.709726)

LINESTRING (1226.063729 1052.833187, 978.449735 2100.523736)

LINESTRING (1226.063729 1052.833187, 1843.326947 782.343421)

LINESTRING (3846.666326 4043.705294, 2460.116878 4419.016988)

LINESTRING (3846.666326 4043.705294, 4527.772878 2649.693532)

LINESTRING (3846.666326 4043.705294, 3286.898861 5176.730519)

LINESTRING (5804.068654 1354.845445, 5779.493234 1834.155070)

LINESTRING (5813.745772 6763.128451, 7200.463361 6882.917976)

LINESTRING (2460.116878 4419.016988, 1813.665643 4191.234858)

LINESTRING (2460.116878 4419.016988, 3179.033798 4122.214074)

LINESTRING (2460.116878 4419.016988, 2890.858247 6034.592801)

LINESTRING (5779.493234 1834.155070, 5871.203793 2246.110129)

LINESTRING (1813.665643 4191.234858, 1547.484245 5663.487082)

LINESTRING (1813.665643 4191.234858, 839.221412 3352.172141)

LINESTRING (1547.484245 5663.487082, 2890.858247 6034.592801)

LINESTRING (7200.463361 6882.917976, 7377.386515 7091.423867)

LINESTRING (6423.575279 3267.335239, 5933.239374 4559.821686)

LINESTRING (6423.575279 3267.335239, 7566.066083 3745.645146)

LINESTRING (6423.575279 3267.335239, 6409.708703 1838.491045)

LINESTRING (4991.839091 5085.049861, 4670.822731 5255.101969)

LINESTRING (2266.039108 1220.879305, 3778.196405 532.246303)

LINESTRING (2266.039108 1220.879305, 3785.431463 1577.208645)

LINESTRING (5933.239374 4559.821686, 5197.028207 2989.318744)

LINESTRING (5197.028207 2989.318744, 4975.731465 3203.271300)

LINESTRING (3286.898861 5176.730519, 3526.386814 6256.598327)

LINESTRING (4975.731465 3203.271300, 5871.203793 2246.110129)

LINESTRING (3526.386814 6256.598327, 2890.858247 6034.592801)

LINESTRING (1465.429087 7210.452892, 1798.571045 6921.715797)

