LINESTRING (60.000000 60.000000, 79.934663 89.662199)

LINESTRING (60.000000 60.000000, 49.038243 32.024555)

LINESTRING (60.000000 60.000000, 54.476643 115.485127)

LINESTRING (60.000000 60.000000, 91.568504 31.618679)

LINESTRING (60.000000 60.000000, 48.025832 83.296350)

LINESTRING (60.000000 60.000000, 106.368189 102.347068)

LINESTRING (60.000000 60.000000, 83.205760 3.588917)

LINESTRING (60.000000 60.000000, 17.985069 67.532824)

LINESTRING (79.934663 89.662199, 49.038243 32.024555)

LINESTRING (79.934663 89.662199, 54.476643 115.485127)

LINESTRING (79.934663 89.662199, 91.568504 31.618679)

LINESTRING (79.934663 89.662199, 48.025832 83.296350)

LINESTRING (79.934663 89.662199, 106.368189 102.347068)

LINESTRING (79.934663 89.662199, 83.205760 3.588917)

LINESTRING (49.038243 32.024555, 54.476643 115.485127)

LINESTRING (49.038243 32.024555, 91.568504 31.618679)

LINESTRING (49.038243 32.024555, 48.025832 83.296350)

LINESTRING (49.038243 32.024555, 106.368189 102.347068)

LINESTRING (49.038243 32.024555, 83.205760 3.588917)

LINESTRING (49.038243 32.024555, 17.985069 67.532824)

LINESTRING (54.476643 115.485127, 91.568504 31.618679)

LINESTRING (54.476643 115.485127, 106.368189 102.347068)

LINESTRING (54.476643 115.485127, 83.205760 3.588917)

LINESTRING (54.476643 115.485127, 17.985069 67.532824)

LINESTRING (91.568504 31.618679, 48.025832 83.296350)

LINESTRING (91.568504 31.618679, 83.205760 3.588917)

LINESTRING (91.568504 31.618679, 17.985069 67.532824)

LINESTRING (48.025832 83.296350, 106.368189 102.347068)

LINESTRING (48.025832 83.296350, 83.205760 3.588917)

LINESTRING (48.025832 83.296350, 17.985069 67.532824)

LINESTRING (106.368189 102.347068, 83.205760 3.588917)

LINESTRING (106.368189 102.347068, 17.985069 67.532824)

LINESTRING (83.205760 3.588917, 17.985069 67.532824)

LINESTRING (560.000000 60.000000, 507.616313 70.413223)

LINESTRING (560.000000 60.000000, 513.614505 25.515072)

LINESTRING (560.000000 60.000000, 536.482681 78.211225)

LINESTRING (560.000000 60.000000, 592.317261 47.675232)

LINESTRING (560.000000 60.000000, 570.850813 14.630974)

LINESTRING (560.000000 60.000000, 594.481955 105.894531)

LINESTRING (560.000000 60.000000, 540.584429 18.486886)

LINESTRING (560.000000 60.000000, 535.276194 23.246081)

LINESTRING (507.616313 70.413223, 513.614505 25.515072)

LINESTRING (507.616313 70.413223, 536.482681 78.211225)

LINESTRING (507.616313 70.413223, 592.317261 47.675232)

LINESTRING (507.616313 70.413223, 570.850813 14.630974)

LINESTRING (507.616313 70.413223, 535.276194 23.246081)

LINESTRING (513.614505 25.515072, 536.482681 78.211225)

LINESTRING (513.614505 25.515072, 592.317261 47.675232)

LINESTRING (513.614505 25.515072, 570.850813 14.630974)

LINESTRING (513.614505 25.515072, 594.481955 105.894531)

LINESTRING (513.614505 25.515072, 540.584429 18.486886)

LINESTRING (513.614505 25.515072, 535.276194 23.246081)

LINESTRING (536.482681 78.211225, 592.317261 47.675232)

LINESTRING (536.482681 78.211225, 570.850813 14.630974)

LINESTRING (536.482681 78.211225, 594.481955 105.894531)

LINESTRING (536.482681 78.211225, 540.584429 18.486886)

LINESTRING (592.317261 47.675232, 570.850813 14.630974)

LINESTRING (592.317261 47.675232, 594.481955 105.894531)

LINESTRING (592.317261 47.675232, 540.584429 18.486886)

LINESTRING (592.317261 47.675232, 535.276194 23.246081)

LINESTRING (570.850813 14.630974, 594.481955 105.894531)

LINESTRING (570.850813 14.630974, 540.584429 18.486886)

LINESTRING (570.850813 14.630974, 535.276194 23.246081)

LINESTRING (594.481955 105.894531, 540.584429 18.486886)

LINESTRING (594.481955 105.894531, 535.276194 23.246081)

LINESTRING (540.584429 18.486886, 535.276194 23.246081)

LINESTRING (1060.000000 60.000000, 1027.573289 110.854413)

LINESTRING (1060.000000 60.000000, 1075.298859 97.387171)

LINESTRING (1060.000000 60.000000, 1105.396001 114.219470)

LINESTRING (1060.000000 60.000000, 1058.415568 73.341431)

LINESTRING (1060.000000 60.000000, 1117.588309 114.874951)

LINESTRING (1060.000000 60.000000, 1100.475659 58.724628)

LINESTRING (1060.000000 60.000000, 1095.180388 112.140458)

LINESTRING (1060.000000 60.000000, 1031.860635 2.180004)

LINESTRING (1027.573289 110.854413, 1105.396001 114.219470)

LINESTRING (1027.573289 110.854413, 1058.415568 73.341431)

LINESTRING (1027.573289 110.854413, 1117.588309 114.874951)

LINESTRING (1027.573289 110.854413, 1100.475659 58.724628)

LINESTRING (1027.573289 110.854413, 1095.180388 112.140458)

LINESTRING (1027.573289 110.854413, 1031.860635 2.180004)

LINESTRING (1075.298859 97.387171, 1105.396001 114.219470)

LINESTRING (1075.298859 97.387171, 1058.415568 73.341431)

LINESTRING (1075.298859 97.387171, 1117.588309 114.874951)

LINESTRING (1075.298859 97.387171, 1100.475659 58.724628)

LINESTRING (1075.298859 97.387171, 1095.180388 112.140458)

LINESTRING (1075.298859 97.387171, 1031.860635 2.180004)

LINESTRING (1105.396001 114.219470, 1117.588309 114.874951)

LINESTRING (1105.396001 114.219470, 1100.475659 58.724628)

LINESTRING (1105.396001 114.219470, 1095.180388 112.140458)

LINESTRING (1105.396001 114.219470, 1031.860635 2.180004)

LINESTRING (1058.415568 73.341431, 1117.588309 114.874951)

LINESTRING (1058.415568 73.341431, 1100.475659 58.724628)

LINESTRING (1058.415568 73.341431, 1095.180388 112.140458)

LINESTRING (1117.588309 114.874951, 1100.475659 58.724628)

LINESTRING (1117.588309 114.874951, 1095.180388 112.140458)

LINESTRING (1117.588309 114.874951, 1031.860635 2.180004)

LINESTRING (1100.475659 58.724628, 1095.180388 112.140458)

LINESTRING (1100.475659 58.724628, 1031.860635 2.180004)

LINESTRING (1095.180388 112.140458, 1031.860635 2.180004)

LINESTRING (60.000000 560.000000, 47.436456 614.137871)

LINESTRING (60.000000 560.000000, 7.726333 593.910720)

LINESTRING (60.000000 560.000000, 11.757822 558.244689)

LINESTRING (60.000000 560.000000, 91.503334 586.233138)

LINESTRING (60.000000 560.000000, 72.203811 599.480235)

LINESTRING (60.000000 560.000000, 47.815163 509.233511)

LINESTRING (60.000000 560.000000, 32.239002 509.233753)

LINESTRING (60.000000 560.000000, 88.629361 575.403472)

LINESTRING (47.436456 614.137871, 7.726333 593.910720)

LINESTRING (47.436456 614.137871, 11.757822 558.244689)

LINESTRING (47.436456 614.137871, 91.503334 586.233138)

LINESTRING (47.436456 614.137871, 72.203811 599.480235)

LINESTRING (47.436456 614.137871, 47.815163 509.233511)

LINESTRING (47.436456 614.137871, 32.239002 509.233753)

LINESTRING (47.436456 614.137871, 88.629361 575.403472)

LINESTRING (7.726333 593.910720, 11.757822 558.244689)

LINESTRING (7.726333 593.910720, 91.503334 586.233138)

LINESTRING (7.726333 593.910720, 72.203811 599.480235)

LINESTRING (7.726333 593.910720, 47.815163 509.233511)

LINESTRING (7.726333 593.910720, 32.239002 509.233753)

LINESTRING (11.757822 558.244689, 72.203811 599.480235)

LINESTRING (11.757822 558.244689, 47.815163 509.233511)

LINESTRING (11.757822 558.244689, 32.239002 509.233753)

LINESTRING (11.757822 558.244689, 88.629361 575.403472)

LINESTRING (91.503334 586.233138, 72.203811 599.480235)

LINESTRING (91.503334 586.233138, 47.815163 509.233511)

LINESTRING (91.503334 586.233138, 32.239002 509.233753)

LINESTRING (91.503334 586.233138, 88.629361 575.403472)

LINESTRING (72.203811 599.480235, 47.815163 509.233511)

LINESTRING (72.203811 599.480235, 32.239002 509.233753)

LINESTRING (72.203811 599.480235, 88.629361 575.403472)

LINESTRING (47.815163 509.233511, 32.239002 509.233753)

LINESTRING (32.239002 509.233753, 88.629361 575.403472)

LINESTRING (560.000000 560.000000, 522.772398 527.196588)

LINESTRING (560.000000 560.000000, 524.048627 542.100535)

LINESTRING (560.000000 560.000000, 613.595281 501.505232)

LINESTRING (560.000000 560.000000, 533.649785 531.134350)

LINESTRING (560.000000 560.000000, 562.697089 545.768581)

LINESTRING (560.000000 560.000000, 563.592553 546.326889)

LINESTRING (560.000000 560.000000, 572.681547 568.448306)

LINESTRING (560.000000 560.000000, 619.321107 608.779725)

LINESTRING (522.772398 527.196588, 524.048627 542.100535)

LINESTRING (522.772398 527.196588, 613.595281 501.505232)

LINESTRING (522.772398 527.196588, 533.649785 531.134350)

LINESTRING (522.772398 527.196588, 562.697089 545.768581)

LINESTRING (522.772398 527.196588, 563.592553 546.326889)

LINESTRING (522.772398 527.196588, 572.681547 568.448306)

LINESTRING (522.772398 527.196588, 619.321107 608.779725)

LINESTRING (524.048627 542.100535, 533.649785 531.134350)

LINESTRING (524.048627 542.100535, 563.592553 546.326889)

LINESTRING (524.048627 542.100535, 572.681547 568.448306)

LINESTRING (524.048627 542.100535, 619.321107 608.779725)

LINESTRING (613.595281 501.505232, 533.649785 531.134350)

LINESTRING (613.595281 501.505232, 563.592553 546.326889)

LINESTRING (613.595281 501.505232, 572.681547 568.448306)

LINESTRING (613.595281 501.505232, 619.321107 608.779725)

LINESTRING (533.649785 531.134350, 562.697089 545.768581)

LINESTRING (533.649785 531.134350, 619.321107 608.779725)

LINESTRING (562.697089 545.768581, 563.592553 546.326889)

LINESTRING (562.697089 545.768581, 572.681547 568.448306)

LINESTRING (562.697089 545.768581, 619.321107 608.779725)

LINESTRING (563.592553 546.326889, 572.681547 568.448306)

LINESTRING (563.592553 546.326889, 619.321107 608.779725)

LINESTRING (572.681547 568.448306, 619.321107 608.779725)

LINESTRING (1060.000000 560.000000, 1068.544919 587.425615)

LINESTRING (1060.000000 560.000000, 1020.374381 593.264524)

LINESTRING (1060.000000 560.000000, 1060.056026 539.227323)

LINESTRING (1060.000000 560.000000, 1095.482705 513.283277)

LINESTRING (1060.000000 560.000000, 1034.732066 513.776528)

LINESTRING (1060.000000 560.000000, 1021.820625 565.460545)

LINESTRING (1060.000000 560.000000, 1019.277790 512.340798)

LINESTRING (1060.000000 560.000000, 1015.648301 565.002902)

LINESTRING (1068.544919 587.425615, 1020.374381 593.264524)

LINESTRING (1068.544919 587.425615, 1060.056026 539.227323)

LINESTRING (1068.544919 587.425615, 1095.482705 513.283277)

LINESTRING (1068.544919 587.425615, 1034.732066 513.776528)

LINESTRING (1068.544919 587.425615, 1021.820625 565.460545)

LINESTRING (1068.544919 587.425615, 1019.277790 512.340798)

LINESTRING (1068.544919 587.425615, 1015.648301 565.002902)

LINESTRING (1020.374381 593.264524, 1060.056026 539.227323)

LINESTRING (1020.374381 593.264524, 1095.482705 513.283277)

LINESTRING (1020.374381 593.264524, 1034.732066 513.776528)

LINESTRING (1020.374381 593.264524, 1021.820625 565.460545)

LINESTRING (1020.374381 593.264524, 1015.648301 565.002902)

LINESTRING (1060.056026 539.227323, 1095.482705 513.283277)

LINESTRING (1060.056026 539.227323, 1034.732066 513.776528)

LINESTRING (1060.056026 539.227323, 1021.820625 565.460545)

LINESTRING (1060.056026 539.227323, 1015.648301 565.002902)

LINESTRING (1095.482705 513.283277, 1034.732066 513.776528)

LINESTRING (1095.482705 513.283277, 1021.820625 565.460545)

LINESTRING (1095.482705 513.283277, 1015.648301 565.002902)

LINESTRING (1034.732066 513.776528, 1021.820625 565.460545)

LINESTRING (1034.732066 513.776528, 1019.277790 512.340798)

LINESTRING (1034.732066 513.776528, 1015.648301 565.002902)

LINESTRING (1021.820625 565.460545, 1019.277790 512.340798)

LINESTRING (1021.820625 565.460545, 1015.648301 565.002902)

LINESTRING (1019.277790 512.340798, 1015.648301 565.002902)

LINESTRING (60.000000 1060.000000, 78.338834 1028.125869)

LINESTRING (60.000000 1060.000000, 60.056815 1050.774755)

LINESTRING (60.000000 1060.000000, 75.684543 1095.274401)

LINESTRING (60.000000 1060.000000, 119.983839 1017.431448)

LINESTRING (60.000000 1060.000000, 115.406170 1030.856487)

LINESTRING (60.000000 1060.000000, 10.685410 1026.673702)

LINESTRING (60.000000 1060.000000, 24.680146 1023.083165)

LINESTRING (60.000000 1060.000000, 32.397857 1060.415917)

LINESTRING (78.338834 1028.125869, 60.056815 1050.774755)

LINESTRING (78.338834 1028.125869, 75.684543 1095.274401)

LINESTRING (78.338834 1028.125869, 119.983839 1017.431448)

LINESTRING (78.338834 1028.125869, 10.685410 1026.673702)

LINESTRING (78.338834 1028.125869, 24.680146 1023.083165)

LINESTRING (78.338834 1028.125869, 32.397857 1060.415917)

LINESTRING (60.056815 1050.774755, 75.684543 1095.274401)

LINESTRING (60.056815 1050.774755, 119.983839 1017.431448)

LINESTRING (60.056815 1050.774755, 115.406170 1030.856487)

LINESTRING (60.056815 1050.774755, 10.685410 1026.673702)

LINESTRING (60.056815 1050.774755, 24.680146 1023.083165)

LINESTRING (60.056815 1050.774755, 32.397857 1060.415917)

LINESTRING (75.684543 1095.274401, 119.983839 1017.431448)

LINESTRING (75.684543 1095.274401, 115.406170 1030.856487)

LINESTRING (75.684543 1095.274401, 10.685410 1026.673702)

LINESTRING (75.684543 1095.274401, 24.680146 1023.083165)

LINESTRING (75.684543 1095.274401, 32.397857 1060.415917)

LINESTRING (119.983839 1017.431448, 115.406170 1030.856487)

LINESTRING (119.983839 1017.431448, 10.685410 1026.673702)

LINESTRING (119.983839 1017.431448, 24.680146 1023.083165)

LINESTRING (119.983839 1017.431448, 32.397857 1060.415917)

LINESTRING (115.406170 1030.856487, 10.685410 1026.673702)

LINESTRING (115.406170 1030.856487, 24.680146 1023.083165)

LINESTRING (115.406170 1030.856487, 32.397857 1060.415917)

LINESTRING (10.685410 1026.673702, 24.680146 1023.083165)

LINESTRING (10.685410 1026.673702, 32.397857 1060.415917)

LINESTRING (24.680146 1023.083165, 32.397857 1060.415917)

LINESTRING (560.000000 1060.000000, 530.507719 1064.889133)

LINESTRING (560.000000 1060.000000, 522.422626 1083.553534)

LINESTRING (560.000000 1060.000000, 574.834772 1088.866246)

LINESTRING (560.000000 1060.000000, 591.126840 1079.580035)

LINESTRING (560.000000 1060.000000, 561.215351 1081.089403)

LINESTRING (560.000000 1060.000000, 610.831137 1094.618477)

LINESTRING (560.000000 1060.000000, 603.684713 1058.173114)

LINESTRING (560.000000 1060.000000, 604.354237 1017.220930)

LINESTRING (530.507719 1064.889133, 522.422626 1083.553534)

LINESTRING (530.507719 1064.889133, 574.834772 1088.866246)

LINESTRING (530.507719 1064.889133, 591.126840 1079.580035)

LINESTRING (530.507719 1064.889133, 610.831137 1094.618477)

LINESTRING (530.507719 1064.889133, 603.684713 1058.173114)

LINESTRING (530.507719 1064.889133, 604.354237 1017.220930)

LINESTRING (522.422626 1083.553534, 574.834772 1088.866246)

LINESTRING (522.422626 1083.553534, 591.126840 1079.580035)

LINESTRING (522.422626 1083.553534, 610.831137 1094.618477)

LINESTRING (522.422626 1083.553534, 604.354237 1017.220930)

LINESTRING (574.834772 1088.866246, 561.215351 1081.089403)

LINESTRING (574.834772 1088.866246, 610.831137 1094.618477)

LINESTRING (574.834772 1088.866246, 603.684713 1058.173114)

LINESTRING (574.834772 1088.866246, 604.354237 1017.220930)

LINESTRING (591.126840 1079.580035, 561.215351 1081.089403)

LINESTRING (591.126840 1079.580035, 610.831137 1094.618477)

LINESTRING (591.126840 1079.580035, 603.684713 1058.173114)

LINESTRING (561.215351 1081.089403, 610.831137 1094.618477)

LINESTRING (561.215351 1081.089403, 604.354237 1017.220930)

LINESTRING (610.831137 1094.618477, 603.684713 1058.173114)

LINESTRING (610.831137 1094.618477, 604.354237 1017.220930)

LINESTRING (603.684713 1058.173114, 604.354237 1017.220930)

LINESTRING (54.476643 115.485127, 540.584429 18.486886)

LINESTRING (49.038243 32.024555, 594.481955 105.894531)

LINESTRING (54.476643 115.485127, 592.317261 47.675232)

LINESTRING (60.000000 60.000000, 560.000000 60.000000)

LINESTRING (592.317261 47.675232, 1100.475659 58.724628)

LINESTRING (592.317261 47.675232, 1095.180388 112.140458)

LINESTRING (594.481955 105.894531, 1058.415568 73.341431)

LINESTRING (560.000000 60.000000, 1060.000000 60.000000)

LINESTRING (1031.860635 2.180004, 72.203811 599.480235)

LINESTRING (1100.475659 58.724628, 88.629361 575.403472)

LINESTRING (1105.396001 114.219470, 72.203811 599.480235)

LINESTRING (1060.000000 60.000000, 60.000000 560.000000)

LINESTRING (7.726333 593.910720, 562.697089 545.768581)

LINESTRING (88.629361 575.403472, 613.595281 501.505232)

LINESTRING (72.203811 599.480235, 613.595281 501.505232)

LINESTRING (60.000000 560.000000, 560.000000 560.000000)

LINESTRING (613.595281 501.505232, 1019.277790 512.340798)

LINESTRING (524.048627 542.100535, 1068.544919 587.425615)

LINESTRING (613.595281 501.505232, 1034.732066 513.776528)

LINESTRING (560.000000 560.000000, 1060.000000 560.000000)

LINESTRING (1020.374381 593.264524, 78.338834 1028.125869)

LINESTRING (1021.820625 565.460545, 115.406170 1030.856487)

LINESTRING (1068.544919 587.425615, 75.684543 1095.274401)

LINESTRING (1060.000000 560.000000, 60.000000 1060.000000)

LINESTRING (119.983839 1017.431448, 530.507719 1064.889133)

LINESTRING (119.983839 1017.431448, 574.834772 1088.866246)

LINESTRING (24.680146 1023.083165, 610.831137 1094.618477)

LINESTRING (60.000000 1060.000000, 560.000000 1060.000000)

