LINESTRING (80.000000 80.000000, 201.509027 105.876778)

LINESTRING (201.509027 105.876778, 309.090192 78.613063)

LINESTRING (309.090192 78.613063, 387.897772 2.306949)

LINESTRING (387.897772 2.306949, 420.844352 -115.134033)

LINESTRING (420.844352 -115.134033, 396.595234 -229.046120)

LINESTRING (396.595234 -229.046120, 315.231573 -309.803750)

LINESTRING (396.595234 -229.046120, 365.473526 -338.073928)

LINESTRING (396.595234 -229.046120, 423.556367 -353.174670)

LINESTRING (420.844352 -115.134033, 448.320249 -231.049213)

LINESTRING (448.320249 -231.049213, 407.894993 -339.908003)

LINESTRING (448.320249 -231.049213, 479.910543 -356.525782)

LINESTRING (448.320249 -231.049213, 530.840627 -310.055804)

LINESTRING (420.844352 -115.134033, 496.973891 -198.944212)

LINESTRING (496.973891 -198.944212, 533.609629 -322.152718)

LINESTRING (496.973891 -198.944212, 580.817487 -291.390231)

LINESTRING (496.973891 -198.944212, 618.906604 -231.072122)

LINESTRING (387.897772 2.306949, 478.582192 -86.075143)

LINESTRING (478.582192 -86.075143, 502.420331 -194.148061)

LINESTRING (502.420331 -194.148061, 466.199905 -314.846222)

LINESTRING (502.420331 -194.148061, 543.088934 -316.989055)

LINESTRING (502.420331 -194.148061, 580.981050 -274.292609)

LINESTRING (478.582192 -86.075143, 563.450699 -168.923687)

LINESTRING (563.450699 -168.923687, 603.821908 -284.905869)

LINESTRING (563.450699 -168.923687, 652.380303 -259.062094)

LINESTRING (563.450699 -168.923687, 673.460162 -208.612840)

LINESTRING (478.582192 -86.075143, 596.279153 -112.135654)

LINESTRING (596.279153 -112.135654, 687.123380 -194.672234)

LINESTRING (596.279153 -112.135654, 706.938538 -135.246569)

LINESTRING (596.279153 -112.135654, 706.686244 -84.179646)

LINESTRING (387.897772 2.306949, 493.823622 -34.388162)

LINESTRING (493.823622 -34.388162, 583.642252 -118.424858)

LINESTRING (583.642252 -118.424858, 612.282271 -225.700553)

LINESTRING (583.642252 -118.424858, 659.931168 -200.537714)

LINESTRING (583.642252 -118.424858, 697.722409 -145.414779)

LINESTRING (493.823622 -34.388162, 610.735108 -67.106332)

LINESTRING (610.735108 -67.106332, 692.856432 -144.096982)

LINESTRING (610.735108 -67.106332, 723.609085 -94.009622)

LINESTRING (610.735108 -67.106332, 722.879693 -27.140187)

LINESTRING (493.823622 -34.388162, 605.845220 -11.665975)

LINESTRING (605.845220 -11.665975, 712.164008 -37.454255)

LINESTRING (605.845220 -11.665975, 714.406163 18.105707)

LINESTRING (605.845220 -11.665975, 696.105626 69.334664)

LINESTRING (309.090192 78.613063, 420.639928 55.513796)

LINESTRING (420.639928 55.513796, 505.817804 -31.368062)

LINESTRING (505.817804 -31.368062, 535.582310 -146.678014)

LINESTRING (535.582310 -146.678014, 495.953234 -259.535461)

LINESTRING (535.582310 -146.678014, 569.196389 -258.813479)

LINESTRING (535.582310 -146.678014, 612.555086 -222.859748)

LINESTRING (505.817804 -31.368062, 593.450886 -115.461720)

LINESTRING (593.450886 -115.461720, 632.676899 -221.921594)

LINESTRING (593.450886 -115.461720, 680.842618 -202.925175)

LINESTRING (593.450886 -115.461720, 707.050026 -152.277072)

LINESTRING (505.817804 -31.368062, 622.257984 -68.659973)

LINESTRING (622.257984 -68.659973, 704.298393 -158.487970)

LINESTRING (622.257984 -68.659973, 736.130878 -101.813488)

LINESTRING (622.257984 -68.659973, 739.729021 -37.996609)

LINESTRING (420.639928 55.513796, 543.655677 22.471904)

LINESTRING (543.655677 22.471904, 636.853490 -55.400283)

LINESTRING (636.853490 -55.400283, 676.812227 -173.623169)

LINESTRING (636.853490 -55.400283, 713.432537 -147.728753)

LINESTRING (636.853490 -55.400283, 755.395096 -80.938706)

LINESTRING (543.655677 22.471904, 666.717771 -2.886142)

LINESTRING (666.717771 -2.886142, 743.870652 -79.001822)

LINESTRING (666.717771 -2.886142, 790.498146 -26.645404)

LINESTRING (666.717771 -2.886142, 778.021116 36.619068)

LINESTRING (543.655677 22.471904, 657.256493 46.621848)

LINESTRING (657.256493 46.621848, 766.347711 10.232911)

LINESTRING (657.256493 46.621848, 767.614356 73.446497)

LINESTRING (657.256493 46.621848, 745.127342 132.646098)

LINESTRING (420.639928 55.513796, 535.462101 92.229291)

LINESTRING (535.462101 92.229291, 648.774930 66.238966)

LINESTRING (648.774930 66.238966, 741.925559 -25.438845)

LINESTRING (648.774930 66.238966, 769.297687 31.853353)

LINESTRING (648.774930 66.238966, 761.820034 105.942318)

LINESTRING (535.462101 92.229291, 660.183215 127.871872)

LINESTRING (660.183215 127.871872, 774.673249 97.401993)

LINESTRING (660.183215 127.871872, 774.283389 149.220175)

LINESTRING (660.183215 127.871872, 746.095547 209.455440)

LINESTRING (535.462101 92.229291, 620.305118 181.671822)

LINESTRING (620.305118 181.671822, 729.842106 219.686700)

LINESTRING (620.305118 181.671822, 697.293262 259.243075)

LINESTRING (620.305118 181.671822, 648.734181 307.525082)

LINESTRING (309.090192 78.613063, 434.749584 117.945871)

LINESTRING (434.749584 117.945871, 543.773422 83.408205)

LINESTRING (543.773422 83.408205, 630.805290 -7.223903)

LINESTRING (630.805290 -7.223903, 671.313224 -120.401400)

LINESTRING (630.805290 -7.223903, 716.849914 -82.230641)

LINESTRING (630.805290 -7.223903, 749.831655 -39.086128)

LINESTRING (543.773422 83.408205, 651.803079 50.861983)

LINESTRING (651.803079 50.861983, 744.201896 -28.601146)

LINESTRING (651.803079 50.861983, 765.451772 17.205020)

LINESTRING (651.803079 50.861983, 773.811634 89.283186)

LINESTRING (543.773422 83.408205, 653.170092 106.654847)

LINESTRING (653.170092 106.654847, 776.890362 84.822775)

LINESTRING (653.170092 106.654847, 774.430483 138.342633)

LINESTRING (653.170092 106.654847, 740.065850 182.711651)

LINESTRING (434.749584 117.945871, 552.882807 148.068242)

LINESTRING (552.882807 148.068242, 675.743024 123.096042)

LINESTRING (675.743024 123.096042, 752.956643 40.844872)

LINESTRING (675.743024 123.096042, 786.197266 95.108667)

LINESTRING (675.743024 123.096042, 788.715978 159.710438)

LINESTRING (552.882807 148.068242, 673.519300 176.559505)

LINESTRING (673.519300 176.559505, 792.289924 149.423718)

LINESTRING (673.519300 176.559505, 787.666958 214.517807)

LINESTRING (673.519300 176.559505, 761.932270 255.209903)

LINESTRING (552.882807 148.068242, 641.136339 235.805589)

LINESTRING (641.136339 235.805589, 747.982336 261.399178)

LINESTRING (641.136339 235.805589, 718.126312 323.720345)

LINESTRING (641.136339 235.805589, 672.669316 342.001823)

LINESTRING (434.749584 117.945871, 515.740064 193.036263)

LINESTRING (515.740064 193.036263, 627.777421 232.860029)

LINESTRING (627.777421 232.860029, 744.426979 199.949181)

LINESTRING (627.777421 232.860029, 734.910764 266.722708)

LINESTRING (627.777421 232.860029, 712.084408 325.067313)

LINESTRING (515.740064 193.036263, 598.479447 278.293906)

LINESTRING (598.479447 278.293906, 722.251805 307.241285)

LINESTRING (598.479447 278.293906, 679.366593 369.024013)

LINESTRING (598.479447 278.293906, 637.484513 400.663019)

LINESTRING (515.740064 193.036263, 546.380046 300.384452)

LINESTRING (546.380046 300.384452, 626.662991 387.161056)

LINESTRING (546.380046 300.384452, 583.807477 414.427774)

LINESTRING (546.380046 300.384452, 524.384328 424.127086)

LINESTRING (201.509027 105.876778, 312.881932 141.165283)

LINESTRING (312.881932 141.165283, 435.105864 111.645658)

LINESTRING (435.105864 111.645658, 518.073671 34.933725)

LINESTRING (518.073671 34.933725, 545.671890 -82.197884)

LINESTRING (545.671890 -82.197884, 508.418471 -198.642946)

LINESTRING (545.671890 -82.197884, 573.903816 -198.485306)

LINESTRING (545.671890 -82.197884, 630.339782 -169.188757)

LINESTRING (518.073671 34.933725, 595.886887 -42.106226)

LINESTRING (595.886887 -42.106226, 620.317099 -166.690219)

LINESTRING (595.886887 -42.106226, 679.074627 -124.484327)

LINESTRING (595.886887 -42.106226, 718.410402 -82.672485)

LINESTRING (518.073671 34.933725, 643.383549 -4.950517)

LINESTRING (643.383549 -4.950517, 729.283778 -98.668907)

LINESTRING (643.383549 -4.950517, 762.031264 -34.735012)

LINESTRING (643.383549 -4.950517, 769.280859 35.037483)

LINESTRING (435.105864 111.645658, 558.358144 86.806863)

LINESTRING (558.358144 86.806863, 650.310796 7.792143)

LINESTRING (650.310796 7.792143, 679.540961 -110.147450)

LINESTRING (650.310796 7.792143, 725.216171 -76.168834)

LINESTRING (650.310796 7.792143, 771.281683 -22.217299)

LINESTRING (558.358144 86.806863, 667.927489 59.660360)

LINESTRING (667.927489 59.660360, 754.832031 -26.675441)

LINESTRING (667.927489 59.660360, 788.457100 23.567320)

LINESTRING (667.927489 59.660360, 793.713609 99.699646)

LINESTRING (558.358144 86.806863, 676.799739 125.629985)

LINESTRING (676.799739 125.629985, 791.413938 98.008781)

LINESTRING (676.799739 125.629985, 783.388217 162.207761)

LINESTRING (676.799739 125.629985, 764.222829 212.032545)

LINESTRING (435.105864 111.645658, 548.666400 138.587332)

LINESTRING (548.666400 138.587332, 668.224799 114.688702)

LINESTRING (668.224799 114.688702, 754.941937 35.178396)

LINESTRING (668.224799 114.688702, 780.485964 82.412521)

LINESTRING (668.224799 114.688702, 783.831570 143.928680)

LINESTRING (548.666400 138.587332, 673.553897 172.128272)

LINESTRING (673.553897 172.128272, 784.439267 150.553857)

LINESTRING (673.553897 172.128272, 798.367334 210.362770)

LINESTRING (673.553897 172.128272, 749.660588 261.266120)

LINESTRING (548.666400 138.587332, 639.052092 224.153833)

LINESTRING (639.052092 224.153833, 764.561515 252.502588)

LINESTRING (639.052092 224.153833, 732.261939 305.696479)

LINESTRING (639.052092 224.153833, 676.999392 343.900096)

LINESTRING (312.881932 141.165283, 437.147300 170.313459)

LINESTRING (437.147300 170.313459, 556.708784 148.230154)

LINESTRING (556.708784 148.230154, 643.717079 69.841008)

LINESTRING (643.717079 69.841008, 666.881721 -44.013442)

LINESTRING (643.717079 69.841008, 729.752194 -11.503373)

LINESTRING (643.717079 69.841008, 763.891255 35.069765)

LINESTRING (556.708784 148.230154, 663.588279 121.071697)

LINESTRING (663.588279 121.071697, 745.878917 43.234300)

LINESTRING (663.588279 121.071697, 776.849985 96.580799)

LINESTRING (663.588279 121.071697, 778.421186 159.905551)

LINESTRING (556.708784 148.230154, 675.492372 178.867903)

LINESTRING (675.492372 178.867903, 795.127259 148.392243)

LINESTRING (675.492372 178.867903, 789.202539 213.270609)

LINESTRING (675.492372 178.867903, 751.064428 256.915238)

LINESTRING (437.147300 170.313459, 544.221347 195.766350)

LINESTRING (544.221347 195.766350, 663.594439 155.528219)

LINESTRING (663.594439 155.528219, 742.635999 62.146016)

LINESTRING (663.594439 155.528219, 776.819604 134.002161)

LINESTRING (663.594439 155.528219, 788.028867 178.541179)

LINESTRING (544.221347 195.766350, 666.894427 224.839350)

LINESTRING (666.894427 224.839350, 781.488500 195.486838)

LINESTRING (666.894427 224.839350, 786.747303 255.657358)

LINESTRING (666.894427 224.839350, 754.252406 317.184116)

LINESTRING (544.221347 195.766350, 634.778219 280.849405)

LINESTRING (634.778219 280.849405, 755.972852 306.904766)

LINESTRING (634.778219 280.849405, 722.419965 369.447453)

LINESTRING (634.778219 280.849405, 668.071357 390.064981)

LINESTRING (437.147300 170.313459, 519.590097 258.436135)

LINESTRING (519.590097 258.436135, 625.733687 289.614246)

LINESTRING (625.733687 289.614246, 734.921653 254.351403)

LINESTRING (625.733687 289.614246, 746.025272 319.994161)

LINESTRING (625.733687 289.614246, 711.743119 375.305372)

LINESTRING (519.590097 258.436135, 598.259328 340.149118)

LINESTRING (598.259328 340.149118, 718.517556 363.171717)

LINESTRING (598.259328 340.149118, 685.045160 434.836574)

LINESTRING (598.259328 340.149118, 638.850267 451.825619)

LINESTRING (519.590097 258.436135, 551.377988 366.798399)

LINESTRING (551.377988 366.798399, 634.254687 460.371740)

LINESTRING (551.377988 366.798399, 581.576463 479.977266)

LINESTRING (551.377988 366.798399, 512.685285 487.903944)

LINESTRING (312.881932 141.165283, 401.680724 219.307706)

LINESTRING (401.680724 219.307706, 511.211308 249.262084)

LINESTRING (511.211308 249.262084, 622.299218 223.718447)

LINESTRING (622.299218 223.718447, 704.020881 135.105168)

LINESTRING (622.299218 223.718447, 731.434113 194.425439)

LINESTRING (622.299218 223.718447, 738.230376 248.544976)

LINESTRING (511.211308 249.262084, 628.576934 275.169436)

LINESTRING (628.576934 275.169436, 750.463308 238.042173)

LINESTRING (628.576934 275.169436, 742.900168 298.219236)

LINESTRING (628.576934 275.169436, 716.690984 352.679980)

LINESTRING (511.211308 249.262084, 589.192243 328.862545)

LINESTRING (589.192243 328.862545, 714.300424 356.578214)

LINESTRING (589.192243 328.862545, 683.917343 423.646309)

LINESTRING (589.192243 328.862545, 624.097850 454.069871)

LINESTRING (401.680724 219.307706, 485.592187 301.178387)

LINESTRING (485.592187 301.178387, 595.116779 328.589621)

LINESTRING (595.116779 328.589621, 717.462344 294.059354)

LINESTRING (595.116779 328.589621, 705.349972 366.061795)

LINESTRING (595.116779 328.589621, 686.463115 412.667924)

LINESTRING (485.592187 301.178387, 563.614490 392.304032)

LINESTRING (563.614490 392.304032, 685.220264 417.350016)

LINESTRING (563.614490 392.304032, 654.070554 468.172811)

LINESTRING (563.614490 392.304032, 589.118740 501.983237)

LINESTRING (485.592187 301.178387, 509.457859 424.966024)

LINESTRING (509.457859 424.966024, 601.264689 503.235995)

LINESTRING (509.457859 424.966024, 543.785289 543.906362)

LINESTRING (509.457859 424.966024, 486.012190 546.938580)

LINESTRING (401.680724 219.307706, 433.920557 344.999740)

LINESTRING (433.920557 344.999740, 516.091849 423.639464)

LINESTRING (516.091849 423.639464, 625.625779 453.900015)

LINESTRING (516.091849 423.639464, 609.820467 515.029092)

LINESTRING (516.091849 423.639464, 542.571424 548.008828)

LINESTRING (433.920557 344.999740, 456.279179 459.047361)

LINESTRING (456.279179 459.047361, 545.688102 547.194630)

LINESTRING (456.279179 459.047361, 487.792845 581.804638)

LINESTRING (456.279179 459.047361, 428.170392 575.530320)

LINESTRING (433.920557 344.999740, 410.763820 467.011670)

LINESTRING (410.763820 467.011670, 449.303753 588.807385)

LINESTRING (410.763820 467.011670, 376.651823 588.135174)

LINESTRING (410.763820 467.011670, 328.431210 554.256591)

LINESTRING (201.509027 105.876778, 295.569376 183.088042)

LINESTRING (295.569376 183.088042, 419.599692 223.429801)

LINESTRING (419.599692 223.429801, 544.167136 192.471869)

LINESTRING (544.167136 192.471869, 624.473382 112.822926)

LINESTRING (624.473382 112.822926, 660.574191 -12.846495)

LINESTRING (624.473382 112.822926, 708.044930 33.066166)

LINESTRING (624.473382 112.822926, 732.651562 90.612754)

LINESTRING (544.167136 192.471869, 653.915928 155.191630)

LINESTRING (653.915928 155.191630, 734.534132 61.780377)

LINESTRING (653.915928 155.191630, 761.204246 127.285264)

LINESTRING (653.915928 155.191630, 763.982095 193.245350)

LINESTRING (544.167136 192.471869, 657.780000 214.374546)

LINESTRING (657.780000 214.374546, 781.412234 177.394743)

LINESTRING (657.780000 214.374546, 769.013291 246.792652)

LINESTRING (657.780000 214.374546, 737.942055 301.556673)

LINESTRING (419.599692 223.429801, 529.057983 249.630611)

LINESTRING (529.057983 249.630611, 652.787415 225.343360)

LINESTRING (652.787415 225.343360, 735.274718 141.987197)

LINESTRING (652.787415 225.343360, 767.237354 189.161632)

LINESTRING (652.787415 225.343360, 769.074728 262.542496)

LINESTRING (529.057983 249.630611, 636.999998 278.990102)

LINESTRING (636.999998 278.990102, 748.110093 254.178956)

LINESTRING (636.999998 278.990102, 761.551975 309.492590)

LINESTRING (636.999998 278.990102, 722.882358 367.850507)

LINESTRING (529.057983 249.630611, 616.374663 325.066205)

LINESTRING (616.374663 325.066205, 732.324619 358.171905)

LINESTRING (616.374663 325.066205, 700.480891 408.855963)

LINESTRING (616.374663 325.066205, 646.029039 433.387242)

LINESTRING (419.599692 223.429801, 495.755656 302.460384)

LINESTRING (495.755656 302.460384, 610.483953 337.733577)

LINESTRING (610.483953 337.733577, 719.655174 307.901065)

LINESTRING (610.483953 337.733577, 727.442003 364.897417)

LINESTRING (610.483953 337.733577, 704.580165 428.524913)

LINESTRING (495.755656 302.460384, 582.489310 387.600867)

LINESTRING (582.489310 387.600867, 697.552644 415.021021)

LINESTRING (582.489310 387.600867, 660.592631 463.450540)

LINESTRING (582.489310 387.600867, 614.224216 501.388223)

LINESTRING (495.755656 302.460384, 522.152923 418.903728)

LINESTRING (522.152923 418.903728, 598.135491 509.051506)

LINESTRING (522.152923 418.903728, 552.479436 531.067700)

LINESTRING (522.152923 418.903728, 491.433973 544.791524)

LINESTRING (295.569376 183.088042, 381.257222 277.259798)

LINESTRING (381.257222 277.259798, 496.537538 314.229308)

LINESTRING (496.537538 314.229308, 610.672750 292.414692)

LINESTRING (610.672750 292.414692, 686.221758 203.868924)

LINESTRING (610.672750 292.414692, 716.722154 262.942732)

LINESTRING (610.672750 292.414692, 730.576536 329.164543)

LINESTRING (496.537538 314.229308, 618.702583 350.142824)

LINESTRING (618.702583 350.142824, 728.602443 326.504154)

LINESTRING (618.702583 350.142824, 726.718191 382.189812)

LINESTRING (618.702583 350.142824, 707.574247 429.913696)

LINESTRING (496.537538 314.229308, 577.484984 398.883515)

LINESTRING (577.484984 398.883515, 692.049306 439.593727)

LINESTRING (577.484984 398.883515, 659.898036 479.323182)

LINESTRING (577.484984 398.883515, 608.484847 521.930609)

LINESTRING (381.257222 277.259798, 464.364422 358.197088)

LINESTRING (464.364422 358.197088, 580.016371 389.165751)

LINESTRING (580.016371 389.165751, 688.115086 360.752412)

LINESTRING (580.016371 389.165751, 702.777004 412.515797)

LINESTRING (580.016371 389.165751, 655.204253 478.081678)

LINESTRING (464.364422 358.197088, 545.497351 442.562342)

LINESTRING (545.497351 442.562342, 659.295117 476.746671)

LINESTRING (545.497351 442.562342, 631.448851 526.508461)

LINESTRING (545.497351 442.562342, 572.117724 558.747482)

LINESTRING (464.364422 358.197088, 499.905612 465.592371)

LINESTRING (499.905612 465.592371, 577.375631 548.781097)

LINESTRING (499.905612 465.592371, 532.318620 590.339267)

LINESTRING (499.905612 465.592371, 466.422608 586.110200)

LINESTRING (381.257222 277.259798, 421.707436 393.361892)

LINESTRING (421.707436 393.361892, 497.032155 486.996755)

LINESTRING (497.032155 486.996755, 618.273842 512.376203)

LINESTRING (497.032155 486.996755, 589.239113 564.862927)

LINESTRING (497.032155 486.996755, 530.856790 598.777788)

LINESTRING (421.707436 393.361892, 445.449311 511.414242)

LINESTRING (445.449311 511.414242, 539.206636 587.738254)

LINESTRING (445.449311 511.414242, 473.836616 627.828111)

LINESTRING (445.449311 511.414242, 420.028049 628.643829)

LINESTRING (421.707436 393.361892, 382.318646 508.566269)

LINESTRING (382.318646 508.566269, 416.324384 631.797065)

LINESTRING (382.318646 508.566269, 351.908435 632.329532)

LINESTRING (382.318646 508.566269, 301.944351 596.418569)

LINESTRING (295.569376 183.088042, 323.955021 297.722356)

LINESTRING (323.955021 297.722356, 415.678119 382.000278)

LINESTRING (415.678119 382.000278, 540.091823 415.541073)

LINESTRING (540.091823 415.541073, 649.691382 394.103055)

LINESTRING (540.091823 415.541073, 665.288216 448.142050)

LINESTRING (540.091823 415.541073, 628.347463 508.473986)

LINESTRING (415.678119 382.000278, 509.816927 475.329300)

LINESTRING (509.816927 475.329300, 621.688109 507.243682)

LINESTRING (509.816927 475.329300, 602.561098 563.986662)

LINESTRING (509.816927 475.329300, 533.372439 585.508013)

LINESTRING (415.678119 382.000278, 452.975831 506.533520)

LINESTRING (452.975831 506.533520, 543.489804 599.087019)

LINESTRING (452.975831 506.533520, 492.092060 623.589237)

LINESTRING (452.975831 506.533520, 415.417007 625.447632)

LINESTRING (323.955021 297.722356, 353.431651 405.199241)

LINESTRING (353.431651 405.199241, 432.427048 497.579685)

LINESTRING (432.427048 497.579685, 544.840367 524.549792)

LINESTRING (432.427048 497.579685, 510.707764 573.371684)

LINESTRING (432.427048 497.579685, 454.519290 606.356725)

LINESTRING (353.431651 405.199241, 386.533530 511.452959)

LINESTRING (386.533530 511.452959, 478.623421 606.118711)

LINESTRING (386.533530 511.452959, 413.448724 632.184505)

LINESTRING (386.533530 511.452959, 349.969220 628.441611)

LINESTRING (353.431651 405.199241, 323.429632 524.322382)

LINESTRING (323.429632 524.322382, 352.846427 633.157081)

LINESTRING (323.429632 524.322382, 297.056937 633.234938)

LINESTRING (323.429632 524.322382, 229.323021 609.147184)

LINESTRING (323.955021 297.722356, 294.820329 417.744686)

LINESTRING (294.820329 417.744686, 323.722283 534.263385)

LINESTRING (323.722283 534.263385, 402.434445 628.754926)

LINESTRING (323.722283 534.263385, 354.094773 648.895373)

LINESTRING (323.722283 534.263385, 294.664982 642.332901)

LINESTRING (294.820329 417.744686, 255.160114 531.060555)

LINESTRING (255.160114 531.060555, 288.223569 654.615453)

LINESTRING (255.160114 531.060555, 232.451040 648.088366)

LINESTRING (255.160114 531.060555, 164.019045 620.160036)

LINESTRING (294.820329 417.744686, 210.490793 511.754761)

LINESTRING (210.490793 511.754761, 185.940196 619.187681)

LINESTRING (210.490793 511.754761, 116.295354 601.595659)

LINESTRING (210.490793 511.754761, 101.721942 551.489762)

LINESTRING (80.000000 80.000000, 171.155194 158.630819)

LINESTRING (171.155194 158.630819, 280.635078 190.984629)

LINESTRING (280.635078 190.984629, 391.208906 157.975328)

LINESTRING (391.208906 157.975328, 481.639358 69.615166)

LINESTRING (481.639358 69.615166, 513.513389 -42.044835)

LINESTRING (513.513389 -42.044835, 484.159967 -167.236260)

LINESTRING (513.513389 -42.044835, 535.774076 -167.154564)

LINESTRING (513.513389 -42.044835, 596.382763 -125.797583)

LINESTRING (481.639358 69.615166, 571.762523 -20.809114)

LINESTRING (571.762523 -20.809114, 605.140641 -134.629400)

LINESTRING (571.762523 -20.809114, 664.602280 -100.111795)

LINESTRING (571.762523 -20.809114, 697.605927 -43.752617)

LINESTRING (481.639358 69.615166, 601.551082 40.144374)

LINESTRING (601.551082 40.144374, 677.706706 -54.409978)

LINESTRING (601.551082 40.144374, 721.314802 -0.818583)

LINESTRING (601.551082 40.144374, 724.816194 67.904059)

LINESTRING (391.208906 157.975328, 510.004119 135.363849)

LINESTRING (510.004119 135.363849, 604.361700 41.569855)

LINESTRING (604.361700 41.569855, 634.317822 -76.437035)

LINESTRING (604.361700 41.569855, 693.632560 -53.005646)

LINESTRING (604.361700 41.569855, 716.386062 2.903947)

LINESTRING (510.004119 135.363849, 626.251304 106.628246)

LINESTRING (626.251304 106.628246, 719.966360 22.229651)

LINESTRING (626.251304 106.628246, 741.413110 80.305769)

LINESTRING (626.251304 106.628246, 733.045655 129.488610)

LINESTRING (510.004119 135.363849, 626.096215 157.076472)

LINESTRING (626.096215 157.076472, 741.523914 120.392826)

LINESTRING (626.096215 157.076472, 732.707018 187.074426)

LINESTRING (626.096215 157.076472, 702.768603 234.799512)

LINESTRING (391.208906 157.975328, 505.701525 181.324957)

LINESTRING (505.701525 181.324957, 619.272174 150.458592)

LINESTRING (619.272174 150.458592, 701.950167 64.893099)

LINESTRING (619.272174 150.458592, 735.127568 117.226966)

LINESTRING (619.272174 150.458592, 728.216898 174.930377)

LINESTRING (505.701525 181.324957, 628.066324 216.315709)

LINESTRING (628.066324 216.315709, 741.872359 191.817446)

LINESTRING (628.066324 216.315709, 741.722565 240.022594)

LINESTRING (628.066324 216.315709, 717.365221 307.970804)

LINESTRING (505.701525 181.324957, 581.352172 262.203501)

LINESTRING (581.352172 262.203501, 692.250313 298.968748)

LINESTRING (581.352172 262.203501, 665.394400 349.127295)

LINESTRING (581.352172 262.203501, 621.304654 379.415720)

LINESTRING (280.635078 190.984629, 390.850020 227.139482)

LINESTRING (390.850020 227.139482, 505.814301 193.202984)

LINESTRING (505.814301 193.202984, 593.816313 102.254975)

LINESTRING (593.816313 102.254975, 617.617284 -3.962246)

LINESTRING (593.816313 102.254975, 674.519557 12.679853)

LINESTRING (593.816313 102.254975, 702.210220 65.575787)

LINESTRING (505.814301 193.202984, 631.020273 158.052083)

LINESTRING (631.020273 158.052083, 721.827517 82.681417)

LINESTRING (631.020273 158.052083, 755.028947 130.190120)

LINESTRING (631.020273 158.052083, 755.435906 183.382831)

LINESTRING (505.814301 193.202984, 619.862151 228.320519)

LINESTRING (619.862151 228.320519, 740.596171 194.559470)

LINESTRING (619.862151 228.320519, 739.083763 264.022502)

LINESTRING (619.862151 228.320519, 695.115093 320.363180)

LINESTRING (390.850020 227.139482, 514.129555 252.613285)

LINESTRING (514.129555 252.613285, 628.745788 230.622014)

LINESTRING (628.745788 230.622014, 718.472902 149.713993)

LINESTRING (628.745788 230.622014, 740.917457 193.236442)

LINESTRING (628.745788 230.622014, 747.625346 266.862849)

LINESTRING (514.129555 252.613285, 622.672938 283.115198)

LINESTRING (622.672938 283.115198, 728.635938 250.794345)

LINESTRING (622.672938 283.115198, 732.857939 305.349302)

LINESTRING (622.672938 283.115198, 709.026804 360.954917)

LINESTRING (514.129555 252.613285, 599.283043 334.447232)

LINESTRING (599.283043 334.447232, 710.877911 361.486423)

LINESTRING (599.283043 334.447232, 693.010554 415.760350)

LINESTRING (599.283043 334.447232, 625.013918 444.610980)

LINESTRING (390.850020 227.139482, 474.081764 320.046337)

LINESTRING (474.081764 320.046337, 585.907112 351.570191)

LINESTRING (585.907112 351.570191, 710.588203 323.945445)

LINESTRING (585.907112 351.570191, 704.805091 390.839126)

LINESTRING (585.907112 351.570191, 672.766381 436.697917)

LINESTRING (474.081764 320.046337, 549.949647 404.194584)

LINESTRING (549.949647 404.194584, 656.931317 439.264262)

LINESTRING (549.949647 404.194584, 636.850255 483.197298)

LINESTRING (549.949647 404.194584, 572.729906 525.116463)

LINESTRING (474.081764 320.046337, 506.188322 439.477953)

LINESTRING (506.188322 439.477953, 587.970973 529.710084)

LINESTRING (506.188322 439.477953, 537.562244 558.008574)

LINESTRING (506.188322 439.477953, 482.069975 554.190949)

LINESTRING (280.635078 190.984629, 364.934544 279.533125)

LINESTRING (364.934544 279.533125, 483.137614 319.265855)

LINESTRING (483.137614 319.265855, 589.507024 295.026731)

LINESTRING (589.507024 295.026731, 665.242087 219.365931)

LINESTRING (589.507024 295.026731, 700.069466 261.395350)

LINESTRING (589.507024 295.026731, 714.475453 325.463801)

LINESTRING (483.137614 319.265855, 591.765940 341.607586)

LINESTRING (591.765940 341.607586, 712.620319 301.485496)

LINESTRING (591.765940 341.607586, 716.645537 371.884265)

LINESTRING (591.765940 341.607586, 685.112959 421.672337)

LINESTRING (483.137614 319.265855, 559.935466 406.719900)

LINESTRING (559.935466 406.719900, 669.711112 429.595545)

LINESTRING (559.935466 406.719900, 637.501621 493.141189)

LINESTRING (559.935466 406.719900, 591.126292 513.026556)

LINESTRING (364.934544 279.533125, 443.178803 371.856021)

LINESTRING (443.178803 371.856021, 559.670097 399.756065)

LINESTRING (559.670097 399.756065, 677.874983 367.108906)

LINESTRING (559.670097 399.756065, 668.603235 432.836316)

LINESTRING (559.670097 399.756065, 649.528278 479.282639)

LINESTRING (443.178803 371.856021, 528.335237 452.629410)

LINESTRING (528.335237 452.629410, 650.853877 476.044315)

LINESTRING (528.335237 452.629410, 623.034815 535.074454)

LINESTRING (528.335237 452.629410, 564.688709 576.105321)

LINESTRING (443.178803 371.856021, 478.207977 495.137615)

LINESTRING (478.207977 495.137615, 561.157083 589.922923)

LINESTRING (478.207977 495.137615, 516.623223 601.252398)

LINESTRING (478.207977 495.137615, 440.835704 602.537878)

LINESTRING (364.934544 279.533125, 386.096600 387.701987)

LINESTRING (386.096600 387.701987, 468.066846 463.148705)

LINESTRING (468.066846 463.148705, 590.571483 495.908380)

LINESTRING (468.066846 463.148705, 561.004949 544.708240)

LINESTRING (468.066846 463.148705, 493.934375 577.779370)

LINESTRING (386.096600 387.701987, 423.509142 507.576953)

LINESTRING (423.509142 507.576953, 515.789991 591.881070)

LINESTRING (423.509142 507.576953, 461.636772 618.398685)

LINESTRING (423.509142 507.576953, 388.319596 629.490329)

LINESTRING (386.096600 387.701987, 359.646053 493.699682)

LINESTRING (359.646053 493.699682, 383.955053 603.598052)

LINESTRING (359.646053 493.699682, 336.312527 612.087172)

LINESTRING (359.646053 493.699682, 275.743564 575.195726)

LINESTRING (171.155194 158.630819, 260.362124 239.069475)

LINESTRING (260.362124 239.069475, 367.000913 273.723185)

LINESTRING (367.000913 273.723185, 481.398929 244.351714)

LINESTRING (481.398929 244.351714, 562.877413 154.398582)

LINESTRING (562.877413 154.398582, 586.163863 35.572126)

LINESTRING (562.877413 154.398582, 642.624902 60.013224)

LINESTRING (562.877413 154.398582, 669.770502 114.285612)

LINESTRING (481.398929 244.351714, 600.869773 207.858981)

LINESTRING (600.869773 207.858981, 682.499686 130.761966)

LINESTRING (600.869773 207.858981, 718.972938 182.927113)

LINESTRING (600.869773 207.858981, 712.344804 233.759588)

LINESTRING (481.398929 244.351714, 588.562875 280.587622)

LINESTRING (588.562875 280.587622, 707.781920 254.797290)

LINESTRING (588.562875 280.587622, 707.313215 310.421502)

LINESTRING (588.562875 280.587622, 666.683693 357.257963)

LINESTRING (367.000913 273.723185, 474.973702 303.225565)

LINESTRING (474.973702 303.225565, 582.252133 280.974041)

LINESTRING (582.252133 280.974041, 663.094721 186.173881)

LINESTRING (582.252133 280.974041, 693.040392 250.622320)

LINESTRING (582.252133 280.974041, 700.837300 303.832911)

LINESTRING (474.973702 303.225565, 581.067328 339.662386)

LINESTRING (581.067328 339.662386, 701.498063 312.793489)

LINESTRING (581.067328 339.662386, 692.917369 377.815667)

LINESTRING (581.067328 339.662386, 659.816366 416.351224)

LINESTRING (474.973702 303.225565, 557.379066 392.466918)

LINESTRING (557.379066 392.466918, 679.262323 420.427965)

LINESTRING (557.379066 392.466918, 638.038490 473.112676)

LINESTRING (557.379066 392.466918, 595.606143 510.270809)

LINESTRING (367.000913 273.723185, 458.734480 366.137027)

LINESTRING (458.734480 366.137027, 583.394429 392.682165)

LINESTRING (583.394429 392.682165, 703.193626 370.592360)

LINESTRING (583.394429 392.682165, 706.850495 423.557704)

LINESTRING (583.394429 392.682165, 676.630733 477.587545)

LINESTRING (458.734480 366.137027, 539.155954 445.423663)

LINESTRING (539.155954 445.423663, 654.545050 484.742384)

LINESTRING (539.155954 445.423663, 630.683421 526.078128)

LINESTRING (539.155954 445.423663, 562.389533 557.772397)

LINESTRING (458.734480 366.137027, 492.901081 486.696037)

LINESTRING (492.901081 486.696037, 576.921533 569.218748)

LINESTRING (492.901081 486.696037, 525.139490 594.366762)

LINESTRING (492.901081 486.696037, 454.959750 596.144332)

LINESTRING (260.362124 239.069475, 353.927917 332.558876)

LINESTRING (353.927917 332.558876, 476.749819 360.468237)

LINESTRING (476.749819 360.468237, 600.303109 336.479656)

LINESTRING (600.303109 336.479656, 676.773777 241.826993)

LINESTRING (600.303109 336.479656, 706.446391 309.509825)

LINESTRING (600.303109 336.479656, 713.468874 374.659819)

LINESTRING (476.749819 360.468237, 594.342194 385.539253)

LINESTRING (594.342194 385.539253, 703.876937 348.650483)

LINESTRING (594.342194 385.539253, 712.686428 412.092551)

LINESTRING (594.342194 385.539253, 676.887631 479.208488)

LINESTRING (476.749819 360.468237, 571.198221 451.498675)

LINESTRING (571.198221 451.498675, 680.632179 482.518154)

LINESTRING (571.198221 451.498675, 659.702481 536.357275)

LINESTRING (571.198221 451.498675, 594.311811 560.508497)

LINESTRING (353.927917 332.558876, 447.464910 415.448185)

LINESTRING (447.464910 415.448185, 566.190749 455.694111)

LINESTRING (566.190749 455.694111, 685.718342 434.075119)

LINESTRING (566.190749 455.694111, 690.940261 482.754969)

LINESTRING (566.190749 455.694111, 653.196551 531.730451)

LINESTRING (447.464910 415.448185, 529.943939 504.835864)

LINESTRING (529.943939 504.835864, 636.025931 536.942424)

LINESTRING (529.943939 504.835864, 605.456617 583.625499)

LINESTRING (529.943939 504.835864, 551.502286 620.009265)

LINESTRING (447.464910 415.448185, 477.984451 524.242150)

LINESTRING (477.984451 524.242150, 553.625752 606.637311)

LINESTRING (477.984451 524.242150, 507.147662 635.711838)

LINESTRING (477.984451 524.242150, 437.021761 648.020294)

LINESTRING (353.927917 332.558876, 389.192618 441.968772)

LINESTRING (389.192618 441.968772, 470.966891 535.257827)

LINESTRING (470.966891 535.257827, 594.911598 558.309363)

LINESTRING (470.966891 535.257827, 565.538057 622.661828)

LINESTRING (470.966891 535.257827, 493.861348 657.919802)

LINESTRING (389.192618 441.968772, 421.145698 560.980252)

LINESTRING (421.145698 560.980252, 509.785712 641.935685)

LINESTRING (421.145698 560.980252, 456.072842 668.669946)

LINESTRING (421.145698 560.980252, 382.899851 669.602064)

LINESTRING (389.192618 441.968772, 357.582925 564.362047)

LINESTRING (357.582925 564.362047, 397.285643 684.516474)

LINESTRING (357.582925 564.362047, 316.960139 690.237937)

LINESTRING (357.582925 564.362047, 280.712006 655.476014)

LINESTRING (260.362124 239.069475, 298.521867 354.665065)

LINESTRING (298.521867 354.665065, 375.789459 447.188201)

LINESTRING (375.789459 447.188201, 481.885205 474.988823)

LINESTRING (481.885205 474.988823, 601.173885 444.218289)

LINESTRING (481.885205 474.988823, 592.381850 496.720529)

LINESTRING (481.885205 474.988823, 558.723390 560.873467)

LINESTRING (375.789459 447.188201, 455.781153 541.780580)

LINESTRING (455.781153 541.780580, 578.858595 581.498169)

LINESTRING (455.781153 541.780580, 544.571997 617.353297)

LINESTRING (455.781153 541.780580, 477.739465 658.915428)

LINESTRING (375.789459 447.188201, 404.700094 553.204595)

LINESTRING (404.700094 553.204595, 491.518330 629.111230)

LINESTRING (404.700094 553.204595, 431.522887 677.731117)

LINESTRING (404.700094 553.204595, 381.208095 669.480846)

LINESTRING (298.521867 354.665065, 323.285298 478.689480)

LINESTRING (323.285298 478.689480, 399.482339 558.961128)

LINESTRING (399.482339 558.961128, 511.575122 588.370225)

LINESTRING (399.482339 558.961128, 475.201535 638.042717)

LINESTRING (399.482339 558.961128, 422.208880 669.482558)

LINESTRING (323.285298 478.689480, 351.212433 603.634937)

LINESTRING (351.212433 603.634937, 441.199836 685.248995)

LINESTRING (351.212433 603.634937, 379.616889 715.455190)

LINESTRING (351.212433 603.634937, 320.527344 720.927075)

LINESTRING (323.285298 478.689480, 294.623337 585.123338)

LINESTRING (294.623337 585.123338, 320.700365 697.361153)

LINESTRING (294.623337 585.123338, 262.143679 694.974241)

LINESTRING (294.623337 585.123338, 210.864138 671.274911)

LINESTRING (298.521867 354.665065, 275.325536 461.529101)

LINESTRING (275.325536 461.529101, 299.991555 582.851335)

LINESTRING (299.991555 582.851335, 375.236223 673.594151)

LINESTRING (299.991555 582.851335, 339.592396 706.346381)

LINESTRING (299.991555 582.851335, 265.867003 694.427996)

LINESTRING (275.325536 461.529101, 249.486377 569.021509)

LINESTRING (249.486377 569.021509, 287.330408 677.695032)

LINESTRING (249.486377 569.021509, 210.804347 694.837377)

LINESTRING (249.486377 569.021509, 159.277889 647.187228)

LINESTRING (275.325536 461.529101, 183.753128 550.126232)

LINESTRING (183.753128 550.126232, 149.390341 657.649951)

LINESTRING (183.753128 550.126232, 90.424610 644.250525)

LINESTRING (183.753128 550.126232, 67.849793 590.234239)

LINESTRING (171.155194 158.630819, 210.612767 267.598687)

LINESTRING (210.612767 267.598687, 293.664197 357.428385)

LINESTRING (293.664197 357.428385, 416.989109 387.531247)

LINESTRING (416.989109 387.531247, 535.538836 349.697900)

LINESTRING (535.538836 349.697900, 613.735530 274.133028)

LINESTRING (535.538836 349.697900, 654.131562 319.924481)

LINESTRING (535.538836 349.697900, 652.671026 384.636267)

LINESTRING (416.989109 387.531247, 531.676515 414.676361)

LINESTRING (531.676515 414.676361, 644.107351 381.152997)

LINESTRING (531.676515 414.676361, 653.997192 453.419646)

LINESTRING (531.676515 414.676361, 618.454625 508.104813)

LINESTRING (416.989109 387.531247, 497.259177 470.790558)

LINESTRING (497.259177 470.790558, 606.070794 509.613422)

LINESTRING (497.259177 470.790558, 591.825264 552.090996)

LINESTRING (497.259177 470.790558, 518.385951 585.453278)

LINESTRING (293.664197 357.428385, 382.248587 434.654230)

LINESTRING (382.248587 434.654230, 499.568331 461.577071)

LINESTRING (499.568331 461.577071, 625.076625 425.884654)

LINESTRING (499.568331 461.577071, 617.931200 500.390378)

LINESTRING (499.568331 461.577071, 590.772996 540.863016)

LINESTRING (382.248587 434.654230, 464.550137 516.511753)

LINESTRING (464.550137 516.511753, 576.306578 542.035776)

LINESTRING (464.550137 516.511753, 545.159324 599.750602)

LINESTRING (464.550137 516.511753, 500.001696 631.227981)

LINESTRING (382.248587 434.654230, 407.979184 560.159573)

LINESTRING (407.979184 560.159573, 497.403875 647.794926)

LINESTRING (407.979184 560.159573, 440.771484 683.039719)

LINESTRING (407.979184 560.159573, 386.541934 666.951607)

LINESTRING (293.664197 357.428385, 320.707183 468.674112)

LINESTRING (320.707183 468.674112, 406.312838 545.248882)

LINESTRING (406.312838 545.248882, 517.145928 584.987187)

LINESTRING (406.312838 545.248882, 488.391183 629.947801)

LINESTRING (406.312838 545.248882, 432.907329 654.894231)

LINESTRING (320.707183 468.674112, 353.816876 584.123348)

LINESTRING (353.816876 584.123348, 447.930167 667.081220)

LINESTRING (353.816876 584.123348, 375.534612 703.669128)

LINESTRING (353.816876 584.123348, 331.548606 692.995331)

LINESTRING (320.707183 468.674112, 288.687961 583.402313)

LINESTRING (288.687961 583.402313, 310.526628 700.750915)

LINESTRING (288.687961 583.402313, 248.456016 693.542692)

LINESTRING (288.687961 583.402313, 194.544087 672.635039)

LINESTRING (210.612767 267.598687, 243.625385 379.679789)

LINESTRING (243.625385 379.679789, 323.063548 468.732908)

LINESTRING (323.063548 468.732908, 447.770211 508.637053)

LINESTRING (447.770211 508.637053, 558.725821 480.314159)

LINESTRING (447.770211 508.637053, 557.286627 537.561784)

LINESTRING (447.770211 508.637053, 541.860629 596.744326)

LINESTRING (323.063548 468.732908, 415.204504 560.988075)

LINESTRING (415.204504 560.988075, 537.131438 595.965763)

LINESTRING (415.204504 560.988075, 499.526307 646.789981)

LINESTRING (415.204504 560.988075, 453.956508 676.402861)

LINESTRING (323.063548 468.732908, 359.631612 584.825702)

LINESTRING (359.631612 584.825702, 449.247772 677.158215)

LINESTRING (359.631612 584.825702, 382.411758 702.238382)

LINESTRING (359.631612 584.825702, 331.428628 695.856330)

LINESTRING (243.625385 379.679789, 271.823916 501.082428)

LINESTRING (271.823916 501.082428, 351.651420 581.234898)

LINESTRING (351.651420 581.234898, 461.911633 620.568723)

LINESTRING (351.651420 581.234898, 438.897844 668.046007)

LINESTRING (351.651420 581.234898, 379.427880 706.244581)

LINESTRING (271.823916 501.082428, 308.219139 623.409340)

LINESTRING (308.219139 623.409340, 400.378646 708.906216)

LINESTRING (308.219139 623.409340, 343.793251 734.960959)

LINESTRING (308.219139 623.409340, 271.190828 732.765208)

LINESTRING (271.823916 501.082428, 244.186705 616.835597)

LINESTRING (244.186705 616.835597, 280.514608 729.836295)

LINESTRING (244.186705 616.835597, 206.759339 730.043855)

LINESTRING (244.186705 616.835597, 156.860053 705.357850)

LINESTRING (243.625385 379.679789, 211.380845 487.270014)

LINESTRING (211.380845 487.270014, 244.750964 599.797839)

LINESTRING (244.750964 599.797839, 339.139852 685.400774)

LINESTRING (244.750964 599.797839, 273.331479 709.679556)

LINESTRING (244.750964 599.797839, 212.043596 710.009921)

LINESTRING (211.380845 487.270014, 188.222249 605.109532)

LINESTRING (188.222249 605.109532, 219.293204 726.260200)

LINESTRING (188.222249 605.109532, 164.773489 718.837320)

LINESTRING (188.222249 605.109532, 111.241385 693.850517)

LINESTRING (211.380845 487.270014, 117.271397 573.503345)

LINESTRING (117.271397 573.503345, 79.647602 686.812834)

LINESTRING (117.271397 573.503345, 24.340156 656.630796)

LINESTRING (117.271397 573.503345, 0.339128 597.128403)

LINESTRING (210.612767 267.598687, 181.523287 380.194079)

LINESTRING (181.523287 380.194079, 206.831623 493.262827)

LINESTRING (206.831623 493.262827, 294.768290 586.523170)

LINESTRING (294.768290 586.523170, 418.075535 626.658118)

LINESTRING (294.768290 586.523170, 378.964196 662.215648)

LINESTRING (294.768290 586.523170, 334.434879 710.386218)

LINESTRING (206.831623 493.262827, 241.135896 617.748036)

LINESTRING (241.135896 617.748036, 330.422765 702.544371)

LINESTRING (241.135896 617.748036, 273.821167 725.799840)

LINESTRING (241.135896 617.748036, 211.234073 740.190046)

LINESTRING (206.831623 493.262827, 174.129443 613.974514)

LINESTRING (174.129443 613.974514, 204.377711 727.807140)

LINESTRING (174.129443 613.974514, 138.050918 721.377128)

LINESTRING (174.129443 613.974514, 85.395447 703.607654)

LINESTRING (181.523287 380.194079, 143.232229 497.198568)

LINESTRING (143.232229 497.198568, 173.624976 621.384764)

LINESTRING (173.624976 621.384764, 261.320201 705.826000)

LINESTRING (173.624976 621.384764, 210.131275 735.437220)

LINESTRING (173.624976 621.384764, 143.037264 745.647655)

LINESTRING (143.232229 497.198568, 114.213853 622.693648)

LINESTRING (114.213853 622.693648, 145.167493 733.582618)

LINESTRING (114.213853 622.693648, 85.443383 735.119184)

LINESTRING (114.213853 622.693648, 28.560569 702.175991)

LINESTRING (143.232229 497.198568, 51.474677 576.953016)

LINESTRING (51.474677 576.953016, 21.845963 696.167252)

LINESTRING (51.474677 576.953016, -37.884118 654.529743)

LINESTRING (51.474677 576.953016, -64.046605 598.986854)

LINESTRING (181.523287 380.194079, 93.386910 462.894528)

LINESTRING (93.386910 462.894528, 58.465615 576.449085)

LINESTRING (58.465615 576.449085, 79.728590 699.751041)

LINESTRING (58.465615 576.449085, 26.472034 685.092989)

LINESTRING (58.465615 576.449085, -33.327043 655.191987)

LINESTRING (93.386910 462.894528, 16.263398 543.986806)

LINESTRING (16.263398 543.986806, -18.856601 665.900996)

LINESTRING (16.263398 543.986806, -74.766540 629.915797)

LINESTRING (16.263398 543.986806, -90.863064 577.825118)

LINESTRING (93.386910 462.894528, -20.560908 502.904770)

LINESTRING (-20.560908 502.904770, -95.723661 591.135387)

LINESTRING (-20.560908 502.904770, -135.584133 525.351320)

LINESTRING (-20.560908 502.904770, -146.200415 462.938867)

LINESTRING (80.000000 80.000000, 117.275077 194.364202)

LINESTRING (117.275077 194.364202, 201.324219 282.117137)

LINESTRING (201.324219 282.117137, 310.902553 314.076716)

LINESTRING (310.902553 314.076716, 434.970479 282.041553)

LINESTRING (434.970479 282.041553, 524.077819 200.832443)

LINESTRING (524.077819 200.832443, 561.242994 89.407729)

LINESTRING (524.077819 200.832443, 608.308305 112.272532)

LINESTRING (524.077819 200.832443, 635.560264 165.474939)

LINESTRING (434.970479 282.041553, 552.507496 254.637830)

LINESTRING (552.507496 254.637830, 633.771851 172.405963)

LINESTRING (552.507496 254.637830, 675.746464 224.043065)

LINESTRING (552.507496 254.637830, 666.659622 279.616372)

LINESTRING (434.970479 282.041553, 550.174153 321.572713)

LINESTRING (550.174153 321.572713, 664.080519 293.592974)

LINESTRING (550.174153 321.572713, 663.157395 343.998280)

LINESTRING (550.174153 321.572713, 644.003329 408.808687)

LINESTRING (310.902553 314.076716, 423.989523 348.175173)

LINESTRING (423.989523 348.175173, 538.033944 326.768258)

LINESTRING (538.033944 326.768258, 619.740565 251.194299)

LINESTRING (538.033944 326.768258, 651.578035 293.931105)

LINESTRING (538.033944 326.768258, 654.525025 348.636740)

LINESTRING (423.989523 348.175173, 540.451878 381.966810)

LINESTRING (540.451878 381.966810, 654.057841 358.628572)

LINESTRING (540.451878 381.966810, 660.957513 418.535256)

LINESTRING (540.451878 381.966810, 634.804905 457.730494)

LINESTRING (423.989523 348.175173, 500.972290 442.885753)

LINESTRING (500.972290 442.885753, 609.275998 465.607244)

LINESTRING (500.972290 442.885753, 576.913456 524.350953)

LINESTRING (500.972290 442.885753, 538.969879 567.311837)

LINESTRING (310.902553 314.076716, 397.493456 394.256094)

LINESTRING (397.493456 394.256094, 504.086999 416.907288)

LINESTRING (504.086999 416.907288, 618.486945 390.495097)

LINESTRING (504.086999 416.907288, 616.976023 445.324810)

LINESTRING (504.086999 416.907288, 593.601148 507.570525)

LINESTRING (397.493456 394.256094, 480.837816 471.673457)

LINESTRING (480.837816 471.673457, 606.528215 493.382562)

LINESTRING (480.837816 471.673457, 564.031790 551.774379)

LINESTRING (480.837816 471.673457, 504.670944 590.536134)

LINESTRING (397.493456 394.256094, 435.388397 507.129802)

LINESTRING (435.388397 507.129802, 523.303485 601.584585)

LINESTRING (435.388397 507.129802, 460.197549 623.279911)

LINESTRING (435.388397 507.129802, 411.632623 613.990969)

LINESTRING (201.324219 282.117137, 289.811832 372.298269)

LINESTRING (289.811832 372.298269, 401.771972 406.540288)

LINESTRING (401.771972 406.540288, 510.592528 367.385194)

LINESTRING (510.592528 367.385194, 594.058322 291.792887)

LINESTRING (510.592528 367.385194, 626.345968 329.523542)

LINESTRING (510.592528 367.385194, 631.572350 403.820138)

LINESTRING (401.771972 406.540288, 522.045957 444.256612)

LINESTRING (522.045957 444.256612, 630.266478 410.748777)

LINESTRING (522.045957 444.256612, 647.734300 469.274146)

LINESTRING (522.045957 444.256612, 614.474145 519.911839)

LINESTRING (401.771972 406.540288, 478.004269 484.082628)

LINESTRING (478.004269 484.082628, 592.925306 512.083613)

LINESTRING (478.004269 484.082628, 563.224522 565.194709)

LINESTRING (478.004269 484.082628, 515.451085 600.296651)

LINESTRING (289.811832 372.298269, 369.166106 450.620192)

LINESTRING (369.166106 450.620192, 482.627372 479.429436)

LINESTRING (482.627372 479.429436, 606.598792 449.771085)

LINESTRING (482.627372 479.429436, 593.974880 505.951446)

LINESTRING (482.627372 479.429436, 559.073681 572.785575)

LINESTRING (369.166106 450.620192, 455.957582 533.543438)

LINESTRING (455.957582 533.543438, 564.023078 566.296554)

LINESTRING (455.957582 533.543438, 545.207815 626.005149)

LINESTRING (455.957582 533.543438, 487.871525 643.456130)

LINESTRING (369.166106 450.620192, 399.407642 562.060750)

LINESTRING (399.407642 562.060750, 490.762812 654.103560)

LINESTRING (399.407642 562.060750, 431.100193 672.002180)

LINESTRING (399.407642 562.060750, 361.597440 680.591130)

LINESTRING (289.811832 372.298269, 322.050610 479.519526)

LINESTRING (322.050610 479.519526, 408.982284 560.702503)

LINESTRING (408.982284 560.702503, 520.550380 590.930606)

LINESTRING (408.982284 560.702503, 496.115286 654.154572)

LINESTRING (408.982284 560.702503, 431.304084 686.163833)

LINESTRING (322.050610 479.519526, 345.778022 596.796160)

LINESTRING (345.778022 596.796160, 435.859322 681.279763)

LINESTRING (345.778022 596.796160, 384.347136 711.423741)

LINESTRING (345.778022 596.796160, 311.327712 719.691674)

LINESTRING (322.050610 479.519526, 281.944243 591.636289)

LINESTRING (281.944243 591.636289, 307.370447 708.972514)

LINESTRING (281.944243 591.636289, 247.738625 710.066320)

LINESTRING (281.944243 591.636289, 204.328606 678.372879)

LINESTRING (201.324219 282.117137, 237.318061 394.507697)

LINESTRING (237.318061 394.507697, 328.096864 481.637006)

LINESTRING (328.096864 481.637006, 439.175906 517.118345)

LINESTRING (439.175906 517.118345, 562.452986 476.470582)

LINESTRING (439.175906 517.118345, 559.615430 545.479247)

LINESTRING (439.175906 517.118345, 520.081255 599.373637)

LINESTRING (328.096864 481.637006, 407.499742 572.060379)

LINESTRING (407.499742 572.060379, 514.059111 604.496875)

LINESTRING (407.499742 572.060379, 502.263271 660.249812)

LINESTRING (407.499742 572.060379, 442.356199 678.651078)

LINESTRING (328.096864 481.637006, 366.069845 589.362154)

LINESTRING (366.069845 589.362154, 455.699734 676.644292)

LINESTRING (366.069845 589.362154, 403.766496 709.392313)

LINESTRING (366.069845 589.362154, 344.413422 706.119715)

LINESTRING (237.318061 394.507697, 270.362493 513.577623)

LINESTRING (270.362493 513.577623, 346.034134 592.496967)

LINESTRING (346.034134 592.496967, 455.389126 622.378446)

LINESTRING (346.034134 592.496967, 429.173074 686.474525)

LINESTRING (346.034134 592.496967, 372.263857 704.587176)

LINESTRING (270.362493 513.577623, 302.591076 638.425294)

LINESTRING (302.591076 638.425294, 383.431059 732.583911)

LINESTRING (302.591076 638.425294, 340.422118 751.341686)

LINESTRING (302.591076 638.425294, 279.072495 751.974702)

LINESTRING (270.362493 513.577623, 249.222746 627.730085)

LINESTRING (249.222746 627.730085, 281.361951 751.467767)

LINESTRING (249.222746 627.730085, 228.097385 737.238880)

LINESTRING (249.222746 627.730085, 165.983022 711.981273)

LINESTRING (237.318061 394.507697, 199.885971 502.122008)

LINESTRING (199.885971 502.122008, 235.807521 621.476488)

LINESTRING (235.807521 621.476488, 319.828681 709.419417)

LINESTRING (235.807521 621.476488, 261.126482 744.338943)

LINESTRING (235.807521 621.476488, 214.728475 735.034947)

LINESTRING (199.885971 502.122008, 160.234170 609.949963)

LINESTRING (160.234170 609.949963, 185.515004 720.951630)

LINESTRING (160.234170 609.949963, 124.212584 725.425087)

LINESTRING (160.234170 609.949963, 74.376827 691.145546)

LINESTRING (199.885971 502.122008, 115.535253 583.367645)

LINESTRING (115.535253 583.367645, 84.542315 701.583401)

LINESTRING (115.535253 583.367645, 23.018235 666.804390)

LINESTRING (115.535253 583.367645, -5.581242 609.134269)

LINESTRING (117.275077 194.364202, 140.330741 310.816284)

LINESTRING (140.330741 310.816284, 223.450236 405.103720)

LINESTRING (223.450236 405.103720, 342.605037 446.016222)

LINESTRING (342.605037 446.016222, 467.979625 406.787455)

LINESTRING (467.979625 406.787455, 558.725219 329.410749)

LINESTRING (467.979625 406.787455, 587.567319 378.039128)

LINESTRING (467.979625 406.787455, 581.881768 447.411659)

LINESTRING (342.605037 446.016222, 467.772009 473.991580)

LINESTRING (467.772009 473.991580, 585.980509 435.436395)

LINESTRING (467.772009 473.991580, 580.912144 512.345070)

LINESTRING (467.772009 473.991580, 546.054024 560.973843)

LINESTRING (342.605037 446.016222, 421.724725 533.590220)

LINESTRING (421.724725 533.590220, 547.460441 565.662112)

LINESTRING (421.724725 533.590220, 509.737974 627.584482)

LINESTRING (421.724725 533.590220, 446.949394 653.028864)

LINESTRING (223.450236 405.103720, 301.296490 494.859626)

LINESTRING (301.296490 494.859626, 408.248633 519.967430)

LINESTRING (408.248633 519.967430, 516.433270 485.928187)

LINESTRING (408.248633 519.967430, 517.142812 556.162934)

LINESTRING (408.248633 519.967430, 484.526483 597.652419)

LINESTRING (301.296490 494.859626, 381.384753 575.098472)

LINESTRING (381.384753 575.098472, 492.951160 604.279182)

LINESTRING (381.384753 575.098472, 459.228641 655.982330)

LINESTRING (381.384753 575.098472, 415.616290 689.184297)

LINESTRING (301.296490 494.859626, 338.521711 610.474993)

LINESTRING (338.521711 610.474993, 425.884716 698.061871)

LINESTRING (338.521711 610.474993, 361.637996 732.010635)

LINESTRING (338.521711 610.474993, 306.088150 722.518075)

LINESTRING (223.450236 405.103720, 252.469387 525.345536)

LINESTRING (252.469387 525.345536, 340.715672 612.287254)

LINESTRING (340.715672 612.287254, 459.512817 652.306930)

LINESTRING (340.715672 612.287254, 422.238125 705.599493)

LINESTRING (340.715672 612.287254, 376.036288 727.189930)

LINESTRING (252.469387 525.345536, 281.133146 635.061889)

LINESTRING (281.133146 635.061889, 364.435490 715.983274)

LINESTRING (281.133146 635.061889, 316.529355 751.284334)

LINESTRING (281.133146 635.061889, 254.115812 756.108759)

LINESTRING (252.469387 525.345536, 214.196139 645.904697)

LINESTRING (214.196139 645.904697, 244.932847 753.968555)

LINESTRING (214.196139 645.904697, 189.612149 756.504045)

LINESTRING (214.196139 645.904697, 137.154155 733.772488)

LINESTRING (140.330741 310.816284, 167.311436 418.544383)

LINESTRING (167.311436 418.544383, 247.539244 509.037498)

LINESTRING (247.539244 509.037498, 368.775445 531.505381)

LINESTRING (368.775445 531.505381, 476.713706 499.930834)

LINESTRING (368.775445 531.505381, 491.946984 555.549287)

LINESTRING (368.775445 531.505381, 460.399124 623.708517)

LINESTRING (247.539244 509.037498, 326.857383 597.771748)

LINESTRING (326.857383 597.771748, 433.366462 635.955156)

LINESTRING (326.857383 597.771748, 420.876598 685.614499)

LINESTRING (326.857383 597.771748, 361.747706 716.319277)

LINESTRING (247.539244 509.037498, 270.666545 624.140145)

LINESTRING (270.666545 624.140145, 346.764998 717.767092)

LINESTRING (270.666545 624.140145, 295.071599 746.157427)

LINESTRING (270.666545 624.140145, 233.664892 745.390553)

LINESTRING (167.311436 418.544383, 193.625416 536.333705)

LINESTRING (193.625416 536.333705, 270.962215 619.449701)

LINESTRING (270.962215 619.449701, 396.732860 647.156428)

LINESTRING (270.962215 619.449701, 357.275872 706.947492)

LINESTRING (270.962215 619.449701, 297.491946 741.132024)

LINESTRING (193.625416 536.333705, 219.854532 649.451704)

LINESTRING (219.854532 649.451704, 295.474820 727.524761)

LINESTRING (219.854532 649.451704, 245.317529 772.286883)

LINESTRING (219.854532 649.451704, 191.297738 769.660780)

LINESTRING (193.625416 536.333705, 156.055613 644.881079)

LINESTRING (156.055613 644.881079, 181.864285 758.393906)

LINESTRING (156.055613 644.881079, 124.359879 762.839775)

LINESTRING (156.055613 644.881079, 66.980257 735.609593)

LINESTRING (167.311436 418.544383, 127.557445 538.045741)

LINESTRING (127.557445 538.045741, 155.939019 663.483380)

LINESTRING (155.939019 663.483380, 246.350231 746.606665)

LINESTRING (155.939019 663.483380, 195.450222 785.998100)

LINESTRING (155.939019 663.483380, 125.038772 771.413813)

LINESTRING (127.557445 538.045741, 100.577436 660.773476)

LINESTRING (100.577436 660.773476, 123.556869 779.677226)

LINESTRING (100.577436 660.773476, 69.204649 780.628718)

LINESTRING (100.577436 660.773476, 23.804514 743.830183)

LINESTRING (127.557445 538.045741, 46.938518 613.135040)

LINESTRING (46.938518 613.135040, 12.808756 719.707168)

LINESTRING (46.938518 613.135040, -47.008965 704.029894)

LINESTRING (46.938518 613.135040, -69.600267 647.215667)

LINESTRING (140.330741 310.816284, 100.880071 424.262421)

LINESTRING (100.880071 424.262421, 127.177070 545.629535)

LINESTRING (127.177070 545.629535, 214.964928 633.984160)

LINESTRING (214.964928 633.984160, 328.463584 664.248094)

LINESTRING (214.964928 633.984160, 300.957742 721.235910)

LINESTRING (214.964928 633.984160, 243.007414 740.764196)

LINESTRING (127.177070 545.629535, 157.672300 654.525465)

LINESTRING (157.672300 654.525465, 241.650171 747.457128)

LINESTRING (157.672300 654.525465, 194.372752 772.237511)

LINESTRING (157.672300 654.525465, 128.490606 766.433479)

LINESTRING (127.177070 545.629535, 86.943693 667.691016)

LINESTRING (86.943693 667.691016, 120.036730 780.939218)

LINESTRING (86.943693 667.691016, 61.668205 776.909029)

LINESTRING (86.943693 667.691016, 9.275213 755.946888)

LINESTRING (100.880071 424.262421, 74.088987 546.595884)

LINESTRING (74.088987 546.595884, 96.275438 671.806878)

LINESTRING (96.275438 671.806878, 179.689944 763.707279)

LINESTRING (96.275438 671.806878, 125.845913 797.140574)

LINESTRING (96.275438 671.806878, 62.419866 794.784240)

LINESTRING (74.088987 546.595884, 35.196350 654.718698)

LINESTRING (35.196350 654.718698, 59.287658 762.475613)

LINESTRING (35.196350 654.718698, 3.955360 771.592267)

LINESTRING (35.196350 654.718698, -46.643516 749.137142)

LINESTRING (74.088987 546.595884, -6.286987 623.489879)

LINESTRING (-6.286987 623.489879, -47.103462 743.179330)

LINESTRING (-6.286987 623.489879, -93.993258 708.453091)

LINESTRING (-6.286987 623.489879, -115.585871 644.557846)

LINESTRING (100.880071 424.262421, 20.210751 511.008302)

LINESTRING (20.210751 511.008302, -14.879157 632.727268)

LINESTRING (-14.879157 632.727268, 8.633866 744.584900)

LINESTRING (-14.879157 632.727268, -52.333482 742.773564)

LINESTRING (-14.879157 632.727268, -104.627443 712.302763)

LINESTRING (20.210751 511.008302, -57.692698 586.968748)

LINESTRING (-57.692698 586.968748, -83.634837 703.346320)

LINESTRING (-57.692698 586.968748, -138.097158 674.916446)

LINESTRING (-57.692698 586.968748, -171.975807 618.665720)

LINESTRING (20.210751 511.008302, -98.755082 542.027413)

LINESTRING (-98.755082 542.027413, -174.958191 617.598985)

LINESTRING (-98.755082 542.027413, -208.853376 563.567123)

LINESTRING (-98.755082 542.027413, -221.259303 518.271703)

LINESTRING (117.275077 194.364202, 78.031836 312.058972)

LINESTRING (78.031836 312.058972, 109.170496 427.268425)

LINESTRING (109.170496 427.268425, 202.714901 506.839369)

LINESTRING (202.714901 506.839369, 323.226508 542.308541)

LINESTRING (323.226508 542.308541, 437.498236 509.478904)

LINESTRING (323.226508 542.308541, 430.961828 571.008107)

LINESTRING (323.226508 542.308541, 416.602884 617.207030)

LINESTRING (202.714901 506.839369, 289.645688 583.056618)

LINESTRING (289.645688 583.056618, 405.529946 614.584874)

LINESTRING (289.645688 583.056618, 369.630474 669.081726)

LINESTRING (289.645688 583.056618, 319.669437 698.232832)

LINESTRING (202.714901 506.839369, 225.145707 624.692593)

LINESTRING (225.145707 624.692593, 313.062045 712.804824)

LINESTRING (225.145707 624.692593, 263.356878 744.143733)

LINESTRING (225.145707 624.692593, 201.463515 732.705691)

LINESTRING (109.170496 427.268425, 146.986288 536.028747)

LINESTRING (146.986288 536.028747, 228.982026 617.560230)

LINESTRING (228.982026 617.560230, 344.296681 649.247139)

LINESTRING (228.982026 617.560230, 319.232869 704.649946)

LINESTRING (228.982026 617.560230, 266.537104 739.270002)

LINESTRING (146.986288 536.028747, 180.422086 645.302607)

LINESTRING (180.422086 645.302607, 272.113806 720.211181)

LINESTRING (180.422086 645.302607, 208.803165 769.344125)

LINESTRING (180.422086 645.302607, 156.342792 752.374877)

LINESTRING (146.986288 536.028747, 118.702174 655.691211)

LINESTRING (118.702174 655.691211, 156.437179 761.684344)

LINESTRING (118.702174 655.691211, 97.394141 764.946753)

LINESTRING (118.702174 655.691211, 34.156375 736.057883)

LINESTRING (109.170496 427.268425, 74.932172 548.663205)

LINESTRING (74.932172 548.663205, 115.829306 669.391138)

LINESTRING (115.829306 669.391138, 204.349815 754.509514)

LINESTRING (115.829306 669.391138, 153.249262 781.678314)

LINESTRING (115.829306 669.391138, 86.482078 781.053557)

LINESTRING (74.932172 548.663205, 51.112937 655.072486)

LINESTRING (51.112937 655.072486, 72.619537 773.772506)

LINESTRING (51.112937 655.072486, 12.979502 765.644007)

LINESTRING (51.112937 655.072486, -29.070951 736.849010)

LINESTRING (74.932172 548.663205, -7.566812 636.897083)

LINESTRING (-7.566812 636.897083, -41.181979 761.956455)

LINESTRING (-7.566812 636.897083, -97.780765 715.822479)

LINESTRING (-7.566812 636.897083, -114.722668 664.504150)

LINESTRING (78.031836 312.058972, 41.601140 428.832243)

LINESTRING (41.601140 428.832243, 79.471923 543.713991)

LINESTRING (79.471923 543.713991, 161.710633 622.143771)

LINESTRING (161.710633 622.143771, 271.314560 661.244207)

LINESTRING (161.710633 622.143771, 237.212672 707.725058)

LINESTRING (161.710633 622.143771, 188.430436 735.474277)

LINESTRING (79.471923 543.713991, 113.208058 653.303478)

LINESTRING (113.208058 653.303478, 206.701608 737.960909)

LINESTRING (113.208058 653.303478, 137.167810 775.572520)

LINESTRING (113.208058 653.303478, 73.119294 773.250654)

LINESTRING (79.471923 543.713991, 42.932831 658.248881)

LINESTRING (42.932831 658.248881, 83.555493 777.951834)

LINESTRING (42.932831 658.248881, 21.189311 772.331663)

LINESTRING (42.932831 658.248881, -46.492927 752.042483)

LINESTRING (41.601140 428.832243, 17.850516 548.640566)

LINESTRING (17.850516 548.640566, 55.764077 660.577337)

LINESTRING (55.764077 660.577337, 134.914784 748.811604)

LINESTRING (55.764077 660.577337, 84.354422 778.285853)

LINESTRING (55.764077 660.577337, 34.442697 778.215744)

LINESTRING (17.850516 548.640566, -18.613546 668.421464)

LINESTRING (-18.613546 668.421464, 12.533426 775.005183)

LINESTRING (-18.613546 668.421464, -55.345323 779.953608)

LINESTRING (-18.613546 668.421464, -109.157917 755.591590)

LINESTRING (17.850516 548.640566, -71.123109 629.101407)

LINESTRING (-71.123109 629.101407, -101.810383 750.754301)

LINESTRING (-71.123109 629.101407, -148.500783 714.721816)

LINESTRING (-71.123109 629.101407, -181.295301 668.430233)

LINESTRING (41.601140 428.832243, -35.224629 517.266356)

LINESTRING (-35.224629 517.266356, -64.417457 631.679207)

LINESTRING (-64.417457 631.679207, -36.411871 756.257358)

LINESTRING (-64.417457 631.679207, -103.831301 746.425018)

LINESTRING (-64.417457 631.679207, -154.275676 715.184209)

LINESTRING (-35.224629 517.266356, -118.799916 600.056510)

LINESTRING (-118.799916 600.056510, -146.985040 707.129800)

LINESTRING (-118.799916 600.056510, -203.272033 680.780367)

LINESTRING (-118.799916 600.056510, -237.722017 637.489885)

LINESTRING (-35.224629 517.266356, -160.013495 554.221737)

LINESTRING (-160.013495 554.221737, -251.591105 629.239322)

LINESTRING (-160.013495 554.221737, -283.424227 594.580871)

LINESTRING (-160.013495 554.221737, -284.021661 530.199031)

LINESTRING (78.031836 312.058972, -12.216552 399.420315)

LINESTRING (-12.216552 399.420315, -38.606136 516.055741)

LINESTRING (-38.606136 516.055741, -14.485050 639.300010)

LINESTRING (-14.485050 639.300010, 63.379972 731.659566)

LINESTRING (-14.485050 639.300010, 18.865740 750.408070)

LINESTRING (-14.485050 639.300010, -41.881116 758.096014)

LINESTRING (-38.606136 516.055741, -76.473432 631.748647)

LINESTRING (-76.473432 631.748647, -41.379406 753.190820)

LINESTRING (-76.473432 631.748647, -110.298614 744.717914)

LINESTRING (-76.473432 631.748647, -159.512148 723.475829)

LINESTRING (-38.606136 516.055741, -120.571108 593.273386)

LINESTRING (-120.571108 593.273386, -155.518405 705.677304)

LINESTRING (-120.571108 593.273386, -202.378113 682.471345)

LINESTRING (-120.571108 593.273386, -228.494579 630.929096)

LINESTRING (-12.216552 399.420315, -99.856841 485.466068)

LINESTRING (-99.856841 485.466068, -133.477352 604.370718)

LINESTRING (-133.477352 604.370718, -96.346290 716.841877)

LINESTRING (-133.477352 604.370718, -166.122927 729.559377)

LINESTRING (-133.477352 604.370718, -225.179040 683.981702)

LINESTRING (-99.856841 485.466068, -177.292019 572.271546)

LINESTRING (-177.292019 572.271546, -198.871585 687.043556)

LINESTRING (-177.292019 572.271546, -261.635238 647.469663)

LINESTRING (-177.292019 572.271546, -285.816176 598.468699)

LINESTRING (-99.856841 485.466068, -222.477838 510.646750)

LINESTRING (-222.477838 510.646750, -310.592061 605.218910)

LINESTRING (-222.477838 510.646750, -347.523305 549.829904)

LINESTRING (-222.477838 510.646750, -340.953509 481.502705)

LINESTRING (-12.216552 399.420315, -133.107258 427.397856)

LINESTRING (-133.107258 427.397856, -216.971525 511.575654)

LINESTRING (-216.971525 511.575654, -252.703835 631.379803)

LINESTRING (-216.971525 511.575654, -310.802135 593.242373)

LINESTRING (-216.971525 511.575654, -339.352702 547.129628)

LINESTRING (-133.107258 427.397856, -248.539143 453.229189)

LINESTRING (-248.539143 453.229189, -332.183529 528.120599)

LINESTRING (-248.539143 453.229189, -358.942870 487.716300)

LINESTRING (-248.539143 453.229189, -367.141195 414.169759)

LINESTRING (-133.107258 427.397856, -250.970054 391.968831)

LINESTRING (-250.970054 391.968831, -356.984727 423.467464)

LINESTRING (-250.970054 391.968831, -371.729011 358.014616)

LINESTRING (-250.970054 391.968831, -340.987466 314.400963)

