LINESTRING (60.000000 60.000000, 78.825102 78.315841)

LINESTRING (60.000000 60.000000, 71.025369 50.299716)

LINESTRING (60.000000 60.000000, 62.108858 69.617244)

LINESTRING (60.000000 60.000000, 79.014230 69.644400)

LINESTRING (60.000000 60.000000, 58.927596 51.947953)

LINESTRING (60.000000 60.000000, 42.414120 65.355041)

LINESTRING (60.000000 60.000000, 72.321749 73.588423)

LINESTRING (60.000000 60.000000, 63.103046 60.263573)

LINESTRING (78.825102 78.315841, 62.108858 69.617244)

LINESTRING (78.825102 78.315841, 42.414120 65.355041)

LINESTRING (78.825102 78.315841, 72.321749 73.588423)

LINESTRING (78.825102 78.315841, 63.103046 60.263573)

LINESTRING (71.025369 50.299716, 62.108858 69.617244)

LINESTRING (62.108858 69.617244, 58.927596 51.947953)

LINESTRING (62.108858 69.617244, 63.103046 60.263573)

LINESTRING (79.014230 69.644400, 58.927596 51.947953)

LINESTRING (79.014230 69.644400, 42.414120 65.355041)

LINESTRING (79.014230 69.644400, 72.321749 73.588423)

LINESTRING (79.014230 69.644400, 63.103046 60.263573)

LINESTRING (58.927596 51.947953, 42.414120 65.355041)

LINESTRING (58.927596 51.947953, 63.103046 60.263573)

LINESTRING (42.414120 65.355041, 72.321749 73.588423)

LINESTRING (42.414120 65.355041, 63.103046 60.263573)

LINESTRING (260.000000 60.000000, 250.584824 40.430583)

LINESTRING (260.000000 60.000000, 239.888225 66.760460)

LINESTRING (260.000000 60.000000, 241.760765 77.288079)

LINESTRING (260.000000 60.000000, 281.330824 45.729563)

LINESTRING (260.000000 60.000000, 238.631145 79.268784)

LINESTRING (260.000000 60.000000, 270.537750 57.784400)

LINESTRING (260.000000 60.000000, 279.961425 49.811275)

LINESTRING (260.000000 60.000000, 263.434267 75.225515)

LINESTRING (250.584824 40.430583, 281.330824 45.729563)

LINESTRING (250.584824 40.430583, 270.537750 57.784400)

LINESTRING (250.584824 40.430583, 279.961425 49.811275)

LINESTRING (250.584824 40.430583, 263.434267 75.225515)

LINESTRING (239.888225 66.760460, 238.631145 79.268784)

LINESTRING (239.888225 66.760460, 270.537750 57.784400)

LINESTRING (241.760765 77.288079, 281.330824 45.729563)

LINESTRING (241.760765 77.288079, 279.961425 49.811275)

LINESTRING (241.760765 77.288079, 263.434267 75.225515)

LINESTRING (281.330824 45.729563, 279.961425 49.811275)

LINESTRING (238.631145 79.268784, 270.537750 57.784400)

LINESTRING (238.631145 79.268784, 279.961425 49.811275)

LINESTRING (238.631145 79.268784, 263.434267 75.225515)

LINESTRING (270.537750 57.784400, 279.961425 49.811275)

LINESTRING (270.537750 57.784400, 263.434267 75.225515)

LINESTRING (460.000000 60.000000, 459.599956 71.442254)

LINESTRING (460.000000 60.000000, 467.354371 72.628695)

LINESTRING (460.000000 60.000000, 462.938116 46.614892)

LINESTRING (460.000000 60.000000, 456.874611 59.783379)

LINESTRING (460.000000 60.000000, 456.373658 39.820200)

LINESTRING (460.000000 60.000000, 472.989088 73.451002)

LINESTRING (460.000000 60.000000, 481.155679 41.139630)

LINESTRING (460.000000 60.000000, 448.708338 44.165509)

LINESTRING (459.599956 71.442254, 462.938116 46.614892)

LINESTRING (459.599956 71.442254, 481.155679 41.139630)

LINESTRING (467.354371 72.628695, 456.373658 39.820200)

LINESTRING (467.354371 72.628695, 481.155679 41.139630)

LINESTRING (467.354371 72.628695, 448.708338 44.165509)

LINESTRING (462.938116 46.614892, 456.874611 59.783379)

LINESTRING (462.938116 46.614892, 481.155679 41.139630)

LINESTRING (462.938116 46.614892, 448.708338 44.165509)

LINESTRING (456.874611 59.783379, 456.373658 39.820200)

LINESTRING (456.874611 59.783379, 481.155679 41.139630)

LINESTRING (456.874611 59.783379, 448.708338 44.165509)

LINESTRING (456.373658 39.820200, 472.989088 73.451002)

LINESTRING (456.373658 39.820200, 481.155679 41.139630)

LINESTRING (472.989088 73.451002, 481.155679 41.139630)

LINESTRING (472.989088 73.451002, 448.708338 44.165509)

LINESTRING (60.000000 260.000000, 79.282132 241.228928)

LINESTRING (60.000000 260.000000, 80.969794 239.857448)

LINESTRING (60.000000 260.000000, 63.222539 239.426584)

LINESTRING (60.000000 260.000000, 69.485103 236.569131)

LINESTRING (60.000000 260.000000, 78.321598 250.731676)

LINESTRING (60.000000 260.000000, 75.427373 263.250590)

LINESTRING (60.000000 260.000000, 50.464182 241.770962)

LINESTRING (60.000000 260.000000, 81.846036 249.101789)

LINESTRING (79.282132 241.228928, 63.222539 239.426584)

LINESTRING (79.282132 241.228928, 69.485103 236.569131)

LINESTRING (79.282132 241.228928, 78.321598 250.731676)

LINESTRING (80.969794 239.857448, 63.222539 239.426584)

LINESTRING (63.222539 239.426584, 69.485103 236.569131)

LINESTRING (69.485103 236.569131, 50.464182 241.770962)

LINESTRING (78.321598 250.731676, 75.427373 263.250590)

LINESTRING (78.321598 250.731676, 81.846036 249.101789)

LINESTRING (75.427373 263.250590, 50.464182 241.770962)

LINESTRING (260.000000 260.000000, 242.353334 252.454594)

LINESTRING (260.000000 260.000000, 260.892699 274.720328)

LINESTRING (260.000000 260.000000, 241.081191 283.276681)

LINESTRING (260.000000 260.000000, 283.097849 275.893058)

LINESTRING (260.000000 260.000000, 257.256598 280.022331)

LINESTRING (260.000000 260.000000, 280.900958 247.913743)

LINESTRING (260.000000 260.000000, 279.052619 260.557046)

LINESTRING (260.000000 260.000000, 273.384244 239.716263)

LINESTRING (242.353334 252.454594, 260.892699 274.720328)

LINESTRING (242.353334 252.454594, 241.081191 283.276681)

LINESTRING (260.892699 274.720328, 241.081191 283.276681)

LINESTRING (260.892699 274.720328, 257.256598 280.022331)

LINESTRING (260.892699 274.720328, 280.900958 247.913743)

LINESTRING (260.892699 274.720328, 279.052619 260.557046)

LINESTRING (260.892699 274.720328, 273.384244 239.716263)

LINESTRING (241.081191 283.276681, 283.097849 275.893058)

LINESTRING (241.081191 283.276681, 279.052619 260.557046)

LINESTRING (241.081191 283.276681, 273.384244 239.716263)

LINESTRING (283.097849 275.893058, 257.256598 280.022331)

LINESTRING (257.256598 280.022331, 280.900958 247.913743)

LINESTRING (257.256598 280.022331, 273.384244 239.716263)

LINESTRING (280.900958 247.913743, 279.052619 260.557046)

LINESTRING (460.000000 260.000000, 461.071298 262.243274)

LINESTRING (460.000000 260.000000, 450.366249 272.371408)

LINESTRING (460.000000 260.000000, 445.314925 250.779616)

LINESTRING (460.000000 260.000000, 436.869854 271.829401)

LINESTRING (460.000000 260.000000, 478.592887 265.390616)

LINESTRING (460.000000 260.000000, 463.315251 238.665025)

LINESTRING (460.000000 260.000000, 451.522731 274.176481)

LINESTRING (460.000000 260.000000, 442.725502 275.609409)

LINESTRING (461.071298 262.243274, 445.314925 250.779616)

LINESTRING (461.071298 262.243274, 478.592887 265.390616)

LINESTRING (461.071298 262.243274, 463.315251 238.665025)

LINESTRING (461.071298 262.243274, 442.725502 275.609409)

LINESTRING (450.366249 272.371408, 445.314925 250.779616)

LINESTRING (450.366249 272.371408, 436.869854 271.829401)

LINESTRING (450.366249 272.371408, 478.592887 265.390616)

LINESTRING (450.366249 272.371408, 463.315251 238.665025)

LINESTRING (450.366249 272.371408, 451.522731 274.176481)

LINESTRING (445.314925 250.779616, 436.869854 271.829401)

LINESTRING (445.314925 250.779616, 478.592887 265.390616)

LINESTRING (445.314925 250.779616, 451.522731 274.176481)

LINESTRING (436.869854 271.829401, 451.522731 274.176481)

LINESTRING (436.869854 271.829401, 442.725502 275.609409)

LINESTRING (478.592887 265.390616, 463.315251 238.665025)

LINESTRING (463.315251 238.665025, 451.522731 274.176481)

LINESTRING (463.315251 238.665025, 442.725502 275.609409)

LINESTRING (60.000000 460.000000, 78.522572 460.594304)

LINESTRING (60.000000 460.000000, 76.045699 439.722675)

LINESTRING (60.000000 460.000000, 72.650413 440.037186)

LINESTRING (60.000000 460.000000, 77.247106 480.129130)

LINESTRING (60.000000 460.000000, 64.181255 457.029786)

LINESTRING (60.000000 460.000000, 81.804960 459.207898)

LINESTRING (60.000000 460.000000, 59.512141 478.745902)

LINESTRING (60.000000 460.000000, 68.123473 437.685705)

LINESTRING (78.522572 460.594304, 77.247106 480.129130)

LINESTRING (78.522572 460.594304, 64.181255 457.029786)

LINESTRING (78.522572 460.594304, 81.804960 459.207898)

LINESTRING (72.650413 440.037186, 77.247106 480.129130)

LINESTRING (72.650413 440.037186, 68.123473 437.685705)

LINESTRING (77.247106 480.129130, 81.804960 459.207898)

LINESTRING (77.247106 480.129130, 68.123473 437.685705)

LINESTRING (64.181255 457.029786, 81.804960 459.207898)

LINESTRING (64.181255 457.029786, 59.512141 478.745902)

LINESTRING (260.000000 460.000000, 280.170842 479.298124)

LINESTRING (260.000000 460.000000, 249.863983 439.582266)

LINESTRING (260.000000 460.000000, 240.561874 450.194168)

LINESTRING (260.000000 460.000000, 265.209423 444.940693)

LINESTRING (260.000000 460.000000, 254.439302 474.445516)

LINESTRING (260.000000 460.000000, 262.456274 480.403577)

LINESTRING (260.000000 460.000000, 283.883375 440.095823)

LINESTRING (260.000000 460.000000, 247.944701 463.040937)

LINESTRING (280.170842 479.298124, 240.561874 450.194168)

LINESTRING (280.170842 479.298124, 265.209423 444.940693)

LINESTRING (280.170842 479.298124, 254.439302 474.445516)

LINESTRING (280.170842 479.298124, 283.883375 440.095823)

LINESTRING (280.170842 479.298124, 247.944701 463.040937)

LINESTRING (249.863983 439.582266, 254.439302 474.445516)

LINESTRING (249.863983 439.582266, 262.456274 480.403577)

LINESTRING (249.863983 439.582266, 247.944701 463.040937)

LINESTRING (240.561874 450.194168, 262.456274 480.403577)

LINESTRING (240.561874 450.194168, 283.883375 440.095823)

LINESTRING (240.561874 450.194168, 247.944701 463.040937)

LINESTRING (265.209423 444.940693, 262.456274 480.403577)

LINESTRING (265.209423 444.940693, 283.883375 440.095823)

LINESTRING (254.439302 474.445516, 247.944701 463.040937)

LINESTRING (262.456274 480.403577, 283.883375 440.095823)

LINESTRING (71.025369 50.299716, 270.537750 57.784400)

LINESTRING (71.025369 50.299716, 239.888225 66.760460)

LINESTRING (60.000000 60.000000, 260.000000 60.000000)

LINESTRING (241.760765 77.288079, 481.155679 41.139630)

LINESTRING (281.330824 45.729563, 448.708338 44.165509)

LINESTRING (260.000000 60.000000, 460.000000 60.000000)

LINESTRING (456.373658 39.820200, 69.485103 236.569131)

LINESTRING (481.155679 41.139630, 81.846036 249.101789)

LINESTRING (460.000000 60.000000, 60.000000 260.000000)

LINESTRING (63.222539 239.426584, 279.052619 260.557046)

LINESTRING (69.485103 236.569131, 279.052619 260.557046)

LINESTRING (60.000000 260.000000, 260.000000 260.000000)

LINESTRING (242.353334 252.454594, 478.592887 265.390616)

LINESTRING (273.384244 239.716263, 436.869854 271.829401)

LINESTRING (260.000000 260.000000, 460.000000 260.000000)

LINESTRING (442.725502 275.609409, 81.804960 459.207898)

LINESTRING (442.725502 275.609409, 77.247106 480.129130)

LINESTRING (460.000000 260.000000, 60.000000 460.000000)

LINESTRING (68.123473 437.685705, 265.209423 444.940693)

LINESTRING (77.247106 480.129130, 262.456274 480.403577)

LINESTRING (60.000000 460.000000, 260.000000 460.000000)

