LINESTRING (475.777878 403.881853, 475.628012 431.534510)

LINESTRING (475.628012 431.534510, 459.376132 458.874310)

LINESTRING (459.376132 458.874310, 428.367356 477.866076)

LINESTRING (428.367356 477.866076, 404.685690 484.765572)

LINESTRING (404.685690 484.765572, 370.145210 478.025098)

LINESTRING (370.145210 478.025098, 346.257373 459.934242)

LINESTRING (346.257373 459.934242, 330.059402 429.809050)

LINESTRING (330.059402 429.809050, 315.313966 395.268033)

LINESTRING (315.313966 395.268033, 329.447650 370.007840)

LINESTRING (329.447650 370.007840, 341.073091 346.689246)

LINESTRING (341.073091 346.689246, 370.401297 321.266427)

LINESTRING (370.401297 321.266427, 404.315069 320.036675)

LINESTRING (404.315069 320.036675, 433.322511 322.896671)

LINESTRING (433.322511 322.896671, 455.209649 340.894723)

LINESTRING (455.209649 340.894723, 469.420640 369.308605)

LINESTRING (469.420640 369.308605, 475.777878 403.881853)

LINESTRING (560.140865 396.582179, 548.122008 465.088110)

LINESTRING (548.122008 465.088110, 512.282098 510.919806)

LINESTRING (512.282098 510.919806, 461.947268 549.895289)

LINESTRING (461.947268 549.895289, 397.300195 564.405472)

LINESTRING (397.300195 564.405472, 338.036190 544.085437)

LINESTRING (338.036190 544.085437, 289.666771 513.900217)

LINESTRING (289.666771 513.900217, 250.836305 465.869680)

LINESTRING (250.836305 465.869680, 240.285070 399.371338)

LINESTRING (240.285070 399.371338, 256.596749 334.244426)

LINESTRING (256.596749 334.244426, 284.448273 287.446461)

LINESTRING (284.448273 287.446461, 342.333387 254.967372)

LINESTRING (342.333387 254.967372, 404.078155 239.174743)

LINESTRING (404.078155 239.174743, 459.464863 255.249662)

LINESTRING (459.464863 255.249662, 517.908317 290.423636)

LINESTRING (517.908317 290.423636, 544.755765 338.595652)

LINESTRING (544.755765 338.595652, 560.140865 396.582179)

LINESTRING (637.631413 398.531444, 623.204336 491.146222)

LINESTRING (623.204336 491.146222, 573.719863 569.857906)

LINESTRING (573.719863 569.857906, 496.666602 621.956016)

LINESTRING (496.666602 621.956016, 396.009207 637.784211)

LINESTRING (396.009207 637.784211, 305.564103 626.013605)

LINESTRING (305.564103 626.013605, 231.803328 571.585948)

LINESTRING (231.803328 571.585948, 177.547087 495.664014)

LINESTRING (177.547087 495.664014, 157.278571 397.109215)

LINESTRING (157.278571 397.109215, 177.627909 304.670893)

LINESTRING (177.627909 304.670893, 226.215508 234.444867)

LINESTRING (226.215508 234.444867, 311.867691 178.130544)

LINESTRING (311.867691 178.130544, 399.708692 157.649991)

LINESTRING (399.708692 157.649991, 491.519082 177.977875)

LINESTRING (491.519082 177.977875, 573.504694 232.462709)

LINESTRING (573.504694 232.462709, 625.553887 307.588441)

LINESTRING (625.553887 307.588441, 637.631413 398.531444)

LINESTRING (475.777878 403.881853, 560.140865 396.582179)

LINESTRING (560.140865 396.582179, 637.631413 398.531444)

LINESTRING (475.628012 431.534510, 548.122008 465.088110)

LINESTRING (548.122008 465.088110, 623.204336 491.146222)

LINESTRING (459.376132 458.874310, 512.282098 510.919806)

LINESTRING (512.282098 510.919806, 573.719863 569.857906)

LINESTRING (428.367356 477.866076, 461.947268 549.895289)

LINESTRING (461.947268 549.895289, 496.666602 621.956016)

LINESTRING (404.685690 484.765572, 397.300195 564.405472)

LINESTRING (397.300195 564.405472, 396.009207 637.784211)

LINESTRING (370.145210 478.025098, 338.036190 544.085437)

LINESTRING (338.036190 544.085437, 305.564103 626.013605)

LINESTRING (346.257373 459.934242, 289.666771 513.900217)

LINESTRING (289.666771 513.900217, 231.803328 571.585948)

LINESTRING (330.059402 429.809050, 250.836305 465.869680)

LINESTRING (250.836305 465.869680, 177.547087 495.664014)

LINESTRING (315.313966 395.268033, 240.285070 399.371338)

LINESTRING (240.285070 399.371338, 157.278571 397.109215)

LINESTRING (329.447650 370.007840, 256.596749 334.244426)

LINESTRING (256.596749 334.244426, 177.627909 304.670893)

LINESTRING (341.073091 346.689246, 284.448273 287.446461)

LINESTRING (284.448273 287.446461, 226.215508 234.444867)

LINESTRING (370.401297 321.266427, 342.333387 254.967372)

LINESTRING (342.333387 254.967372, 311.867691 178.130544)

LINESTRING (404.315069 320.036675, 404.078155 239.174743)

LINESTRING (404.078155 239.174743, 399.708692 157.649991)

LINESTRING (433.322511 322.896671, 459.464863 255.249662)

LINESTRING (459.464863 255.249662, 491.519082 177.977875)

LINESTRING (455.209649 340.894723, 517.908317 290.423636)

LINESTRING (517.908317 290.423636, 573.504694 232.462709)

LINESTRING (469.420640 369.308605, 544.755765 338.595652)

LINESTRING (544.755765 338.595652, 625.553887 307.588441)

LINESTRING (400.000000 400.000000, 475.777878 403.881853)

