LINESTRING (80.000000 80.000000, 202.622172 102.460476)

LINESTRING (202.622172 102.460476, 322.333745 74.952416)

LINESTRING (322.333745 74.952416, 411.038872 -12.827234)

LINESTRING (411.038872 -12.827234, 434.741771 -122.530279)

LINESTRING (411.038872 -12.827234, 488.294234 -101.659373)

LINESTRING (411.038872 -12.827234, 527.041142 -46.869948)

LINESTRING (322.333745 74.952416, 434.387131 45.307754)

LINESTRING (434.387131 45.307754, 519.682526 -41.818701)

LINESTRING (434.387131 45.307754, 552.749643 22.656067)

LINESTRING (434.387131 45.307754, 552.932483 83.704049)

LINESTRING (322.333745 74.952416, 445.743479 104.215489)

LINESTRING (445.743479 104.215489, 561.982698 70.162838)

LINESTRING (445.743479 104.215489, 567.029338 141.732254)

LINESTRING (445.743479 104.215489, 521.770359 187.351830)

LINESTRING (202.622172 102.460476, 311.371449 135.989488)

LINESTRING (311.371449 135.989488, 434.157916 95.870912)

LINESTRING (434.157916 95.870912, 522.300336 8.337158)

LINESTRING (434.157916 95.870912, 543.955411 70.174616)

LINESTRING (434.157916 95.870912, 549.417493 133.122191)

LINESTRING (311.371449 135.989488, 420.455891 171.320008)

LINESTRING (420.455891 171.320008, 540.890549 133.863108)

LINESTRING (420.455891 171.320008, 535.825468 206.648571)

LINESTRING (420.455891 171.320008, 497.991627 254.993410)

LINESTRING (311.371449 135.989488, 393.065142 213.507926)

LINESTRING (393.065142 213.507926, 517.206179 251.794355)

LINESTRING (393.065142 213.507926, 480.018539 293.438280)

LINESTRING (393.065142 213.507926, 433.970302 337.699440)

LINESTRING (202.622172 102.460476, 296.435864 185.619650)

LINESTRING (296.435864 185.619650, 412.198728 211.504368)

LINESTRING (412.198728 211.504368, 533.671736 182.224076)

LINESTRING (412.198728 211.504368, 526.642113 232.595937)

LINESTRING (412.198728 211.504368, 487.402808 295.003291)

LINESTRING (296.435864 185.619650, 381.672287 262.901892)

LINESTRING (381.672287 262.901892, 505.794115 290.226873)

LINESTRING (381.672287 262.901892, 463.514385 343.400044)

LINESTRING (381.672287 262.901892, 416.591635 387.218083)

LINESTRING (296.435864 185.619650, 321.462772 307.077348)

LINESTRING (321.462772 307.077348, 411.865418 386.011136)

LINESTRING (321.462772 307.077348, 344.222757 422.290934)

LINESTRING (321.462772 307.077348, 292.959016 413.831286)

LINESTRING (80.000000 80.000000, 156.956272 169.661058)

LINESTRING (156.956272 169.661058, 282.240025 207.715405)

LINESTRING (282.240025 207.715405, 389.673648 170.619384)

LINESTRING (389.673648 170.619384, 472.868981 85.532181)

LINESTRING (389.673648 170.619384, 510.092427 134.725728)

LINESTRING (389.673648 170.619384, 508.552213 193.057837)

LINESTRING (282.240025 207.715405, 395.339836 239.938416)

LINESTRING (395.339836 239.938416, 512.120490 208.582782)

LINESTRING (395.339836 239.938416, 504.879944 267.314203)

LINESTRING (395.339836 239.938416, 478.369020 322.832778)

LINESTRING (282.240025 207.715405, 370.619306 295.965962)

LINESTRING (370.619306 295.965962, 483.180179 323.352079)

LINESTRING (370.619306 295.965962, 459.488937 374.466722)

LINESTRING (370.619306 295.965962, 410.679905 403.581423)

LINESTRING (156.956272 169.661058, 234.723568 260.271862)

LINESTRING (234.723568 260.271862, 352.187206 284.389049)

LINESTRING (352.187206 284.389049, 475.130995 256.838403)

LINESTRING (352.187206 284.389049, 474.917156 317.587628)

LINESTRING (352.187206 284.389049, 427.533559 378.845654)

LINESTRING (234.723568 260.271862, 314.397777 348.134043)

LINESTRING (314.397777 348.134043, 422.172814 386.548057)

LINESTRING (314.397777 348.134043, 395.991519 442.028568)

LINESTRING (314.397777 348.134043, 342.713452 460.957860)

LINESTRING (234.723568 260.271862, 258.728269 373.046979)

LINESTRING (258.728269 373.046979, 349.227358 456.554363)

LINESTRING (258.728269 373.046979, 283.927094 480.721176)

LINESTRING (258.728269 373.046979, 217.791642 486.567525)

LINESTRING (156.956272 169.661058, 178.502244 279.035161)

LINESTRING (178.502244 279.035161, 256.247983 358.636145)

LINESTRING (256.247983 358.636145, 378.934411 395.179201)

LINESTRING (256.247983 358.636145, 334.709406 440.435421)

LINESTRING (256.247983 358.636145, 292.841143 467.345856)

LINESTRING (178.502244 279.035161, 208.381023 387.234156)

LINESTRING (208.381023 387.234156, 299.904776 477.030152)

LINESTRING (208.381023 387.234156, 231.560163 498.594703)

LINESTRING (208.381023 387.234156, 172.880953 509.687081)

LINESTRING (178.502244 279.035161, 151.551726 397.195639)

LINESTRING (151.551726 397.195639, 192.010653 509.166320)

LINESTRING (151.551726 397.195639, 123.701946 516.584352)

LINESTRING (151.551726 397.195639, 72.288449 476.697884)

LINESTRING (80.000000 80.000000, 117.567387 186.815484)

LINESTRING (117.567387 186.815484, 203.752449 275.559930)

LINESTRING (203.752449 275.559930, 329.230190 300.680867)

LINESTRING (329.230190 300.680867, 439.885837 263.161574)

LINESTRING (329.230190 300.680867, 451.573746 330.675124)

LINESTRING (329.230190 300.680867, 417.180206 393.196323)

LINESTRING (203.752449 275.559930, 292.083945 356.004864)

LINESTRING (292.083945 356.004864, 415.082070 387.502397)

LINESTRING (292.083945 356.004864, 384.446491 430.861406)

LINESTRING (292.083945 356.004864, 319.721761 474.940666)

LINESTRING (203.752449 275.559930, 243.277124 382.921773)

LINESTRING (243.277124 382.921773, 323.622532 466.389849)

LINESTRING (243.277124 382.921773, 277.636192 490.812942)

LINESTRING (243.277124 382.921773, 210.518959 495.597224)

LINESTRING (117.567387 186.815484, 141.320183 307.963510)

LINESTRING (141.320183 307.963510, 228.981674 393.073983)

LINESTRING (228.981674 393.073983, 352.688156 414.198533)

LINESTRING (228.981674 393.073983, 320.925646 478.525601)

LINESTRING (228.981674 393.073983, 252.266200 507.295008)

LINESTRING (141.320183 307.963510, 174.050658 414.456973)

LINESTRING (174.050658 414.456973, 256.137466 491.503449)

LINESTRING (174.050658 414.456973, 213.106952 522.581222)

LINESTRING (174.050658 414.456973, 146.849550 523.532455)

LINESTRING (141.320183 307.963510, 114.665179 429.991033)

LINESTRING (114.665179 429.991033, 137.204126 543.390555)

LINESTRING (114.665179 429.991033, 83.683931 542.861285)

LINESTRING (114.665179 429.991033, 34.504068 513.749917)

LINESTRING (117.567387 186.815484, 80.865913 296.925697)

LINESTRING (80.865913 296.925697, 102.240687 407.230841)

LINESTRING (102.240687 407.230841, 186.905935 490.485605)

LINESTRING (102.240687 407.230841, 132.277913 532.394333)

LINESTRING (102.240687 407.230841, 69.487989 522.076573)

LINESTRING (80.865913 296.925697, 56.270597 403.313232)

LINESTRING (56.270597 403.313232, 95.737707 517.395616)

LINESTRING (56.270597 403.313232, 29.812810 510.654857)

LINESTRING (56.270597 403.313232, -28.658955 478.643016)

LINESTRING (80.865913 296.925697, 4.111245 376.433682)

LINESTRING (4.111245 376.433682, -19.614272 486.378775)

LINESTRING (4.111245 376.433682, -80.235678 458.952703)

LINESTRING (4.111245 376.433682, -106.160564 410.988096)

