LINESTRING (327644.584771 6820190.033203, 327642.809572 6820187.488334, 327642.251887 6820184.425539, 327643.019757 6820181.408460, 327644.964631 6820178.991173)

LINESTRING (327644.964631 6820178.991173, 327647.281604 6820177.726891, 327649.893530 6820177.351678, 327652.545264 6820177.777796)

LINESTRING (327644.964631 6820178.991173, 327645.464289 6820168.534516, 327640.257598 6820136.872890, 327640.421931 6820134.488276, 327640.894954 6820127.469311, 327643.937261 6820082.589594, 327650.510281 6820002.546028, 327650.635981 6819966.190160, 327652.775991 6819949.114006, 327654.172681 6819942.640490, 327654.816139 6819939.372988, 327655.674817 6819928.084045, 327657.870454 6819908.796043, 327657.556254 6819898.602965, 327657.138053 6819889.753897, 327657.207994 6819867.849169)

LINESTRING (327454.485462 6819799.903124, 327447.515065 6819820.700671)

LINESTRING (327454.485462 6819799.903124, 327500.003906 6819811.575048, 327505.636447 6819813.559913, 327516.979893 6819816.744780)

LINESTRING (327454.485462 6819799.903124, 327431.995700 6819792.352522, 327421.736558 6819786.938361, 327411.246395 6819781.279107, 327400.027669 6819774.384216, 327375.702241 6819758.367787, 327340.050502 6819735.127441)

LINESTRING (327447.515065 6819820.700671, 327454.485462 6819799.903124)

LINESTRING (327447.515065 6819820.700671, 327445.450717 6819827.263279, 327443.989628 6819831.899184, 327441.167772 6819839.325091, 327437.269499 6819845.923127, 327433.405747 6819851.069031, 327423.751743 6819863.933546, 327419.923082 6819869.033094, 327414.614755 6819879.037263, 327397.522390 6819911.216595, 327395.949746 6819914.251457)

LINESTRING (327447.515065 6819820.700671, 327495.810115 6819834.343129, 327504.487450 6819836.712152)

LINESTRING (327516.979893 6819816.744780, 327522.783447 6819818.520343)

LINESTRING (327516.979893 6819816.744780, 327505.636447 6819813.559913, 327500.003906 6819811.575048, 327454.485462 6819799.903124)

LINESTRING (327516.979893 6819816.744780, 327520.597870 6819805.363244, 327528.107368 6819796.153572)

LINESTRING (327340.050502 6819735.127441, 327317.161285 6819719.028764)

LINESTRING (327340.050502 6819735.127441, 327345.229789 6819726.925874, 327347.229813 6819723.791628, 327370.355050 6819676.952780, 327376.753151 6819665.678223, 327379.539925 6819660.764356)

LINESTRING (327340.050502 6819735.127441, 327375.702241 6819758.367787, 327400.027669 6819774.384216, 327411.246395 6819781.279107, 327421.736558 6819786.938361, 327431.995700 6819792.352522, 327454.485462 6819799.903124)

LINESTRING (327872.742497 6820152.051655, 327869.246580 6820144.504463)

LINESTRING (327872.742497 6820152.051655, 327821.558413 6820168.984025, 327805.584940 6820174.183831, 327801.761741 6820175.310783, 327790.796156 6820178.633173, 327748.437126 6820190.386884, 327738.627610 6820191.844608, 327729.028678 6820192.600167, 327710.620508 6820191.639917, 327699.631908 6820191.058786, 327695.548043 6820190.804174, 327661.821968 6820188.150444, 327656.299452 6820187.721889)

LINESTRING (327869.246580 6820144.504463, 327872.742497 6820152.051655)

LINESTRING (327869.246580 6820144.504463, 327865.534517 6820137.548162, 327858.621525 6820128.775897, 327775.226654 6820022.995882, 327714.959215 6819946.550071, 327710.187554 6819940.617181, 327693.818744 6819920.254012)

LINESTRING (327869.246580 6820144.504463, 327896.307614 6820136.389643, 327926.214704 6820125.947112, 327971.977083 6820104.788924, 328016.697985 6820083.493334, 328028.675567 6820078.079802, 328031.441506 6820076.827005, 328042.091234 6820072.182229)

LINESTRING (327656.299452 6820187.721889, 327654.502505 6820190.109507)

LINESTRING (328141.994538 6820044.907045, 328140.037818 6820009.067478, 328140.973132 6819992.185332)

LINESTRING (325774.255763 6819462.026124, 325846.038260 6819454.830290)

LINESTRING (325774.255763 6819462.026124, 325775.037630 6819468.882149, 325776.605828 6819482.683236, 325777.359985 6819489.306348, 325779.699120 6819509.852436, 325780.626765 6819518.017718, 325782.259027 6819532.351145, 325783.044231 6819539.273948, 325784.821712 6819554.905503)

LINESTRING (325774.255763 6819462.026124, 325769.285302 6819418.092325, 325759.293811 6819329.859081, 325758.581886 6819323.546258)

LINESTRING (325846.038260 6819454.830290, 325774.255763 6819462.026124)

LINESTRING (325846.038260 6819454.830290, 325914.804325 6819449.103844)

LINESTRING (325846.038260 6819454.830290, 325851.038657 6819504.910359, 325851.513067 6819509.684231, 325853.756174 6819532.154232, 325855.273662 6819547.397183)

LINESTRING (325846.038260 6819454.830290, 325832.875798 6819345.702086, 325832.692797 6819344.182707, 325829.431490 6819317.166966)

LINESTRING (325784.821712 6819554.905503, 325783.044231 6819539.273948, 325782.259027 6819532.351145, 325780.626765 6819518.017718, 325779.699120 6819509.852436, 325777.359985 6819489.306348, 325776.605828 6819482.683236, 325775.037630 6819468.882149, 325774.255763 6819462.026124)

LINESTRING (325758.581886 6819323.546258, 325759.293811 6819329.859081, 325769.285302 6819418.092325, 325774.255763 6819462.026124)

LINESTRING (325758.581886 6819323.546258, 325767.873536 6819322.678092, 325829.431490 6819317.166966)

LINESTRING (326473.549441 6819398.804937, 326431.845809 6819400.009078, 326404.132489 6819400.815099)

LINESTRING (326473.549441 6819398.804937, 326497.353256 6819398.373445, 326503.997191 6819398.141695, 326509.565138 6819397.952591, 326576.003380 6819395.613632)

LINESTRING (326473.549441 6819398.804937, 326474.499938 6819417.066479, 326474.775483 6819422.363559, 326475.732660 6819440.758656, 326478.478107 6819493.529125)

LINESTRING (326473.549441 6819398.804937, 326475.642679 6819371.286873, 326476.354170 6819356.802641, 326476.596929 6819353.331752, 326477.309481 6819343.031442, 326477.690545 6819337.523016, 326477.929098 6819334.074651, 326479.391657 6819313.048186, 326481.053545 6819287.894729, 326482.710394 6819262.853100)

LINESTRING (326404.132489 6819400.815099, 326405.288520 6819484.526124)

LINESTRING (326404.132489 6819400.815099, 326375.477010 6819401.992039, 326332.413663 6819403.756326)

LINESTRING (326404.132489 6819400.815099, 326431.845809 6819400.009078, 326473.549441 6819398.804937)

LINESTRING (326404.132489 6819400.815099, 326404.178065 6819373.131611, 326404.214141 6819353.046707, 326404.282750 6819312.698562, 326404.372361 6819261.671858)

LINESTRING (326576.003380 6819395.613632, 326587.184456 6819488.418690)

LINESTRING (326576.003380 6819395.613632, 326509.565138 6819397.952591, 326503.997191 6819398.141695, 326497.353256 6819398.373445, 326473.549441 6819398.804937)

LINESTRING (326576.003380 6819395.613632, 326648.499261 6819382.161992, 326669.350837 6819378.509676)

LINESTRING (326576.003380 6819395.613632, 326576.709498 6819375.673824, 326577.354050 6819321.819081, 326577.518022 6819316.555827, 326579.038752 6819267.521866)

LINESTRING (326478.478107 6819493.529125, 326475.732660 6819440.758656, 326474.775483 6819422.363559, 326474.499938 6819417.066479, 326473.549441 6819398.804937)

LINESTRING (326482.710394 6819262.853100, 326512.929060 6819264.310187, 326527.749762 6819265.030942, 326545.620222 6819265.900576, 326579.038752 6819267.521866)

LINESTRING (326482.710394 6819262.853100, 326407.523619 6819261.715063, 326404.372361 6819261.671858)

LINESTRING (326482.710394 6819262.853100, 326481.053545 6819287.894729, 326479.391657 6819313.048186, 326477.929098 6819334.074651, 326477.690545 6819337.523016, 326477.309481 6819343.031442, 326476.596929 6819353.331752, 326476.354170 6819356.802641, 326475.642679 6819371.286873, 326473.549441 6819398.804937)

LINESTRING (326482.710394 6819262.853100, 326496.266032 6819207.627550, 326506.645911 6819165.313578)

LINESTRING (325829.431490 6819317.166966, 325901.089742 6819310.413844)

LINESTRING (325829.431490 6819317.166966, 325832.692797 6819344.182707, 325832.875798 6819345.702086, 325846.038260 6819454.830290)

LINESTRING (325829.431490 6819317.166966, 325767.873536 6819322.678092, 325758.581886 6819323.546258)

LINESTRING (325901.089742 6819310.413844, 325970.109667 6819303.839144)

LINESTRING (325901.089742 6819310.413844, 325829.431490 6819317.166966)

LINESTRING (325901.089742 6819310.413844, 325904.272024 6819338.950984, 325905.856833 6819355.540607, 325906.370845 6819360.892679, 325909.002386 6819388.453285, 325914.804325 6819449.103844)

LINESTRING (325914.804325 6819449.103844, 325846.038260 6819454.830290)

LINESTRING (325914.804325 6819449.103844, 325985.935670 6819440.839015)

LINESTRING (325914.804325 6819449.103844, 325917.938784 6819479.562459, 325922.475919 6819520.215501, 325923.059418 6819525.463672, 325924.329816 6819540.361992)

LINESTRING (325914.804325 6819449.103844, 325909.002386 6819388.453285, 325906.370845 6819360.892679, 325905.856833 6819355.540607, 325904.272024 6819338.950984, 325901.089742 6819310.413844)

LINESTRING (325855.273662 6819547.397183, 325853.756174 6819532.154232, 325851.513067 6819509.684231, 325851.038657 6819504.910359, 325846.038260 6819454.830290)

LINESTRING (325970.109667 6819303.839144, 325901.089742 6819310.413844)

LINESTRING (325970.109667 6819303.839144, 325985.935670 6819440.839015)

LINESTRING (325970.109667 6819303.839144, 325981.976052 6819302.585824, 326022.479680 6819298.066998, 326039.580627 6819296.038227)

LINESTRING (325985.935670 6819440.839015, 325914.804325 6819449.103844)

LINESTRING (325985.935670 6819440.839015, 325970.109667 6819303.839144)

LINESTRING (325985.935670 6819440.839015, 325989.228556 6819481.175136, 325994.661670 6819547.802270, 325996.863797 6819562.129480)

LINESTRING (325924.329816 6819540.361992, 325923.059418 6819525.463672, 325922.475919 6819520.215501, 325917.938784 6819479.562459, 325914.804325 6819449.103844)

LINESTRING (326039.580627 6819296.038227, 326054.199679 6819433.823962)

LINESTRING (326039.580627 6819296.038227, 326063.495053 6819293.534159, 326067.126690 6819293.151314, 326090.445961 6819290.699576, 326108.838434 6819288.773790)

LINESTRING (326039.580627 6819296.038227, 326022.479680 6819298.066998, 325981.976052 6819302.585824, 325970.109667 6819303.839144)

LINESTRING (325996.863797 6819562.129480, 325983.715386 6819561.639604, 325976.088570 6819561.743142)

LINESTRING (325996.863797 6819562.129480, 326011.613301 6819562.193249, 326047.229748 6819558.298908, 326056.672385 6819557.368120, 326066.167960 6819556.535120)

LINESTRING (325996.863797 6819562.129480, 325994.661670 6819547.802270, 325989.228556 6819481.175136, 325985.935670 6819440.839015)

LINESTRING (325976.088570 6819561.743142, 325978.289310 6819569.442936, 325979.681706 6819574.326982, 325985.217908 6819587.025374, 325987.918012 6819592.870322, 325988.622360 6819594.463978, 325988.851447 6819594.988044, 325989.412697 6819597.559566, 325988.479600 6819599.279963, 325986.532998 6819601.330119, 325976.397569 6819607.919166, 325938.692430 6819620.063928, 325934.370212 6819621.887402, 325937.333213 6819627.652183, 325953.561235 6819652.622893, 325962.185354 6819666.661455, 325969.293395 6819677.607377, 325973.104494 6819682.939139, 325991.698918 6819712.432781, 326000.001207 6819726.018949, 326006.727099 6819742.652040, 326009.220098 6819752.245100, 326010.588833 6819758.681214, 326011.849189 6819771.683295, 326012.832256 6819784.264143, 326012.817716 6819796.426405, 326012.683846 6819803.015965, 326011.273494 6819816.609419, 326008.459619 6819831.054269, 326002.613810 6819849.634348, 325993.221309 6819867.510874, 325985.659596 6819877.730911, 325972.557012 6819891.431044, 325953.630716 6819908.502797)

LINESTRING (325976.088570 6819561.743142, 325983.715386 6819561.639604, 325996.863797 6819562.129480)

LINESTRING (326066.167960 6819556.535120, 326064.523423 6819540.974942, 326063.300195 6819528.283401, 326057.782771 6819471.021491, 326054.199679 6819433.823962)

LINESTRING (326066.167960 6819556.535120, 326056.672385 6819557.368120, 326047.229748 6819558.298908, 326011.613301 6819562.193249, 325996.863797 6819562.129480)

LINESTRING (326066.167960 6819556.535120, 326113.517910 6819550.881841, 326129.539397 6819549.063728, 326184.888933 6819543.501546, 326198.027397 6819540.277293, 326205.658148 6819538.121099, 326274.801494 6819518.860138, 326339.170552 6819502.941248, 326349.824221 6819501.571317, 326370.180939 6819500.418824, 326397.561418 6819499.696076, 326400.874158 6819499.664238, 326403.236971 6819499.847284, 326404.961245 6819499.961858, 326415.241260 6819500.831120, 326430.654488 6819501.465972, 326436.413401 6819502.003569)

LINESTRING (326054.199679 6819433.823962, 326039.580627 6819296.038227)

LINESTRING (326054.199679 6819433.823962, 326057.782771 6819471.021491, 326063.300195 6819528.283401, 326064.523423 6819540.974942, 326066.167960 6819556.535120)

LINESTRING (326054.199679 6819433.823962, 326079.284457 6819431.049289, 326123.535252 6819426.142921)

LINESTRING (326108.838434 6819288.773790, 326113.348990 6819333.735000, 326115.438081 6819354.550332, 326117.249328 6819372.590252, 326117.833962 6819376.588757, 326120.114092 6819396.423830, 326123.535252 6819426.142921)

LINESTRING (326108.838434 6819288.773790, 326120.290168 6819287.552881, 326144.711887 6819284.945861, 326179.168317 6819281.278537)

LINESTRING (326108.838434 6819288.773790, 326090.445961 6819290.699576, 326067.126690 6819293.151314, 326063.495053 6819293.534159, 326039.580627 6819296.038227)

LINESTRING (326123.535252 6819426.142921, 326192.751687 6819418.424617)

LINESTRING (326123.535252 6819426.142921, 326126.518652 6819451.599529, 326126.609809 6819452.353660, 326129.303241 6819475.325554, 326129.833093 6819479.828886, 326136.017322 6819532.527546)

LINESTRING (326123.535252 6819426.142921, 326120.114092 6819396.423830, 326117.833962 6819376.588757, 326117.249328 6819372.590252, 326115.438081 6819354.550332, 326113.348990 6819333.735000, 326108.838434 6819288.773790)

LINESTRING (326123.535252 6819426.142921, 326079.284457 6819431.049289, 326054.199679 6819433.823962)

LINESTRING (326436.413401 6819502.003569, 326430.654488 6819501.465972, 326415.241260 6819500.831120, 326404.961245 6819499.961858, 326403.236971 6819499.847284, 326400.874158 6819499.664238, 326397.561418 6819499.696076, 326370.180939 6819500.418824, 326349.824221 6819501.571317, 326339.170552 6819502.941248, 326274.801494 6819518.860138, 326205.658148 6819538.121099, 326198.027397 6819540.277293, 326184.888933 6819543.501546, 326129.539397 6819549.063728, 326113.517910 6819550.881841, 326066.167960 6819556.535120)

LINESTRING (326436.413401 6819502.003569, 326478.229438 6819506.807548, 326500.473903 6819509.254477, 326510.636562 6819509.806324, 326520.455070 6819509.772913, 326530.582037 6819509.824526, 326549.122899 6819508.328720, 326590.475836 6819500.348665, 326597.889459 6819498.862479, 326605.646352 6819497.303372, 326680.182846 6819480.191142, 326721.601297 6819470.948648, 326770.280034 6819457.249534, 326781.927725 6819454.726762, 326793.448769 6819452.232665, 326803.400220 6819450.263232, 326809.097235 6819449.454515, 326826.716635 6819447.883474, 326841.788911 6819447.890053, 326875.021574 6819443.476144)

LINESTRING (326436.413401 6819502.003569, 326435.238826 6819507.864099, 326431.894357 6819526.574771, 326430.998487 6819531.071333, 326421.292071 6819566.847314, 326419.881853 6819572.050204, 326416.579662 6819582.000323, 326411.639583 6819589.187273, 326406.294055 6819594.776709, 326399.427418 6819600.364151, 326391.832475 6819605.474811, 326381.779007 6819612.114315, 326370.095176 6819616.994476, 326351.156096 6819625.239055, 326335.567110 6819633.025988, 326332.047350 6819635.210459, 326325.021576 6819640.493621, 326319.206118 6819647.032782, 326306.144966 6819667.680438, 326304.798116 6819670.626442, 326302.090125 6819676.552639, 326299.671902 6819682.296973, 326297.733981 6819689.746649, 326295.832225 6819699.091259)

LINESTRING (326179.168317 6819281.278537, 326194.188661 6819279.801038, 326238.351639 6819275.447371, 326247.524095 6819274.541838)

LINESTRING (326179.168317 6819281.278537, 326144.711887 6819284.945861, 326120.290168 6819287.552881, 326108.838434 6819288.773790)

LINESTRING (326179.168317 6819281.278537, 326183.536326 6819326.715525, 326189.865767 6819389.682848, 326190.378841 6819394.811834, 326192.751687 6819418.424617)

LINESTRING (326192.751687 6819418.424617, 326123.535252 6819426.142921)

LINESTRING (326192.751687 6819418.424617, 326195.931593 6819447.921518, 326200.645369 6819491.634129, 326204.244454 6819525.026260)

LINESTRING (326192.751687 6819418.424617, 326190.378841 6819394.811834, 326189.865767 6819389.682848, 326183.536326 6819326.715525, 326179.168317 6819281.278537)

LINESTRING (326192.751687 6819418.424617, 326213.302217 6819416.335471, 326263.500328 6819411.244652)

LINESTRING (326136.017322 6819532.527546, 326129.833093 6819479.828886, 326129.303241 6819475.325554, 326126.609809 6819452.353660, 326126.518652 6819451.599529, 326123.535252 6819426.142921)

LINESTRING (326247.524095 6819274.541838, 326324.520831 6819265.555424)

LINESTRING (326247.524095 6819274.541838, 326238.351639 6819275.447371, 326194.188661 6819279.801038, 326179.168317 6819281.278537)

LINESTRING (326247.524095 6819274.541838, 326250.817358 6819297.996979, 326253.198321 6819319.221706, 326255.489254 6819339.714557, 326257.832734 6819360.617600, 326260.210559 6819381.887114, 326263.500328 6819411.244652)

LINESTRING (326247.524095 6819274.541838, 326241.567598 6819226.037994, 326238.029014 6819195.019328)

LINESTRING (326324.520831 6819265.555424, 326247.524095 6819274.541838)

LINESTRING (326324.520831 6819265.555424, 326354.503222 6819264.099756, 326404.372361 6819261.671858)

LINESTRING (326324.520831 6819265.555424, 326328.959558 6819343.266980, 326330.800329 6819375.464066, 326332.413663 6819403.756326)

LINESTRING (326263.500328 6819411.244652, 326332.413663 6819403.756326)

LINESTRING (326263.500328 6819411.244652, 326267.976279 6819456.620487, 326270.732054 6819484.587783, 326270.883477 6819486.119911, 326272.749146 6819505.049721)

LINESTRING (326263.500328 6819411.244652, 326260.210559 6819381.887114, 326257.832734 6819360.617600, 326255.489254 6819339.714557, 326253.198321 6819319.221706, 326250.817358 6819297.996979, 326247.524095 6819274.541838)

LINESTRING (326263.500328 6819411.244652, 326213.302217 6819416.335471, 326192.751687 6819418.424617)

LINESTRING (326238.029014 6819195.019328, 326241.567598 6819226.037994, 326247.524095 6819274.541838)

LINESTRING (326238.029014 6819195.019328, 326205.367944 6819198.529160, 326179.168110 6819201.347498, 326157.682282 6819203.650973, 326148.269943 6819209.254825)

LINESTRING (326238.029014 6819195.019328, 326241.017954 6819194.590748, 326292.156568 6819188.817501, 326335.620381 6819183.908809, 326344.823676 6819182.868119, 326382.656373 6819178.598820, 326389.967791 6819172.922209, 326411.430167 6819156.273112, 326463.097820 6819161.175781, 326467.785190 6819161.622000, 326484.909709 6819163.253877, 326506.645911 6819165.313578)

LINESTRING (326204.244454 6819525.026260, 326200.645369 6819491.634129, 326195.931593 6819447.921518, 326192.751687 6819418.424617)

LINESTRING (326332.413663 6819403.756326, 326263.500328 6819411.244652)

LINESTRING (326332.413663 6819403.756326, 326375.477010 6819401.992039, 326404.132489 6819400.815099)

LINESTRING (326332.413663 6819403.756326, 326330.800329 6819375.464066, 326328.959558 6819343.266980, 326324.520831 6819265.555424)

LINESTRING (326332.413663 6819403.756326, 326333.818268 6819431.077190, 326335.720867 6819468.135765, 326335.798285 6819469.682755, 326336.630518 6819485.886127)

LINESTRING (326272.749146 6819505.049721, 326270.883477 6819486.119911, 326270.732054 6819484.587783, 326267.976279 6819456.620487, 326263.500328 6819411.244652)

LINESTRING (326799.723824 6819415.312705, 326762.709247 6819378.612143, 326747.660429 6819363.687530)

LINESTRING (326747.660429 6819363.687530, 326737.123111 6819365.686358, 326729.546661 6819367.124568, 326704.410503 6819371.871888, 326678.112028 6819376.855960, 326669.350837 6819378.509676)

LINESTRING (326747.660429 6819363.687530, 326787.911771 6819348.568565, 326807.751572 6819341.107211, 326824.296521 6819334.892638, 326834.793138 6819332.717598)

LINESTRING (326747.660429 6819363.687530, 326736.646942 6819344.924252, 326731.029833 6819335.364040, 326728.717501 6819331.596782, 326723.105496 6819322.460299, 326717.302820 6819306.940262, 326710.001054 6819271.981121)

LINESTRING (326747.660429 6819363.687530, 326762.709247 6819378.612143, 326799.723824 6819415.312705)

LINESTRING (326834.793138 6819332.717598, 326860.818652 6819264.911118)

LINESTRING (326834.793138 6819332.717598, 326824.296521 6819334.892638, 326807.751572 6819341.107211, 326787.911771 6819348.568565, 326747.660429 6819363.687530)

LINESTRING (326834.793138 6819332.717598, 326884.962886 6819347.151191, 326890.226957 6819348.573338)

LINESTRING (326860.818652 6819264.911118, 326834.793138 6819332.717598)

LINESTRING (326860.818652 6819264.911118, 326772.579438 6819269.046650, 326710.001054 6819271.981121)

LINESTRING (326860.818652 6819264.911118, 326869.119306 6819242.785145, 326878.012647 6819219.056473, 326886.503329 6819196.776036)

LINESTRING (326890.226957 6819348.573338, 326884.962886 6819347.151191, 326834.793138 6819332.717598)

LINESTRING (326890.226957 6819348.573338, 326897.251624 6819350.409745, 326899.224427 6819351.226230, 326925.328302 6819364.272395, 327008.334223 6819405.744126, 327036.281323 6819419.703331, 327042.503309 6819423.108554, 327063.660541 6819434.695190, 327074.712760 6819441.318474, 327080.214065 6819444.614628, 327097.884272 6819455.203715, 327114.861392 6819465.381129, 327166.057883 6819496.213025)

LINESTRING (326890.226957 6819348.573338, 326893.319537 6819342.092955, 326899.951468 6819325.997065, 326909.218166 6819308.899520, 326915.092571 6819298.051850, 326932.599968 6819261.576210, 326935.621737 6819255.277923, 326951.534383 6819227.272120, 326962.633903 6819208.599464, 326978.720102 6819182.995108)

LINESTRING (326890.226957 6819348.573338, 326883.849564 6819364.634241, 326880.811695 6819378.843830, 326878.782252 6819388.339416, 326876.349970 6819420.571121, 326875.142561 6819437.556801, 326875.021574 6819443.476144)

LINESTRING (327012.512684 6819126.261227, 327013.784484 6819121.043236, 327028.442340 6819087.968129, 327031.383377 6819081.328100, 327034.507341 6819074.288458, 327040.178498 6819061.487528, 327052.187847 6819034.379723, 327065.737994 6819003.803435, 327068.628603 6818997.433732, 327070.790747 6818992.405710, 327072.465466 6818988.629260, 327084.365662 6818961.783656, 327100.397055 6818925.605785, 327119.154454 6818883.278548, 327159.691941 6818793.475580, 327161.475127 6818787.585092, 327163.995921 6818779.247943, 327168.795357 6818760.711318, 327170.459983 6818748.043221, 327179.815557 6818733.419054)

LINESTRING (327012.512684 6819126.261227, 327022.254690 6819131.956729, 327159.601994 6819217.093308, 327206.019685 6819245.899092, 327213.024714 6819250.236308, 327279.266811 6819291.321839, 327302.122104 6819305.503111)

LINESTRING (327012.512684 6819126.261227, 327011.029026 6819131.512093, 326978.720102 6819182.995108)

LINESTRING (327012.512684 6819126.261227, 327001.480797 6819118.353988, 326991.090092 6819109.176374, 326983.162080 6819100.255363, 326972.488293 6819084.866220)

LINESTRING (327179.815557 6818733.419054, 327170.459983 6818748.043221, 327168.795357 6818760.711318, 327163.995921 6818779.247943, 327161.475127 6818787.585092, 327159.691941 6818793.475580, 327119.154454 6818883.278548, 327100.397055 6818925.605785, 327084.365662 6818961.783656, 327072.465466 6818988.629260, 327070.790747 6818992.405710, 327068.628603 6818997.433732, 327065.737994 6819003.803435, 327052.187847 6819034.379723, 327040.178498 6819061.487528, 327034.507341 6819074.288458, 327031.383377 6819081.328100, 327028.442340 6819087.968129, 327013.784484 6819121.043236, 327012.512684 6819126.261227)

LINESTRING (327179.815557 6818733.419054, 327260.232598 6818828.636199, 327306.376926 6818889.957749, 327360.702551 6818968.880384, 327380.223401 6819005.386064, 327396.938238 6819036.564413, 327401.556279 6819045.171153, 327405.450765 6819052.430403, 327421.004151 6819084.626107, 327437.101392 6819120.465495, 327466.667307 6819191.036681, 327485.482696 6819238.411386, 327516.804782 6819313.425351, 327569.218032 6819438.713871, 327606.611357 6819530.508191, 327613.503522 6819548.173250, 327623.725422 6819576.896886, 327629.690970 6819598.579902, 327632.427571 6819613.383228, 327634.163082 6819624.041240, 327646.455192 6819695.739378, 327652.093049 6819740.053990, 327657.224345 6819770.625993)

LINESTRING (327179.815557 6818733.419054, 327158.233770 6818709.624434, 327137.364466 6818688.672983, 327120.254133 6818671.495206)

LINESTRING (327302.122104 6819305.503111, 327297.949272 6819310.776085, 327289.924446 6819320.904428, 327282.894919 6819331.083672, 327264.300509 6819358.005186, 327263.514166 6819359.148879)

LINESTRING (327302.122104 6819305.503111, 327279.266811 6819291.321839, 327213.024714 6819250.236308, 327206.019685 6819245.899092, 327159.601994 6819217.093308, 327022.254690 6819131.956729, 327012.512684 6819126.261227)

LINESTRING (327302.122104 6819305.503111, 327309.877142 6819312.904856, 327319.697801 6819322.669550, 327327.746069 6819332.533612, 327335.548627 6819343.681823, 327341.765918 6819355.042803, 327351.335643 6819376.825079, 327378.265369 6819446.109733, 327382.212988 6819456.267135, 327411.314977 6819531.156343, 327413.989600 6819538.041120, 327428.504188 6819574.494629)

LINESTRING (326978.720102 6819182.995108, 326983.106667 6819185.654970, 326999.523670 6819195.592074, 327013.133701 6819203.828230)

LINESTRING (326978.720102 6819182.995108, 327011.029026 6819131.512093, 327012.512684 6819126.261227)

LINESTRING (326978.720102 6819182.995108, 326962.633903 6819208.599464, 326951.534383 6819227.272120, 326935.621737 6819255.277923, 326932.599968 6819261.576210, 326915.092571 6819298.051850, 326909.218166 6819308.899520, 326899.951468 6819325.997065, 326893.319537 6819342.092955, 326890.226957 6819348.573338)

LINESTRING (326972.488293 6819084.866220, 326966.993474 6819088.029864, 326961.415377 6819091.878256, 326933.703170 6819113.086289, 326923.838028 6819122.693635)

LINESTRING (326972.488293 6819084.866220, 326967.761943 6819076.678197, 326946.379578 6819039.642584, 326937.218940 6819023.776425, 326881.505891 6818927.289540, 326879.415127 6818923.042526, 326873.547743 6818913.818115)

LINESTRING (326972.488293 6819084.866220, 326983.162080 6819100.255363, 326991.090092 6819109.176374, 327001.480797 6819118.353988, 327012.512684 6819126.261227)

LINESTRING (327166.057883 6819496.213025, 327114.861392 6819465.381129, 327097.884272 6819455.203715, 327080.214065 6819444.614628, 327074.712760 6819441.318474, 327063.660541 6819434.695190, 327042.503309 6819423.108554, 327036.281323 6819419.703331, 327008.334223 6819405.744126, 326925.328302 6819364.272395, 326899.224427 6819351.226230, 326897.251624 6819350.409745, 326890.226957 6819348.573338)

LINESTRING (327166.057883 6819496.213025, 327176.563474 6819502.584906, 327206.856650 6819522.319506, 327222.273330 6819533.969744, 327225.068407 6819536.084315, 327242.018527 6819550.023591, 327279.296053 6819580.679738, 327285.149658 6819585.487178, 327312.160713 6819607.394252, 327335.489412 6819626.304974, 327343.035767 6819632.422908, 327353.034429 6819640.527533, 327357.805789 6819644.395949, 327369.266307 6819653.030368, 327379.539925 6819660.764356)

LINESTRING (327166.057883 6819496.213025, 327168.498349 6819492.599298, 327174.998448 6819482.948214, 327198.480913 6819448.753740, 327227.668211 6819410.894825, 327233.915026 6819402.796164)

LINESTRING (327166.057883 6819496.213025, 327163.346685 6819499.962967, 327150.003075 6819518.367422, 327145.598604 6819524.444307, 327142.619931 6819528.609248, 327133.480980 6819541.850570, 327130.644521 6819546.298525)

LINESTRING (326875.021574 6819443.476144, 326841.788911 6819447.890053, 326826.716635 6819447.883474, 326809.097235 6819449.454515, 326803.400220 6819450.263232, 326793.448769 6819452.232665, 326781.927725 6819454.726762, 326770.280034 6819457.249534, 326721.601297 6819470.948648, 326680.182846 6819480.191142, 326605.646352 6819497.303372, 326597.889459 6819498.862479, 326590.475836 6819500.348665, 326549.122899 6819508.328720, 326530.582037 6819509.824526, 326520.455070 6819509.772913, 326510.636562 6819509.806324, 326500.473903 6819509.254477, 326478.229438 6819506.807548, 326436.413401 6819502.003569)

LINESTRING (326875.021574 6819443.476144, 326892.790682 6819444.798838, 326910.532851 6819446.758926, 326934.546208 6819450.113391, 326939.279057 6819451.695979, 326947.135241 6819453.836876, 326962.416450 6819457.928236, 326968.238454 6819459.947468, 326990.023752 6819467.965524, 327005.404257 6819473.837259, 327017.340551 6819479.780331, 327027.019407 6819485.512406, 327043.139371 6819494.873100, 327053.027649 6819500.204304, 327060.582532 6819504.335277, 327072.448419 6819511.118820, 327075.200467 6819513.224264, 327086.628749 6819519.259815, 327112.489613 6819537.217353, 327130.644521 6819546.298525)

LINESTRING (326875.021574 6819443.476144, 326874.095112 6819463.739179, 326873.487707 6819477.559760, 326872.046241 6819485.787576, 326871.011080 6819489.108275, 326856.372045 6819536.074040, 326852.852518 6819547.362211)

LINESTRING (326875.021574 6819443.476144, 326875.142561 6819437.556801, 326876.349970 6819420.571121, 326878.782252 6819388.339416, 326880.811695 6819378.843830, 326883.849564 6819364.634241, 326890.226957 6819348.573338)

LINESTRING (327533.168025 6819765.911862, 327523.987265 6819759.752068, 327518.720353 6819756.320890, 327493.135065 6819739.641085, 327458.210734 6819715.560097, 327427.845476 6819694.633279, 327386.778431 6819666.060909, 327379.539925 6819660.764356)

LINESTRING (327533.168025 6819765.911862, 327532.141820 6819780.266215, 327528.107368 6819796.153572)

LINESTRING (327533.168025 6819765.911862, 327539.442155 6819740.541272, 327540.699394 6819734.699432, 327540.920524 6819730.236777, 327540.065782 6819726.675532, 327536.948554 6819718.072179, 327533.547670 6819711.814752, 327530.535546 6819707.903299, 327518.053084 6819691.687759, 327484.730564 6819649.809451, 327483.085276 6819647.737936, 327445.794072 6819600.869225, 327436.751855 6819588.599818, 327428.504188 6819574.494629)

LINESTRING (327379.539925 6819660.764356, 327369.266307 6819653.030368, 327357.805789 6819644.395949, 327353.034429 6819640.527533, 327343.035767 6819632.422908, 327335.489412 6819626.304974, 327312.160713 6819607.394252, 327285.149658 6819585.487178, 327279.296053 6819580.679738, 327242.018527 6819550.023591, 327225.068407 6819536.084315, 327222.273330 6819533.969744, 327206.856650 6819522.319506, 327176.563474 6819502.584906, 327166.057883 6819496.213025)

LINESTRING (327379.539925 6819660.764356, 327386.778431 6819666.060909, 327427.845476 6819694.633279, 327458.210734 6819715.560097, 327493.135065 6819739.641085, 327518.720353 6819756.320890, 327523.987265 6819759.752068, 327533.168025 6819765.911862)

LINESTRING (327379.539925 6819660.764356, 327383.972820 6819653.860742, 327402.522879 6819619.522557)

LINESTRING (327379.539925 6819660.764356, 327376.753151 6819665.678223, 327370.355050 6819676.952780, 327347.229813 6819723.791628, 327345.229789 6819726.925874, 327340.050502 6819735.127441)

LINESTRING (327528.107368 6819796.153572, 327532.141820 6819780.266215, 327533.168025 6819765.911862)

LINESTRING (327528.107368 6819796.153572, 327526.304305 6819807.009757, 327522.783447 6819818.520343)

LINESTRING (327428.504188 6819574.494629, 327423.430925 6819579.042406, 327417.579060 6819584.030569, 327414.076030 6819588.924236, 327412.133152 6819595.034531, 327407.759219 6819608.383957, 327402.522879 6819619.522557)

LINESTRING (327428.504188 6819574.494629, 327413.989600 6819538.041120, 327411.314977 6819531.156343, 327382.212988 6819456.267135, 327378.265369 6819446.109733, 327351.335643 6819376.825079, 327341.765918 6819355.042803, 327335.548627 6819343.681823, 327327.746069 6819332.533612, 327319.697801 6819322.669550, 327309.877142 6819312.904856, 327302.122104 6819305.503111)

LINESTRING (327428.504188 6819574.494629, 327436.751855 6819588.599818, 327445.794072 6819600.869225, 327483.085276 6819647.737936, 327484.730564 6819649.809451, 327518.053084 6819691.687759, 327530.535546 6819707.903299, 327533.547670 6819711.814752, 327536.948554 6819718.072179, 327540.065782 6819726.675532, 327540.920524 6819730.236777, 327540.699394 6819734.699432, 327539.442155 6819740.541272, 327533.168025 6819765.911862)

LINESTRING (327018.978843 6818632.536810, 327018.447078 6818623.258261)

LINESTRING (327018.978843 6818632.536810, 327004.230918 6818633.215972, 326991.358421 6818635.107111)

LINESTRING (327018.447078 6818623.258261, 327027.950498 6818622.104116)

LINESTRING (327018.447078 6818623.258261, 327017.969621 6818607.249255, 327017.297538 6818595.690486, 327017.090433 6818581.464306)

LINESTRING (326991.358421 6818635.107111, 326980.187961 6818636.444863)

LINESTRING (326991.358421 6818635.107111, 326990.075411 6818643.639324, 326989.528706 6818647.236856, 326981.236300 6818661.440390)

LINESTRING (327654.502505 6820190.109507, 327652.314005 6820235.203418, 327651.623800 6820252.564594, 327650.871384 6820272.539609, 327648.458040 6820317.399253, 327646.546989 6820365.815363, 327646.198863 6820380.716160, 327645.344353 6820416.996705, 327644.964053 6820433.182163)

LINESTRING (327654.502505 6820190.109507, 327652.192727 6820191.518469, 327649.527792 6820192.007885, 327646.871091 6820191.481603, 327644.584771 6820190.033203)

LINESTRING (327644.964053 6820433.182163, 327644.871922 6820443.462382)

LINESTRING (327644.964053 6820433.182163, 327654.856972 6820433.739410, 327668.181165 6820436.993583)

LINESTRING (326602.870155 6818308.985648, 326619.393762 6818310.157546, 326640.341569 6818310.974710, 326651.466808 6818311.490281, 326675.217647 6818312.524725, 326708.834371 6818323.286843, 326725.756676 6818332.450196, 326741.177057 6818342.971657, 326810.336372 6818397.348457, 326830.333758 6818413.588715, 326841.354602 6818422.187864, 326847.179550 6818426.906892, 326861.862280 6818438.603661, 326897.817990 6818466.120452, 326929.541626 6818493.569637, 327007.163024 6818562.757592, 327014.411064 6818573.118404, 327017.090433 6818581.464306)

LINESTRING (327017.090433 6818581.464306, 327024.557695 6818595.797307, 327026.769060 6818606.107876, 327027.950498 6818622.104116)

LINESTRING (327017.090433 6818581.464306, 327014.411064 6818573.118404, 327007.163024 6818562.757592, 326929.541626 6818493.569637, 326897.817990 6818466.120452, 326861.862280 6818438.603661, 326847.179550 6818426.906892, 326841.354602 6818422.187864, 326830.333758 6818413.588715, 326810.336372 6818397.348457, 326741.177057 6818342.971657, 326725.756676 6818332.450196, 326708.834371 6818323.286843, 326675.217647 6818312.524725, 326651.466808 6818311.490281, 326640.341569 6818310.974710, 326619.393762 6818310.157546, 326602.870155 6818308.985648)

LINESTRING (327644.871922 6820443.462382, 327632.770209 6820443.550455)

LINESTRING (327668.181165 6820436.993583, 327658.300201 6820441.724145, 327654.769101 6820442.602470, 327644.871922 6820443.462382)

LINESTRING (328050.124433 6820068.682448, 328051.179030 6820080.702007)

LINESTRING (328050.124433 6820068.682448, 328071.713511 6820059.958860, 328084.676633 6820055.802056, 328096.226556 6820052.953744, 328109.298671 6820050.242038)

LINESTRING (328051.179030 6820080.702007, 328042.091234 6820072.182229)

LINESTRING (328051.179030 6820080.702007, 328035.778238 6820085.626872, 328023.202904 6820089.530350, 328006.247531 6820096.139015, 327960.783911 6820117.839765, 327924.884737 6820133.343214, 327872.742497 6820152.051655)

LINESTRING (328109.298671 6820050.242038, 328117.136113 6820043.650488, 328122.894914 6820040.230092, 328127.907867 6820035.217741, 328131.829979 6820029.835471, 328133.780187 6820023.747588, 328135.992912 6820008.955449, 328140.973132 6819992.185332)

LINESTRING (328109.298671 6820050.242038, 328134.880269 6820046.062754, 328141.994538 6820044.907045)

LINESTRING (327983.087820 6819992.244362, 327991.345409 6819982.719724, 327992.965806 6819980.854276, 327996.004169 6819977.345400, 328007.512832 6819966.878647, 328011.233375 6819964.105800, 328027.418754 6819952.068459, 328032.420635 6819948.339570, 328057.433482 6819929.438460, 328065.817228 6819923.098658, 328074.455649 6819915.005775, 328084.927144 6819902.336998, 328087.264697 6819899.219959, 328099.385866 6819883.010844, 328103.972362 6819876.602669, 328107.382859 6819870.799452, 328108.941007 6819866.705762, 328108.526839 6819859.853605, 328099.598722 6819842.500603, 328095.869364 6819837.129212, 328084.782749 6819821.233172, 328073.214930 6819805.427946, 328067.363747 6819798.053055, 328058.041618 6819793.862546, 328028.187823 6819784.988401)

LINESTRING (327983.087820 6819992.244362, 327957.919872 6819963.234555, 327921.323660 6819921.035129)

LINESTRING (327983.087820 6819992.244362, 327996.179401 6820006.389450, 328026.184683 6820038.808043)

LINESTRING (328028.187823 6819784.988401, 328013.300240 6819800.509268, 328003.243845 6819811.004385, 327985.124501 6819829.898794, 327977.396861 6819837.957899, 327968.722029 6819850.805696)

LINESTRING (328028.187823 6819784.988401, 328038.574174 6819773.718342, 328073.109471 6819743.634859, 328110.520790 6819711.055173, 328116.823414 6819705.566146)

LINESTRING (328028.187823 6819784.988401, 328058.041618 6819793.862546, 328067.363747 6819798.053055, 328073.214930 6819805.427946, 328084.782749 6819821.233172, 328095.869364 6819837.129212, 328099.598722 6819842.500603, 328108.526839 6819859.853605, 328108.941007 6819866.705762, 328107.382859 6819870.799452, 328103.972362 6819876.602669, 328099.385866 6819883.010844, 328087.264697 6819899.219959, 328084.927144 6819902.336998, 328074.455649 6819915.005775, 328065.817228 6819923.098658, 328057.433482 6819929.438460, 328032.420635 6819948.339570, 328027.418754 6819952.068459, 328011.233375 6819964.105800, 328007.512832 6819966.878647, 327996.004169 6819977.345400, 327992.965806 6819980.854276, 327991.345409 6819982.719724, 327983.087820 6819992.244362)

LINESTRING (327921.323660 6819921.035129, 327935.341280 6819900.257386, 327968.722029 6819850.805696)

LINESTRING (327921.323660 6819921.035129, 327915.326215 6819913.835093, 327891.621621 6819880.569251, 327882.392093 6819864.369703, 327880.033577 6819858.885893, 327872.783189 6819842.030337, 327860.119855 6819804.055386, 327856.558031 6819788.947020, 327855.922361 6819786.245095, 327852.919703 6819764.660250, 327850.691050 6819732.861831, 327847.244337 6819692.108999, 327843.280018 6819672.870208)

LINESTRING (327921.323660 6819921.035129, 327957.919872 6819963.234555, 327983.087820 6819992.244362)

LINESTRING (328026.184683 6820038.808043, 328041.285438 6820053.233025, 328044.757590 6820057.077439, 328050.124433 6820068.682448)

LINESTRING (328026.184683 6820038.808043, 327996.179401 6820006.389450, 327983.087820 6819992.244362)

LINESTRING (327843.280018 6819672.870208, 327827.645006 6819615.674230)

LINESTRING (327843.280018 6819672.870208, 327847.244337 6819692.108999, 327850.691050 6819732.861831, 327852.919703 6819764.660250, 327855.922361 6819786.245095, 327856.558031 6819788.947020, 327860.119855 6819804.055386, 327872.783189 6819842.030337, 327880.033577 6819858.885893, 327882.392093 6819864.369703, 327891.621621 6819880.569251, 327915.326215 6819913.835093, 327921.323660 6819921.035129)

LINESTRING (327843.280018 6819672.870208, 327848.603713 6819671.535013, 327867.574615 6819666.789346, 327919.057930 6819653.904457, 327941.207617 6819648.365617, 328018.256755 6819629.082450)

LINESTRING (327827.645006 6819615.674230, 327843.280018 6819672.870208)

LINESTRING (327827.645006 6819615.674230, 327811.141659 6819562.604842, 327801.914139 6819532.916535, 327800.426524 6819516.489162, 327801.976630 6819497.824691)

LINESTRING (327827.645006 6819615.674230, 327831.694644 6819614.580741, 327848.956983 6819609.919763, 327904.878001 6819594.817463, 327919.449411 6819590.881624, 327939.734594 6819585.401791, 327962.718158 6819579.665574, 328010.398012 6819567.751697)

LINESTRING (328018.256755 6819629.082450, 328058.249321 6819629.622017, 328098.017154 6819630.150861, 328113.770989 6819630.263013)

LINESTRING (328018.256755 6819629.082450, 327941.207617 6819648.365617, 327919.057930 6819653.904457, 327867.574615 6819666.789346, 327848.603713 6819671.535013, 327843.280018 6819672.870208)

LINESTRING (328018.256755 6819629.082450, 328011.075276 6819573.017682, 328010.398012 6819567.751697)

LINESTRING (328018.256755 6819629.082450, 328022.689497 6819659.622469, 328025.395881 6819678.265485)

LINESTRING (327801.976630 6819497.824691, 327804.488969 6819464.887311, 327802.799580 6819429.335710, 327800.366590 6819402.568090, 327804.100202 6819401.769191, 327823.068432 6819397.692926, 327824.868969 6819397.302355, 327861.860301 6819389.353243, 327866.338535 6819388.394751, 327871.877491 6819387.193984, 327898.893817 6819381.391285, 327905.684626 6819379.927666, 327985.566364 6819362.757392, 327995.879620 6819360.539197, 328017.098037 6819355.984311, 328026.600343 6819357.755956, 328026.394500 6819365.018170, 328023.291587 6819378.437544, 328016.132445 6819409.406993, 328010.809627 6819430.690481, 328004.712241 6819455.080533)

LINESTRING (327801.976630 6819497.824691, 327807.421775 6819496.673092, 327834.363375 6819490.996264, 327864.839039 6819484.586497, 327870.569494 6819483.376218, 327904.304095 6819476.280778, 327911.862247 6819474.689848, 327932.011291 6819470.432875, 327934.731513 6819469.862874, 327938.988264 6819468.960080, 327982.186097 6819459.834243, 328004.712241 6819455.080533)

LINESTRING (327801.976630 6819497.824691, 327800.426524 6819516.489162, 327801.914139 6819532.916535, 327811.141659 6819562.604842, 327827.645006 6819615.674230)

LINESTRING (328010.398012 6819567.751697, 327962.718158 6819579.665574, 327939.734594 6819585.401791, 327919.449411 6819590.881624, 327904.878001 6819594.817463, 327848.956983 6819609.919763, 327831.694644 6819614.580741, 327827.645006 6819615.674230)

LINESTRING (328010.398012 6819567.751697, 328011.075276 6819573.017682, 328018.256755 6819629.082450)

LINESTRING (328010.398012 6819567.751697, 328007.944805 6819548.404407, 328004.438464 6819520.730445, 328000.979672 6819493.478092, 328001.148491 6819485.793742, 328001.174453 6819484.487091, 328001.632574 6819471.979756, 328004.292392 6819457.377360, 328004.712241 6819455.080533)

LINESTRING (328004.712241 6819455.080533, 327982.186097 6819459.834243, 327938.988264 6819468.960080, 327934.731513 6819469.862874, 327932.011291 6819470.432875, 327911.862247 6819474.689848, 327904.304095 6819476.280778, 327870.569494 6819483.376218, 327864.839039 6819484.586497, 327834.363375 6819490.996264, 327807.421775 6819496.673092, 327801.976630 6819497.824691)

LINESTRING (328004.712241 6819455.080533, 328010.809627 6819430.690481, 328016.132445 6819409.406993, 328023.291587 6819378.437544, 328026.394500 6819365.018170, 328026.600343 6819357.755956, 328017.098037 6819355.984311, 327995.879620 6819360.539197, 327985.566364 6819362.757392, 327905.684626 6819379.927666, 327898.893817 6819381.391285, 327871.877491 6819387.193984, 327866.338535 6819388.394751, 327861.860301 6819389.353243, 327824.868969 6819397.302355, 327823.068432 6819397.692926, 327804.100202 6819401.769191, 327800.366590 6819402.568090, 327802.799580 6819429.335710, 327804.488969 6819464.887311, 327801.976630 6819497.824691)

LINESTRING (328004.712241 6819455.080533, 328004.292392 6819457.377360, 328001.632574 6819471.979756, 328001.174453 6819484.487091, 328001.148491 6819485.793742, 328000.979672 6819493.478092, 328004.438464 6819520.730445, 328007.944805 6819548.404407, 328010.398012 6819567.751697)

LINESTRING (328116.823414 6819705.566146, 328110.520790 6819711.055173, 328073.109471 6819743.634859, 328038.574174 6819773.718342, 328028.187823 6819784.988401)

LINESTRING (327968.722029 6819850.805696, 327997.839271 6819889.393338)

LINESTRING (327968.722029 6819850.805696, 327935.341280 6819900.257386, 327921.323660 6819921.035129)

LINESTRING (327968.722029 6819850.805696, 327977.396861 6819837.957899, 327985.124501 6819829.898794, 328003.243845 6819811.004385, 328013.300240 6819800.509268, 328028.187823 6819784.988401)

LINESTRING (328113.770989 6819630.263013, 328098.017154 6819630.150861, 328058.249321 6819629.622017, 328018.256755 6819629.082450)

LINESTRING (328025.395881 6819678.265485, 328022.689497 6819659.622469, 328018.256755 6819629.082450)

LINESTRING (326669.350837 6819378.509676, 326648.499261 6819382.161992, 326576.003380 6819395.613632)

LINESTRING (326669.350837 6819378.509676, 326678.112028 6819376.855960, 326704.410503 6819371.871888, 326729.546661 6819367.124568, 326737.123111 6819365.686358, 326747.660429 6819363.687530)

LINESTRING (326669.350837 6819378.509676, 326665.136835 6819347.569185, 326664.681462 6819344.222448, 326662.876780 6819321.875411, 326664.254894 6819305.226945, 326666.227187 6819281.452812, 326667.122406 6819270.630225)

LINESTRING (326667.122406 6819270.630225, 326676.322443 6819270.918274, 326700.084819 6819271.672961, 326710.001054 6819271.981121)

LINESTRING (326667.122406 6819270.630225, 326649.948216 6819270.126852, 326625.446301 6819269.420608, 326618.999843 6819269.229428, 326579.038752 6819267.521866)

LINESTRING (326667.122406 6819270.630225, 326666.227187 6819281.452812, 326664.254894 6819305.226945, 326662.876780 6819321.875411, 326664.681462 6819344.222448, 326665.136835 6819347.569185, 326669.350837 6819378.509676)

LINESTRING (326923.838028 6819122.693635, 326908.113024 6819153.077817, 326896.877052 6819174.792208)

LINESTRING (326923.838028 6819122.693635, 326933.703170 6819113.086289, 326961.415377 6819091.878256, 326966.993474 6819088.029864, 326972.488293 6819084.866220)

LINESTRING (326923.838028 6819122.693635, 326869.741034 6819080.629201, 326868.497292 6819079.664783, 326856.124843 6819070.039698, 326848.461220 6819064.073586, 326846.179045 6819062.301879, 326787.946025 6819016.975058)

LINESTRING (326873.547743 6818913.818115, 326867.791522 6818920.520607, 326833.879519 6818960.314093, 326830.152881 6818964.683964, 326821.136756 6818975.264532, 326819.951240 6818976.751803, 326805.716696 6818994.644138, 326804.290055 6818996.433534, 326787.946025 6819016.975058)

LINESTRING (326873.547743 6818913.818115, 326862.631330 6818907.389400, 326856.558134 6818903.564194, 326772.489025 6818850.578295)

LINESTRING (326873.547743 6818913.818115, 326878.368687 6818903.346532, 326895.777995 6818863.684786, 326896.904422 6818861.118248, 326900.623475 6818852.631847)

LINESTRING (326873.547743 6818913.818115, 326879.415127 6818923.042526, 326881.505891 6818927.289540, 326937.218940 6819023.776425, 326946.379578 6819039.642584, 326967.761943 6819076.678197, 326972.488293 6819084.866220)

LINESTRING (326713.389244 6819183.770395, 326717.565055 6819162.106588)

LINESTRING (326713.389244 6819183.770395, 326712.289300 6819195.841631, 326711.526091 6819204.180702, 326710.434408 6819223.258255, 326710.265322 6819226.178730, 326710.228838 6819232.930664, 326710.001054 6819271.981121)

LINESTRING (326713.389244 6819183.770395, 326689.323653 6819181.658384, 326627.495264 6819175.385547, 326624.663485 6819175.114192, 326518.690864 6819166.875986, 326512.506992 6819166.069373, 326506.645911 6819165.313578)

LINESTRING (326717.565055 6819162.106588, 326713.389244 6819183.770395)

LINESTRING (326717.565055 6819162.106588, 326720.485890 6819148.125820, 326723.549872 6819135.621818)

LINESTRING (326717.565055 6819162.106588, 326814.203511 6819181.940309, 326886.503329 6819196.776036)

LINESTRING (326710.001054 6819271.981121, 326772.579438 6819269.046650, 326860.818652 6819264.911118)

LINESTRING (326710.001054 6819271.981121, 326700.084819 6819271.672961, 326676.322443 6819270.918274, 326667.122406 6819270.630225)

LINESTRING (326710.001054 6819271.981121, 326710.228838 6819232.930664, 326710.265322 6819226.178730, 326710.434408 6819223.258255, 326711.526091 6819204.180702, 326712.289300 6819195.841631, 326713.389244 6819183.770395)

LINESTRING (326710.001054 6819271.981121, 326717.302820 6819306.940262, 326723.105496 6819322.460299, 326728.717501 6819331.596782, 326731.029833 6819335.364040, 326736.646942 6819344.924252, 326747.660429 6819363.687530)

LINESTRING (326506.645911 6819165.313578, 326496.266032 6819207.627550, 326482.710394 6819262.853100)

LINESTRING (326506.645911 6819165.313578, 326528.910990 6819104.911028, 326550.861289 6819045.562033)

LINESTRING (326506.645911 6819165.313578, 326512.506992 6819166.069373, 326518.690864 6819166.875986, 326624.663485 6819175.114192, 326627.495264 6819175.385547, 326689.323653 6819181.658384, 326713.389244 6819183.770395)

LINESTRING (326506.645911 6819165.313578, 326484.909709 6819163.253877, 326467.785190 6819161.622000, 326463.097820 6819161.175781, 326411.430167 6819156.273112, 326389.967791 6819172.922209, 326382.656373 6819178.598820, 326344.823676 6819182.868119, 326335.620381 6819183.908809, 326292.156568 6819188.817501, 326241.017954 6819194.590748, 326238.029014 6819195.019328)

LINESTRING (326730.323381 6819114.241161, 326723.549872 6819135.621818)

LINESTRING (326730.323381 6819114.241161, 326767.966577 6819050.551207, 326773.856354 6819040.650899, 326787.946025 6819016.975058)

LINESTRING (326730.323381 6819114.241161, 326708.725923 6819105.980875, 326656.786126 6819085.691164, 326642.749323 6819080.266940)

LINESTRING (326723.549872 6819135.621818, 326730.323381 6819114.241161)

LINESTRING (326723.549872 6819135.621818, 326720.485890 6819148.125820, 326717.565055 6819162.106588)

LINESTRING (326723.549872 6819135.621818, 326826.989690 6819158.999076, 326850.915050 6819164.399250, 326896.877052 6819174.792208)

LINESTRING (326787.946025 6819016.975058, 326804.290055 6818996.433534, 326805.716696 6818994.644138, 326819.951240 6818976.751803, 326821.136756 6818975.264532, 326830.152881 6818964.683964, 326833.879519 6818960.314093, 326867.791522 6818920.520607, 326873.547743 6818913.818115)

LINESTRING (326787.946025 6819016.975058, 326773.856354 6819040.650899, 326767.966577 6819050.551207, 326730.323381 6819114.241161)

LINESTRING (326787.946025 6819016.975058, 326846.179045 6819062.301879, 326848.461220 6819064.073586, 326856.124843 6819070.039698, 326868.497292 6819079.664783, 326869.741034 6819080.629201, 326923.838028 6819122.693635)

LINESTRING (326787.946025 6819016.975058, 326746.793374 6818995.297688, 326716.275458 6818979.226274, 326697.072278 6818969.117106)

LINESTRING (326642.749323 6819080.266940, 326650.846270 6819063.695708, 326651.384474 6819062.608891, 326655.945957 6819053.265621, 326675.816356 6819012.609374, 326690.805249 6818981.937260, 326697.072278 6818969.117106)

LINESTRING (326642.749323 6819080.266940, 326656.786126 6819085.691164, 326708.725923 6819105.980875, 326730.323381 6819114.241161)

LINESTRING (326642.749323 6819080.266940, 326637.426895 6819078.435234, 326559.548457 6819049.032941, 326554.197166 6819046.946182, 326550.861289 6819045.562033)

LINESTRING (326772.489025 6818850.578295, 326769.387581 6818855.497199, 326738.362082 6818904.240695, 326733.308383 6818912.180278, 326697.072278 6818969.117106)

LINESTRING (326772.489025 6818850.578295, 326724.720375 6818821.198066, 326718.001323 6818817.059451, 326709.547708 6818811.858253, 326697.707057 6818804.572424)

LINESTRING (326772.489025 6818850.578295, 326856.558134 6818903.564194, 326862.631330 6818907.389400, 326873.547743 6818913.818115)

LINESTRING (326900.623475 6818852.631847, 326910.927803 6818857.596151, 326936.414618 6818868.475432, 326994.891031 6818893.196535)

LINESTRING (326900.623475 6818852.631847, 326901.764220 6818850.031125, 326921.972155 6818804.071236)

LINESTRING (326900.623475 6818852.631847, 326896.904422 6818861.118248, 326895.777995 6818863.684786, 326878.368687 6818903.346532, 326873.547743 6818913.818115)

LINESTRING (326921.972155 6818804.071236, 326917.196035 6818800.995715, 326886.159080 6818780.630821, 326858.248715 6818763.345802, 326850.300090 6818758.420323, 326842.995274 6818755.058219, 326836.249384 6818754.981928, 326832.192219 6818756.690547, 326828.745360 6818761.537362, 326818.983292 6818776.651455, 326814.363409 6818780.775809, 326810.225172 6818782.142629, 326802.191762 6818781.081873, 326782.296119 6818768.663727, 326749.176184 6818747.979958, 326739.759507 6818745.303644, 326733.910598 6818747.905133, 326728.852951 6818754.059751, 326703.445359 6818796.977962, 326700.111882 6818801.953145, 326697.707057 6818804.572424)

LINESTRING (326921.972155 6818804.071236, 326936.745962 6818769.450328, 326965.625624 6818701.781747)

LINESTRING (326921.972155 6818804.071236, 326901.764220 6818850.031125, 326900.623475 6818852.631847)

LINESTRING (326697.707057 6818804.572424, 326691.491050 6818806.768347, 326685.728265 6818809.488355, 326682.061677 6818814.312832, 326679.019445 6818819.240023, 326670.416663 6818833.180978, 326643.626402 6818876.603895, 326631.384243 6818896.439233, 326625.873285 6818905.372503, 326602.455343 6818942.122704)

LINESTRING (326697.707057 6818804.572424, 326700.111882 6818801.953145, 326703.445359 6818796.977962, 326728.852951 6818754.059751, 326733.910598 6818747.905133, 326739.759507 6818745.303644, 326749.176184 6818747.979958, 326782.296119 6818768.663727, 326802.191762 6818781.081873, 326810.225172 6818782.142629, 326814.363409 6818780.775809, 326818.983292 6818776.651455, 326828.745360 6818761.537362, 326832.192219 6818756.690547, 326836.249384 6818754.981928, 326842.995274 6818755.058219, 326850.300090 6818758.420323, 326858.248715 6818763.345802, 326886.159080 6818780.630821, 326917.196035 6818800.995715, 326921.972155 6818804.071236)

LINESTRING (326697.707057 6818804.572424, 326709.547708 6818811.858253, 326718.001323 6818817.059451, 326724.720375 6818821.198066, 326772.489025 6818850.578295)

LINESTRING (326965.625624 6818701.781747, 326971.035599 6818704.078215, 326994.960056 6818714.332960, 327014.999054 6818722.248820, 327015.843278 6818722.586091, 327020.532987 6818724.784640, 327044.085399 6818734.757003, 327073.855952 6818712.142177)

LINESTRING (326965.625624 6818701.781747, 326970.287120 6818691.418695, 326979.554604 6818666.042854, 326981.236300 6818661.440390)

LINESTRING (326965.625624 6818701.781747, 326936.745962 6818769.450328, 326921.972155 6818804.071236)

LINESTRING (326550.861289 6819045.562033, 326528.910990 6819104.911028, 326506.645911 6819165.313578)

LINESTRING (326550.861289 6819045.562033, 326575.245058 6818994.303363, 326576.969081 6818990.669221, 326587.007003 6818969.571436, 326588.296156 6818967.275581, 326602.455343 6818942.122704)

LINESTRING (326550.861289 6819045.562033, 326554.197166 6819046.946182, 326559.548457 6819049.032941, 326637.426895 6819078.435234, 326642.749323 6819080.266940)

LINESTRING (326550.861289 6819045.562033, 326534.591839 6819039.368378, 326518.529666 6819033.264850, 326457.271184 6819009.951542, 326445.392882 6819005.435460)

LINESTRING (326602.455343 6818942.122704, 326588.296156 6818967.275581, 326587.007003 6818969.571436, 326576.969081 6818990.669221, 326575.245058 6818994.303363, 326550.861289 6819045.562033)

LINESTRING (326602.455343 6818942.122704, 326625.873285 6818905.372503, 326631.384243 6818896.439233, 326643.626402 6818876.603895, 326670.416663 6818833.180978, 326679.019445 6818819.240023, 326682.061677 6818814.312832, 326685.728265 6818809.488355, 326691.491050 6818806.768347, 326697.707057 6818804.572424)

LINESTRING (326602.455343 6818942.122704, 326598.857223 6818940.405731, 326572.293954 6818925.733424, 326562.914822 6818924.550803, 326558.270868 6818924.124582)

LINESTRING (327130.644521 6819546.298525, 327133.480980 6819541.850570, 327142.619931 6819528.609248, 327145.598604 6819524.444307, 327150.003075 6819518.367422, 327163.346685 6819499.962967, 327166.057883 6819496.213025)

LINESTRING (327130.644521 6819546.298525, 327112.489613 6819537.217353, 327086.628749 6819519.259815, 327075.200467 6819513.224264, 327072.448419 6819511.118820, 327060.582532 6819504.335277, 327053.027649 6819500.204304, 327043.139371 6819494.873100, 327027.019407 6819485.512406, 327017.340551 6819479.780331, 327005.404257 6819473.837259, 326990.023752 6819467.965524, 326968.238454 6819459.947468, 326962.416450 6819457.928236, 326947.135241 6819453.836876, 326939.279057 6819451.695979, 326934.546208 6819450.113391, 326910.532851 6819446.758926, 326892.790682 6819444.798838, 326875.021574 6819443.476144)

LINESTRING (327130.644521 6819546.298525, 327161.829648 6819573.441254, 327178.273866 6819589.436021, 327203.353590 6819615.733973, 327218.663666 6819630.502315, 327241.767295 6819655.281123, 327256.347365 6819670.721912, 327262.778069 6819676.939845, 327276.491403 6819688.909365, 327289.252141 6819699.754852, 327291.733646 6819701.684246, 327317.161285 6819719.028764)

LINESTRING (326852.852518 6819547.362211, 326878.181729 6819553.462201, 326885.819336 6819555.290295, 326902.332518 6819559.264122, 326918.456803 6819563.145851, 326955.847731 6819572.148146)

LINESTRING (326852.852518 6819547.362211, 326856.372045 6819536.074040, 326871.011080 6819489.108275, 326872.046241 6819485.787576, 326873.487707 6819477.559760, 326874.095112 6819463.739179, 326875.021574 6819443.476144)

LINESTRING (326852.852518 6819547.362211, 326845.069364 6819571.816635, 326843.152801 6819575.761502, 326842.247249 6819577.614155, 326804.271343 6819617.633528, 326795.341466 6819631.612936, 326786.550385 6819651.364875, 326785.077873 6819655.008686, 326775.498204 6819678.738522)

LINESTRING (327657.224345 6819770.625993, 327663.204053 6819787.767426, 327665.101186 6819799.533122, 327666.629922 6819810.435709, 327668.087895 6819841.402149, 327667.907802 6819844.222665)

LINESTRING (327657.224345 6819770.625993, 327676.371163 6819767.287436, 327708.529575 6819762.577675)

LINESTRING (327657.224345 6819770.625993, 327652.093049 6819740.053990, 327646.455192 6819695.739378, 327634.163082 6819624.041240, 327632.427571 6819613.383228, 327629.690970 6819598.579902, 327623.725422 6819576.896886, 327613.503522 6819548.173250, 327606.611357 6819530.508191, 327569.218032 6819438.713871, 327516.804782 6819313.425351, 327485.482696 6819238.411386, 327466.667307 6819191.036681, 327437.101392 6819120.465495, 327421.004151 6819084.626107, 327405.450765 6819052.430403, 327401.556279 6819045.171153, 327396.938238 6819036.564413, 327380.223401 6819005.386064, 327360.702551 6818968.880384, 327306.376926 6818889.957749, 327260.232598 6818828.636199, 327179.815557 6818733.419054)

LINESTRING (327120.254133 6818671.495206, 327106.405514 6818683.152386, 327090.208263 6818697.704741, 327081.135207 6818705.565033, 327073.855952 6818712.142177)

LINESTRING (327120.254133 6818671.495206, 327102.547868 6818655.217439, 327085.413399 6818644.634872)

LINESTRING (327120.254133 6818671.495206, 327137.364466 6818688.672983, 327158.233770 6818709.624434, 327179.815557 6818733.419054)

LINESTRING (326775.498204 6819678.738522, 326785.077873 6819655.008686, 326786.550385 6819651.364875, 326795.341466 6819631.612936, 326804.271343 6819617.633528, 326842.247249 6819577.614155, 326843.152801 6819575.761502, 326845.069364 6819571.816635, 326852.852518 6819547.362211)

LINESTRING (326955.847731 6819572.148146, 326993.310020 6819593.397836, 327018.014038 6819607.418087, 327019.573649 6819608.299855, 327028.141407 6819613.161256, 327048.797421 6819624.884292)

LINESTRING (326955.847731 6819572.148146, 326918.456803 6819563.145851, 326902.332518 6819559.264122, 326885.819336 6819555.290295, 326878.181729 6819553.462201, 326852.852518 6819547.362211)

LINESTRING (326955.847731 6819572.148146, 326937.628897 6819611.124997, 326928.798995 6819630.008197, 326927.183801 6819633.469382, 326915.797919 6819657.813242, 326912.764759 6819664.301817, 326900.974679 6819689.525005, 326898.983181 6819693.785982, 326889.029985 6819715.068361, 326895.166520 6819714.092787, 326919.671213 6819710.214984, 326944.943407 6819706.209821, 326958.637889 6819704.188001, 326991.611167 6819699.330545, 327033.241431 6819693.205080, 327034.269188 6819693.053435, 327051.718114 6819690.443184, 327063.165531 6819688.734610, 327081.006763 6819686.071485, 327082.755183 6819685.281455, 327086.753649 6819683.486730, 327087.823885 6819683.009427, 327098.262847 6819674.020982, 327104.904883 6819668.301128, 327114.922014 6819678.479406, 327118.828658 6819682.446378, 327124.303713 6819688.008783, 327130.402922 6819694.209529, 327132.055621 6819695.890020, 327158.177428 6819722.436953, 327163.466710 6819727.807837, 327173.944416 6819738.454237, 327189.424806 6819754.184616, 327192.412805 6819757.282528, 327211.660058 6819777.288244, 327215.560275 6819781.344887, 327228.942868 6819795.249702)

LINESTRING (327633.609088 6820697.287126, 327626.325546 6820697.370150, 327614.818492 6820697.919701, 327598.294185 6820697.993452, 327565.465258 6820697.516628, 327562.273355 6820697.485638, 327550.466195 6820694.145346, 327534.421674 6820689.598829, 327506.797249 6820681.779034, 327482.754487 6820674.963960, 327473.245269 6820672.669968)

LINESTRING (327633.609088 6820697.287126, 327634.316305 6820651.396480, 327634.994377 6820590.422950, 327635.682862 6820555.210548, 327634.665377 6820526.788307, 327632.848233 6820469.709864, 327632.765412 6820452.688318, 327632.770209 6820443.550455)

LINESTRING (327473.245269 6820672.669968, 327482.754487 6820674.963960, 327506.797249 6820681.779034, 327534.421674 6820689.598829, 327550.466195 6820694.145346, 327562.273355 6820697.485638, 327565.465258 6820697.516628, 327598.294185 6820697.993452, 327614.818492 6820697.919701, 327626.325546 6820697.370150, 327633.609088 6820697.287126)

LINESTRING (327632.770209 6820443.550455, 327632.495203 6820433.076492)

LINESTRING (327632.770209 6820443.550455, 327623.969688 6820442.213781, 327605.123663 6820437.571786)

LINESTRING (327632.495203 6820433.076492, 327644.964053 6820433.182163)

LINESTRING (327632.495203 6820433.076492, 327633.129120 6820417.056940, 327634.566409 6820380.803212, 327635.105264 6820367.164838, 327636.532767 6820332.752517, 327639.325973 6820285.876868, 327640.088448 6820273.086483, 327640.956240 6820253.072257, 327644.208750 6820196.534125, 327644.584771 6820190.033203)

LINESTRING (327402.522879 6819619.522557, 327407.759219 6819608.383957, 327412.133152 6819595.034531, 327414.076030 6819588.924236, 327417.579060 6819584.030569, 327423.430925 6819579.042406, 327428.504188 6819574.494629)

LINESTRING (327402.522879 6819619.522557, 327383.972820 6819653.860742, 327379.539925 6819660.764356)

LINESTRING (327402.522879 6819619.522557, 327398.186345 6819612.486156, 327388.643396 6819598.200026, 327358.359290 6819551.686493, 327352.354140 6819542.222811, 327349.273870 6819537.377690, 327307.823049 6819474.439030, 327282.560715 6819436.322884, 327252.803300 6819415.668371, 327245.069313 6819410.296304, 327233.915026 6819402.796164)

LINESTRING (327317.161285 6819719.028764, 327340.050502 6819735.127441)

LINESTRING (327317.161285 6819719.028764, 327301.663968 6819738.331987, 327283.641447 6819755.574192, 327270.682493 6819764.542471, 327267.004409 6819767.090876, 327242.412085 6819786.244690, 327231.669888 6819793.429192, 327228.942868 6819795.249702)

LINESTRING (327317.161285 6819719.028764, 327291.733646 6819701.684246, 327289.252141 6819699.754852, 327276.491403 6819688.909365, 327262.778069 6819676.939845, 327256.347365 6819670.721912, 327241.767295 6819655.281123, 327218.663666 6819630.502315, 327203.353590 6819615.733973, 327178.273866 6819589.436021, 327161.829648 6819573.441254, 327130.644521 6819546.298525)

LINESTRING (327228.942868 6819795.249702, 327217.713274 6819803.897787, 327211.101833 6819810.229551, 327188.731979 6819831.671892, 327181.683514 6819835.548603, 327176.514952 6819838.383336, 327171.040203 6819841.177543, 327148.469905 6819831.914562, 327139.735939 6819824.773976, 327133.486900 6819818.346392, 327124.842035 6819809.460886, 327108.407346 6819792.573368, 327100.189666 6819784.124073, 327092.056461 6819776.406957, 327085.093719 6819771.510073, 327083.740924 6819771.242774, 327078.075105 6819770.097016, 327070.755850 6819770.361372, 327022.258854 6819777.353145, 327011.943168 6819778.849251, 326947.932409 6819788.077144, 326932.638029 6819791.718519)

LINESTRING (327228.942868 6819795.249702, 327231.669888 6819793.429192, 327242.412085 6819786.244690, 327267.004409 6819767.090876, 327270.682493 6819764.542471, 327283.641447 6819755.574192, 327301.663968 6819738.331987, 327317.161285 6819719.028764)

LINESTRING (327228.942868 6819795.249702, 327238.128441 6819804.711013, 327248.603716 6819811.887868, 327254.034855 6819815.611716, 327304.624016 6819850.770984, 327357.484141 6819887.513805, 327393.097271 6819912.262357, 327395.949746 6819914.251457)

LINESTRING (327228.942868 6819795.249702, 327215.560275 6819781.344887, 327211.660058 6819777.288244, 327192.412805 6819757.282528, 327189.424806 6819754.184616, 327173.944416 6819738.454237, 327163.466710 6819727.807837, 327158.177428 6819722.436953, 327132.055621 6819695.890020, 327130.402922 6819694.209529, 327124.303713 6819688.008783, 327118.828658 6819682.446378, 327114.922014 6819678.479406, 327104.904883 6819668.301128, 327098.262847 6819674.020982, 327087.823885 6819683.009427, 327086.753649 6819683.486730, 327082.755183 6819685.281455, 327081.006763 6819686.071485, 327063.165531 6819688.734610, 327051.718114 6819690.443184, 327034.269188 6819693.053435, 327033.241431 6819693.205080, 326991.611167 6819699.330545, 326958.637889 6819704.188001, 326944.943407 6819706.209821, 326919.671213 6819710.214984, 326895.166520 6819714.092787, 326889.029985 6819715.068361, 326898.983181 6819693.785982, 326900.974679 6819689.525005, 326912.764759 6819664.301817, 326915.797919 6819657.813242, 326927.183801 6819633.469382, 326928.798995 6819630.008197, 326937.628897 6819611.124997, 326955.847731 6819572.148146)

LINESTRING (327233.915026 6819402.796164, 327244.202896 6819390.747559, 327263.514166 6819359.148879)

LINESTRING (327233.915026 6819402.796164, 327227.668211 6819410.894825, 327198.480913 6819448.753740, 327174.998448 6819482.948214, 327168.498349 6819492.599298, 327166.057883 6819496.213025)

LINESTRING (327233.915026 6819402.796164, 327245.069313 6819410.296304, 327252.803300 6819415.668371, 327282.560715 6819436.322884, 327307.823049 6819474.439030, 327349.273870 6819537.377690, 327352.354140 6819542.222811, 327358.359290 6819551.686493, 327388.643396 6819598.200026, 327398.186345 6819612.486156, 327402.522879 6819619.522557)

LINESTRING (327263.514166 6819359.148879, 327264.300509 6819358.005186, 327282.894919 6819331.083672, 327289.924446 6819320.904428, 327297.949272 6819310.776085, 327302.122104 6819305.503111)

LINESTRING (327263.514166 6819359.148879, 327244.202896 6819390.747559, 327233.915026 6819402.796164)

LINESTRING (327263.514166 6819359.148879, 327259.746268 6819356.792609, 327244.922730 6819347.634146, 327234.642112 6819341.284311)

LINESTRING (326886.503329 6819196.776036, 326878.012647 6819219.056473, 326869.119306 6819242.785145, 326860.818652 6819264.911118)

LINESTRING (326886.503329 6819196.776036, 326891.134723 6819186.793654, 326896.877052 6819174.792208)

LINESTRING (326886.503329 6819196.776036, 326814.203511 6819181.940309, 326717.565055 6819162.106588)

LINESTRING (327048.797421 6819624.884292, 327028.141407 6819613.161256, 327019.573649 6819608.299855, 327018.014038 6819607.418087, 326993.310020 6819593.397836, 326955.847731 6819572.148146)

LINESTRING (327557.572284 6819980.342447, 327540.087688 6819973.189581, 327522.777780 6819966.117371, 327501.246164 6819957.313804, 327496.480049 6819955.363982, 327481.261045 6819949.136362, 327461.668496 6819941.129176, 327442.756735 6819933.400635, 327437.462034 6819931.231723, 327425.336627 6819926.267423, 327395.949746 6819914.251457)

LINESTRING (327557.572284 6819980.342447, 327552.834866 6819990.563473, 327537.557071 6820023.510982, 327532.323326 6820031.581090)

LINESTRING (327557.572284 6819980.342447, 327558.845008 6819977.713068, 327575.067155 6819944.216684, 327588.167606 6819917.156937, 327589.125902 6819915.179148, 327595.499342 6819903.727717, 327596.444857 6819902.029493)

LINESTRING (327395.949746 6819914.251457, 327393.097271 6819912.262357, 327357.484141 6819887.513805, 327304.624016 6819850.770984, 327254.034855 6819815.611716, 327248.603716 6819811.887868, 327238.128441 6819804.711013, 327228.942868 6819795.249702)

LINESTRING (327395.949746 6819914.251457, 327425.336627 6819926.267423, 327437.462034 6819931.231723, 327442.756735 6819933.400635, 327461.668496 6819941.129176, 327481.261045 6819949.136362, 327496.480049 6819955.363982, 327501.246164 6819957.313804, 327522.777780 6819966.117371, 327540.087688 6819973.189581, 327557.572284 6819980.342447)

LINESTRING (327395.949746 6819914.251457, 327397.522390 6819911.216595, 327414.614755 6819879.037263, 327419.923082 6819869.033094, 327423.751743 6819863.933546, 327433.405747 6819851.069031, 327437.269499 6819845.923127, 327441.167772 6819839.325091, 327443.989628 6819831.899184, 327445.450717 6819827.263279, 327447.515065 6819820.700671)

LINESTRING (327395.949746 6819914.251457, 327381.163380 6819943.649632, 327369.945823 6819965.941762, 327364.361504 6819977.041999, 327361.555051 6819982.626304)

LINESTRING (327532.323326 6820031.581090, 327537.557071 6820023.510982, 327552.834866 6819990.563473, 327557.572284 6819980.342447)

LINESTRING (327596.444857 6819902.029493, 327595.499342 6819903.727717, 327589.125902 6819915.179148, 327588.167606 6819917.156937, 327575.067155 6819944.216684, 327558.845008 6819977.713068, 327557.572284 6819980.342447)

LINESTRING (326932.638029 6819791.718519, 326947.932409 6819788.077144, 327011.943168 6819778.849251, 327022.258854 6819777.353145, 327070.755850 6819770.361372, 327078.075105 6819770.097016, 327083.740924 6819771.242774, 327085.093719 6819771.510073, 327092.056461 6819776.406957, 327100.189666 6819784.124073, 327108.407346 6819792.573368, 327124.842035 6819809.460886, 327133.486900 6819818.346392, 327139.735939 6819824.773976, 327148.469905 6819831.914562, 327171.040203 6819841.177543, 327176.514952 6819838.383336, 327181.683514 6819835.548603, 327188.731979 6819831.671892, 327211.101833 6819810.229551, 327217.713274 6819803.897787, 327228.942868 6819795.249702)

LINESTRING (327013.133701 6819203.828230, 326999.523670 6819195.592074, 326983.106667 6819185.654970, 326978.720102 6819182.995108)

LINESTRING (327234.642112 6819341.284311, 327244.922730 6819347.634146, 327259.746268 6819356.792609, 327263.514166 6819359.148879)

LINESTRING (326579.038752 6819267.521866, 326618.999843 6819269.229428, 326625.446301 6819269.420608, 326649.948216 6819270.126852, 326667.122406 6819270.630225)

LINESTRING (326579.038752 6819267.521866, 326545.620222 6819265.900576, 326527.749762 6819265.030942, 326512.929060 6819264.310187, 326482.710394 6819262.853100)

LINESTRING (326579.038752 6819267.521866, 326577.518022 6819316.555827, 326577.354050 6819321.819081, 326576.709498 6819375.673824, 326576.003380 6819395.613632)

LINESTRING (326404.372361 6819261.671858, 326407.523619 6819261.715063, 326482.710394 6819262.853100)

LINESTRING (326404.372361 6819261.671858, 326354.503222 6819264.099756, 326324.520831 6819265.555424)

LINESTRING (326404.372361 6819261.671858, 326404.282750 6819312.698562, 326404.214141 6819353.046707, 326404.178065 6819373.131611, 326404.132489 6819400.815099)

LINESTRING (327708.529575 6819762.577675, 327676.371163 6819767.287436, 327657.224345 6819770.625993)

LINESTRING (327667.907802 6819844.222665, 327672.127524 6819846.344904, 327675.315333 6819849.823770, 327677.064192 6819854.199723, 327677.143633 6819858.915200, 327675.549878 6819863.356753, 327672.477761 6819866.934540, 327670.364705 6819868.333704, 327668.027812 6819869.308863, 327665.544164 6819869.800404, 327662.897791 6819869.809119)

LINESTRING (326156.789609 6818585.781153, 326161.998804 6818661.657762, 326163.673145 6818686.030737, 326165.173039 6818707.879739)

LINESTRING (326165.173039 6818707.879739, 326163.673145 6818686.030737, 326161.998804 6818661.657762, 326156.789609 6818585.781153)

LINESTRING (326165.173039 6818707.879739, 326208.809832 6818704.065756, 326219.360439 6818703.147035, 326305.641245 6818695.626460, 326334.294881 6818693.121698, 326346.716106 6818691.819691, 326452.841689 6818682.417513, 326497.945178 6818677.931374, 326514.300718 6818676.734572)

LINESTRING (326514.300718 6818676.734572, 326514.894551 6818694.277543, 326516.941021 6818716.746357, 326518.152477 6818725.712016, 326518.588120 6818730.476699, 326524.699370 6818784.183464)

LINESTRING (326514.300718 6818676.734572, 326570.843740 6818672.023557, 326623.194471 6818667.277397, 326641.907571 6818665.506004, 326711.423285 6818658.665542, 326757.146935 6818654.620443, 326926.265814 6818639.980872, 326931.458978 6818639.532280, 326936.181540 6818639.174101)

LINESTRING (326514.300718 6818676.734572, 326497.945178 6818677.931374, 326452.841689 6818682.417513, 326346.716106 6818691.819691, 326334.294881 6818693.121698, 326305.641245 6818695.626460, 326219.360439 6818703.147035, 326208.809832 6818704.065756, 326165.173039 6818707.879739)

LINESTRING (327085.413399 6818644.634872, 327065.629048 6818639.048900, 327049.542970 6818635.476729, 327028.153186 6818631.956919)

LINESTRING (327085.413399 6818644.634872, 327102.547868 6818655.217439, 327120.254133 6818671.495206)

LINESTRING (327028.153186 6818631.956919, 327018.978843 6818632.536810)

LINESTRING (328142.177614 6820061.744951, 328141.994538 6820044.907045)

LINESTRING (328142.177614 6820061.744951, 328124.728671 6820064.751458, 328084.830787 6820072.373643, 328065.837693 6820076.952000, 328051.179030 6820080.702007)

LINESTRING (328042.091234 6820072.182229, 328050.124433 6820068.682448)

LINESTRING (328042.091234 6820072.182229, 328036.693040 6820061.237045, 328026.184683 6820038.808043)

LINESTRING (327654.669002 6820179.390477, 327656.360485 6820181.861411, 327656.922169 6820184.790124, 327656.299452 6820187.721889)

LINESTRING (327654.669002 6820179.390477, 327660.675484 6820179.571848, 327665.789205 6820179.719477)

LINESTRING (327665.789205 6820179.719477, 327692.160623 6820180.507119, 327695.970422 6820180.507570, 327711.845347 6820181.169582, 327724.700172 6820181.401470, 327728.680643 6820181.293069, 327736.711826 6820180.771553, 327744.760172 6820179.735981, 327756.656604 6820177.215161, 327768.692989 6820174.073799, 327778.240079 6820171.413076, 327788.100117 6820168.714533, 327789.289238 6820168.376581, 327798.651718 6820165.758551, 327832.354718 6820155.260652, 327869.246580 6820144.504463)

LINESTRING (327693.818744 6819920.254012, 327710.187554 6819940.617181, 327714.959215 6819946.550071, 327775.226654 6820022.995882, 327858.621525 6820128.775897, 327865.534517 6820137.548162, 327869.246580 6820144.504463)

LINESTRING (327658.683645 6819844.915116, 327655.640359 6819811.148903, 327655.213057 6819801.686651, 327654.306145 6819787.618054, 327657.224345 6819770.625993)

LINESTRING (327658.683645 6819844.915116, 327663.235356 6819843.729530, 327667.907802 6819844.222665)

LINESTRING (326295.832225 6819699.091259, 326297.733981 6819689.746649, 326299.671902 6819682.296973, 326302.090125 6819676.552639, 326304.798116 6819670.626442, 326306.144966 6819667.680438, 326319.206118 6819647.032782, 326325.021576 6819640.493621, 326332.047350 6819635.210459, 326335.567110 6819633.025988, 326351.156096 6819625.239055, 326370.095176 6819616.994476, 326381.779007 6819612.114315, 326391.832475 6819605.474811, 326399.427418 6819600.364151, 326406.294055 6819594.776709, 326411.639583 6819589.187273, 326416.579662 6819582.000323, 326419.881853 6819572.050204, 326421.292071 6819566.847314, 326430.998487 6819531.071333, 326431.894357 6819526.574771, 326435.238826 6819507.864099, 326436.413401 6819502.003569)

LINESTRING (326148.269943 6819209.254825, 326157.682282 6819203.650973, 326179.168110 6819201.347498, 326205.367944 6819198.529160, 326238.029014 6819195.019328)

LINESTRING (326587.184456 6819488.418690, 326576.003380 6819395.613632)

LINESTRING (326445.392882 6819005.435460, 326368.232176 6818975.622002)

LINESTRING (326445.392882 6819005.435460, 326457.271184 6819009.951542, 326518.529666 6819033.264850, 326534.591839 6819039.368378, 326550.861289 6819045.562033)

LINESTRING (326445.392882 6819005.435460, 326440.442264 6818946.995824, 326434.809242 6818880.568247, 326434.847997 6818874.831478, 326435.792528 6818869.808109, 326439.651959 6818866.926225, 326445.210252 6818865.566044, 326565.862940 6818854.715419, 326572.214941 6818848.406605, 326610.811469 6818784.444214, 326603.964305 6818778.493579, 326558.640610 6818781.750972, 326532.901406 6818783.595045, 326524.699370 6818784.183464)

LINESTRING (326368.232176 6818975.622002, 326445.392882 6819005.435460)

LINESTRING (326368.232176 6818975.622002, 326345.026614 6818970.679921, 326301.307327 6818961.364405, 326297.468716 6818959.325051, 326294.395881 6818955.841558, 326287.701319 6818930.548306, 326277.675151 6818892.657867, 326276.493634 6818885.475919, 326270.847022 6818820.332176, 326270.946350 6818816.344052, 326272.771261 6818813.876211, 326276.481701 6818812.284687, 326320.563098 6818807.568350, 326367.740051 6818802.519213, 326390.641502 6818800.079457, 326395.446566 6818799.560199)

LINESTRING (326368.232176 6818975.622002, 326365.575538 6818941.189664, 326363.626802 6818915.893194, 326361.924158 6818893.808865, 326366.809413 6818884.437830)

LINESTRING (326524.699370 6818784.183464, 326512.025403 6818785.441700, 326485.620622 6818788.066927, 326466.991980 6818789.913086, 326465.903167 6818790.023306, 326425.905536 6818793.998015, 326419.670185 6818796.552433)

LINESTRING (326524.699370 6818784.183464, 326532.901406 6818783.595045, 326558.640610 6818781.750972, 326603.964305 6818778.493579, 326610.811469 6818784.444214, 326572.214941 6818848.406605, 326565.862940 6818854.715419, 326445.210252 6818865.566044, 326439.651959 6818866.926225, 326435.792528 6818869.808109, 326434.847997 6818874.831478, 326434.809242 6818880.568247, 326440.442264 6818946.995824, 326445.392882 6819005.435460)

LINESTRING (326524.699370 6818784.183464, 326518.588120 6818730.476699, 326518.152477 6818725.712016, 326516.941021 6818716.746357, 326514.894551 6818694.277543, 326514.300718 6818676.734572)

LINESTRING (326395.446566 6818799.560199, 326390.641502 6818800.079457, 326367.740051 6818802.519213, 326320.563098 6818807.568350, 326276.481701 6818812.284687, 326272.771261 6818813.876211, 326270.946350 6818816.344052, 326270.847022 6818820.332176, 326276.493634 6818885.475919, 326277.675151 6818892.657867, 326287.701319 6818930.548306, 326294.395881 6818955.841558, 326297.468716 6818959.325051, 326301.307327 6818961.364405, 326345.026614 6818970.679921, 326368.232176 6818975.622002)

LINESTRING (326395.446566 6818799.560199, 326398.950602 6818795.334861, 326415.315676 6818794.125922, 326419.670185 6818796.552433)

LINESTRING (326419.670185 6818796.552433, 326425.905536 6818793.998015, 326465.903167 6818790.023306, 326466.991980 6818789.913086, 326485.620622 6818788.066927, 326512.025403 6818785.441700, 326524.699370 6818784.183464)

LINESTRING (326419.670185 6818796.552433, 326415.476440 6818800.756453, 326413.182548 6818800.893483, 326399.591262 6818801.740561, 326395.446566 6818799.560199)

LINESTRING (326936.181540 6818639.174101, 326931.458978 6818639.532280, 326926.265814 6818639.980872, 326757.146935 6818654.620443, 326711.423285 6818658.665542, 326641.907571 6818665.506004, 326623.194471 6818667.277397, 326570.843740 6818672.023557, 326514.300718 6818676.734572)

LINESTRING (326936.181540 6818639.174101, 326960.043167 6818634.235742, 326968.354945 6818632.415620, 326979.508996 6818630.855506)

LINESTRING (326697.072278 6818969.117106, 326733.308383 6818912.180278, 326738.362082 6818904.240695, 326769.387581 6818855.497199, 326772.489025 6818850.578295)

LINESTRING (326697.072278 6818969.117106, 326690.805249 6818981.937260, 326675.816356 6819012.609374, 326655.945957 6819053.265621, 326651.384474 6819062.608891, 326650.846270 6819063.695708, 326642.749323 6819080.266940)

LINESTRING (326697.072278 6818969.117106, 326716.275458 6818979.226274, 326746.793374 6818995.297688, 326787.946025 6819016.975058)

LINESTRING (326896.877052 6819174.792208, 326891.134723 6819186.793654, 326886.503329 6819196.776036)

LINESTRING (326896.877052 6819174.792208, 326908.113024 6819153.077817, 326923.838028 6819122.693635)

LINESTRING (326896.877052 6819174.792208, 326850.915050 6819164.399250, 326826.989690 6819158.999076, 326723.549872 6819135.621818)

LINESTRING (326994.891031 6818893.196535, 326936.414618 6818868.475432, 326910.927803 6818857.596151, 326900.623475 6818852.631847)

LINESTRING (327073.855952 6818712.142177, 327044.085399 6818734.757003, 327020.532987 6818724.784640, 327015.843278 6818722.586091, 327014.999054 6818722.248820, 326994.960056 6818714.332960, 326971.035599 6818704.078215, 326965.625624 6818701.781747)

LINESTRING (326981.236300 6818661.440390, 326979.554604 6818666.042854, 326970.287120 6818691.418695, 326965.625624 6818701.781747)

LINESTRING (326981.236300 6818661.440390, 326980.805256 6818646.901807, 326980.611325 6818643.653588, 326980.187961 6818636.444863)

LINESTRING (327361.555051 6819982.626304, 327364.361504 6819977.041999, 327369.945823 6819965.941762, 327381.163380 6819943.649632, 327395.949746 6819914.251457)

LINESTRING (326405.288520 6819484.526124, 326404.132489 6819400.815099)

LINESTRING (326336.630518 6819485.886127, 326335.798285 6819469.682755, 326335.720867 6819468.135765, 326333.818268 6819431.077190, 326332.413663 6819403.756326)

LINESTRING (326366.809413 6818884.437830, 326361.924158 6818893.808865, 326363.626802 6818915.893194, 326365.575538 6818941.189664, 326368.232176 6818975.622002)

LINESTRING (327526.995540 6819819.627500, 327522.783447 6819818.520343)

LINESTRING (327526.995540 6819819.627500, 327532.209350 6819819.200982, 327536.913234 6819818.822132, 327645.645987 6819850.159420, 327650.333195 6819852.024113, 327651.593384 6819853.222261)

LINESTRING (327522.783447 6819818.520343, 327526.995540 6819819.627500)

LINESTRING (327522.783447 6819818.520343, 327516.979893 6819816.744780)

LINESTRING (327522.783447 6819818.520343, 327516.547664 6819840.039892)

LINESTRING (327651.593384 6819853.222261, 327654.230196 6819848.293762, 327658.683645 6819844.915116)

LINESTRING (327027.950498 6818622.104116, 327028.153186 6818631.956919)

LINESTRING (327027.950498 6818622.104116, 327044.206961 6818625.344147, 327047.113555 6818626.359670, 327071.280261 6818634.828905, 327085.413399 6818644.634872)

LINESTRING (327516.547664 6819840.039892, 327525.914295 6819842.642472, 327599.807035 6819863.158645)

LINESTRING (327516.547664 6819840.039892, 327508.896698 6819837.921056, 327504.487450 6819836.712152)

LINESTRING (327605.123663 6820437.571786, 327595.664953 6820436.948472, 327590.976830 6820436.768660, 327554.896913 6820436.843854, 327546.327136 6820438.218228, 327520.714208 6820444.601571, 327505.441849 6820448.418001, 327492.057526 6820451.683168, 327482.151015 6820453.213436, 327474.527128 6820452.900858, 327470.740177 6820452.174321)

LINESTRING (327605.123663 6820437.571786, 327620.027540 6820435.034861, 327623.884063 6820434.263057, 327632.495203 6820433.076492)

LINESTRING (327470.740177 6820452.174321, 327474.527128 6820452.900858, 327482.151015 6820453.213436, 327492.057526 6820451.683168, 327505.441849 6820448.418001, 327520.714208 6820444.601571, 327546.327136 6820438.218228, 327554.896913 6820436.843854, 327590.976830 6820436.768660, 327595.664953 6820436.948472, 327605.123663 6820437.571786)

LINESTRING (326980.187961 6818636.444863, 326979.508996 6818630.855506)

LINESTRING (326980.187961 6818636.444863, 326962.515149 6818638.419175, 326936.181540 6818639.174101)

LINESTRING (326979.508996 6818630.855506, 326990.673595 6818628.971345)

LINESTRING (326558.270868 6818924.124582, 326562.914822 6818924.550803, 326572.293954 6818925.733424, 326598.857223 6818940.405731, 326602.455343 6818942.122704)

LINESTRING (326990.673595 6818628.971345, 326991.358421 6818635.107111)

LINESTRING (326990.673595 6818628.971345, 327002.488201 6818625.883328, 327018.447078 6818623.258261)

LINESTRING (327997.839271 6819889.393338, 327968.722029 6819850.805696)

LINESTRING (327652.545264 6820177.777796, 327654.669002 6820179.390477)

LINESTRING (327657.207994 6819867.849169, 327652.817650 6819863.258564)

LINESTRING (325953.630716 6819908.502797, 325972.557012 6819891.431044, 325985.659596 6819877.730911, 325993.221309 6819867.510874, 326002.613810 6819849.634348, 326008.459619 6819831.054269, 326011.273494 6819816.609419, 326012.683846 6819803.015965, 326012.817716 6819796.426405, 326012.832256 6819784.264143, 326011.849189 6819771.683295, 326010.588833 6819758.681214, 326009.220098 6819752.245100, 326006.727099 6819742.652040, 326000.001207 6819726.018949, 325991.698918 6819712.432781, 325973.104494 6819682.939139, 325969.293395 6819677.607377, 325962.185354 6819666.661455, 325953.561235 6819652.622893, 325937.333213 6819627.652183, 325934.370212 6819621.887402, 325938.692430 6819620.063928, 325976.397569 6819607.919166, 325986.532998 6819601.330119, 325988.479600 6819599.279963, 325989.412697 6819597.559566, 325988.851447 6819594.988044, 325988.622360 6819594.463978, 325987.918012 6819592.870322, 325985.217908 6819587.025374, 325979.681706 6819574.326982, 325978.289310 6819569.442936, 325976.088570 6819561.743142)

LINESTRING (327652.817650 6819863.258564, 327647.930784 6819858.770726, 327643.397608 6819856.998798, 327536.127478 6819825.666992, 327531.691035 6819822.730062, 327526.995540 6819819.627500)

LINESTRING (327652.817650 6819863.258564, 327651.197705 6819858.362993, 327651.593384 6819853.222261)

LINESTRING (327662.897791 6819869.809119, 327662.653311 6819898.729130, 327663.933282 6819914.184984, 327665.254574 6819924.026800, 327665.556914 6819928.932034, 327665.539112 6819943.292018, 327665.172522 6819952.670976, 327664.155219 6819968.609121, 327662.817905 6819985.946634, 327661.318211 6820011.938917, 327660.288572 6820025.478917, 327659.524860 6820048.991255, 327656.886403 6820083.530620, 327655.983703 6820111.010617, 327654.712285 6820135.686203, 327654.366918 6820142.375269, 327653.195733 6820165.093398, 327653.024611 6820168.415540, 327652.862270 6820171.592204)

LINESTRING (327662.897791 6819869.809119, 327659.935569 6819869.152946, 327657.207994 6819867.849169)

LINESTRING (327652.862270 6820171.592204, 327652.545264 6820177.777796)

LINESTRING (327652.862270 6820171.592204, 327655.518684 6820174.260657, 327660.904685 6820175.700127, 327663.662026 6820177.392910, 327665.789205 6820179.719477)

LINESTRING (327599.807035 6819863.158645, 327525.914295 6819842.642472, 327516.547664 6819840.039892)

LINESTRING (327504.487450 6819836.712152, 327516.979893 6819816.744780)

LINESTRING (327504.487450 6819836.712152, 327495.810115 6819834.343129, 327447.515065 6819820.700671)

LINESTRING (327504.487450 6819836.712152, 327508.896698 6819837.921056, 327516.547664 6819840.039892)

