LINESTRING (60.000000 60.000000, 77.950744 43.789167)

LINESTRING (60.000000 60.000000, 49.322544 55.995697)

LINESTRING (60.000000 60.000000, 67.781678 70.382923)

LINESTRING (60.000000 60.000000, 57.727669 76.717535)

LINESTRING (60.000000 60.000000, 68.792340 67.732573)

LINESTRING (60.000000 60.000000, 80.569139 60.815546)

LINESTRING (60.000000 60.000000, 62.445597 46.923631)

LINESTRING (60.000000 60.000000, 72.486772 62.873760)

LINESTRING (60.000000 60.000000, 45.783050 77.766139)

LINESTRING (60.000000 60.000000, 53.595628 63.895852)

LINESTRING (77.950744 43.789167, 67.781678 70.382923)

LINESTRING (77.950744 43.789167, 57.727669 76.717535)

LINESTRING (77.950744 43.789167, 68.792340 67.732573)

LINESTRING (77.950744 43.789167, 72.486772 62.873760)

LINESTRING (77.950744 43.789167, 53.595628 63.895852)

LINESTRING (49.322544 55.995697, 68.792340 67.732573)

LINESTRING (49.322544 55.995697, 62.445597 46.923631)

LINESTRING (49.322544 55.995697, 53.595628 63.895852)

LINESTRING (67.781678 70.382923, 57.727669 76.717535)

LINESTRING (67.781678 70.382923, 68.792340 67.732573)

LINESTRING (67.781678 70.382923, 80.569139 60.815546)

LINESTRING (67.781678 70.382923, 62.445597 46.923631)

LINESTRING (67.781678 70.382923, 72.486772 62.873760)

LINESTRING (67.781678 70.382923, 53.595628 63.895852)

LINESTRING (57.727669 76.717535, 80.569139 60.815546)

LINESTRING (57.727669 76.717535, 72.486772 62.873760)

LINESTRING (57.727669 76.717535, 45.783050 77.766139)

LINESTRING (57.727669 76.717535, 53.595628 63.895852)

LINESTRING (68.792340 67.732573, 80.569139 60.815546)

LINESTRING (68.792340 67.732573, 62.445597 46.923631)

LINESTRING (68.792340 67.732573, 45.783050 77.766139)

LINESTRING (80.569139 60.815546, 62.445597 46.923631)

LINESTRING (80.569139 60.815546, 45.783050 77.766139)

LINESTRING (62.445597 46.923631, 53.595628 63.895852)

LINESTRING (72.486772 62.873760, 45.783050 77.766139)

LINESTRING (72.486772 62.873760, 53.595628 63.895852)

LINESTRING (260.000000 60.000000, 251.362832 40.546846)

LINESTRING (260.000000 60.000000, 267.484994 72.790380)

LINESTRING (260.000000 60.000000, 261.304618 72.910205)

LINESTRING (260.000000 60.000000, 272.915270 56.202706)

LINESTRING (260.000000 60.000000, 279.536495 66.535501)

LINESTRING (260.000000 60.000000, 238.043650 36.417277)

LINESTRING (260.000000 60.000000, 272.705519 66.022934)

LINESTRING (260.000000 60.000000, 283.003664 51.076401)

LINESTRING (260.000000 60.000000, 236.169232 79.321284)

LINESTRING (260.000000 60.000000, 259.082838 82.864953)

LINESTRING (251.362832 40.546846, 261.304618 72.910205)

LINESTRING (251.362832 40.546846, 272.915270 56.202706)

LINESTRING (251.362832 40.546846, 272.705519 66.022934)

LINESTRING (267.484994 72.790380, 261.304618 72.910205)

LINESTRING (267.484994 72.790380, 279.536495 66.535501)

LINESTRING (267.484994 72.790380, 238.043650 36.417277)

LINESTRING (261.304618 72.910205, 272.915270 56.202706)

LINESTRING (261.304618 72.910205, 279.536495 66.535501)

LINESTRING (261.304618 72.910205, 272.705519 66.022934)

LINESTRING (261.304618 72.910205, 236.169232 79.321284)

LINESTRING (261.304618 72.910205, 259.082838 82.864953)

LINESTRING (272.915270 56.202706, 283.003664 51.076401)

LINESTRING (272.915270 56.202706, 236.169232 79.321284)

LINESTRING (272.915270 56.202706, 259.082838 82.864953)

LINESTRING (279.536495 66.535501, 238.043650 36.417277)

LINESTRING (279.536495 66.535501, 259.082838 82.864953)

LINESTRING (238.043650 36.417277, 283.003664 51.076401)

LINESTRING (238.043650 36.417277, 259.082838 82.864953)

LINESTRING (272.705519 66.022934, 283.003664 51.076401)

LINESTRING (272.705519 66.022934, 236.169232 79.321284)

LINESTRING (283.003664 51.076401, 236.169232 79.321284)

LINESTRING (460.000000 60.000000, 443.354212 44.532384)

LINESTRING (460.000000 60.000000, 447.519828 77.204041)

LINESTRING (460.000000 60.000000, 479.845261 74.322872)

LINESTRING (460.000000 60.000000, 436.886718 44.110134)

LINESTRING (460.000000 60.000000, 473.036561 40.020118)

LINESTRING (460.000000 60.000000, 459.607291 62.464605)

LINESTRING (460.000000 60.000000, 469.075770 67.385641)

LINESTRING (460.000000 60.000000, 445.360552 49.399727)

LINESTRING (460.000000 60.000000, 473.406582 83.533060)

LINESTRING (460.000000 60.000000, 462.452699 73.775978)

LINESTRING (443.354212 44.532384, 445.360552 49.399727)

LINESTRING (443.354212 44.532384, 462.452699 73.775978)

LINESTRING (447.519828 77.204041, 479.845261 74.322872)

LINESTRING (447.519828 77.204041, 436.886718 44.110134)

LINESTRING (447.519828 77.204041, 445.360552 49.399727)

LINESTRING (447.519828 77.204041, 473.406582 83.533060)

LINESTRING (447.519828 77.204041, 462.452699 73.775978)

LINESTRING (479.845261 74.322872, 436.886718 44.110134)

LINESTRING (479.845261 74.322872, 459.607291 62.464605)

LINESTRING (479.845261 74.322872, 473.406582 83.533060)

LINESTRING (436.886718 44.110134, 459.607291 62.464605)

LINESTRING (436.886718 44.110134, 469.075770 67.385641)

LINESTRING (436.886718 44.110134, 445.360552 49.399727)

LINESTRING (436.886718 44.110134, 473.406582 83.533060)

LINESTRING (473.036561 40.020118, 459.607291 62.464605)

LINESTRING (473.036561 40.020118, 445.360552 49.399727)

LINESTRING (473.036561 40.020118, 462.452699 73.775978)

LINESTRING (459.607291 62.464605, 469.075770 67.385641)

LINESTRING (459.607291 62.464605, 445.360552 49.399727)

LINESTRING (469.075770 67.385641, 473.406582 83.533060)

LINESTRING (445.360552 49.399727, 473.406582 83.533060)

LINESTRING (445.360552 49.399727, 462.452699 73.775978)

LINESTRING (60.000000 260.000000, 42.666339 261.166529)

LINESTRING (60.000000 260.000000, 63.095599 261.087910)

LINESTRING (60.000000 260.000000, 48.865047 241.318411)

LINESTRING (60.000000 260.000000, 77.158530 270.061711)

LINESTRING (60.000000 260.000000, 40.211426 259.524627)

LINESTRING (60.000000 260.000000, 44.532741 264.355291)

LINESTRING (60.000000 260.000000, 43.215098 279.296492)

LINESTRING (60.000000 260.000000, 79.260119 265.116819)

LINESTRING (60.000000 260.000000, 57.568691 270.465461)

LINESTRING (60.000000 260.000000, 56.874612 247.272418)

LINESTRING (42.666339 261.166529, 48.865047 241.318411)

LINESTRING (42.666339 261.166529, 40.211426 259.524627)

LINESTRING (42.666339 261.166529, 44.532741 264.355291)

LINESTRING (42.666339 261.166529, 79.260119 265.116819)

LINESTRING (42.666339 261.166529, 57.568691 270.465461)

LINESTRING (42.666339 261.166529, 56.874612 247.272418)

LINESTRING (63.095599 261.087910, 77.158530 270.061711)

LINESTRING (63.095599 261.087910, 40.211426 259.524627)

LINESTRING (63.095599 261.087910, 44.532741 264.355291)

LINESTRING (63.095599 261.087910, 43.215098 279.296492)

LINESTRING (63.095599 261.087910, 79.260119 265.116819)

LINESTRING (63.095599 261.087910, 57.568691 270.465461)

LINESTRING (63.095599 261.087910, 56.874612 247.272418)

LINESTRING (48.865047 241.318411, 44.532741 264.355291)

LINESTRING (77.158530 270.061711, 79.260119 265.116819)

LINESTRING (44.532741 264.355291, 43.215098 279.296492)

LINESTRING (44.532741 264.355291, 57.568691 270.465461)

LINESTRING (43.215098 279.296492, 79.260119 265.116819)

LINESTRING (43.215098 279.296492, 56.874612 247.272418)

LINESTRING (79.260119 265.116819, 57.568691 270.465461)

LINESTRING (79.260119 265.116819, 56.874612 247.272418)

LINESTRING (260.000000 260.000000, 237.587870 242.948731)

LINESTRING (260.000000 260.000000, 248.578217 266.525336)

LINESTRING (260.000000 260.000000, 272.972759 261.635875)

LINESTRING (260.000000 260.000000, 280.072047 275.721115)

LINESTRING (260.000000 260.000000, 269.834088 268.344720)

LINESTRING (260.000000 260.000000, 243.326245 244.359550)

LINESTRING (260.000000 260.000000, 258.443931 236.668757)

LINESTRING (260.000000 260.000000, 260.108214 267.822447)

LINESTRING (260.000000 260.000000, 247.076238 241.301186)

LINESTRING (260.000000 260.000000, 272.658353 247.363748)

LINESTRING (237.587870 242.948731, 248.578217 266.525336)

LINESTRING (237.587870 242.948731, 272.972759 261.635875)

LINESTRING (237.587870 242.948731, 280.072047 275.721115)

LINESTRING (237.587870 242.948731, 247.076238 241.301186)

LINESTRING (237.587870 242.948731, 272.658353 247.363748)

LINESTRING (248.578217 266.525336, 272.972759 261.635875)

LINESTRING (248.578217 266.525336, 243.326245 244.359550)

LINESTRING (272.972759 261.635875, 258.443931 236.668757)

LINESTRING (272.972759 261.635875, 260.108214 267.822447)

LINESTRING (272.972759 261.635875, 247.076238 241.301186)

LINESTRING (272.972759 261.635875, 272.658353 247.363748)

LINESTRING (280.072047 275.721115, 258.443931 236.668757)

LINESTRING (280.072047 275.721115, 260.108214 267.822447)

LINESTRING (269.834088 268.344720, 258.443931 236.668757)

LINESTRING (243.326245 244.359550, 247.076238 241.301186)

LINESTRING (258.443931 236.668757, 247.076238 241.301186)

LINESTRING (258.443931 236.668757, 272.658353 247.363748)

LINESTRING (260.108214 267.822447, 272.658353 247.363748)

LINESTRING (460.000000 260.000000, 469.746635 260.900739)

LINESTRING (460.000000 260.000000, 469.212314 240.847423)

LINESTRING (460.000000 260.000000, 454.673649 279.808418)

LINESTRING (460.000000 260.000000, 462.848982 245.845474)

LINESTRING (460.000000 260.000000, 449.905417 245.380813)

LINESTRING (460.000000 260.000000, 479.800674 271.546923)

LINESTRING (460.000000 260.000000, 450.000087 276.572452)

LINESTRING (460.000000 260.000000, 473.219046 254.290660)

LINESTRING (460.000000 260.000000, 459.862539 239.178698)

LINESTRING (460.000000 260.000000, 466.514826 240.067505)

LINESTRING (469.746635 260.900739, 469.212314 240.847423)

LINESTRING (469.746635 260.900739, 449.905417 245.380813)

LINESTRING (469.746635 260.900739, 459.862539 239.178698)

LINESTRING (469.746635 260.900739, 466.514826 240.067505)

LINESTRING (469.212314 240.847423, 479.800674 271.546923)

LINESTRING (469.212314 240.847423, 450.000087 276.572452)

LINESTRING (469.212314 240.847423, 459.862539 239.178698)

LINESTRING (469.212314 240.847423, 466.514826 240.067505)

LINESTRING (454.673649 279.808418, 459.862539 239.178698)

LINESTRING (462.848982 245.845474, 479.800674 271.546923)

LINESTRING (462.848982 245.845474, 473.219046 254.290660)

LINESTRING (462.848982 245.845474, 466.514826 240.067505)

LINESTRING (449.905417 245.380813, 473.219046 254.290660)

LINESTRING (479.800674 271.546923, 450.000087 276.572452)

LINESTRING (479.800674 271.546923, 473.219046 254.290660)

LINESTRING (450.000087 276.572452, 473.219046 254.290660)

LINESTRING (450.000087 276.572452, 459.862539 239.178698)

LINESTRING (450.000087 276.572452, 466.514826 240.067505)

LINESTRING (473.219046 254.290660, 459.862539 239.178698)

LINESTRING (473.219046 254.290660, 466.514826 240.067505)

LINESTRING (459.862539 239.178698, 466.514826 240.067505)

LINESTRING (60.000000 460.000000, 52.294012 455.549699)

LINESTRING (60.000000 460.000000, 69.322324 475.691459)

LINESTRING (60.000000 460.000000, 81.213133 436.522221)

LINESTRING (60.000000 460.000000, 70.328604 456.413060)

LINESTRING (60.000000 460.000000, 77.338337 467.864717)

LINESTRING (60.000000 460.000000, 76.984987 477.372878)

LINESTRING (60.000000 460.000000, 62.582579 468.854491)

LINESTRING (60.000000 460.000000, 54.232260 443.985674)

LINESTRING (60.000000 460.000000, 37.321756 455.352057)

LINESTRING (60.000000 460.000000, 77.328700 481.581898)

LINESTRING (52.294012 455.549699, 81.213133 436.522221)

LINESTRING (52.294012 455.549699, 70.328604 456.413060)

LINESTRING (52.294012 455.549699, 76.984987 477.372878)

LINESTRING (52.294012 455.549699, 37.321756 455.352057)

LINESTRING (69.322324 475.691459, 81.213133 436.522221)

LINESTRING (69.322324 475.691459, 70.328604 456.413060)

LINESTRING (69.322324 475.691459, 76.984987 477.372878)

LINESTRING (69.322324 475.691459, 62.582579 468.854491)

LINESTRING (69.322324 475.691459, 54.232260 443.985674)

LINESTRING (69.322324 475.691459, 77.328700 481.581898)

LINESTRING (81.213133 436.522221, 70.328604 456.413060)

LINESTRING (81.213133 436.522221, 76.984987 477.372878)

LINESTRING (81.213133 436.522221, 62.582579 468.854491)

LINESTRING (81.213133 436.522221, 77.328700 481.581898)

LINESTRING (70.328604 456.413060, 62.582579 468.854491)

LINESTRING (70.328604 456.413060, 54.232260 443.985674)

LINESTRING (70.328604 456.413060, 77.328700 481.581898)

LINESTRING (77.338337 467.864717, 77.328700 481.581898)

LINESTRING (76.984987 477.372878, 62.582579 468.854491)

LINESTRING (76.984987 477.372878, 54.232260 443.985674)

LINESTRING (76.984987 477.372878, 77.328700 481.581898)

LINESTRING (62.582579 468.854491, 37.321756 455.352057)

LINESTRING (260.000000 460.000000, 257.934762 479.955334)

LINESTRING (260.000000 460.000000, 265.221015 470.434620)

LINESTRING (260.000000 460.000000, 239.416206 472.218131)

LINESTRING (260.000000 460.000000, 245.507321 446.765244)

LINESTRING (260.000000 460.000000, 236.359323 477.290699)

LINESTRING (260.000000 460.000000, 279.906757 459.304051)

LINESTRING (260.000000 460.000000, 238.743826 449.866631)

LINESTRING (260.000000 460.000000, 237.322478 470.266918)

LINESTRING (260.000000 460.000000, 270.062424 455.074784)

LINESTRING (260.000000 460.000000, 271.544566 458.289734)

LINESTRING (257.934762 479.955334, 245.507321 446.765244)

LINESTRING (265.221015 470.434620, 239.416206 472.218131)

LINESTRING (265.221015 470.434620, 236.359323 477.290699)

LINESTRING (265.221015 470.434620, 238.743826 449.866631)

LINESTRING (265.221015 470.434620, 270.062424 455.074784)

LINESTRING (239.416206 472.218131, 245.507321 446.765244)

LINESTRING (245.507321 446.765244, 279.906757 459.304051)

LINESTRING (245.507321 446.765244, 238.743826 449.866631)

LINESTRING (245.507321 446.765244, 271.544566 458.289734)

LINESTRING (236.359323 477.290699, 237.322478 470.266918)

LINESTRING (236.359323 477.290699, 271.544566 458.289734)

LINESTRING (279.906757 459.304051, 238.743826 449.866631)

LINESTRING (279.906757 459.304051, 237.322478 470.266918)

LINESTRING (279.906757 459.304051, 271.544566 458.289734)

LINESTRING (238.743826 449.866631, 271.544566 458.289734)

LINESTRING (237.322478 470.266918, 271.544566 458.289734)

LINESTRING (270.062424 455.074784, 271.544566 458.289734)

LINESTRING (72.486772 62.873760, 261.304618 72.910205)

LINESTRING (67.781678 70.382923, 272.915270 56.202706)

LINESTRING (60.000000 60.000000, 260.000000 60.000000)

LINESTRING (279.536495 66.535501, 459.607291 62.464605)

LINESTRING (259.082838 82.864953, 479.845261 74.322872)

LINESTRING (260.000000 60.000000, 460.000000 60.000000)

LINESTRING (443.354212 44.532384, 43.215098 279.296492)

LINESTRING (445.360552 49.399727, 48.865047 241.318411)

LINESTRING (460.000000 60.000000, 60.000000 260.000000)

LINESTRING (57.568691 270.465461, 272.658353 247.363748)

LINESTRING (79.260119 265.116819, 258.443931 236.668757)

LINESTRING (60.000000 260.000000, 260.000000 260.000000)

LINESTRING (272.658353 247.363748, 473.219046 254.290660)

LINESTRING (237.587870 242.948731, 449.905417 245.380813)

LINESTRING (260.000000 260.000000, 460.000000 260.000000)

LINESTRING (469.746635 260.900739, 76.984987 477.372878)

LINESTRING (454.673649 279.808418, 77.338337 467.864717)

LINESTRING (460.000000 260.000000, 60.000000 460.000000)

LINESTRING (77.328700 481.581898, 238.743826 449.866631)

LINESTRING (70.328604 456.413060, 239.416206 472.218131)

LINESTRING (60.000000 460.000000, 260.000000 460.000000)

