LINESTRING (1927.181191 2031.974252, 1926.357763 2087.931037)

LINESTRING (1927.181191 2031.974252, 2053.362230 1916.322095)

LINESTRING (1927.181191 2031.974252, 1644.346116 2015.309996)

LINESTRING (2045.298408 496.396749, 2053.623502 457.171961)

LINESTRING (2045.298408 496.396749, 1480.582243 529.887895)

LINESTRING (2045.298408 496.396749, 1616.738935 718.079480)

LINESTRING (1607.510144 1465.049560, 1101.953932 1703.508615)

LINESTRING (1607.510144 1465.049560, 1729.180773 1557.326161)

LINESTRING (907.459163 892.438395, 979.409850 940.950226)

LINESTRING (907.459163 892.438395, 561.213640 1001.896007)

LINESTRING (907.459163 892.438395, 397.085518 1130.127949)

LINESTRING (907.459163 892.438395, 674.821134 437.169385)

LINESTRING (907.459163 892.438395, 517.715866 622.384696)

LINESTRING (907.459163 892.438395, 1039.462926 794.243604)

LINESTRING (907.459163 892.438395, 903.109456 641.487483)

LINESTRING (907.459163 892.438395, 804.302164 477.811284)

LINESTRING (1101.953932 1703.508615, 907.883249 1547.515291)

LINESTRING (1101.953932 1703.508615, 1042.449669 2089.572717)

LINESTRING (1101.953932 1703.508615, 806.051923 1461.780512)

LINESTRING (979.409850 940.950226, 1487.613630 884.996496)

LINESTRING (979.409850 940.950226, 1039.462926 794.243604)

LINESTRING (979.409850 940.950226, 1128.757436 867.323618)

LINESTRING (979.409850 940.950226, 649.196182 551.709267)

LINESTRING (979.409850 940.950226, 806.051923 1461.780512)

LINESTRING (2053.623502 457.171961, 1616.738935 718.079480)

LINESTRING (907.883249 1547.515291, 1042.449669 2089.572717)

LINESTRING (907.883249 1547.515291, 806.051923 1461.780512)

LINESTRING (561.213640 1001.896007, 516.174922 1017.095851)

LINESTRING (561.213640 1001.896007, 672.756275 1010.641540)

LINESTRING (561.213640 1001.896007, 397.085518 1130.127949)

LINESTRING (561.213640 1001.896007, 674.821134 437.169385)

LINESTRING (561.213640 1001.896007, 804.302164 477.811284)

LINESTRING (561.213640 1001.896007, 649.196182 551.709267)

LINESTRING (245.409280 1737.704483, 331.320502 1621.973785)

LINESTRING (2053.362230 1916.322095, 1644.346116 2015.309996)

LINESTRING (343.371717 390.179647, 674.821134 437.169385)

LINESTRING (343.371717 390.179647, 649.196182 551.709267)

LINESTRING (1090.711963 612.023401, 1469.838243 903.637318)

LINESTRING (1090.711963 612.023401, 1616.738935 718.079480)

LINESTRING (1090.711963 612.023401, 672.756275 1010.641540)

LINESTRING (1090.711963 612.023401, 517.715866 622.384696)

LINESTRING (1090.711963 612.023401, 1526.754550 469.935753)

LINESTRING (1090.711963 612.023401, 1039.462926 794.243604)

LINESTRING (1090.711963 612.023401, 903.109456 641.487483)

LINESTRING (1090.711963 612.023401, 804.302164 477.811284)

LINESTRING (1480.582243 529.887895, 1165.384703 369.977401)

LINESTRING (1480.582243 529.887895, 1526.754550 469.935753)

LINESTRING (1469.838243 903.637318, 1487.613630 884.996496)

LINESTRING (1616.738935 718.079480, 1725.011479 847.006578)

LINESTRING (1616.738935 718.079480, 1128.757436 867.323618)

LINESTRING (516.174922 1017.095851, 672.756275 1010.641540)

LINESTRING (516.174922 1017.095851, 397.085518 1130.127949)

LINESTRING (516.174922 1017.095851, 1039.462926 794.243604)

LINESTRING (147.086209 488.152583, 674.821134 437.169385)

LINESTRING (147.086209 488.152583, 517.715866 622.384696)

LINESTRING (672.756275 1010.641540, 674.821134 437.169385)

LINESTRING (672.756275 1010.641540, 517.715866 622.384696)

LINESTRING (672.756275 1010.641540, 1039.462926 794.243604)

LINESTRING (672.756275 1010.641540, 804.302164 477.811284)

LINESTRING (672.756275 1010.641540, 413.563333 1429.474464)

LINESTRING (672.756275 1010.641540, 806.051923 1461.780512)

LINESTRING (397.085518 1130.127949, 331.320502 1621.973785)

LINESTRING (397.085518 1130.127949, 517.715866 622.384696)

LINESTRING (397.085518 1130.127949, 413.563333 1429.474464)

LINESTRING (397.085518 1130.127949, 806.051923 1461.780512)

LINESTRING (1165.384703 369.977401, 1128.757436 867.323618)

LINESTRING (1165.384703 369.977401, 804.302164 477.811284)

LINESTRING (674.821134 437.169385, 903.109456 641.487483)

LINESTRING (674.821134 437.169385, 804.302164 477.811284)

LINESTRING (674.821134 437.169385, 649.196182 551.709267)

LINESTRING (517.715866 622.384696, 649.196182 551.709267)

LINESTRING (1526.754550 469.935753, 1039.462926 794.243604)

LINESTRING (1039.462926 794.243604, 1128.757436 867.323618)

LINESTRING (1039.462926 794.243604, 804.302164 477.811284)

LINESTRING (903.109456 641.487483, 804.302164 477.811284)

LINESTRING (804.302164 477.811284, 649.196182 551.709267)

