LINESTRING (59.098487 49.181784, 99.438037 50.336894)

LINESTRING (99.438037 50.336894, 125.088152 44.523135)

LINESTRING (125.088152 44.523135, 177.523658 44.502772)

LINESTRING (177.523658 44.502772, 219.038356 50.126916)

LINESTRING (219.038356 50.126916, 250.415224 52.870392)

LINESTRING (250.415224 52.870392, 286.513198 44.526175)

LINESTRING (286.513198 44.526175, 339.236833 55.186963)

LINESTRING (339.236833 55.186963, 374.886353 54.021167)

LINESTRING (54.611233 98.729879, 83.097842 92.888090)

LINESTRING (83.097842 92.888090, 131.972318 84.493983)

LINESTRING (131.972318 84.493983, 174.485010 91.527762)

LINESTRING (174.485010 91.527762, 212.842827 82.309661)

LINESTRING (212.842827 82.309661, 255.432313 91.831733)

LINESTRING (255.432313 91.831733, 287.856031 98.305132)

LINESTRING (287.856031 98.305132, 336.692167 80.942427)

LINESTRING (336.692167 80.942427, 363.744405 92.300404)

LINESTRING (48.646617 123.358656, 85.773103 123.634308)

LINESTRING (85.773103 123.634308, 131.761430 139.249827)

LINESTRING (131.761430 139.249827, 165.162033 124.502537)

LINESTRING (165.162033 124.502537, 211.915027 132.622771)

LINESTRING (211.915027 132.622771, 252.448730 123.777654)

LINESTRING (252.448730 123.777654, 285.607995 135.399983)

LINESTRING (285.607995 135.399983, 328.229473 127.643835)

LINESTRING (328.229473 127.643835, 366.329096 124.316947)

LINESTRING (41.936104 166.378716, 95.276479 166.447678)

LINESTRING (95.276479 166.447678, 121.715723 174.629785)

LINESTRING (121.715723 174.629785, 165.259869 179.388872)

LINESTRING (165.259869 179.388872, 206.365539 174.097128)

LINESTRING (206.365539 174.097128, 258.263561 165.480757)

LINESTRING (258.263561 165.480757, 287.866218 165.913722)

LINESTRING (287.866218 165.913722, 326.240039 164.821236)

LINESTRING (326.240039 164.821236, 374.244775 176.510493)

LINESTRING (53.136742 213.212737, 82.590056 206.048078)

LINESTRING (82.590056 206.048078, 133.694112 210.746339)

LINESTRING (133.694112 210.746339, 174.370840 215.730366)

LINESTRING (174.370840 215.730366, 205.838629 207.455085)

LINESTRING (205.838629 207.455085, 253.363980 219.735236)

LINESTRING (253.363980 219.735236, 292.457782 218.883106)

LINESTRING (292.457782 218.883106, 327.159224 206.077087)

LINESTRING (327.159224 206.077087, 361.568326 200.243719)

LINESTRING (57.356142 244.001171, 98.175636 242.360196)

LINESTRING (98.175636 242.360196, 124.430483 259.902313)

LINESTRING (124.430483 259.902313, 173.972818 243.699337)

LINESTRING (173.972818 243.699337, 210.308515 244.735803)

LINESTRING (210.308515 244.735803, 246.565373 257.243898)

LINESTRING (246.565373 257.243898, 280.422459 254.381745)

LINESTRING (280.422459 254.381745, 325.907461 250.544940)

LINESTRING (325.907461 250.544940, 363.885128 256.979666)

LINESTRING (45.511756 281.831335, 91.713636 291.087270)

LINESTRING (91.713636 291.087270, 131.227514 290.547827)

LINESTRING (131.227514 290.547827, 174.316025 280.219156)

LINESTRING (174.316025 280.219156, 212.882853 280.943671)

LINESTRING (212.882853 280.943671, 254.849992 285.665862)

LINESTRING (254.849992 285.665862, 297.400673 290.893156)

LINESTRING (297.400673 290.893156, 335.914610 296.382537)

LINESTRING (335.914610 296.382537, 366.294324 298.459591)

LINESTRING (50.625714 339.157090, 97.330774 329.695402)

LINESTRING (97.330774 329.695402, 123.121670 326.072711)

LINESTRING (123.121670 326.072711, 162.567134 328.904984)

LINESTRING (162.567134 328.904984, 214.695665 333.354765)

LINESTRING (214.695665 333.354765, 248.948517 338.692069)

LINESTRING (248.948517 338.692069, 282.911959 322.030836)

LINESTRING (282.911959 322.030836, 330.734480 337.459564)

LINESTRING (330.734480 337.459564, 368.329961 335.694514)

LINESTRING (48.229119 364.254336, 90.141710 366.441349)

LINESTRING (90.141710 366.441349, 137.438806 372.003160)

LINESTRING (137.438806 372.003160, 161.102589 378.827440)

LINESTRING (161.102589 378.827440, 206.598659 371.327848)

LINESTRING (206.598659 371.327848, 240.568824 360.584608)

LINESTRING (240.568824 360.584608, 292.398139 376.338892)

LINESTRING (292.398139 376.338892, 331.349053 368.508944)

LINESTRING (331.349053 368.508944, 368.506708 364.018445)

LINESTRING (59.098487 49.181784, 54.611233 98.729879)

LINESTRING (99.438037 50.336894, 83.097842 92.888090)

LINESTRING (125.088152 44.523135, 131.972318 84.493983)

LINESTRING (177.523658 44.502772, 174.485010 91.527762)

LINESTRING (219.038356 50.126916, 212.842827 82.309661)

LINESTRING (250.415224 52.870392, 255.432313 91.831733)

LINESTRING (286.513198 44.526175, 287.856031 98.305132)

LINESTRING (339.236833 55.186963, 336.692167 80.942427)

LINESTRING (374.886353 54.021167, 363.744405 92.300404)

LINESTRING (54.611233 98.729879, 48.646617 123.358656)

LINESTRING (83.097842 92.888090, 85.773103 123.634308)

LINESTRING (131.972318 84.493983, 131.761430 139.249827)

LINESTRING (174.485010 91.527762, 165.162033 124.502537)

LINESTRING (212.842827 82.309661, 211.915027 132.622771)

LINESTRING (255.432313 91.831733, 252.448730 123.777654)

LINESTRING (287.856031 98.305132, 285.607995 135.399983)

LINESTRING (336.692167 80.942427, 328.229473 127.643835)

LINESTRING (363.744405 92.300404, 366.329096 124.316947)

LINESTRING (48.646617 123.358656, 41.936104 166.378716)

LINESTRING (85.773103 123.634308, 95.276479 166.447678)

LINESTRING (131.761430 139.249827, 121.715723 174.629785)

LINESTRING (165.162033 124.502537, 165.259869 179.388872)

LINESTRING (211.915027 132.622771, 206.365539 174.097128)

LINESTRING (252.448730 123.777654, 258.263561 165.480757)

LINESTRING (285.607995 135.399983, 287.866218 165.913722)

LINESTRING (328.229473 127.643835, 326.240039 164.821236)

LINESTRING (366.329096 124.316947, 374.244775 176.510493)

LINESTRING (41.936104 166.378716, 53.136742 213.212737)

LINESTRING (95.276479 166.447678, 82.590056 206.048078)

LINESTRING (121.715723 174.629785, 133.694112 210.746339)

LINESTRING (165.259869 179.388872, 174.370840 215.730366)

LINESTRING (206.365539 174.097128, 205.838629 207.455085)

LINESTRING (258.263561 165.480757, 253.363980 219.735236)

LINESTRING (287.866218 165.913722, 292.457782 218.883106)

LINESTRING (326.240039 164.821236, 327.159224 206.077087)

LINESTRING (374.244775 176.510493, 361.568326 200.243719)

LINESTRING (53.136742 213.212737, 57.356142 244.001171)

LINESTRING (82.590056 206.048078, 98.175636 242.360196)

LINESTRING (133.694112 210.746339, 124.430483 259.902313)

LINESTRING (174.370840 215.730366, 173.972818 243.699337)

LINESTRING (205.838629 207.455085, 210.308515 244.735803)

LINESTRING (253.363980 219.735236, 246.565373 257.243898)

LINESTRING (292.457782 218.883106, 280.422459 254.381745)

LINESTRING (327.159224 206.077087, 325.907461 250.544940)

LINESTRING (361.568326 200.243719, 363.885128 256.979666)

LINESTRING (57.356142 244.001171, 45.511756 281.831335)

LINESTRING (98.175636 242.360196, 91.713636 291.087270)

LINESTRING (124.430483 259.902313, 131.227514 290.547827)

LINESTRING (173.972818 243.699337, 174.316025 280.219156)

LINESTRING (210.308515 244.735803, 212.882853 280.943671)

LINESTRING (246.565373 257.243898, 254.849992 285.665862)

LINESTRING (280.422459 254.381745, 297.400673 290.893156)

LINESTRING (325.907461 250.544940, 335.914610 296.382537)

LINESTRING (363.885128 256.979666, 366.294324 298.459591)

LINESTRING (45.511756 281.831335, 50.625714 339.157090)

LINESTRING (91.713636 291.087270, 97.330774 329.695402)

LINESTRING (131.227514 290.547827, 123.121670 326.072711)

LINESTRING (174.316025 280.219156, 162.567134 328.904984)

LINESTRING (212.882853 280.943671, 214.695665 333.354765)

LINESTRING (254.849992 285.665862, 248.948517 338.692069)

LINESTRING (297.400673 290.893156, 282.911959 322.030836)

LINESTRING (335.914610 296.382537, 330.734480 337.459564)

LINESTRING (366.294324 298.459591, 368.329961 335.694514)

LINESTRING (50.625714 339.157090, 48.229119 364.254336)

LINESTRING (97.330774 329.695402, 90.141710 366.441349)

LINESTRING (123.121670 326.072711, 137.438806 372.003160)

LINESTRING (162.567134 328.904984, 161.102589 378.827440)

LINESTRING (214.695665 333.354765, 206.598659 371.327848)

LINESTRING (248.948517 338.692069, 240.568824 360.584608)

LINESTRING (282.911959 322.030836, 292.398139 376.338892)

LINESTRING (330.734480 337.459564, 331.349053 368.508944)

LINESTRING (368.329961 335.694514, 368.506708 364.018445)

