LINESTRING (80.000000 80.000000, 278.484880 131.669619)

LINESTRING (278.484880 131.669619, 471.938981 96.301164)

LINESTRING (471.938981 96.301164, 608.328309 -32.491819)

LINESTRING (608.328309 -32.491819, 643.983094 -234.935856)

LINESTRING (643.983094 -234.935856, 598.455332 -437.202625)

LINESTRING (643.983094 -234.935856, 769.844737 -379.899541)

LINESTRING (608.328309 -32.491819, 784.466199 -99.298661)

LINESTRING (784.466199 -99.298661, 933.763503 -229.283921)

LINESTRING (784.466199 -99.298661, 958.615569 -45.873144)

LINESTRING (471.938981 96.301164, 684.990101 149.391616)

LINESTRING (684.990101 149.391616, 873.087829 110.664112)

LINESTRING (873.087829 110.664112, 1024.942100 -34.576596)

LINESTRING (873.087829 110.664112, 1063.889575 168.025762)

LINESTRING (684.990101 149.391616, 825.204297 292.784782)

LINESTRING (825.204297 292.784782, 1009.762238 339.358025)

LINESTRING (825.204297 292.784782, 868.507265 482.030835)

LINESTRING (278.484880 131.669619, 407.516361 285.441926)

LINESTRING (407.516361 285.441926, 601.744321 352.904151)

LINESTRING (601.744321 352.904151, 781.170138 285.411429)

LINESTRING (781.170138 285.411429, 908.248684 141.488062)

LINESTRING (781.170138 285.411429, 973.111289 325.477621)

LINESTRING (601.744321 352.904151, 737.284208 480.811519)

LINESTRING (737.284208 480.811519, 914.610294 522.511757)

LINESTRING (737.284208 480.811519, 796.531036 667.325740)

LINESTRING (407.516361 285.441926, 442.544058 468.355482)

LINESTRING (442.544058 468.355482, 575.450841 597.122681)

LINESTRING (575.450841 597.122681, 769.817066 640.841276)

LINESTRING (575.450841 597.122681, 644.791269 784.092179)

LINESTRING (442.544058 468.355482, 385.039665 675.511901)

LINESTRING (385.039665 675.511901, 418.732567 872.393343)

LINESTRING (385.039665 675.511901, 255.589200 834.090884)

LINESTRING (80.000000 80.000000, 127.317504 274.833464)

LINESTRING (127.317504 274.833464, 272.991237 398.250605)

LINESTRING (272.991237 398.250605, 463.455160 430.294838)

LINESTRING (463.455160 430.294838, 663.708988 370.119650)

LINESTRING (663.708988 370.119650, 793.084286 229.617006)

LINESTRING (663.708988 370.119650, 861.401223 419.374556)

LINESTRING (463.455160 430.294838, 595.870646 579.904945)

LINESTRING (595.870646 579.904945, 806.374702 628.905665)

LINESTRING (595.870646 579.904945, 634.353033 754.328178)

LINESTRING (272.991237 398.250605, 321.891355 578.891710)

LINESTRING (321.891355 578.891710, 479.768692 706.927092)

LINESTRING (479.768692 706.927092, 682.359997 740.580088)

LINESTRING (479.768692 706.927092, 543.751947 882.183144)

LINESTRING (321.891355 578.891710, 272.548587 786.019298)

LINESTRING (272.548587 786.019298, 331.579133 977.169065)

LINESTRING (272.548587 786.019298, 121.417107 917.837918)

LINESTRING (127.317504 274.833464, 91.945136 458.702457)

LINESTRING (91.945136 458.702457, 158.415836 662.456082)

LINESTRING (158.415836 662.456082, 307.301081 817.863605)

LINESTRING (307.301081 817.863605, 481.333729 859.002136)

LINESTRING (307.301081 817.863605, 367.168571 1020.236282)

LINESTRING (158.415836 662.456082, 104.944430 848.070813)

LINESTRING (104.944430 848.070813, 165.533635 1044.552975)

LINESTRING (104.944430 848.070813, -52.172045 1008.211718)

LINESTRING (91.945136 458.702457, -52.940113 614.487057)

LINESTRING (-52.940113 614.487057, -101.154184 824.169059)

LINESTRING (-101.154184 824.169059, -56.059551 1031.933148)

LINESTRING (-101.154184 824.169059, -229.270917 976.810608)

LINESTRING (-52.940113 614.487057, -261.499274 677.859336)

LINESTRING (-261.499274 677.859336, -393.659569 838.253210)

LINESTRING (-261.499274 677.859336, -463.235303 644.848472)

