LINESTRING (481.542525 409.729254, 460.589495 448.832503)

LINESTRING (460.589495 448.832503, 423.658929 474.023495)

LINESTRING (423.658929 474.023495, 372.264189 482.731925)

LINESTRING (372.264189 482.731925, 341.208205 444.075565)

LINESTRING (341.208205 444.075565, 313.270370 404.630588)

LINESTRING (313.270370 404.630588, 341.930091 347.696695)

LINESTRING (341.930091 347.696695, 385.240520 319.629624)

LINESTRING (385.240520 319.629624, 429.918085 314.345797)

LINESTRING (429.918085 314.345797, 459.439716 344.783747)

LINESTRING (459.439716 344.783747, 481.542525 409.729254)

LINESTRING (558.102870 395.138239, 532.352288 484.058302)

LINESTRING (532.352288 484.058302, 454.796671 548.697292)

LINESTRING (454.796671 548.697292, 352.178813 549.656999)

LINESTRING (352.178813 549.656999, 272.206962 493.631787)

LINESTRING (272.206962 493.631787, 231.602829 407.158575)

LINESTRING (231.602829 407.158575, 270.698897 303.270014)

LINESTRING (270.698897 303.270014, 351.720467 250.326746)

LINESTRING (351.720467 250.326746, 445.496621 242.422935)

LINESTRING (445.496621 242.422935, 522.965656 303.063902)

LINESTRING (522.965656 303.063902, 558.102870 395.138239)

LINESTRING (644.780229 393.279716, 585.748996 534.320728)

LINESTRING (585.748996 534.320728, 466.856238 637.386617)

LINESTRING (466.856238 637.386617, 327.112816 636.336808)

LINESTRING (327.112816 636.336808, 207.436265 542.601646)

LINESTRING (207.436265 542.601646, 162.574736 402.274494)

LINESTRING (162.574736 402.274494, 203.219436 256.836999)

LINESTRING (203.219436 256.836999, 319.995790 174.540732)

LINESTRING (319.995790 174.540732, 469.899477 164.457519)

LINESTRING (469.899477 164.457519, 594.151152 252.623862)

LINESTRING (594.151152 252.623862, 644.780229 393.279716)

LINESTRING (712.943384 400.618038, 652.443531 596.482138)

LINESTRING (652.443531 596.482138, 495.004276 701.102058)

LINESTRING (495.004276 701.102058, 306.967264 698.709908)

LINESTRING (306.967264 698.709908, 139.166136 590.854752)

LINESTRING (139.166136 590.854752, 88.207094 390.880292)

LINESTRING (88.207094 390.880292, 144.431051 218.268150)

LINESTRING (144.431051 218.268150, 302.182871 95.291589)

LINESTRING (302.182871 95.291589, 489.870462 92.676720)

LINESTRING (489.870462 92.676720, 660.827186 217.885996)

LINESTRING (660.827186 217.885996, 712.943384 400.618038)

LINESTRING (806.070309 392.714699, 724.458015 625.906578)

LINESTRING (724.458015 625.906578, 525.736098 786.003221)

LINESTRING (525.736098 786.003221, 281.583523 773.859204)

LINESTRING (281.583523 773.859204, 73.372963 638.788809)

LINESTRING (73.372963 638.788809, -3.170759 409.937684)

LINESTRING (-3.170759 409.937684, 71.303088 169.129821)

LINESTRING (71.303088 169.129821, 282.004721 26.103859)

LINESTRING (282.004721 26.103859, 530.612767 26.374500)

LINESTRING (530.612767 26.374500, 715.040652 159.653350)

LINESTRING (715.040652 159.653350, 806.070309 392.714699)

LINESTRING (481.542525 409.729254, 558.102870 395.138239)

LINESTRING (558.102870 395.138239, 644.780229 393.279716)

LINESTRING (644.780229 393.279716, 712.943384 400.618038)

LINESTRING (712.943384 400.618038, 806.070309 392.714699)

LINESTRING (460.589495 448.832503, 532.352288 484.058302)

LINESTRING (532.352288 484.058302, 585.748996 534.320728)

LINESTRING (585.748996 534.320728, 652.443531 596.482138)

LINESTRING (652.443531 596.482138, 724.458015 625.906578)

LINESTRING (423.658929 474.023495, 454.796671 548.697292)

LINESTRING (454.796671 548.697292, 466.856238 637.386617)

LINESTRING (466.856238 637.386617, 495.004276 701.102058)

LINESTRING (495.004276 701.102058, 525.736098 786.003221)

LINESTRING (372.264189 482.731925, 352.178813 549.656999)

LINESTRING (352.178813 549.656999, 327.112816 636.336808)

LINESTRING (327.112816 636.336808, 306.967264 698.709908)

LINESTRING (306.967264 698.709908, 281.583523 773.859204)

LINESTRING (341.208205 444.075565, 272.206962 493.631787)

LINESTRING (272.206962 493.631787, 207.436265 542.601646)

LINESTRING (207.436265 542.601646, 139.166136 590.854752)

LINESTRING (139.166136 590.854752, 73.372963 638.788809)

LINESTRING (313.270370 404.630588, 231.602829 407.158575)

LINESTRING (231.602829 407.158575, 162.574736 402.274494)

LINESTRING (162.574736 402.274494, 88.207094 390.880292)

LINESTRING (88.207094 390.880292, -3.170759 409.937684)

LINESTRING (341.930091 347.696695, 270.698897 303.270014)

LINESTRING (270.698897 303.270014, 203.219436 256.836999)

LINESTRING (203.219436 256.836999, 144.431051 218.268150)

LINESTRING (144.431051 218.268150, 71.303088 169.129821)

LINESTRING (385.240520 319.629624, 351.720467 250.326746)

LINESTRING (351.720467 250.326746, 319.995790 174.540732)

LINESTRING (319.995790 174.540732, 302.182871 95.291589)

LINESTRING (302.182871 95.291589, 282.004721 26.103859)

LINESTRING (429.918085 314.345797, 445.496621 242.422935)

LINESTRING (445.496621 242.422935, 469.899477 164.457519)

LINESTRING (469.899477 164.457519, 489.870462 92.676720)

LINESTRING (489.870462 92.676720, 530.612767 26.374500)

LINESTRING (459.439716 344.783747, 522.965656 303.063902)

LINESTRING (522.965656 303.063902, 594.151152 252.623862)

LINESTRING (594.151152 252.623862, 660.827186 217.885996)

LINESTRING (660.827186 217.885996, 715.040652 159.653350)

LINESTRING (400.000000 400.000000, 481.542525 409.729254)

