LINESTRING (164.562263 174.398812, 146.544835 147.665809)

LINESTRING (164.562263 174.398812, 168.500516 160.920043)

LINESTRING (164.562263 174.398812, 124.339909 167.406383)

LINESTRING (164.562263 174.398812, 103.113939 144.301814)

LINESTRING (164.562263 174.398812, 166.271209 151.937866)

LINESTRING (164.562263 174.398812, 109.764473 101.421187)

LINESTRING (164.562263 174.398812, 151.534325 109.441560)

LINESTRING (164.562263 174.398812, 121.307566 123.999512)

LINESTRING (146.544835 147.665809, 148.231556 159.306234)

LINESTRING (146.544835 147.665809, 150.824125 124.869128)

LINESTRING (146.544835 147.665809, 166.018081 173.809610)

LINESTRING (146.544835 147.665809, 103.113939 144.301814)

LINESTRING (146.544835 147.665809, 166.271209 151.937866)

LINESTRING (146.544835 147.665809, 109.764473 101.421187)

LINESTRING (146.544835 147.665809, 166.104536 164.262557)

LINESTRING (146.544835 147.665809, 121.307566 123.999512)

LINESTRING (146.544835 147.665809, 133.067960 130.093276)

LINESTRING (146.544835 147.665809, 109.422549 159.986816)

LINESTRING (146.544835 147.665809, 172.130500 146.755152)

LINESTRING (178.916448 129.183748, 131.448597 113.359687)

LINESTRING (178.916448 129.183748, 148.231556 159.306234)

LINESTRING (178.916448 129.183748, 124.339909 167.406383)

LINESTRING (178.916448 129.183748, 166.018081 173.809610)

LINESTRING (178.916448 129.183748, 174.377525 121.409271)

LINESTRING (178.916448 129.183748, 178.212538 154.079262)

LINESTRING (178.916448 129.183748, 151.534325 109.441560)

LINESTRING (178.916448 129.183748, 166.104536 164.262557)

LINESTRING (178.916448 129.183748, 121.307566 123.999512)

LINESTRING (157.885125 109.272734, 148.231556 159.306234)

LINESTRING (157.885125 109.272734, 150.824125 124.869128)

LINESTRING (157.885125 109.272734, 146.867356 170.049295)

LINESTRING (157.885125 109.272734, 154.663798 128.636134)

LINESTRING (157.885125 109.272734, 166.271209 151.937866)

LINESTRING (157.885125 109.272734, 174.377525 121.409271)

LINESTRING (157.885125 109.272734, 151.534325 109.441560)

LINESTRING (131.448597 113.359687, 168.500516 160.920043)

LINESTRING (131.448597 113.359687, 149.941123 119.438784)

LINESTRING (131.448597 113.359687, 103.113939 144.301814)

LINESTRING (131.448597 113.359687, 154.663798 128.636134)

LINESTRING (131.448597 113.359687, 109.764473 101.421187)

LINESTRING (131.448597 113.359687, 174.377525 121.409271)

LINESTRING (131.448597 113.359687, 178.212538 154.079262)

LINESTRING (131.448597 113.359687, 133.067960 130.093276)

LINESTRING (168.500516 160.920043, 148.231556 159.306234)

LINESTRING (168.500516 160.920043, 124.339909 167.406383)

LINESTRING (168.500516 160.920043, 166.018081 173.809610)

LINESTRING (168.500516 160.920043, 154.663798 128.636134)

LINESTRING (168.500516 160.920043, 166.271209 151.937866)

LINESTRING (168.500516 160.920043, 174.377525 121.409271)

LINESTRING (168.500516 160.920043, 178.212538 154.079262)

LINESTRING (168.500516 160.920043, 151.534325 109.441560)

LINESTRING (168.500516 160.920043, 133.067960 130.093276)

LINESTRING (168.500516 160.920043, 172.130500 146.755152)

LINESTRING (155.033203 103.514030, 148.231556 159.306234)

LINESTRING (155.033203 103.514030, 150.824125 124.869128)

LINESTRING (155.033203 103.514030, 146.867356 170.049295)

LINESTRING (155.033203 103.514030, 103.113939 144.301814)

LINESTRING (155.033203 103.514030, 154.663798 128.636134)

LINESTRING (155.033203 103.514030, 109.764473 101.421187)

LINESTRING (155.033203 103.514030, 174.377525 121.409271)

LINESTRING (155.033203 103.514030, 151.534325 109.441560)

LINESTRING (155.033203 103.514030, 166.104536 164.262557)

LINESTRING (155.033203 103.514030, 121.307566 123.999512)

LINESTRING (148.231556 159.306234, 146.867356 170.049295)

LINESTRING (148.231556 159.306234, 166.018081 173.809610)

LINESTRING (148.231556 159.306234, 154.663798 128.636134)

LINESTRING (148.231556 159.306234, 133.067960 130.093276)

LINESTRING (148.231556 159.306234, 109.422549 159.986816)

LINESTRING (150.824125 124.869128, 166.018081 173.809610)

LINESTRING (150.824125 124.869128, 166.271209 151.937866)

LINESTRING (150.824125 124.869128, 109.764473 101.421187)

LINESTRING (150.824125 124.869128, 174.377525 121.409271)

LINESTRING (150.824125 124.869128, 178.212538 154.079262)

LINESTRING (150.824125 124.869128, 151.534325 109.441560)

LINESTRING (150.824125 124.869128, 121.307566 123.999512)

LINESTRING (150.824125 124.869128, 133.067960 130.093276)

LINESTRING (150.824125 124.869128, 109.422549 159.986816)

LINESTRING (150.824125 124.869128, 172.130500 146.755152)

LINESTRING (124.339909 167.406383, 154.663798 128.636134)

LINESTRING (124.339909 167.406383, 109.764473 101.421187)

LINESTRING (124.339909 167.406383, 174.377525 121.409271)

LINESTRING (124.339909 167.406383, 178.212538 154.079262)

LINESTRING (124.339909 167.406383, 151.534325 109.441560)

LINESTRING (124.339909 167.406383, 109.422549 159.986816)

LINESTRING (146.867356 170.049295, 154.663798 128.636134)

LINESTRING (146.867356 170.049295, 109.764473 101.421187)

LINESTRING (146.867356 170.049295, 178.212538 154.079262)

LINESTRING (146.867356 170.049295, 151.534325 109.441560)

LINESTRING (146.867356 170.049295, 172.130500 146.755152)

LINESTRING (149.941123 119.438784, 103.113939 144.301814)

LINESTRING (149.941123 119.438784, 178.212538 154.079262)

LINESTRING (149.941123 119.438784, 151.534325 109.441560)

LINESTRING (149.941123 119.438784, 109.422549 159.986816)

LINESTRING (149.941123 119.438784, 172.130500 146.755152)

LINESTRING (166.018081 173.809610, 103.113939 144.301814)

LINESTRING (166.018081 173.809610, 154.663798 128.636134)

LINESTRING (166.018081 173.809610, 166.271209 151.937866)

LINESTRING (166.018081 173.809610, 109.764473 101.421187)

LINESTRING (166.018081 173.809610, 178.212538 154.079262)

LINESTRING (166.018081 173.809610, 121.307566 123.999512)

LINESTRING (103.113939 144.301814, 154.663798 128.636134)

LINESTRING (103.113939 144.301814, 166.271209 151.937866)

LINESTRING (103.113939 144.301814, 151.534325 109.441560)

LINESTRING (103.113939 144.301814, 166.104536 164.262557)

LINESTRING (103.113939 144.301814, 109.422549 159.986816)

LINESTRING (154.663798 128.636134, 178.212538 154.079262)

LINESTRING (154.663798 128.636134, 151.534325 109.441560)

LINESTRING (154.663798 128.636134, 121.307566 123.999512)

LINESTRING (154.663798 128.636134, 172.130500 146.755152)

LINESTRING (166.271209 151.937866, 151.534325 109.441560)

LINESTRING (166.271209 151.937866, 166.104536 164.262557)

LINESTRING (166.271209 151.937866, 121.307566 123.999512)

LINESTRING (166.271209 151.937866, 133.067960 130.093276)

LINESTRING (166.271209 151.937866, 109.422549 159.986816)

LINESTRING (166.271209 151.937866, 172.130500 146.755152)

LINESTRING (109.764473 101.421187, 178.212538 154.079262)

LINESTRING (109.764473 101.421187, 133.067960 130.093276)

LINESTRING (174.377525 121.409271, 166.104536 164.262557)

LINESTRING (174.377525 121.409271, 109.422549 159.986816)

LINESTRING (178.212538 154.079262, 121.307566 123.999512)

LINESTRING (178.212538 154.079262, 133.067960 130.093276)

LINESTRING (178.212538 154.079262, 172.130500 146.755152)

LINESTRING (151.534325 109.441560, 121.307566 123.999512)

LINESTRING (151.534325 109.441560, 109.422549 159.986816)

LINESTRING (121.307566 123.999512, 172.130500 146.755152)

LINESTRING (461.554927 168.194559, 472.425828 176.447160)

LINESTRING (461.554927 168.194559, 462.305819 143.936555)

LINESTRING (461.554927 168.194559, 490.897748 124.197443)

LINESTRING (461.554927 168.194559, 508.241236 150.942146)

LINESTRING (461.554927 168.194559, 465.655625 164.169659)

LINESTRING (461.554927 168.194559, 474.892445 121.763677)

LINESTRING (461.554927 168.194559, 507.839516 124.666714)

LINESTRING (461.554927 168.194559, 479.041217 178.161059)

LINESTRING (461.554927 168.194559, 477.148177 174.725429)

LINESTRING (472.425828 176.447160, 462.305819 143.936555)

LINESTRING (472.425828 176.447160, 521.530290 159.603495)

LINESTRING (472.425828 176.447160, 529.484388 143.608455)

LINESTRING (472.425828 176.447160, 502.516776 135.293802)

LINESTRING (472.425828 176.447160, 464.799562 125.664757)

LINESTRING (472.425828 176.447160, 479.041217 178.161059)

LINESTRING (462.305819 143.936555, 480.564917 111.676513)

LINESTRING (462.305819 143.936555, 521.530290 159.603495)

LINESTRING (462.305819 143.936555, 507.716790 124.370347)

LINESTRING (462.305819 143.936555, 502.516776 135.293802)

LINESTRING (462.305819 143.936555, 465.655625 164.169659)

LINESTRING (462.305819 143.936555, 510.453998 145.285318)

LINESTRING (462.305819 143.936555, 464.799562 125.664757)

LINESTRING (462.305819 143.936555, 507.839516 124.666714)

LINESTRING (462.305819 143.936555, 480.642972 126.207194)

LINESTRING (462.305819 143.936555, 513.059841 168.840661)

LINESTRING (462.305819 143.936555, 512.426168 179.757544)

LINESTRING (480.564917 111.676513, 495.273055 153.491342)

LINESTRING (480.564917 111.676513, 507.716790 124.370347)

LINESTRING (480.564917 111.676513, 508.241236 150.942146)

LINESTRING (480.564917 111.676513, 510.453998 145.285318)

LINESTRING (480.564917 111.676513, 464.799562 125.664757)

LINESTRING (480.564917 111.676513, 474.892445 121.763677)

LINESTRING (480.564917 111.676513, 513.059841 168.840661)

LINESTRING (521.530290 159.603495, 529.484388 143.608455)

LINESTRING (521.530290 159.603495, 465.655625 164.169659)

LINESTRING (521.530290 159.603495, 510.453998 145.285318)

LINESTRING (521.530290 159.603495, 464.799562 125.664757)

LINESTRING (521.530290 159.603495, 474.892445 121.763677)

LINESTRING (521.530290 159.603495, 507.839516 124.666714)

LINESTRING (521.530290 159.603495, 479.041217 178.161059)

LINESTRING (521.530290 159.603495, 480.642972 126.207194)

LINESTRING (521.530290 159.603495, 512.426168 179.757544)

LINESTRING (521.530290 159.603495, 477.148177 174.725429)

LINESTRING (529.484388 143.608455, 507.716790 124.370347)

LINESTRING (529.484388 143.608455, 508.241236 150.942146)

LINESTRING (529.484388 143.608455, 479.041217 178.161059)

LINESTRING (529.484388 143.608455, 480.642972 126.207194)

LINESTRING (529.484388 143.608455, 512.426168 179.757544)

LINESTRING (529.484388 143.608455, 453.217390 162.905337)

LINESTRING (490.834628 144.646671, 451.561690 163.744572)

LINESTRING (490.834628 144.646671, 508.241236 150.942146)

LINESTRING (490.834628 144.646671, 474.892445 121.763677)

LINESTRING (490.834628 144.646671, 513.059841 168.840661)

LINESTRING (490.834628 144.646671, 512.426168 179.757544)

LINESTRING (495.273055 153.491342, 507.716790 124.370347)

LINESTRING (495.273055 153.491342, 464.799562 125.664757)

LINESTRING (495.273055 153.491342, 474.892445 121.763677)

LINESTRING (495.273055 153.491342, 501.113130 147.610333)

LINESTRING (495.273055 153.491342, 453.217390 162.905337)

LINESTRING (507.716790 124.370347, 490.897748 124.197443)

LINESTRING (507.716790 124.370347, 465.655625 164.169659)

LINESTRING (507.716790 124.370347, 464.799562 125.664757)

LINESTRING (507.716790 124.370347, 507.839516 124.666714)

LINESTRING (507.716790 124.370347, 501.113130 147.610333)

LINESTRING (507.716790 124.370347, 480.642972 126.207194)

LINESTRING (507.716790 124.370347, 453.217390 162.905337)

LINESTRING (451.561690 163.744572, 490.897748 124.197443)

LINESTRING (451.561690 163.744572, 508.241236 150.942146)

LINESTRING (451.561690 163.744572, 465.655625 164.169659)

LINESTRING (451.561690 163.744572, 474.892445 121.763677)

LINESTRING (451.561690 163.744572, 507.839516 124.666714)

LINESTRING (451.561690 163.744572, 479.041217 178.161059)

LINESTRING (451.561690 163.744572, 501.113130 147.610333)

LINESTRING (451.561690 163.744572, 453.217390 162.905337)

LINESTRING (502.516776 135.293802, 510.453998 145.285318)

LINESTRING (502.516776 135.293802, 507.839516 124.666714)

LINESTRING (502.516776 135.293802, 479.041217 178.161059)

LINESTRING (490.897748 124.197443, 510.453998 145.285318)

LINESTRING (490.897748 124.197443, 464.799562 125.664757)

LINESTRING (490.897748 124.197443, 474.892445 121.763677)

LINESTRING (490.897748 124.197443, 512.426168 179.757544)

LINESTRING (490.897748 124.197443, 453.217390 162.905337)

LINESTRING (508.241236 150.942146, 465.655625 164.169659)

LINESTRING (508.241236 150.942146, 510.453998 145.285318)

LINESTRING (508.241236 150.942146, 507.839516 124.666714)

LINESTRING (508.241236 150.942146, 479.041217 178.161059)

LINESTRING (508.241236 150.942146, 480.642972 126.207194)

LINESTRING (508.241236 150.942146, 512.426168 179.757544)

LINESTRING (465.655625 164.169659, 464.799562 125.664757)

LINESTRING (465.655625 164.169659, 474.892445 121.763677)

LINESTRING (465.655625 164.169659, 479.041217 178.161059)

LINESTRING (465.655625 164.169659, 480.642972 126.207194)

LINESTRING (510.453998 145.285318, 464.799562 125.664757)

LINESTRING (510.453998 145.285318, 474.892445 121.763677)

LINESTRING (510.453998 145.285318, 507.839516 124.666714)

LINESTRING (510.453998 145.285318, 513.059841 168.840661)

LINESTRING (464.799562 125.664757, 453.217390 162.905337)

LINESTRING (474.892445 121.763677, 507.839516 124.666714)

LINESTRING (474.892445 121.763677, 479.041217 178.161059)

LINESTRING (474.892445 121.763677, 501.113130 147.610333)

LINESTRING (474.892445 121.763677, 477.148177 174.725429)

LINESTRING (474.892445 121.763677, 453.217390 162.905337)

LINESTRING (507.839516 124.666714, 480.642972 126.207194)

LINESTRING (507.839516 124.666714, 513.059841 168.840661)

LINESTRING (479.041217 178.161059, 480.642972 126.207194)

LINESTRING (479.041217 178.161059, 513.059841 168.840661)

LINESTRING (479.041217 178.161059, 512.426168 179.757544)

LINESTRING (479.041217 178.161059, 477.148177 174.725429)

LINESTRING (501.113130 147.610333, 453.217390 162.905337)

LINESTRING (480.642972 126.207194, 513.059841 168.840661)

LINESTRING (513.059841 168.840661, 512.426168 179.757544)

LINESTRING (513.059841 168.840661, 453.217390 162.905337)

LINESTRING (166.271209 151.937866, 472.425828 176.447160)

LINESTRING (164.562263 174.398812, 461.554927 168.194559)

