LINESTRING (705128.213011 4694505.567389, 705128.954144 4694512.891116, 705129.344363 4694516.725826, 705141.987313 4694640.007959, 705144.223596 4694668.559110, 705146.418699 4694690.084915, 705147.275730 4694698.512349, 705151.887816 4694743.548795, 705153.751903 4694768.210204, 705155.092749 4694785.987720, 705155.339465 4694790.218335, 705158.063082 4694836.421960)

LINESTRING (705128.213011 4694505.567389, 705127.753673 4694499.874591, 705127.500025 4694496.721850, 705119.199289 4694404.631161)

LINESTRING (705128.213011 4694505.567389, 705250.116173 4694503.919859, 705255.495966 4694503.966587, 705257.151570 4694503.992943, 705267.407604 4694504.116091, 705303.900341 4694504.575857)

LINESTRING (705128.213011 4694505.567389, 705089.533080 4694505.789053, 705022.534785 4694506.692329)

LINESTRING (705158.063082 4694836.421960, 705163.698432 4694904.994890)

LINESTRING (705158.063082 4694836.421960, 705155.339465 4694790.218335, 705155.092749 4694785.987720, 705153.751903 4694768.210204, 705151.887816 4694743.548795, 705147.275730 4694698.512349, 705146.418699 4694690.084915, 705144.223596 4694668.559110, 705141.987313 4694640.007959, 705129.344363 4694516.725826, 705128.954144 4694512.891116, 705128.213011 4694505.567389)

LINESTRING (705158.063082 4694836.421960, 705151.798295 4694834.248756, 705049.108172 4694842.673707)

LINESTRING (705119.199289 4694404.631161, 705112.967864 4694404.959679, 705013.111405 4694409.278620, 705009.475562 4694409.616621, 705005.842974 4694409.843577, 705002.520206 4694410.746464, 705000.337138 4694412.127319, 704998.305727 4694413.957184, 704996.597155 4694416.018795, 704995.040239 4694418.529415, 704993.888500 4694421.274193, 704992.980517 4694424.137256, 704992.379101 4694427.787292, 704991.821946 4694435.550853, 704995.562306 4694501.378314, 704995.898019 4694507.356441)

LINESTRING (705119.199289 4694404.631161, 705127.500025 4694496.721850, 705127.753673 4694499.874591, 705128.213011 4694505.567389)

LINESTRING (705303.900341 4694504.575857, 705304.577548 4694512.386762, 705307.234744 4694542.861989, 705307.783040 4694549.168699, 705327.243330 4694772.745694, 705328.887720 4694791.676944, 705329.831174 4694802.485386, 705330.977007 4694808.365080, 705332.410023 4694814.286547, 705335.017779 4694820.331419)

LINESTRING (705303.900341 4694504.575857, 705323.172645 4694504.385804, 705369.686654 4694503.984220, 705412.081768 4694504.095488)

LINESTRING (705303.900341 4694504.575857, 705267.407604 4694504.116091, 705257.151570 4694503.992943, 705255.495966 4694503.966587, 705250.116173 4694503.919859, 705128.213011 4694505.567389)

LINESTRING (705022.534785 4694506.692329, 704995.898019 4694507.356441)

LINESTRING (705022.534785 4694506.692329, 705022.989154 4694513.963176, 705026.018578 4694562.142829, 705026.856271 4694582.761874, 705027.024980 4694586.845707, 705030.169982 4694623.770141, 705031.316728 4694637.218519, 705032.113956 4694646.566649, 705037.939596 4694703.641810, 705042.036108 4694760.666295)

LINESTRING (705022.534785 4694506.692329, 705089.533080 4694505.789053, 705128.213011 4694505.567389)

LINESTRING (704197.739341 4694371.246362, 704197.724163 4694376.847397, 704197.590344 4694380.866775, 704195.389138 4694444.130349, 704195.023667 4694452.132908, 704194.340317 4694465.660982)

LINESTRING (704197.739341 4694371.246362, 704198.304444 4694348.501294, 704199.667311 4694326.657526, 704201.310596 4694282.504944)

LINESTRING (704197.739341 4694371.246362, 704207.456279 4694371.207726, 704264.997364 4694372.187647, 704270.154582 4694372.238226)

LINESTRING (704194.340317 4694465.660982, 704193.041317 4694485.317151)

LINESTRING (704194.340317 4694465.660982, 704195.023667 4694452.132908, 704195.389138 4694444.130349, 704197.590344 4694380.866775, 704197.724163 4694376.847397, 704197.739341 4694371.246362)

LINESTRING (704194.340317 4694465.660982, 704207.824543 4694465.854590, 704242.092615 4694467.988770, 704247.470701 4694468.657059, 704254.438249 4694470.205322, 704262.081004 4694472.617977)

LINESTRING (704201.310596 4694282.504944, 704189.423635 4694281.502214, 704137.328952 4694277.136527, 704129.171897 4694276.242753, 704122.984150 4694275.639850, 704100.546019 4694273.606972, 704077.213364 4694270.881227)

LINESTRING (704201.310596 4694282.504944, 704199.667311 4694326.657526, 704198.304444 4694348.501294, 704197.739341 4694371.246362)

LINESTRING (704270.154582 4694372.238226, 704274.166342 4694372.288699, 704374.845168 4694373.073500, 704433.828909 4694373.474573, 704439.945907 4694373.675583)

LINESTRING (704270.154582 4694372.238226, 704264.997364 4694372.187647, 704207.456279 4694371.207726, 704197.739341 4694371.246362)

LINESTRING (704068.073218 4694344.078316, 704071.557240 4694317.306231, 704077.213364 4694270.881227)

LINESTRING (704077.213364 4694270.881227, 704100.546019 4694273.606972, 704122.984150 4694275.639850, 704129.171897 4694276.242753, 704137.328952 4694277.136527, 704189.423635 4694281.502214, 704201.310596 4694282.504944)

LINESTRING (704683.766017 4694706.493625, 704692.769378 4694706.045815, 704699.280425 4694705.725126, 704715.760087 4694705.762902, 704742.515162 4694706.657214, 704760.727078 4694706.634664, 704789.029184 4694705.351624, 704802.376941 4694705.409041, 704804.257601 4694705.908676, 704805.377750 4694707.052889, 704807.183619 4694710.106581, 704807.932161 4694712.684747, 704809.419350 4694726.620940, 704810.133766 4694761.317900, 704809.725510 4694777.510326, 704809.693908 4694781.966161)

LINESTRING (704683.766017 4694706.493625, 704687.096404 4694711.236786, 704690.458420 4694716.025330, 704693.049100 4694722.391733, 704702.976554 4694772.862467, 704705.404917 4694778.579508, 704708.244834 4694782.341400, 704711.692061 4694785.343081, 704716.402870 4694788.248381, 704721.909599 4694789.298698, 704725.038334 4694789.668135, 704731.448452 4694789.133358)

LINESTRING (704683.766017 4694706.493625, 704679.766363 4694710.822215, 704654.005077 4694732.852265, 704639.697439 4694745.325972, 704607.700124 4694774.342307, 704576.888204 4694802.282037)

LINESTRING (704683.766017 4694706.493625, 704691.603923 4694697.720586, 704699.607708 4694681.872726, 704712.609109 4694648.155186)

LINESTRING (704809.693908 4694781.966161, 704731.448452 4694789.133358)

LINESTRING (704809.693908 4694781.966161, 704809.725510 4694777.510326, 704810.133766 4694761.317900, 704809.419350 4694726.620940, 704807.932161 4694712.684747, 704807.183619 4694710.106581, 704805.377750 4694707.052889, 704804.257601 4694705.908676, 704802.376941 4694705.409041, 704789.029184 4694705.351624, 704760.727078 4694706.634664, 704742.515162 4694706.657214, 704715.760087 4694705.762902, 704699.280425 4694705.725126, 704692.769378 4694706.045815, 704683.766017 4694706.493625)

LINESTRING (704809.693908 4694781.966161, 704899.771572 4694773.712741, 704907.629380 4694772.987140)

LINESTRING (704731.448452 4694789.133358, 704809.693908 4694781.966161)

LINESTRING (704731.448452 4694789.133358, 704725.038334 4694789.668135, 704721.909599 4694789.298698, 704716.402870 4694788.248381, 704711.692061 4694785.343081, 704708.244834 4694782.341400, 704705.404917 4694778.579508, 704702.976554 4694772.862467, 704693.049100 4694722.391733, 704690.458420 4694716.025330, 704687.096404 4694711.236786, 704683.766017 4694706.493625)

LINESTRING (704731.448452 4694789.133358, 704746.165904 4694863.150723, 704749.686159 4694880.825192, 704753.061562 4694897.817464, 704756.537903 4694915.301715, 704757.881117 4694922.053966, 704759.419166 4694932.846345, 704759.753334 4694935.223435, 704759.134723 4694939.184176, 704754.430490 4694949.849364, 704764.436835 4694954.254557, 704771.148911 4694955.784778, 704777.662766 4694955.642085, 704837.993863 4694946.739349, 704858.285195 4694943.221479)

LINESTRING (704576.888204 4694802.282037, 704529.347123 4694843.525217, 704520.495143 4694851.201809, 704515.327002 4694855.763050, 704448.344576 4694914.887615)

LINESTRING (704576.888204 4694802.282037, 704607.700124 4694774.342307, 704639.697439 4694745.325972, 704654.005077 4694732.852265, 704679.766363 4694710.822215, 704683.766017 4694706.493625)

LINESTRING (704576.888204 4694802.282037, 704555.132879 4694793.865843, 704531.567152 4694779.728590)

LINESTRING (704712.609109 4694648.155186, 704664.720744 4694647.698404, 704646.464275 4694647.831051, 704623.509901 4694647.993012, 704596.365148 4694646.609864, 704569.285933 4694645.239853, 704556.563141 4694643.534052, 704543.356505 4694640.902769, 704525.134542 4694634.501660, 704506.372876 4694625.984258, 704495.620417 4694620.301771, 704490.402298 4694617.548513, 704476.127715 4694607.473048, 704466.760933 4694599.208196, 704457.121507 4694586.456416)

LINESTRING (704712.609109 4694648.155186, 704699.607708 4694681.872726, 704691.603923 4694697.720586, 704683.766017 4694706.493625)

LINESTRING (704712.609109 4694648.155186, 704735.374389 4694590.550286, 704763.586264 4694519.178916, 704764.028211 4694513.090209)

LINESTRING (704439.945907 4694373.675583, 704439.331792 4694406.810906, 704439.518605 4694429.177876, 704438.103667 4694481.817220, 704438.153494 4694484.341570, 704438.548120 4694491.421654)

LINESTRING (704439.945907 4694373.675583, 704440.222604 4694368.437829, 704439.988331 4694325.419533, 704440.409821 4694308.460669)

LINESTRING (704439.945907 4694373.675583, 704457.886069 4694373.955443, 704463.230072 4694374.100536, 704486.929289 4694374.704411, 704499.210947 4694374.885642, 704533.487564 4694375.898950)

LINESTRING (704439.945907 4694373.675583, 704433.828909 4694373.474573, 704374.845168 4694373.073500, 704274.166342 4694372.288699, 704270.154582 4694372.238226)

LINESTRING (704438.548120 4694491.421654, 704529.857384 4694499.481403)

LINESTRING (704438.548120 4694491.421654, 704439.275074 4694500.100765, 704439.578192 4694502.699203, 704439.286907 4694542.267903, 704438.389955 4694549.554747)

LINESTRING (704438.548120 4694491.421654, 704438.153494 4694484.341570, 704438.103667 4694481.817220, 704439.518605 4694429.177876, 704439.331792 4694406.810906, 704439.945907 4694373.675583)

LINESTRING (704438.548120 4694491.421654, 704430.049861 4694490.650908, 704377.034051 4694485.711818, 704367.961055 4694484.868783, 704334.703848 4694482.830196, 704319.804717 4694481.705885)

LINESTRING (704440.409821 4694308.460669, 704439.988331 4694325.419533, 704440.222604 4694368.437829, 704439.945907 4694373.675583)

LINESTRING (704440.409821 4694308.460669, 704444.742431 4694306.275573, 704446.562849 4694303.483578, 704447.716996 4694298.393725, 704447.909651 4694293.775903)

LINESTRING (704440.409821 4694308.460669, 704436.415749 4694307.521495, 704434.052784 4694305.474130, 704433.362576 4694303.431198, 704433.741231 4694291.038964, 704435.692656 4694288.839841, 704439.397715 4694287.825606, 704443.639990 4694288.449727, 704446.838793 4694290.377042, 704447.909651 4694293.775903)

LINESTRING (704533.487564 4694375.898950, 704583.651444 4694376.943631)

LINESTRING (704533.487564 4694375.898950, 704535.679327 4694300.943006, 704536.224828 4694282.287305)

LINESTRING (704533.487564 4694375.898950, 704499.210947 4694374.885642, 704486.929289 4694374.704411, 704463.230072 4694374.100536, 704457.886069 4694373.955443, 704439.945907 4694373.675583)

LINESTRING (705101.669532 4695626.873747, 705106.448100 4695618.456016, 705111.431299 4695611.489131, 705123.255055 4695587.607110, 705133.368762 4695560.229545, 705137.115419 4695547.669315, 705140.858830 4695535.220133, 705142.809168 4695527.719720, 705144.197149 4695522.536784, 705147.287631 4695507.067624, 705149.808369 4695491.359466, 705150.729543 4695485.518213, 705152.138403 4695476.534846, 705152.243534 4695475.759939, 705155.720464 4695455.545257, 705156.118834 4695453.200742, 705160.073218 4695430.755008, 705164.109947 4695408.311692, 705167.111658 4695393.062216, 705170.110121 4695377.923788, 705173.111853 4695362.674315, 705175.837292 4695348.417010, 705178.401345 4695334.043830, 705180.965407 4695319.670650, 705183.348531 4695305.847870, 705185.649336 4695292.022675, 705187.867821 4695278.195065, 705189.652735 4695267.911266, 705191.437653 4695257.627468, 705193.247776 4695243.676735, 705193.484834 4695240.371670, 705193.851453 4695225.911785, 705175.852541 4695038.132288)

LINESTRING (705175.852541 4695038.132288, 705163.698432 4694904.994890)

LINESTRING (705175.852541 4695038.132288, 705184.611732 4695037.288976, 705280.821103 4695028.075777, 705289.096455 4695026.873852, 705293.561821 4695026.338083, 705298.116037 4695025.582643, 705301.550237 4695023.682907, 705302.409395 4695022.485571)

LINESTRING (705175.852541 4695038.132288, 705169.861818 4695038.701179, 705167.762828 4695038.906339, 705066.719998 4695048.579499)

LINESTRING (705175.852541 4695038.132288, 705193.851453 4695225.911785, 705193.484834 4695240.371670, 705193.247776 4695243.676735, 705191.437653 4695257.627468, 705189.652735 4695267.911266, 705187.867821 4695278.195065, 705185.649336 4695292.022675, 705183.348531 4695305.847870, 705180.965407 4695319.670650, 705178.401345 4695334.043830, 705175.837292 4695348.417010, 705173.111853 4695362.674315, 705170.110121 4695377.923788, 705167.111658 4695393.062216, 705164.109947 4695408.311692, 705160.073218 4695430.755008, 705156.118834 4695453.200742, 705155.720464 4695455.545257, 705152.243534 4695475.759939, 705152.138403 4695476.534846, 705150.729543 4695485.518213, 705149.808369 4695491.359466, 705147.287631 4695507.067624, 705144.197149 4695522.536784, 705142.809168 4695527.719720, 705140.858830 4695535.220133, 705137.115419 4695547.669315, 705133.368762 4695560.229545, 705123.255055 4695587.607110, 705111.431299 4695611.489131, 705106.448100 4695618.456016, 705101.669532 4695626.873747)

LINESTRING (704995.898019 4694507.356441, 705022.534785 4694506.692329)

LINESTRING (704995.898019 4694507.356441, 704995.562306 4694501.378314, 704991.821946 4694435.550853, 704992.379101 4694427.787292, 704992.980517 4694424.137256, 704993.888500 4694421.274193, 704995.040239 4694418.529415, 704996.597155 4694416.018795, 704998.305727 4694413.957184, 705000.337138 4694412.127319, 705002.520206 4694410.746464, 705005.842974 4694409.843577, 705009.475562 4694409.616621, 705013.111405 4694409.278620, 705112.967864 4694404.959679, 705119.199289 4694404.631161)

LINESTRING (704995.898019 4694507.356441, 704971.336255 4694507.514640, 704942.480774 4694508.247305, 704940.913792 4694508.290305, 704936.507629 4694508.483514, 704881.168003 4694509.174037)

LINESTRING (704587.978824 4694503.692986, 704587.750223 4694497.140102, 704583.651444 4694376.943631)

LINESTRING (704587.978824 4694503.692986, 704613.584244 4694505.320001, 704645.701764 4694508.004538, 704682.003108 4694510.489346, 704737.779083 4694511.777222)

LINESTRING (704587.978824 4694503.692986, 704554.658643 4694501.273625, 704529.857384 4694499.481403)

LINESTRING (704583.651444 4694376.943631, 704533.487564 4694375.898950)

LINESTRING (704583.651444 4694376.943631, 704587.750223 4694497.140102, 704587.978824 4694503.692986)

LINESTRING (704583.651444 4694376.943631, 704613.971322 4694377.152535, 704619.440782 4694377.234733, 704686.547495 4694378.286783, 704737.270866 4694379.082200)

LINESTRING (704737.779083 4694511.777222, 704737.749639 4694504.618878, 704737.270866 4694379.082200)

LINESTRING (704737.779083 4694511.777222, 704742.617491 4694512.018878, 704764.028211 4694513.090209)

LINESTRING (704737.779083 4694511.777222, 704682.003108 4694510.489346, 704645.701764 4694508.004538, 704613.584244 4694505.320001, 704587.978824 4694503.692986)

LINESTRING (704529.857384 4694499.481403, 704438.548120 4694491.421654)

LINESTRING (704529.857384 4694499.481403, 704530.065527 4694492.363363, 704533.487564 4694375.898950)

LINESTRING (704529.857384 4694499.481403, 704554.658643 4694501.273625, 704587.978824 4694503.692986)

LINESTRING (704737.270866 4694379.082200, 704737.749639 4694504.618878, 704737.779083 4694511.777222)

LINESTRING (704737.270866 4694379.082200, 704686.547495 4694378.286783, 704619.440782 4694377.234733, 704613.971322 4694377.152535, 704583.651444 4694376.943631)

LINESTRING (704881.168003 4694509.174037, 704884.598940 4694516.954391, 704889.580524 4694578.416912, 704896.754215 4694655.903546, 704907.109015 4694767.403717, 704907.629380 4694772.987140)

LINESTRING (704881.168003 4694509.174037, 704878.595039 4694503.330443, 704877.427838 4694497.883680, 704877.171267 4694489.762859, 704878.780362 4694477.028757, 704881.395734 4694467.358284, 704884.818884 4694461.901495, 704889.407840 4694457.156818)

LINESTRING (704881.168003 4694509.174037, 704936.507629 4694508.483514, 704940.913792 4694508.290305, 704942.480774 4694508.247305, 704971.336255 4694507.514640, 704995.898019 4694507.356441)

LINESTRING (704881.168003 4694509.174037, 704870.295324 4694510.411541, 704819.118139 4694511.635694, 704771.144720 4694512.642817, 704764.028211 4694513.090209)

LINESTRING (704907.629380 4694772.987140, 704921.681336 4694936.587603)

LINESTRING (704907.629380 4694772.987140, 704912.908978 4694772.508318, 705034.203288 4694761.381365, 705042.036108 4694760.666295)

LINESTRING (704907.629380 4694772.987140, 704899.771572 4694773.712741, 704809.693908 4694781.966161)

LINESTRING (704907.629380 4694772.987140, 704907.109015 4694767.403717, 704896.754215 4694655.903546, 704889.580524 4694578.416912, 704884.598940 4694516.954391, 704881.168003 4694509.174037)

LINESTRING (704889.407840 4694457.156818, 704884.818884 4694461.901495, 704881.395734 4694467.358284, 704878.780362 4694477.028757, 704877.171267 4694489.762859, 704877.427838 4694497.883680, 704878.595039 4694503.330443, 704881.168003 4694509.174037)

LINESTRING (704764.028211 4694513.090209, 704771.144720 4694512.642817, 704819.118139 4694511.635694, 704870.295324 4694510.411541, 704881.168003 4694509.174037)

LINESTRING (704764.028211 4694513.090209, 704742.617491 4694512.018878, 704737.779083 4694511.777222)

LINESTRING (704764.028211 4694513.090209, 704763.586264 4694519.178916, 704735.374389 4694590.550286, 704712.609109 4694648.155186)

LINESTRING (704193.041317 4694485.317151, 704194.340317 4694465.660982)

LINESTRING (704193.041317 4694485.317151, 704191.990832 4694497.589734, 704188.745949 4694542.406872, 704186.197602 4694593.568240, 704185.307659 4694601.188725, 704183.827926 4694621.673176, 704183.672066 4694625.036182, 704182.797774 4694647.927829, 704182.317946 4694656.460525, 704182.299073 4694659.082890, 704181.747926 4694670.058595, 704181.663950 4694677.169135)

LINESTRING (704193.041317 4694485.317151, 704177.356239 4694484.581419, 704147.541252 4694483.188793, 704144.224744 4694483.036426, 704135.831041 4694482.635854, 704123.190760 4694482.044677, 704111.579026 4694481.505766, 704106.410936 4694481.266043, 704065.230563 4694479.364302)

LINESTRING (704181.663950 4694677.169135, 704195.974600 4694677.831436, 704250.621419 4694680.482922, 704254.488820 4694680.673663, 704285.395735 4694682.176490)

LINESTRING (704181.663950 4694677.169135, 704181.747926 4694670.058595, 704182.299073 4694659.082890, 704182.317946 4694656.460525, 704182.797774 4694647.927829, 704183.672066 4694625.036182, 704183.827926 4694621.673176, 704185.307659 4694601.188725, 704186.197602 4694593.568240, 704188.745949 4694542.406872, 704191.990832 4694497.589734, 704193.041317 4694485.317151)

LINESTRING (704181.663950 4694677.169135, 704181.492521 4694683.888131, 704180.377368 4694712.207518, 704180.081413 4694715.288584, 704179.955053 4694717.641074, 704179.829981 4694722.772114, 704179.242858 4694732.157461)

LINESTRING (704065.230563 4694479.364302, 704106.410936 4694481.266043, 704111.579026 4694481.505766, 704123.190760 4694482.044677, 704135.831041 4694482.635854, 704144.224744 4694483.036426, 704147.541252 4694483.188793, 704177.356239 4694484.581419, 704193.041317 4694485.317151)

LINESTRING (704065.230563 4694479.364302, 704057.056113 4694478.792397, 704051.924520 4694478.431525)

LINESTRING (704048.219711 4695423.561602, 704059.742388 4695400.558346, 704065.923178 4695386.401592, 704072.103990 4695372.244843, 704078.284825 4695358.088099, 704081.258506 4695351.339743, 704085.873639 4695340.860517, 704093.380160 4695323.630540, 704095.316110 4695319.408133, 704097.607293 4695314.306971)

LINESTRING (704048.219711 4695423.561602, 704039.670146 4695442.094867, 704029.647511 4695465.086348, 704023.327224 4695479.227942, 704012.931784 4695503.986812, 704010.810352 4695509.204089)

LINESTRING (704097.607293 4695314.306971, 704101.048126 4695306.516421, 704107.127293 4695293.023573, 704113.120914 4695279.639372, 704119.443862 4695266.264788, 704125.132198 4695254.872214, 704130.902878 4695243.482047, 704135.764146 4695234.454859, 704136.914073 4695232.321187, 704142.576527 4695221.816993, 704148.393925 4695211.650748, 704157.662244 4695196.739526)

LINESTRING (704097.607293 4695314.306971, 704095.316110 4695319.408133, 704093.380160 4695323.630540, 704085.873639 4695340.860517, 704081.258506 4695351.339743, 704078.284825 4695358.088099, 704072.103990 4695372.244843, 704065.923178 4695386.401592, 704059.742388 4695400.558346, 704048.219711 4695423.561602)

LINESTRING (704010.810352 4695509.204089, 704012.931784 4695503.986812, 704023.327224 4695479.227942, 704029.647511 4695465.086348, 704039.670146 4695442.094867, 704048.219711 4695423.561602)

LINESTRING (704010.810352 4695509.204089, 704008.618529 4695514.574909, 704006.167368 4695520.927314, 704002.729068 4695529.484843, 703994.770837 4695548.090974)

LINESTRING (705042.036108 4694760.666295, 705043.114408 4694774.479440, 705048.486708 4694835.764719, 705049.108172 4694842.673707)

LINESTRING (705042.036108 4694760.666295, 705037.939596 4694703.641810, 705032.113956 4694646.566649, 705031.316728 4694637.218519, 705030.169982 4694623.770141, 705027.024980 4694586.845707, 705026.856271 4694582.761874, 705026.018578 4694562.142829, 705022.989154 4694513.963176, 705022.534785 4694506.692329)

LINESTRING (705042.036108 4694760.666295, 705034.203288 4694761.381365, 704912.908978 4694772.508318, 704907.629380 4694772.987140)

LINESTRING (705049.108172 4694842.673707, 705053.188578 4694891.806710, 705059.045750 4694956.218199, 705065.110193 4695030.416234, 705066.719998 4695048.579499)

LINESTRING (705049.108172 4694842.673707, 705048.486708 4694835.764719, 705043.114408 4694774.479440, 705042.036108 4694760.666295)

LINESTRING (705049.108172 4694842.673707, 705151.798295 4694834.248756, 705158.063082 4694836.421960)

LINESTRING (704262.081004 4694472.617977, 704254.438249 4694470.205322, 704247.470701 4694468.657059, 704242.092615 4694467.988770, 704207.824543 4694465.854590, 704194.340317 4694465.660982)

LINESTRING (704262.081004 4694472.617977, 704268.985578 4694475.475874, 704270.672616 4694475.836336, 704296.410949 4694479.122057, 704319.804717 4694481.705885)

LINESTRING (704262.081004 4694472.617977, 704262.887792 4694459.382472, 704264.812704 4694437.488429, 704265.960926 4694421.873373, 704269.450420 4694379.419568, 704270.154582 4694372.238226)

LINESTRING (704315.776660 4695450.479457, 704304.653432 4695423.969681)

LINESTRING (704315.776660 4695450.479457, 704357.880103 4695447.386454, 704374.577796 4695445.540517, 704384.030946 4695443.482862, 704386.783358 4695442.340765, 704395.928766 4695436.717622, 704400.087193 4695435.394347, 704426.197992 4695430.044906, 704455.335371 4695425.450900, 704463.340352 4695425.018120, 704469.558066 4695426.533623, 704473.586627 4695429.652231)

LINESTRING (704304.653432 4695423.969681, 704315.776660 4695450.479457)

LINESTRING (704304.653432 4695423.969681, 704297.902766 4695425.183932, 704296.900474 4695425.365816, 704289.337757 4695425.044835, 704280.712889 4695423.570311, 704264.953982 4695418.664312, 704255.452970 4695416.719663, 704251.010678 4695416.478761, 704232.195229 4695417.485155, 704221.678368 4695419.289666, 704219.093870 4695420.325591, 704214.110233 4695424.514529, 704209.812392 4695430.612891, 704206.786349 4695438.304366, 704205.718631 4695443.830218, 704205.719881 4695446.608772, 704206.277943 4695450.070430, 704210.242236 4695463.856509, 704217.383692 4695498.629835, 704224.361180 4695527.730209, 704226.097663 4695541.340095, 704228.371416 4695559.122338)

LINESTRING (704304.653432 4695423.969681, 704292.396500 4695394.803885, 704283.458849 4695375.548816)

LINESTRING (704473.586627 4695429.652231, 704534.081044 4695420.640794, 704592.641034 4695415.796631, 704663.565064 4695407.980590, 704669.775194 4695406.939804, 704677.759658 4695404.394984, 704681.552048 4695401.505181, 704685.333629 4695396.169957, 704688.943003 4695388.273448)

LINESTRING (704473.586627 4695429.652231, 704469.558066 4695426.533623, 704463.340352 4695425.018120, 704455.335371 4695425.450900, 704426.197992 4695430.044906, 704400.087193 4695435.394347, 704395.928766 4695436.717622, 704386.783358 4695442.340765, 704384.030946 4695443.482862, 704374.577796 4695445.540517, 704357.880103 4695447.386454, 704315.776660 4695450.479457)

LINESTRING (704473.586627 4695429.652231, 704478.513477 4695447.134293, 704490.798002 4695491.949929, 704493.067504 4695501.685567)

LINESTRING (704473.586627 4695429.652231, 704466.572206 4695404.662688, 704451.794610 4695352.105505)

LINESTRING (704015.353586 4694676.728224, 704021.199553 4694678.865935, 704107.786816 4694709.721958, 704131.000214 4694717.612452, 704166.991161 4694729.843728, 704179.242858 4694732.157461)

LINESTRING (704015.353586 4694676.728224, 704018.412835 4694664.792077, 704025.135526 4694638.570124, 704035.989251 4694596.442247, 704037.789514 4694589.248414, 704043.414246 4694567.617881, 704044.444135 4694563.669101, 704062.380450 4694490.906431, 704065.230563 4694479.364302)

LINESTRING (704179.242858 4694732.157461, 704166.991161 4694729.843728, 704131.000214 4694717.612452, 704107.786816 4694709.721958, 704021.199553 4694678.865935, 704015.353586 4694676.728224)

LINESTRING (704179.242858 4694732.157461, 704179.829981 4694722.772114, 704179.955053 4694717.641074, 704180.081413 4694715.288584, 704180.377368 4694712.207518, 704181.492521 4694683.888131, 704181.663950 4694677.169135)

LINESTRING (704179.242858 4694732.157461, 704178.881605 4694740.015663, 704178.579862 4694748.375734, 704177.430385 4694766.580335, 704177.123990 4694770.583563, 704176.368479 4694788.277305, 704176.307964 4694796.277655, 704176.363830 4694800.291459, 704176.371466 4694803.981547, 704176.582851 4694808.877901, 704177.216392 4694815.120266, 704178.203884 4694823.351266, 704179.711216 4694834.098104, 704180.986935 4694840.359218, 704181.996349 4694844.734283, 704186.106856 4694861.714310)

LINESTRING (704356.135073 4695365.002331, 704451.794610 4695352.105505)

LINESTRING (704356.135073 4695365.002331, 704355.009695 4695359.245690, 704350.747128 4695339.037976, 704344.425965 4695313.991055, 704342.550029 4695306.567601, 704342.803139 4695297.906016, 704344.985449 4695288.078257, 704348.734010 4695275.406609, 704348.789176 4695273.518828, 704348.169505 4695272.167030, 704347.138202 4695270.803203, 704344.315184 4695268.720174, 704342.191244 4695268.091290, 704340.557368 4695267.610096, 704338.255470 4695267.431691, 704333.549878 4695267.738753, 704311.792147 4695273.549178, 704250.854001 4695289.262530, 704244.564047 4695290.779263)

LINESTRING (704356.135073 4695365.002331, 704334.824742 4695367.636001, 704315.557600 4695369.996013, 704301.367431 4695372.026503, 704283.458849 4695375.548816)

LINESTRING (704451.794610 4695352.105505, 704356.135073 4695365.002331)

LINESTRING (704451.794610 4695352.105505, 704466.572206 4695404.662688, 704473.586627 4695429.652231)

LINESTRING (704451.794610 4695352.105505, 704450.532738 4695347.356236, 704434.353769 4695286.355887, 704419.371995 4695235.126536, 704416.773405 4695225.648057, 704397.775695 4695156.474396, 704384.316163 4695105.578626, 704382.342372 4695098.118963, 704380.261872 4695090.645068, 704378.984840 4695086.128773, 704369.665037 4695052.591972, 704366.309727 4695040.524058, 704363.135711 4695032.684793, 704354.781305 4695012.068562, 704352.331588 4695007.640262, 704349.771798 4695003.030921)

LINESTRING (704451.794610 4695352.105505, 704495.434637 4695347.491126, 704569.364062 4695338.917316, 704677.077705 4695326.353939)

LINESTRING (704244.564047 4695290.779263, 704250.854001 4695289.262530, 704311.792147 4695273.549178, 704333.549878 4695267.738753, 704338.255470 4695267.431691, 704340.557368 4695267.610096, 704342.191244 4695268.091290, 704344.315184 4695268.720174, 704347.138202 4695270.803203, 704348.169505 4695272.167030, 704348.789176 4695273.518828, 704348.734010 4695275.406609, 704344.985449 4695288.078257, 704342.803139 4695297.906016, 704342.550029 4695306.567601, 704344.425965 4695313.991055, 704350.747128 4695339.037976, 704355.009695 4695359.245690, 704356.135073 4695365.002331)

LINESTRING (704244.564047 4695290.779263, 704233.428300 4695293.454817, 704218.992308 4695296.845333, 704205.614572 4695300.678001, 704200.715428 4695302.535467, 704190.182952 4695306.562392)

LINESTRING (704244.564047 4695290.779263, 704255.610913 4695312.585427, 704267.817320 4695342.927750)

LINESTRING (704244.564047 4695290.779263, 704239.417612 4695274.302382, 704235.557614 4695259.763584, 704232.441682 4695239.778399, 704230.829072 4695227.283548, 704230.029099 4695218.280019, 704227.904576 4695184.942460)

LINESTRING (704283.458849 4695375.548816, 704301.367431 4695372.026503, 704315.557600 4695369.996013, 704334.824742 4695367.636001, 704356.135073 4695365.002331)

LINESTRING (704283.458849 4695375.548816, 704292.396500 4695394.803885, 704304.653432 4695423.969681)

LINESTRING (704283.458849 4695375.548816, 704277.411090 4695369.059344, 704271.864023 4695356.994125, 704267.817320 4695342.927750)

LINESTRING (704531.567152 4694779.728590, 704442.897837 4694853.156381)

LINESTRING (704531.567152 4694779.728590, 704555.132879 4694793.865843, 704576.888204 4694802.282037)

LINESTRING (704531.567152 4694779.728590, 704508.998061 4694768.421315, 704437.026681 4694736.309162)

LINESTRING (704442.897837 4694853.156381, 704531.567152 4694779.728590)

LINESTRING (704442.897837 4694853.156381, 704448.344576 4694914.887615)

LINESTRING (704442.897837 4694853.156381, 704438.530423 4694799.036516, 704437.026681 4694736.309162)

LINESTRING (704437.026681 4694736.309162, 704508.998061 4694768.421315, 704531.567152 4694779.728590)

LINESTRING (704437.026681 4694736.309162, 704403.913445 4694720.926373, 704399.065573 4694713.682801, 704397.708509 4694704.007240, 704395.963813 4694696.598736, 704392.815781 4694692.094452, 704388.583819 4694688.869954, 704384.281074 4694687.221588, 704378.508085 4694686.819494, 704366.083206 4694686.200807, 704338.197289 4694684.808110, 704330.174649 4694684.407015, 704316.778882 4694683.737824, 704285.395735 4694682.176490)

LINESTRING (704437.026681 4694736.309162, 704438.530423 4694799.036516, 704442.897837 4694853.156381)

LINESTRING (705066.719998 4695048.579499, 705069.701432 4695081.787087, 705072.954440 4695119.781728, 705071.964075 4695142.314411, 705069.858358 4695157.923613, 705064.476730 4695175.659581, 705060.178905 4695184.536014, 705043.504459 4695219.278930, 705034.289695 4695235.668853, 705019.772382 4695261.483716, 705010.296456 4695275.543151, 705000.552172 4695284.704506, 704988.821367 4695291.362526, 704978.831511 4695294.848496, 704969.924683 4695296.243423, 704925.108745 4695303.276652, 704916.929474 4695304.026118, 704905.858371 4695305.046508)

LINESTRING (705066.719998 4695048.579499, 705065.110193 4695030.416234, 705059.045750 4694956.218199, 705053.188578 4694891.806710, 705049.108172 4694842.673707)

LINESTRING (705066.719998 4695048.579499, 705167.762828 4695038.906339, 705169.861818 4695038.701179, 705175.852541 4695038.132288)

LINESTRING (704905.858371 4695305.046508, 704904.896191 4695300.483746, 704901.230495 4695283.016052, 704894.876973 4695260.823899, 704889.827625 4695239.114532, 704882.712130 4695195.116372, 704881.570193 4695190.781746, 704880.472771 4695186.615137, 704878.412122 4695178.763758, 704873.737233 4695163.956144, 704868.990281 4695145.701044, 704868.404952 4695143.461071, 704866.098016 4695129.389685, 704864.744852 4695112.856677, 704864.108768 4695105.035925, 704863.667820 4695099.554856, 704862.218045 4695081.818694, 704860.346429 4695033.195132, 704860.826639 4695017.927276, 704861.603066 4694993.109949, 704860.043971 4694961.944727, 704858.285195 4694943.221479)

LINESTRING (704905.858371 4695305.046508, 704916.929474 4695304.026118, 704925.108745 4695303.276652, 704969.924683 4695296.243423, 704978.831511 4695294.848496, 704988.821367 4695291.362526, 705000.552172 4695284.704506, 705010.296456 4695275.543151, 705019.772382 4695261.483716, 705034.289695 4695235.668853, 705043.504459 4695219.278930, 705060.178905 4695184.536014, 705064.476730 4695175.659581, 705069.858358 4695157.923613, 705071.964075 4695142.314411, 705072.954440 4695119.781728, 705069.701432 4695081.787087, 705066.719998 4695048.579499)

LINESTRING (704905.858371 4695305.046508, 704859.217121 4695308.014462, 704790.171213 4695313.549638, 704726.029261 4695320.451612, 704677.077705 4695326.353939)

LINESTRING (704319.804717 4694481.705885, 704319.125598 4694491.977666, 704317.621970 4694514.395259, 704312.168511 4694521.104448, 704304.243481 4694529.486353, 704303.326366 4694530.415374, 704298.872355 4694533.941802, 704287.173901 4694532.988840, 704265.045127 4694532.242531, 704258.737445 4694534.625671, 704256.367044 4694539.324378, 704254.177396 4694593.141373, 704271.383600 4694594.266254, 704281.372963 4694595.047023, 704281.014424 4694604.783581, 704280.271747 4694623.722474, 704282.755101 4694632.930762, 704284.747588 4694640.324237, 704285.662668 4694643.696297, 704287.179133 4694649.330962, 704285.860845 4694673.587793, 704285.659677 4694677.371811, 704285.395735 4694682.176490)

LINESTRING (704319.804717 4694481.705885, 704334.703848 4694482.830196, 704367.961055 4694484.868783, 704377.034051 4694485.711818, 704430.049861 4694490.650908, 704438.548120 4694491.421654)

LINESTRING (704319.804717 4694481.705885, 704296.410949 4694479.122057, 704270.672616 4694475.836336, 704268.985578 4694475.475874, 704262.081004 4694472.617977)

LINESTRING (704688.943003 4695388.273448, 704685.333629 4695396.169957, 704681.552048 4695401.505181, 704677.759658 4695404.394984, 704669.775194 4695406.939804, 704663.565064 4695407.980590, 704592.641034 4695415.796631, 704534.081044 4695420.640794, 704473.586627 4695429.652231)

LINESTRING (704688.943003 4695388.273448, 704697.153508 4695425.857229, 704703.015509 4695462.038580, 704703.532116 4695469.722446, 704704.843855 4695472.761660, 704708.654578 4695474.873763, 704713.739175 4695475.689469, 704722.441741 4695473.943716, 704729.431760 4695471.592125)

LINESTRING (704688.943003 4695388.273448, 704687.633428 4695382.344632, 704677.077705 4695326.353939)

LINESTRING (704493.067504 4695501.685567, 704535.875252 4695493.946322)

LINESTRING (704493.067504 4695501.685567, 704503.016398 4695544.654678, 704508.342957 4695546.210844, 704514.709148 4695546.308133, 704520.702274 4695545.638757, 704526.964135 4695544.232601, 704575.350353 4695530.277289, 704584.114009 4695528.410903, 704617.425481 4695524.484311)

LINESTRING (704493.067504 4695501.685567, 704490.798002 4695491.949929, 704478.513477 4695447.134293, 704473.586627 4695429.652231)

LINESTRING (704285.395735 4694682.176490, 704285.659677 4694677.371811, 704285.860845 4694673.587793, 704287.179133 4694649.330962, 704285.662668 4694643.696297, 704284.747588 4694640.324237, 704282.755101 4694632.930762, 704280.271747 4694623.722474, 704281.014424 4694604.783581, 704281.372963 4694595.047023, 704271.383600 4694594.266254, 704254.177396 4694593.141373, 704256.367044 4694539.324378, 704258.737445 4694534.625671, 704265.045127 4694532.242531, 704287.173901 4694532.988840, 704298.872355 4694533.941802, 704303.326366 4694530.415374, 704304.243481 4694529.486353, 704312.168511 4694521.104448, 704317.621970 4694514.395259, 704319.125598 4694491.977666, 704319.804717 4694481.705885)

LINESTRING (704285.395735 4694682.176490, 704316.778882 4694683.737824, 704330.174649 4694684.407015, 704338.197289 4694684.808110, 704366.083206 4694686.200807, 704378.508085 4694686.819494, 704384.281074 4694687.221588, 704388.583819 4694688.869954, 704392.815781 4694692.094452, 704395.963813 4694696.598736, 704397.708509 4694704.007240, 704399.065573 4694713.682801, 704403.913445 4694720.926373, 704437.026681 4694736.309162)

LINESTRING (704285.395735 4694682.176490, 704254.488820 4694680.673663, 704250.621419 4694680.482922, 704195.974600 4694677.831436, 704181.663950 4694677.169135)

LINESTRING (704858.285195 4694943.221479, 704860.043971 4694961.944727, 704861.603066 4694993.109949, 704860.826639 4695017.927276, 704860.346429 4695033.195132, 704862.218045 4695081.818694, 704863.667820 4695099.554856, 704864.108768 4695105.035925, 704864.744852 4695112.856677, 704866.098016 4695129.389685, 704868.404952 4695143.461071, 704868.990281 4695145.701044, 704873.737233 4695163.956144, 704878.412122 4695178.763758, 704880.472771 4695186.615137, 704881.570193 4695190.781746, 704882.712130 4695195.116372, 704889.827625 4695239.114532, 704894.876973 4695260.823899, 704901.230495 4695283.016052, 704904.896191 4695300.483746, 704905.858371 4695305.046508)

LINESTRING (704858.285195 4694943.221479, 704866.402385 4694941.792138, 704874.526085 4694940.140714, 704882.636777 4694938.933483, 704895.525903 4694937.755117, 704908.395513 4694937.243049, 704914.403176 4694936.941167, 704921.681336 4694936.587603)

LINESTRING (704858.285195 4694943.221479, 704837.993863 4694946.739349, 704777.662766 4694955.642085, 704771.148911 4694955.784778, 704764.436835 4694954.254557, 704754.430490 4694949.849364, 704759.134723 4694939.184176, 704759.753334 4694935.223435, 704759.419166 4694932.846345, 704757.881117 4694922.053966, 704756.537903 4694915.301715, 704753.061562 4694897.817464, 704749.686159 4694880.825192, 704746.165904 4694863.150723, 704731.448452 4694789.133358)

LINESTRING (704921.681336 4694936.587603, 704907.629380 4694772.987140)

LINESTRING (704921.681336 4694936.587603, 704914.403176 4694936.941167, 704908.395513 4694937.243049, 704895.525903 4694937.755117, 704882.636777 4694938.933483, 704874.526085 4694940.140714, 704866.402385 4694941.792138, 704858.285195 4694943.221479)

LINESTRING (704921.681336 4694936.587603, 704923.216610 4694954.215144, 704940.674554 4695157.604137, 704940.543148 4695160.401049, 704940.164010 4695162.935075)

LINESTRING (703994.770837 4695548.090974, 704002.729068 4695529.484843, 704006.167368 4695520.927314, 704008.618529 4695514.574909, 704010.810352 4695509.204089)

LINESTRING (704448.344576 4694914.887615, 704442.897837 4694853.156381)

LINESTRING (704448.344576 4694914.887615, 704422.539082 4694937.917403, 704409.017211 4694950.036621, 704381.584506 4694974.619411, 704379.579089 4694976.416855, 704370.669928 4694984.369797, 704358.444224 4694995.282205, 704349.771798 4695003.030921)

LINESTRING (704448.344576 4694914.887615, 704515.327002 4694855.763050, 704520.495143 4694851.201809, 704529.347123 4694843.525217, 704576.888204 4694802.282037)

LINESTRING (704438.389955 4694549.554747, 704439.286907 4694542.267903, 704439.578192 4694502.699203, 704439.275074 4694500.100765, 704438.548120 4694491.421654)

LINESTRING (704438.389955 4694549.554747, 704442.498298 4694559.266276, 704442.871997 4694560.577546, 704449.313122 4694573.647033, 704457.121507 4694586.456416)

LINESTRING (704438.389955 4694549.554747, 704433.186792 4694548.824734, 704425.036818 4694546.008066, 704380.431503 4694527.088734)

LINESTRING (704238.715341 4695099.168644, 704247.273912 4695093.617064, 704256.311500 4695087.746062)

LINESTRING (704256.311500 4695087.746062, 704249.157861 4695097.951003, 704240.916036 4695107.046104, 704239.633885 4695108.909163, 704235.506347 4695114.812439, 704232.323246 4695121.387916)

LINESTRING (704256.311500 4695087.746062, 704289.029627 4695057.649056, 704307.595779 4695040.953516, 704332.119587 4695018.897281, 704344.669095 4695007.616415, 704349.771798 4695003.030921)

LINESTRING (704729.431760 4695471.592125, 704722.441741 4695473.943716, 704713.739175 4695475.689469, 704708.654578 4695474.873763, 704704.843855 4695472.761660, 704703.532116 4695469.722446, 704703.015509 4695462.038580, 704697.153508 4695425.857229, 704688.943003 4695388.273448)

LINESTRING (704677.077705 4695326.353939, 704726.029261 4695320.451612, 704790.171213 4695313.549638, 704859.217121 4695308.014462, 704905.858371 4695305.046508)

LINESTRING (704677.077705 4695326.353939, 704569.364062 4695338.917316, 704495.434637 4695347.491126, 704451.794610 4695352.105505)

LINESTRING (704677.077705 4695326.353939, 704687.633428 4695382.344632, 704688.943003 4695388.273448)

LINESTRING (704178.985177 4695166.031541, 704170.453150 4695177.452194, 704157.662244 4695196.739526)

LINESTRING (704178.985177 4695166.031541, 704187.212802 4695149.233917, 704191.192667 4695143.870892, 704196.791750 4695137.799394, 704201.435227 4695133.978379, 704206.808437 4695125.766392)

LINESTRING (704157.662244 4695196.739526, 704148.393925 4695211.650748, 704142.576527 4695221.816993, 704136.914073 4695232.321187, 704135.764146 4695234.454859, 704130.902878 4695243.482047, 704125.132198 4695254.872214, 704119.443862 4695266.264788, 704113.120914 4695279.639372, 704107.127293 4695293.023573, 704101.048126 4695306.516421, 704097.607293 4695314.306971)

LINESTRING (704157.662244 4695196.739526, 704170.453150 4695177.452194, 704178.985177 4695166.031541)

LINESTRING (704206.808437 4695125.766392, 704206.501660 4695122.445444, 704207.059330 4695119.149738, 704208.449938 4695116.111750, 704210.568855 4695113.528479)

LINESTRING (704186.106856 4694861.714310, 704188.242816 4694869.556509, 704191.521855 4694880.299510, 704196.986208 4694900.297642, 704200.138579 4694914.248913, 704206.580489 4694938.298890, 704209.410715 4694950.017951)

LINESTRING (704186.106856 4694861.714310, 704177.639563 4694863.567662, 704175.323070 4694864.166877, 704170.382024 4694865.756421, 704169.146469 4694866.587247)

LINESTRING (704186.106856 4694861.714310, 704181.996349 4694844.734283, 704180.986935 4694840.359218, 704179.711216 4694834.098104, 704178.203884 4694823.351266, 704177.216392 4694815.120266, 704176.582851 4694808.877901, 704176.371466 4694803.981547, 704176.363830 4694800.291459, 704176.307964 4694796.277655, 704176.368479 4694788.277305, 704177.123990 4694770.583563, 704177.430385 4694766.580335, 704178.579862 4694748.375734, 704178.881605 4694740.015663, 704179.242858 4694732.157461)

LINESTRING (704209.410715 4694950.017951, 704223.190488 4694948.241976, 704245.514730 4694946.482168, 704250.237967 4694946.142207, 704260.900213 4694945.308865, 704268.543260 4694945.154223, 704281.264990 4694944.903426, 704283.529522 4694945.236311, 704296.608856 4694947.129890, 704304.618474 4694950.787006, 704306.683709 4694951.736465, 704317.431564 4694962.075349, 704334.054788 4694983.122055, 704345.846509 4694998.059374, 704349.771798 4695003.030921)

LINESTRING (704209.410715 4694950.017951, 704211.593948 4694962.729500, 704214.279625 4694982.502036, 704216.756219 4695017.616987, 704217.166192 4695026.998112, 704218.590065 4695054.424738)

LINESTRING (704209.410715 4694950.017951, 704206.580489 4694938.298890, 704200.138579 4694914.248913, 704196.986208 4694900.297642, 704191.521855 4694880.299510, 704188.242816 4694869.556509, 704186.106856 4694861.714310)

LINESTRING (704169.146469 4694866.587247, 704170.382024 4694865.756421, 704175.323070 4694864.166877, 704177.639563 4694863.567662, 704186.106856 4694861.714310)

LINESTRING (704169.146469 4694866.587247, 704167.733800 4694868.968870, 704166.088068 4694873.688755, 704165.746287 4694876.646229, 704162.870974 4694901.468882, 704159.473204 4694935.156413, 704156.818823 4694967.654214)

LINESTRING (705335.017779 4694820.331419, 705332.410023 4694814.286547, 705330.977007 4694808.365080, 705329.831174 4694802.485386, 705328.887720 4694791.676944, 705327.243330 4694772.745694, 705307.783040 4694549.168699, 705307.234744 4694542.861989, 705304.577548 4694512.386762, 705303.900341 4694504.575857)

LINESTRING (705412.081768 4694504.095488, 705418.963751 4694504.342055, 705432.366250 4694505.358074, 705450.675387 4694507.940855, 705506.394392 4694520.158420)

LINESTRING (705412.081768 4694504.095488, 705369.686654 4694503.984220, 705323.172645 4694504.385804, 705303.900341 4694504.575857)

LINESTRING (704359.045037 4694518.139411, 704363.053557 4694519.990324)

LINESTRING (704363.053557 4694519.990324, 704380.431503 4694527.088734)

LINESTRING (704363.053557 4694519.990324, 704361.754168 4694524.131247, 704348.360322 4694566.540184, 704348.278038 4694569.638604, 704349.503255 4694572.830795, 704351.297264 4694574.605890, 704355.899050 4694577.585541, 704359.214542 4694577.771324, 704362.430050 4694573.764185, 704365.409182 4694567.694037, 704368.198663 4694560.217977, 704378.720023 4694531.795545, 704380.431503 4694527.088734)

LINESTRING (704363.053557 4694519.990324, 704359.045037 4694518.139411)

LINESTRING (704380.431503 4694527.088734, 704363.053557 4694519.990324)

LINESTRING (704380.431503 4694527.088734, 704378.720023 4694531.795545, 704368.198663 4694560.217977, 704365.409182 4694567.694037, 704362.430050 4694573.764185, 704359.214542 4694577.771324, 704355.899050 4694577.585541, 704351.297264 4694574.605890, 704349.503255 4694572.830795, 704348.278038 4694569.638604, 704348.360322 4694566.540184, 704361.754168 4694524.131247, 704363.053557 4694519.990324)

LINESTRING (704380.431503 4694527.088734, 704425.036818 4694546.008066, 704433.186792 4694548.824734, 704438.389955 4694549.554747)

LINESTRING (704228.371416 4695559.122338, 704226.097663 4695541.340095, 704224.361180 4695527.730209, 704217.383692 4695498.629835, 704210.242236 4695463.856509, 704206.277943 4695450.070430, 704205.719881 4695446.608772, 704205.718631 4695443.830218, 704206.786349 4695438.304366, 704209.812392 4695430.612891, 704214.110233 4695424.514529, 704219.093870 4695420.325591, 704221.678368 4695419.289666, 704232.195229 4695417.485155, 704251.010678 4695416.478761, 704255.452970 4695416.719663, 704264.953982 4695418.664312, 704280.712889 4695423.570311, 704289.337757 4695425.044835, 704296.900474 4695425.365816, 704297.902766 4695425.183932, 704304.653432 4695423.969681)

LINESTRING (704190.182952 4695306.562392, 704200.715428 4695302.535467, 704205.614572 4695300.678001, 704218.992308 4695296.845333, 704233.428300 4695293.454817, 704244.564047 4695290.779263)

LINESTRING (704267.817320 4695342.927750, 704255.610913 4695312.585427, 704244.564047 4695290.779263)

LINESTRING (704267.817320 4695342.927750, 704276.099393 4695353.883656, 704282.950037 4695366.453753, 704283.458849 4695375.548816)

LINESTRING (704227.904576 4695184.942460, 704222.109507 4695167.535306, 704220.376213 4695159.171368, 704220.214267 4695155.687936, 704220.679111 4695152.467319, 704220.541884 4695147.573123, 704219.459256 4695142.040046, 704216.199744 4695135.432018)

LINESTRING (704227.904576 4695184.942460, 704230.029099 4695218.280019, 704230.829072 4695227.283548, 704232.441682 4695239.778399, 704235.557614 4695259.763584, 704239.417612 4695274.302382, 704244.564047 4695290.779263)

LINESTRING (705163.698432 4694904.994890, 705175.852541 4695038.132288)

LINESTRING (705163.698432 4694904.994890, 705158.063082 4694836.421960)

LINESTRING (705163.698432 4694904.994890, 705223.546493 4694897.992878, 705267.966333 4694893.328182, 705273.903967 4694893.169032, 705278.511262 4694893.415406, 705283.105519 4694894.105967, 705286.438729 4694895.648649, 705287.090861 4694895.890074, 705289.100249 4694897.616182, 705290.938455 4694899.559549, 705292.437556 4694901.826387, 705294.352410 4694906.772830, 705295.095068 4694912.351715, 705295.755392 4694917.928182, 705297.448574 4694930.425755, 705298.647764 4694942.908827, 705299.682286 4694955.387065, 705300.762440 4694966.310660, 705301.760259 4694977.231839, 705302.675743 4694988.150601, 705303.306709 4694994.726485, 705303.855344 4695001.299952, 705304.236057 4695007.979631, 705304.543388 4695011.545188, 705304.853978 4695014.999699, 705304.344530 4695018.318995, 705303.630471 4695020.187441, 705302.751754 4695022.051054, 705302.409395 4695022.485571)

LINESTRING (705302.409395 4695022.485571, 705314.886255 4695085.869223)

LINESTRING (705302.409395 4695022.485571, 705301.550237 4695023.682907, 705298.116037 4695025.582643, 705293.561821 4695026.338083, 705289.096455 4695026.873852, 705280.821103 4695028.075777, 705184.611732 4695037.288976, 705175.852541 4695038.132288)

LINESTRING (705302.409395 4695022.485571, 705302.751754 4695022.051054, 705303.630471 4695020.187441, 705304.344530 4695018.318995, 705304.853978 4695014.999699, 705304.543388 4695011.545188, 705304.236057 4695007.979631, 705303.855344 4695001.299952, 705303.306709 4694994.726485, 705302.675743 4694988.150601, 705301.760259 4694977.231839, 705300.762440 4694966.310660, 705299.682286 4694955.387065, 705298.647764 4694942.908827, 705297.448574 4694930.425755, 705295.755392 4694917.928182, 705295.095068 4694912.351715, 705294.352410 4694906.772830, 705292.437556 4694901.826387, 705290.938455 4694899.559549, 705289.100249 4694897.616182, 705287.090861 4694895.890074, 705286.438729 4694895.648649, 705283.105519 4694894.105967, 705278.511262 4694893.415406, 705273.903967 4694893.169032, 705267.966333 4694893.328182, 705223.546493 4694897.992878, 705163.698432 4694904.994890)

LINESTRING (705506.394392 4694520.158420, 705450.675387 4694507.940855, 705432.366250 4694505.358074, 705418.963751 4694504.342055, 705412.081768 4694504.095488)

LINESTRING (704349.771798 4695003.030921, 704345.846509 4694998.059374, 704334.054788 4694983.122055, 704317.431564 4694962.075349, 704306.683709 4694951.736465, 704304.618474 4694950.787006, 704296.608856 4694947.129890, 704283.529522 4694945.236311, 704281.264990 4694944.903426, 704268.543260 4694945.154223, 704260.900213 4694945.308865, 704250.237967 4694946.142207, 704245.514730 4694946.482168, 704223.190488 4694948.241976, 704209.410715 4694950.017951)

LINESTRING (704349.771798 4695003.030921, 704352.331588 4695007.640262, 704354.781305 4695012.068562, 704363.135711 4695032.684793, 704366.309727 4695040.524058, 704369.665037 4695052.591972, 704378.984840 4695086.128773, 704380.261872 4695090.645068, 704382.342372 4695098.118963, 704384.316163 4695105.578626, 704397.775695 4695156.474396, 704416.773405 4695225.648057, 704419.371995 4695235.126536, 704434.353769 4695286.355887, 704450.532738 4695347.356236, 704451.794610 4695352.105505)

LINESTRING (704349.771798 4695003.030921, 704344.669095 4695007.616415, 704332.119587 4695018.897281, 704307.595779 4695040.953516, 704289.029627 4695057.649056, 704256.311500 4695087.746062)

LINESTRING (704349.771798 4695003.030921, 704358.444224 4694995.282205, 704370.669928 4694984.369797, 704379.579089 4694976.416855, 704381.584506 4694974.619411, 704409.017211 4694950.036621, 704422.539082 4694937.917403, 704448.344576 4694914.887615)

LINESTRING (705314.886255 4695085.869223, 705302.409395 4695022.485571)

LINESTRING (704457.121507 4694586.456416, 704442.795776 4694628.026638, 704440.743264 4694639.325228, 704441.594427 4694650.519753, 704445.362029 4694661.454993, 704451.430884 4694670.623682, 704460.425662 4694678.644249, 704512.124387 4694704.340007, 704520.051655 4694708.283916)

LINESTRING (704457.121507 4694586.456416, 704466.760933 4694599.208196, 704476.127715 4694607.473048, 704490.402298 4694617.548513, 704495.620417 4694620.301771, 704506.372876 4694625.984258, 704525.134542 4694634.501660, 704543.356505 4694640.902769, 704556.563141 4694643.534052, 704569.285933 4694645.239853, 704596.365148 4694646.609864, 704623.509901 4694647.993012, 704646.464275 4694647.831051, 704664.720744 4694647.698404, 704712.609109 4694648.155186)

LINESTRING (704457.121507 4694586.456416, 704449.313122 4694573.647033, 704442.871997 4694560.577546, 704442.498298 4694559.266276, 704438.389955 4694549.554747)

LINESTRING (704520.051655 4694708.283916, 704512.124387 4694704.340007, 704460.425662 4694678.644249, 704451.430884 4694670.623682, 704445.362029 4694661.454993, 704441.594427 4694650.519753, 704440.743264 4694639.325228, 704442.795776 4694628.026638, 704457.121507 4694586.456416)

LINESTRING (704535.875252 4695493.946322, 704493.067504 4695501.685567)

LINESTRING (704617.425481 4695524.484311, 704620.962684 4695537.913643, 704621.720925 4695540.158655, 704622.904864 4695542.216070, 704624.450918 4695544.006230, 704626.311317 4695545.472167, 704628.421502 4695546.567534, 704630.700775 4695547.234400, 704633.067138 4695547.459251, 704635.546588 4695547.198391, 704637.924761 4695546.456662, 704640.101893 4695545.264484, 704642.002920 4695543.653005, 704643.535009 4695541.697304, 704644.654725 4695539.473910, 704645.293283 4695537.080836, 704645.448407 4695534.595814, 704645.100058 4695532.140514, 704644.270332 4695529.804494, 704642.981325 4695527.677315, 704641.296297 4695525.849741, 704639.279156 4695524.390327, 704637.010275 4695523.368112, 704634.579563 4695522.807953, 704632.084506 4695522.757162, 704617.425481 4695524.484311)

LINESTRING (704617.425481 4695524.484311, 704632.084506 4695522.757162, 704634.579563 4695522.807953, 704637.010275 4695523.368112, 704639.279156 4695524.390327, 704641.296297 4695525.849741, 704642.981325 4695527.677315, 704644.270332 4695529.804494, 704645.100058 4695532.140514, 704645.448407 4695534.595814, 704645.293283 4695537.080836, 704644.654725 4695539.473910, 704643.535009 4695541.697304, 704642.002920 4695543.653005, 704640.101893 4695545.264484, 704637.924761 4695546.456662, 704635.546588 4695547.198391, 704633.067138 4695547.459251, 704630.700775 4695547.234400, 704628.421502 4695546.567534, 704626.311317 4695545.472167, 704624.450918 4695544.006230, 704622.904864 4695542.216070, 704621.720925 4695540.158655, 704620.962684 4695537.913643, 704617.425481 4695524.484311)

LINESTRING (704617.425481 4695524.484311, 704584.114009 4695528.410903, 704575.350353 4695530.277289, 704526.964135 4695544.232601, 704520.702274 4695545.638757, 704514.709148 4695546.308133, 704508.342957 4695546.210844, 704503.016398 4695544.654678, 704493.067504 4695501.685567)

LINESTRING (704447.909651 4694293.775903, 704453.237128 4694293.642650, 704458.436434 4694293.383401, 704474.532432 4694293.609386, 704499.949100 4694294.107895, 704515.750866 4694294.814392, 704518.268554 4694294.387870, 704523.610920 4694292.054519, 704527.278370 4694290.072305, 704536.224828 4694282.287305)

LINESTRING (704447.909651 4694293.775903, 704446.838793 4694290.377042, 704443.639990 4694288.449727, 704439.397715 4694287.825606, 704435.692656 4694288.839841, 704433.741231 4694291.038964, 704433.362576 4694303.431198, 704434.052784 4694305.474130, 704436.415749 4694307.521495, 704440.409821 4694308.460669)

LINESTRING (704447.909651 4694293.775903, 704447.716996 4694298.393725, 704446.562849 4694303.483578, 704444.742431 4694306.275573, 704440.409821 4694308.460669)

LINESTRING (704536.224828 4694282.287305, 704535.679327 4694300.943006, 704533.487564 4694375.898950)

LINESTRING (704536.224828 4694282.287305, 704527.278370 4694290.072305, 704523.610920 4694292.054519, 704518.268554 4694294.387870, 704515.750866 4694294.814392, 704499.949100 4694294.107895, 704474.532432 4694293.609386, 704458.436434 4694293.383401, 704453.237128 4694293.642650, 704447.909651 4694293.775903)

LINESTRING (704940.164010 4695162.935075, 704932.655548 4695174.529362, 704931.972907 4695176.454331, 704931.929169 4695178.509164, 704932.539401 4695180.460907, 704933.734713 4695182.129714, 704935.543058 4695183.405264, 704937.676193 4695184.001256, 704939.881178 4695183.832479, 704941.909731 4695182.936113, 704943.511613 4695181.415965, 704944.492264 4695179.444161, 704944.754289 4695177.251240, 704944.256944 4695175.102750, 704940.164010 4695162.935075)

LINESTRING (704940.164010 4695162.935075, 704944.256944 4695175.102750, 704944.754289 4695177.251240, 704944.492264 4695179.444161, 704943.511613 4695181.415965, 704941.909731 4695182.936113, 704939.881178 4695183.832479, 704937.676193 4695184.001256, 704935.543058 4695183.405264, 704933.734713 4695182.129714, 704932.539401 4695180.460907, 704931.929169 4695178.509164, 704931.972907 4695176.454331, 704932.655548 4695174.529362, 704940.164010 4695162.935075)

LINESTRING (704940.164010 4695162.935075, 704940.543148 4695160.401049, 704940.674554 4695157.604137, 704923.216610 4694954.215144, 704921.681336 4694936.587603)

LINESTRING (704051.924520 4694478.431525, 704053.091889 4694468.640775, 704056.453926 4694440.398074, 704058.407851 4694423.984081, 704059.827129 4694412.055673, 704061.770238 4694395.730278, 704065.787026 4694361.994122, 704066.321684 4694357.508537, 704068.073218 4694344.078316)

LINESTRING (704051.924520 4694478.431525, 704057.056113 4694478.792397, 704065.230563 4694479.364302)

LINESTRING (704218.590065 4695054.424738, 704217.166192 4695026.998112, 704216.756219 4695017.616987, 704214.279625 4694982.502036, 704211.593948 4694962.729500, 704209.410715 4694950.017951)

LINESTRING (704218.590065 4695054.424738, 704222.410509 4695069.195752, 704223.163254 4695079.253732, 704222.722940 4695085.020186)

LINESTRING (704222.722940 4695085.020186, 704225.483858 4695090.079914, 704227.846970 4695092.960783, 704230.049063 4695095.147879, 704233.311447 4695097.143660, 704238.715341 4695099.168644)

LINESTRING (704222.722940 4695085.020186, 704221.012245 4695090.271637, 704219.870466 4695095.228508, 704220.125101 4695099.770481, 704222.061234 4695105.139544, 704223.081898 4695110.537443)

LINESTRING (704223.081898 4695110.537443, 704224.655269 4695111.116866)

LINESTRING (704156.818823 4694967.654214, 704155.858132 4694974.594681, 704152.712867 4694997.375585, 704150.389466 4695025.593027, 704148.431069 4695045.541154, 704147.906086 4695052.516569, 704144.264520 4695085.807998, 704142.478978 4695102.093535, 704138.597754 4695144.724891, 704136.524289 4695177.084063, 704137.620398 4695181.028208, 704140.897468 4695185.625065, 704144.697740 4695188.670115, 704149.900620 4695191.933940, 704157.662244 4695196.739526)

LINESTRING (704156.818823 4694967.654214, 704159.473204 4694935.156413, 704162.870974 4694901.468882, 704165.746287 4694876.646229, 704166.088068 4694873.688755, 704167.733800 4694868.968870, 704169.146469 4694866.587247)

LINESTRING (704224.655269 4695111.116866, 704233.388223 4695103.825455, 704238.715341 4695099.168644)

LINESTRING (704224.655269 4695111.116866, 704227.530253 4695112.834593, 704229.857904 4695115.236524, 704231.486661 4695118.151519, 704232.323246 4695121.387916)

LINESTRING (704232.323246 4695121.387916, 704232.335774 4695124.344623, 704231.683390 4695127.215227, 704230.386128 4695129.878058)

LINESTRING (704230.386128 4695129.878058, 704227.825119 4695139.416931, 704227.708997 4695144.803861, 704228.990628 4695150.576147, 704229.563412 4695155.227440, 704229.876411 4695157.770588, 704229.605865 4695167.598634, 704227.904576 4695184.942460)

LINESTRING (704230.386128 4695129.878058, 704228.701349 4695131.984984, 704226.607725 4695133.702092, 704224.198086 4695134.954294, 704221.589636 4695135.678331, 704218.882466 4695135.832669, 704216.199744 4695135.432018)

LINESTRING (704214.518703 4695134.871681, 704210.997099 4695132.723855, 704208.336840 4695129.578690, 704206.808437 4695125.766392)

LINESTRING (704214.518703 4695134.871681, 704204.551301 4695140.137648, 704200.647426 4695143.180045, 704196.747698 4695146.644901, 704192.011316 4695152.519307, 704178.985177 4695166.031541)

LINESTRING (704210.568855 4695113.528479, 704212.377901 4695106.601675, 704213.087567 4695100.076216, 704212.944314 4695094.259378, 704212.682485 4695089.117036, 704214.026514 4695084.288325, 704214.936221 4695078.813430, 704216.143935 4695068.212540, 704218.590065 4695054.424738)

LINESTRING (704210.568855 4695113.528479, 704214.298491 4695111.092271, 704218.638312 4695110.052027, 704223.081898 4695110.537443)

LINESTRING (704216.199744 4695135.432018, 704214.518703 4695134.871681)

