LINESTRING (1735.993764 1949.683704, 1667.102539 912.774203)

LINESTRING (1735.993764 1949.683704, 1540.979008 2179.118612)

LINESTRING (1735.993764 1949.683704, 914.890982 2804.744065)

LINESTRING (1735.993764 1949.683704, 651.519096 2192.267647)

LINESTRING (1735.993764 1949.683704, 1849.570738 1909.068364)

LINESTRING (1967.600852 3604.442053, 1910.042989 3327.871636)

LINESTRING (1967.600852 3604.442053, 2580.570291 4196.327674)

LINESTRING (1967.600852 3604.442053, 1806.238684 3671.257394)

LINESTRING (1967.600852 3604.442053, 2102.544531 3243.411300)

LINESTRING (1967.600852 3604.442053, 1966.168392 3780.091489)

LINESTRING (1967.600852 3604.442053, 2118.874753 3439.919746)

LINESTRING (1967.600852 3604.442053, 1800.029961 3303.324589)

LINESTRING (4174.130697 4164.026884, 4391.100534 4390.752195)

LINESTRING (848.228481 1198.291027, 1735.559636 506.906595)

LINESTRING (848.228481 1198.291027, 1083.993546 1276.856355)

LINESTRING (848.228481 1198.291027, 1099.422571 1378.876255)

LINESTRING (4644.538798 4204.584116, 4391.100534 4390.752195)

LINESTRING (4096.585646 1387.707744, 4199.617193 2416.248555)

LINESTRING (3639.052253 2335.832900, 3746.118708 2875.242689)

LINESTRING (1735.559636 506.906595, 1708.537586 440.905655)

LINESTRING (1735.559636 506.906595, 1766.242596 650.598218)

LINESTRING (2113.374818 2238.865428, 1943.984773 2859.886759)

LINESTRING (1910.042989 3327.871636, 2580.570291 4196.327674)

LINESTRING (1910.042989 3327.871636, 1806.238684 3671.257394)

LINESTRING (1910.042989 3327.871636, 2102.544531 3243.411300)

LINESTRING (1910.042989 3327.871636, 2118.874753 3439.919746)

LINESTRING (1910.042989 3327.871636, 1800.029961 3303.324589)

LINESTRING (894.803121 4621.835631, 924.862362 4814.577558)

LINESTRING (1667.102539 912.774203, 1766.242596 650.598218)

LINESTRING (1708.537586 440.905655, 1766.242596 650.598218)

LINESTRING (1540.979008 2179.118612, 651.519096 2192.267647)

LINESTRING (1083.993546 1276.856355, 1099.422571 1378.876255)

LINESTRING (1083.993546 1276.856355, 964.171889 1612.745406)

LINESTRING (1099.422571 1378.876255, 884.085942 2139.098943)

LINESTRING (1099.422571 1378.876255, 1944.756161 1300.383905)

LINESTRING (1099.422571 1378.876255, 964.171889 1612.745406)

LINESTRING (4391.100534 4390.752195, 4550.525959 4600.506662)

LINESTRING (2996.105265 1132.145584, 2940.381232 1666.037465)

LINESTRING (2996.105265 1132.145584, 3194.652816 1056.506794)

LINESTRING (2996.105265 1132.145584, 2956.764196 940.899349)

LINESTRING (914.890982 2804.744065, 921.342768 2835.752093)

LINESTRING (2993.415362 1582.965344, 2940.381232 1666.037465)

LINESTRING (2993.415362 1582.965344, 2956.764196 940.899349)

LINESTRING (2580.570291 4196.327674, 1800.029961 3303.324589)

LINESTRING (3110.391967 3786.158509, 3087.545649 3899.214644)

LINESTRING (3110.391967 3786.158509, 3216.438766 3815.781491)

LINESTRING (3504.223528 478.787696, 3701.456780 664.184702)

LINESTRING (3504.223528 478.787696, 2956.764196 940.899349)

LINESTRING (4550.525959 4600.506662, 4415.668214 4799.791336)

LINESTRING (884.085942 2139.098943, 651.519096 2192.267647)

LINESTRING (921.342768 2835.752093, 1800.029961 3303.324589)

LINESTRING (651.519096 2192.267647, 697.608552 1641.506476)

LINESTRING (3087.545649 3899.214644, 3216.438766 3815.781491)

LINESTRING (2940.381232 1666.037465, 3194.652816 1056.506794)

LINESTRING (1806.238684 3671.257394, 1966.168392 3780.091489)

LINESTRING (1806.238684 3671.257394, 2118.874753 3439.919746)

LINESTRING (1806.238684 3671.257394, 1800.029961 3303.324589)

LINESTRING (2102.544531 3243.411300, 2118.874753 3439.919746)

LINESTRING (2102.544531 3243.411300, 1800.029961 3303.324589)

LINESTRING (679.219434 3721.612337, 1496.759648 2880.303418)

LINESTRING (3194.652816 1056.506794, 2956.764196 940.899349)

LINESTRING (697.608552 1641.506476, 964.171889 1612.745406)

LINESTRING (3441.902325 3022.559049, 3746.118708 2875.242689)

LINESTRING (3441.902325 3022.559049, 2995.929160 2215.099702)

LINESTRING (1966.168392 3780.091489, 2118.874753 3439.919746)

LINESTRING (1966.168392 3780.091489, 1943.984773 2859.886759)

LINESTRING (3746.118708 2875.242689, 4199.617193 2416.248555)

LINESTRING (3701.456780 664.184702, 2956.764196 940.899349)

LINESTRING (4283.955892 2318.765500, 4199.617193 2416.248555)

LINESTRING (2118.874753 3439.919746, 1800.029961 3303.324589)

