LINESTRING (40.000000 48.000000, 100.000000 48.000000)

LINESTRING (47.500000 61.000000, 47.500000 48.000000)

LINESTRING (47.500000 35.000000, 47.500000 48.000000)

LINESTRING (62.500000 61.000000, 62.500000 48.000000)

LINESTRING (62.500000 35.000000, 62.500000 48.000000)

LINESTRING (47.500000 48.000000, 62.500000 48.000000)

LINESTRING (77.500000 61.000000, 77.500000 48.000000)

LINESTRING (77.500000 35.000000, 77.500000 48.000000)

LINESTRING (62.500000 48.000000, 77.500000 48.000000)

LINESTRING (92.500000 61.000000, 92.500000 48.000000)

LINESTRING (92.500000 35.000000, 92.500000 48.000000)

LINESTRING (77.500000 48.000000, 92.500000 48.000000)

LINESTRING (130.000000 48.000000, 190.000000 48.000000)

LINESTRING (137.500000 61.000000, 137.500000 48.000000)

LINESTRING (137.500000 35.000000, 137.500000 48.000000)

LINESTRING (152.500000 61.000000, 152.500000 48.000000)

LINESTRING (152.500000 35.000000, 152.500000 48.000000)

LINESTRING (137.500000 48.000000, 152.500000 48.000000)

LINESTRING (167.500000 61.000000, 167.500000 48.000000)

LINESTRING (167.500000 35.000000, 167.500000 48.000000)

LINESTRING (152.500000 48.000000, 167.500000 48.000000)

LINESTRING (182.500000 61.000000, 182.500000 48.000000)

LINESTRING (182.500000 35.000000, 182.500000 48.000000)

LINESTRING (167.500000 48.000000, 182.500000 48.000000)

LINESTRING (100.000000 48.000000, 130.000000 48.000000)

