LINESTRING (6231.878769 4468.386300, 7240.547780 4272.067495)

LINESTRING (6231.878769 4468.386300, 7634.856945 3712.141151)

LINESTRING (6231.878769 4468.386300, 7432.814961 3344.165488)

LINESTRING (7968.006986 2173.972872, 8126.445542 2645.049906)

LINESTRING (7968.006986 2173.972872, 7432.814961 3344.165488)

LINESTRING (7706.859133 6659.083133, 8134.819330 7795.016063)

LINESTRING (7706.859133 6659.083133, 7491.619206 6770.890942)

LINESTRING (7706.859133 6659.083133, 6682.299792 6846.864043)

LINESTRING (3817.317939 867.814366, 3077.388333 306.787436)

LINESTRING (3817.317939 867.814366, 3717.257410 331.691066)

LINESTRING (3817.317939 867.814366, 3210.947109 353.357944)

LINESTRING (3186.529454 5497.619355, 3288.169567 4346.251084)

LINESTRING (3186.529454 5497.619355, 2775.044345 5680.519103)

LINESTRING (3186.529454 5497.619355, 4007.604512 6333.671884)

LINESTRING (3186.529454 5497.619355, 2960.771567 6935.284111)

LINESTRING (3288.169567 4346.251084, 2091.084607 3096.900934)

LINESTRING (3288.169567 4346.251084, 3872.461838 3421.233258)

LINESTRING (3288.169567 4346.251084, 1543.377561 4117.137832)

LINESTRING (3288.169567 4346.251084, 3354.999849 3697.784006)

LINESTRING (1659.247919 666.606411, 942.216661 1475.061408)

LINESTRING (1659.247919 666.606411, 252.649369 827.163221)

LINESTRING (1659.247919 666.606411, 1870.429383 268.850496)

LINESTRING (1659.247919 666.606411, 2041.037096 960.695720)

LINESTRING (2914.289176 2315.320652, 3071.145366 2239.309480)

LINESTRING (2914.289176 2315.320652, 1549.045317 2474.057814)

LINESTRING (2914.289176 2315.320652, 2768.623909 3621.519146)

LINESTRING (2914.289176 2315.320652, 4428.587374 1761.155363)

LINESTRING (2914.289176 2315.320652, 2091.084607 3096.900934)

LINESTRING (7776.823311 198.308357, 6046.009478 250.866734)

LINESTRING (7776.823311 198.308357, 6933.011238 265.379331)

LINESTRING (7776.823311 198.308357, 6754.124011 408.788998)

LINESTRING (7776.823311 198.308357, 7625.900421 293.572125)

LINESTRING (7776.823311 198.308357, 7585.856420 338.123544)

LINESTRING (510.434992 3937.344426, 614.125489 3140.224641)

LINESTRING (510.434992 3937.344426, 2091.084607 3096.900934)

LINESTRING (1390.242020 7880.543789, 1016.049123 8067.129559)

LINESTRING (1390.242020 7880.543789, 826.366005 6298.857529)

LINESTRING (918.160880 4764.400968, 2432.222942 4469.056802)

LINESTRING (918.160880 4764.400968, 350.373331 6311.153909)

LINESTRING (918.160880 4764.400968, 1543.377561 4117.137832)

LINESTRING (7240.547780 4272.067495, 7549.561017 3062.309429)

LINESTRING (7240.547780 4272.067495, 5815.468597 3552.105848)

LINESTRING (7240.547780 4272.067495, 7634.856945 3712.141151)

LINESTRING (7240.547780 4272.067495, 6697.598722 2970.408583)

LINESTRING (7240.547780 4272.067495, 7432.814961 3344.165488)

LINESTRING (614.125489 3140.224641, 2091.084607 3096.900934)

LINESTRING (1016.049123 8067.129559, 706.682694 7613.690716)

LINESTRING (1016.049123 8067.129559, 2545.288686 7259.734013)

LINESTRING (7491.619206 6770.890942, 7419.272065 7348.622584)

LINESTRING (3071.145366 2239.309480, 3562.904856 2482.466434)

LINESTRING (3071.145366 2239.309480, 4428.587374 1761.155363)

LINESTRING (3071.145366 2239.309480, 3354.999849 3697.784006)

LINESTRING (1549.045317 2474.057814, 2768.623909 3621.519146)

LINESTRING (1549.045317 2474.057814, 2041.037096 960.695720)

LINESTRING (6152.804297 2560.772966, 4938.333654 1861.529652)

LINESTRING (6152.804297 2560.772966, 7549.561017 3062.309429)

LINESTRING (6152.804297 2560.772966, 4710.112039 3051.625965)

LINESTRING (6152.804297 2560.772966, 6697.598722 2970.408583)

LINESTRING (6152.804297 2560.772966, 7432.814961 3344.165488)

LINESTRING (4938.333654 1861.529652, 3562.904856 2482.466434)

LINESTRING (4938.333654 1861.529652, 4428.587374 1761.155363)

LINESTRING (4938.333654 1861.529652, 5201.655963 1374.813649)

LINESTRING (4938.333654 1861.529652, 4710.112039 3051.625965)

LINESTRING (5579.724792 6335.811303, 4007.604512 6333.671884)

LINESTRING (5579.724792 6335.811303, 5027.037726 6848.428631)

LINESTRING (5579.724792 6335.811303, 5267.579900 6810.844997)

LINESTRING (3562.904856 2482.466434, 2768.623909 3621.519146)

LINESTRING (3562.904856 2482.466434, 3872.461838 3421.233258)

LINESTRING (3562.904856 2482.466434, 4710.112039 3051.625965)

LINESTRING (416.078158 6337.297457, 350.373331 6311.153909)

LINESTRING (416.078158 6337.297457, 826.366005 6298.857529)

LINESTRING (7554.981808 1321.126839, 8126.445542 2645.049906)

LINESTRING (7554.981808 1321.126839, 7549.561017 3062.309429)

LINESTRING (7554.981808 1321.126839, 7582.910975 1345.251146)

LINESTRING (7554.981808 1321.126839, 6933.011238 265.379331)

LINESTRING (7554.981808 1321.126839, 6754.124011 408.788998)

LINESTRING (7554.981808 1321.126839, 7585.856420 338.123544)

LINESTRING (5477.713406 4051.249948, 4613.497157 4804.306197)

LINESTRING (5477.713406 4051.249948, 5815.468597 3552.105848)

LINESTRING (5477.713406 4051.249948, 3872.461838 3421.233258)

LINESTRING (2432.222942 4469.056802, 3354.999849 3697.784006)

LINESTRING (2768.623909 3621.519146, 3872.461838 3421.233258)

LINESTRING (2768.623909 3621.519146, 3354.999849 3697.784006)

LINESTRING (706.682694 7613.690716, 350.373331 6311.153909)

LINESTRING (706.682694 7613.690716, 695.553157 6880.539439)

LINESTRING (8126.445542 2645.049906, 7582.910975 1345.251146)

LINESTRING (8126.445542 2645.049906, 7634.856945 3712.141151)

LINESTRING (3239.903376 8169.457718, 2545.288686 7259.734013)

LINESTRING (2031.921206 7208.706943, 2545.288686 7259.734013)

LINESTRING (2031.921206 7208.706943, 2775.044345 5680.519103)

LINESTRING (2031.921206 7208.706943, 2960.771567 6935.284111)

LINESTRING (7549.561017 3062.309429, 7752.029289 3533.566232)

LINESTRING (7549.561017 3062.309429, 7432.814961 3344.165488)

LINESTRING (4428.587374 1761.155363, 4129.112931 1739.469489)

LINESTRING (7582.910975 1345.251146, 7625.900421 293.572125)

LINESTRING (6046.009478 250.866734, 5692.194739 213.867992)

LINESTRING (6046.009478 250.866734, 6754.124011 408.788998)

LINESTRING (6046.009478 250.866734, 7625.900421 293.572125)

LINESTRING (2545.288686 7259.734013, 4007.604512 6333.671884)

LINESTRING (2545.288686 7259.734013, 2960.771567 6935.284111)

LINESTRING (2545.288686 7259.734013, 3125.894159 7158.614375)

LINESTRING (2775.044345 5680.519103, 4007.604512 6333.671884)

LINESTRING (6430.022272 6699.081955, 6682.299792 6846.864043)

LINESTRING (3077.388333 306.787436, 1870.429383 268.850496)

LINESTRING (3077.388333 306.787436, 2246.153909 188.055685)

LINESTRING (3077.388333 306.787436, 2041.037096 960.695720)

LINESTRING (3077.388333 306.787436, 3210.947109 353.357944)

LINESTRING (3717.257410 331.691066, 2246.153909 188.055685)

LINESTRING (3717.257410 331.691066, 3210.947109 353.357944)

LINESTRING (6682.299792 6846.864043, 7419.272065 7348.622584)

LINESTRING (6933.011238 265.379331, 5692.194739 213.867992)

LINESTRING (6933.011238 265.379331, 6754.124011 408.788998)

LINESTRING (4613.497157 4804.306197, 5945.870536 3606.268763)

LINESTRING (5815.468597 3552.105848, 5655.089330 3005.298872)

LINESTRING (5815.468597 3552.105848, 5945.870536 3606.268763)

LINESTRING (238.073175 4639.886334, 1543.377561 4117.137832)

LINESTRING (5201.655963 1374.813649, 4129.112931 1739.469489)

LINESTRING (3872.461838 3421.233258, 3354.999849 3697.784006)

LINESTRING (350.373331 6311.153909, 826.366005 6298.857529)

LINESTRING (695.553157 6880.539439, 826.366005 6298.857529)

LINESTRING (4007.604512 6333.671884, 4562.017725 7952.151357)

LINESTRING (4007.604512 6333.671884, 5267.579900 6810.844997)

LINESTRING (4007.604512 6333.671884, 4761.015096 7765.441291)

LINESTRING (4007.604512 6333.671884, 2960.771567 6935.284111)

LINESTRING (4562.017725 7952.151357, 4761.015096 7765.441291)

LINESTRING (4562.017725 7952.151357, 3125.894159 7158.614375)

LINESTRING (7752.029289 3533.566232, 7634.856945 3712.141151)

LINESTRING (7752.029289 3533.566232, 7432.814961 3344.165488)

LINESTRING (5655.089330 3005.298872, 4710.112039 3051.625965)

LINESTRING (5655.089330 3005.298872, 6697.598722 2970.408583)

LINESTRING (5027.037726 6848.428631, 5267.579900 6810.844997)

LINESTRING (7634.856945 3712.141151, 7432.814961 3344.165488)

LINESTRING (6754.124011 408.788998, 7625.900421 293.572125)

LINESTRING (7625.900421 293.572125, 7585.856420 338.123544)

LINESTRING (1870.429383 268.850496, 2246.153909 188.055685)

LINESTRING (5267.579900 6810.844997, 4761.015096 7765.441291)

LINESTRING (2246.153909 188.055685, 3210.947109 353.357944)

LINESTRING (2041.037096 960.695720, 3210.947109 353.357944)

LINESTRING (4761.015096 7765.441291, 3125.894159 7158.614375)

LINESTRING (2960.771567 6935.284111, 3125.894159 7158.614375)

LINESTRING (6697.598722 2970.408583, 5945.870536 3606.268763)

LINESTRING (5945.870536 3606.268763, 7432.814961 3344.165488)

