LINESTRING (479.362053 398.404596, 469.957122 434.213108)

LINESTRING (469.957122 434.213108, 456.100759 452.802133)

LINESTRING (456.100759 452.802133, 430.317744 470.127274)

LINESTRING (430.317744 470.127274, 399.428842 475.749963)

LINESTRING (399.428842 475.749963, 374.271106 474.167579)

LINESTRING (374.271106 474.167579, 341.726835 460.976809)

LINESTRING (341.726835 460.976809, 326.830745 432.092582)

LINESTRING (326.830745 432.092582, 322.590882 398.844621)

LINESTRING (322.590882 398.844621, 322.740561 369.309632)

LINESTRING (322.740561 369.309632, 345.255155 340.421633)

LINESTRING (345.255155 340.421633, 372.367772 321.423231)

LINESTRING (372.367772 321.423231, 398.419214 316.096154)

LINESTRING (398.419214 316.096154, 430.287503 321.360658)

LINESTRING (430.287503 321.360658, 452.063560 338.680511)

LINESTRING (452.063560 338.680511, 471.365248 372.803852)

LINESTRING (471.365248 372.803852, 479.362053 398.404596)

LINESTRING (560.828131 400.273202, 550.972028 456.986787)

LINESTRING (550.972028 456.986787, 513.812141 515.948570)

LINESTRING (513.812141 515.948570, 464.976057 550.325719)

LINESTRING (464.976057 550.325719, 398.650509 556.941944)

LINESTRING (398.650509 556.941944, 343.110284 552.499908)

LINESTRING (343.110284 552.499908, 283.528261 511.688231)

LINESTRING (283.528261 511.688231, 255.766778 457.993183)

LINESTRING (255.766778 457.993183, 237.101677 403.227014)

LINESTRING (237.101677 403.227014, 254.633915 342.935360)

LINESTRING (254.633915 342.935360, 284.382516 290.290169)

LINESTRING (284.382516 290.290169, 339.550029 256.181564)

LINESTRING (339.550029 256.181564, 403.695474 236.903240)

LINESTRING (403.695474 236.903240, 459.533451 252.186823)

LINESTRING (459.533451 252.186823, 512.111988 290.433527)

LINESTRING (512.111988 290.433527, 545.049241 342.922446)

LINESTRING (545.049241 342.922446, 560.828131 400.273202)

LINESTRING (636.791700 401.894224, 619.514646 496.238861)

LINESTRING (619.514646 496.238861, 574.614385 564.879868)

LINESTRING (574.614385 564.879868, 493.948202 617.164786)

LINESTRING (493.948202 617.164786, 397.249898 641.017973)

LINESTRING (397.249898 641.017973, 307.226896 619.239397)

LINESTRING (307.226896 619.239397, 234.353167 572.207401)

LINESTRING (234.353167 572.207401, 178.626887 490.702980)

LINESTRING (178.626887 490.702980, 160.106106 398.574565)

LINESTRING (160.106106 398.574565, 173.864733 310.723445)

LINESTRING (173.864733 310.723445, 233.143579 226.494901)

LINESTRING (233.143579 226.494901, 303.599711 175.081764)

LINESTRING (303.599711 175.081764, 396.744724 156.885409)

LINESTRING (396.744724 156.885409, 487.484032 181.422524)

LINESTRING (487.484032 181.422524, 573.046139 229.399390)

LINESTRING (573.046139 229.399390, 616.897017 304.204520)

LINESTRING (616.897017 304.204520, 636.791700 401.894224)

LINESTRING (717.435475 404.977858, 700.355613 517.862558)

LINESTRING (700.355613 517.862558, 625.827464 631.080526)

LINESTRING (625.827464 631.080526, 520.987607 691.503438)

LINESTRING (520.987607 691.503438, 404.840096 722.593506)

LINESTRING (404.840096 722.593506, 277.512668 696.274109)

LINESTRING (277.512668 696.274109, 172.705062 631.112033)

LINESTRING (172.705062 631.112033, 104.535374 527.389618)

LINESTRING (104.535374 527.389618, 84.418469 400.727505)

LINESTRING (84.418469 400.727505, 103.632703 275.012545)

LINESTRING (103.632703 275.012545, 170.743778 178.331904)

LINESTRING (170.743778 178.331904, 275.392041 106.060747)

LINESTRING (275.392041 106.060747, 403.910605 75.664032)

LINESTRING (403.910605 75.664032, 520.746667 103.714975)

LINESTRING (520.746667 103.714975, 626.000518 171.085040)

LINESTRING (626.000518 171.085040, 700.183455 282.379830)

LINESTRING (700.183455 282.379830, 717.435475 404.977858)

LINESTRING (801.935914 397.846781, 766.701069 549.657903)

LINESTRING (766.701069 549.657903, 679.600646 682.766972)

LINESTRING (679.600646 682.766972, 557.121213 765.708978)

LINESTRING (557.121213 765.708978, 402.923376 803.457542)

LINESTRING (402.923376 803.457542, 243.883447 767.203811)

LINESTRING (243.883447 767.203811, 115.174872 684.763305)

LINESTRING (115.174872 684.763305, 26.067438 548.634549)

LINESTRING (26.067438 548.634549, -2.811220 397.627958)

LINESTRING (-2.811220 397.627958, 33.299459 250.686043)

LINESTRING (33.299459 250.686043, 112.567944 114.706959)

LINESTRING (112.567944 114.706959, 246.613677 29.111251)

LINESTRING (246.613677 29.111251, 395.459895 1.553147)

LINESTRING (395.459895 1.553147, 549.429277 32.110460)

LINESTRING (549.429277 32.110460, 681.947660 118.494364)

LINESTRING (681.947660 118.494364, 766.160986 251.602629)

LINESTRING (766.160986 251.602629, 801.935914 397.846781)

LINESTRING (881.273681 403.741673, 844.549154 581.915656)

LINESTRING (844.549154 581.915656, 735.939604 742.653980)

LINESTRING (735.939604 742.653980, 587.886618 839.208034)

LINESTRING (587.886618 839.208034, 400.256328 875.412942)

LINESTRING (400.256328 875.412942, 216.825927 839.862978)

LINESTRING (216.825927 839.862978, 59.626970 736.914235)

LINESTRING (59.626970 736.914235, -41.604928 584.750252)

LINESTRING (-41.604928 584.750252, -76.564330 395.788324)

LINESTRING (-76.564330 395.788324, -45.791024 218.066467)

LINESTRING (-45.791024 218.066467, 55.831957 58.303087)

LINESTRING (55.831957 58.303087, 213.257554 -40.522297)

LINESTRING (213.257554 -40.522297, 396.802982 -80.385836)

LINESTRING (396.802982 -80.385836, 581.996143 -43.790437)

LINESTRING (581.996143 -43.790437, 737.628161 63.737837)

LINESTRING (737.628161 63.737837, 844.398119 217.493911)

LINESTRING (844.398119 217.493911, 881.273681 403.741673)

LINESTRING (479.362053 398.404596, 560.828131 400.273202)

LINESTRING (560.828131 400.273202, 636.791700 401.894224)

LINESTRING (636.791700 401.894224, 717.435475 404.977858)

LINESTRING (717.435475 404.977858, 801.935914 397.846781)

LINESTRING (801.935914 397.846781, 881.273681 403.741673)

LINESTRING (469.957122 434.213108, 550.972028 456.986787)

LINESTRING (550.972028 456.986787, 619.514646 496.238861)

LINESTRING (619.514646 496.238861, 700.355613 517.862558)

LINESTRING (700.355613 517.862558, 766.701069 549.657903)

LINESTRING (766.701069 549.657903, 844.549154 581.915656)

LINESTRING (456.100759 452.802133, 513.812141 515.948570)

LINESTRING (513.812141 515.948570, 574.614385 564.879868)

LINESTRING (574.614385 564.879868, 625.827464 631.080526)

LINESTRING (625.827464 631.080526, 679.600646 682.766972)

LINESTRING (679.600646 682.766972, 735.939604 742.653980)

LINESTRING (430.317744 470.127274, 464.976057 550.325719)

LINESTRING (464.976057 550.325719, 493.948202 617.164786)

LINESTRING (493.948202 617.164786, 520.987607 691.503438)

LINESTRING (520.987607 691.503438, 557.121213 765.708978)

LINESTRING (557.121213 765.708978, 587.886618 839.208034)

LINESTRING (399.428842 475.749963, 398.650509 556.941944)

LINESTRING (398.650509 556.941944, 397.249898 641.017973)

LINESTRING (397.249898 641.017973, 404.840096 722.593506)

LINESTRING (404.840096 722.593506, 402.923376 803.457542)

LINESTRING (402.923376 803.457542, 400.256328 875.412942)

LINESTRING (374.271106 474.167579, 343.110284 552.499908)

LINESTRING (343.110284 552.499908, 307.226896 619.239397)

LINESTRING (307.226896 619.239397, 277.512668 696.274109)

LINESTRING (277.512668 696.274109, 243.883447 767.203811)

LINESTRING (243.883447 767.203811, 216.825927 839.862978)

LINESTRING (341.726835 460.976809, 283.528261 511.688231)

LINESTRING (283.528261 511.688231, 234.353167 572.207401)

LINESTRING (234.353167 572.207401, 172.705062 631.112033)

LINESTRING (172.705062 631.112033, 115.174872 684.763305)

LINESTRING (115.174872 684.763305, 59.626970 736.914235)

LINESTRING (326.830745 432.092582, 255.766778 457.993183)

LINESTRING (255.766778 457.993183, 178.626887 490.702980)

LINESTRING (178.626887 490.702980, 104.535374 527.389618)

LINESTRING (104.535374 527.389618, 26.067438 548.634549)

LINESTRING (26.067438 548.634549, -41.604928 584.750252)

LINESTRING (322.590882 398.844621, 237.101677 403.227014)

LINESTRING (237.101677 403.227014, 160.106106 398.574565)

LINESTRING (160.106106 398.574565, 84.418469 400.727505)

LINESTRING (84.418469 400.727505, -2.811220 397.627958)

LINESTRING (-2.811220 397.627958, -76.564330 395.788324)

LINESTRING (322.740561 369.309632, 254.633915 342.935360)

LINESTRING (254.633915 342.935360, 173.864733 310.723445)

LINESTRING (173.864733 310.723445, 103.632703 275.012545)

LINESTRING (103.632703 275.012545, 33.299459 250.686043)

LINESTRING (33.299459 250.686043, -45.791024 218.066467)

LINESTRING (345.255155 340.421633, 284.382516 290.290169)

LINESTRING (284.382516 290.290169, 233.143579 226.494901)

LINESTRING (233.143579 226.494901, 170.743778 178.331904)

LINESTRING (170.743778 178.331904, 112.567944 114.706959)

LINESTRING (112.567944 114.706959, 55.831957 58.303087)

LINESTRING (372.367772 321.423231, 339.550029 256.181564)

LINESTRING (339.550029 256.181564, 303.599711 175.081764)

LINESTRING (303.599711 175.081764, 275.392041 106.060747)

LINESTRING (275.392041 106.060747, 246.613677 29.111251)

LINESTRING (246.613677 29.111251, 213.257554 -40.522297)

LINESTRING (398.419214 316.096154, 403.695474 236.903240)

LINESTRING (403.695474 236.903240, 396.744724 156.885409)

LINESTRING (396.744724 156.885409, 403.910605 75.664032)

LINESTRING (403.910605 75.664032, 395.459895 1.553147)

LINESTRING (395.459895 1.553147, 396.802982 -80.385836)

LINESTRING (430.287503 321.360658, 459.533451 252.186823)

LINESTRING (459.533451 252.186823, 487.484032 181.422524)

LINESTRING (487.484032 181.422524, 520.746667 103.714975)

LINESTRING (520.746667 103.714975, 549.429277 32.110460)

LINESTRING (549.429277 32.110460, 581.996143 -43.790437)

LINESTRING (452.063560 338.680511, 512.111988 290.433527)

LINESTRING (512.111988 290.433527, 573.046139 229.399390)

LINESTRING (573.046139 229.399390, 626.000518 171.085040)

LINESTRING (626.000518 171.085040, 681.947660 118.494364)

LINESTRING (681.947660 118.494364, 737.628161 63.737837)

LINESTRING (471.365248 372.803852, 545.049241 342.922446)

LINESTRING (545.049241 342.922446, 616.897017 304.204520)

LINESTRING (616.897017 304.204520, 700.183455 282.379830)

LINESTRING (700.183455 282.379830, 766.160986 251.602629)

LINESTRING (766.160986 251.602629, 844.398119 217.493911)

LINESTRING (400.000000 400.000000, 479.362053 398.404596)

