LINESTRING (682713.631667 7466596.101818, 682887.367772 7466302.232764, 683019.632142 7466078.405352, 683171.366398 7465824.137948)

LINESTRING (682600.054854 7467032.210598, 682625.969441 7466981.748733, 682632.220994 7466964.993880, 682650.306393 7466916.243617, 682662.170916 7466879.153234, 682669.852068 7466842.323872, 682673.729814 7466810.867687, 682680.221578 7466727.470392, 682684.073490 7466691.340772, 682687.010974 7466677.162194, 682692.932625 7466651.816925, 682700.419083 7466627.748516, 682713.631667 7466596.101818)

LINESTRING (682600.054854 7467032.210598, 682604.551921 7467006.129510, 682606.282365 7466984.611628, 682605.587999 7466970.465923, 682603.455798 7466957.910283, 682599.098174 7466944.606288, 682592.906083 7466933.185108, 682580.770430 7466917.317109, 682570.578338 7466907.738466, 682546.536299 7466889.865803, 682502.164357 7466859.856760, 682470.573282 7466839.671908, 682455.376772 7466828.625293, 682435.260966 7466809.575361, 682391.950502 7466768.865649)

LINESTRING (682391.950502 7466768.865649, 682390.857217 7466767.549833, 682382.121469 7466757.045322, 682359.110991 7466729.391621, 682339.896829 7466705.114279, 682336.646174 7466701.033565, 682324.371619 7466685.521476)

LINESTRING (683220.379032 7465777.591854, 683200.736623 7465794.144126, 683177.495049 7465819.334440, 683153.747151 7465857.765773, 683019.567414 7466081.529353, 682887.014818 7466305.282726, 682718.997608 7466587.586497, 682712.812025 7466600.442143)

LINESTRING (682712.812025 7466600.442143, 682712.059594 7466609.488618, 682710.749878 7466625.054058, 682709.216633 7466650.977522, 682709.611050 7466670.852746, 682713.271059 7466707.057609, 682722.199530 7466753.819840, 682723.690981 7466772.773621, 682723.160963 7466788.329624, 682718.906892 7466805.636273, 682705.363994 7466836.290183, 682683.141832 7466875.554834, 682631.116425 7466962.747898, 682620.704073 7466971.446024, 682609.810728 7466976.007835, 682596.804917 7466977.283697, 682586.782786 7466976.673915, 682575.629332 7466974.150720, 682567.815970 7466969.516076, 682518.776030 7466931.102051)

LINESTRING (682712.812025 7466600.442143, 682702.974107 7466628.603616, 682695.483231 7466652.306598, 682686.127021 7466692.301619, 682682.970493 7466726.540042, 682676.341945 7466810.503830, 682672.596640 7466841.880888, 682664.867199 7466879.807281, 682652.798296 7466916.966590, 682628.699063 7466982.612813)

LINESTRING (683482.342839 7466636.042487, 683459.154800 7466668.254201, 683432.603637 7466699.831137, 683408.894054 7466728.826195, 683390.719114 7466750.555077, 683375.639086 7466769.433236, 683365.984762 7466785.587431, 683359.288039 7466800.254848, 683345.952249 7466828.426067)

LINESTRING (683482.342839 7466636.042487, 683439.460391 7466680.609806, 683386.772387 7466734.809711, 683355.579111 7466763.530077, 683339.558615 7466783.549289, 683303.316767 7466850.307825)

LINESTRING (683345.952249 7466828.426067, 683306.210466 7466921.320357)

LINESTRING (683345.952249 7466828.426067, 683338.453332 7466835.339466, 683335.891083 7466839.811747, 683331.034082 7466847.125000, 683323.987649 7466856.657728, 683316.952945 7466866.312138, 683312.776413 7466873.894004, 683308.964426 7466882.767245, 683306.196532 7466893.122968, 683305.194340 7466901.009628, 683305.403258 7466907.231376, 683306.210466 7466921.320357)

LINESTRING (683303.316767 7466850.307825, 683247.761093 7466979.454846, 683229.860916 7467021.337076, 683214.122614 7467057.888011, 683207.047645 7467074.387336, 683201.279191 7467087.780817)

LINESTRING (683266.832636 7466812.585396, 683272.949011 7466810.118909, 683278.441799 7466808.689986, 683284.979482 7466808.809987, 683291.866705 7466810.675630, 683296.095794 7466812.496010, 683299.970061 7466815.516822, 683302.631924 7466819.250091, 683304.451304 7466822.893909, 683305.559781 7466827.144420, 683306.018107 7466831.934436, 683306.375720 7466836.880727, 683305.202032 7466843.318613, 683303.316767 7466850.307825)

LINESTRING (683266.832636 7466812.585396, 683289.530442 7466791.499524, 683312.586987 7466767.850876, 683325.189316 7466757.021344, 683372.382116 7466714.163016, 683418.514375 7466669.334930, 683476.890595 7466613.781032, 683491.466732 7466600.745529, 683498.045962 7466595.847836, 683505.187535 7466591.629970, 683514.172952 7466587.157110, 683524.256886 7466583.579062, 683533.315232 7466581.730138, 683545.520460 7466580.463169, 683556.918674 7466580.335677, 683574.926274 7466581.168892, 683582.308339 7466582.386016, 683583.830486 7466582.677616, 683591.173401 7466584.050265, 683601.952460 7466587.009190, 683610.526311 7466590.039227)

LINESTRING (683610.526311 7466590.039227, 683617.590836 7466592.987936, 683621.605814 7466594.921580, 683629.380232 7466598.869500)

LINESTRING (683586.198308 7466509.906516, 683575.291873 7466528.534814, 683565.434928 7466539.807446, 683555.102837 7466549.978320, 683482.586214 7466622.295140, 683414.477141 7466689.219742, 683400.579375 7466704.052184, 683389.613555 7466716.977283, 683377.322620 7466733.163513, 683366.885826 7466748.252916, 683357.794243 7466762.583933, 683352.820716 7466771.283016, 683347.402585 7466781.394052, 683340.412264 7466795.544487, 683330.394387 7466816.410047, 683319.334148 7466841.009532)

LINESTRING (683319.334148 7466841.009532, 683305.479746 7466887.328243, 683300.526050 7466907.811116, 683296.481535 7466925.425538, 683291.889802 7466939.380696, 683288.209231 7466948.938998, 683195.824885 7467163.446499, 683190.124840 7467176.562260)

LINESTRING (683779.164481 7465871.217813, 683778.688917 7465862.496282, 683776.524424 7465854.105423, 683772.255429 7465843.093195, 683756.971293 7465816.432801, 683744.197360 7465798.746039, 683729.694592 7465780.637302, 683716.156092 7465767.567143, 683701.749246 7465755.648296, 683675.148223 7465740.787838, 683659.671997 7465733.732940, 683637.844425 7465726.655629, 683626.841611 7465723.810250, 683619.425001 7465722.250267, 683609.811950 7465720.628399, 683582.763867 7465717.081080, 683536.516665 7465712.504619, 683442.601399 7465703.778332)

LINESTRING (683442.601399 7465703.778332, 683411.338949 7465704.656663, 683391.019401 7465705.988955, 683371.505142 7465707.732295, 683350.734138 7465710.753456, 683332.834282 7465715.323474, 683319.945810 7465719.411742, 683302.702823 7465725.690408, 683279.990123 7465736.111169, 683257.830397 7465749.825604, 683220.379032 7465777.591854)

LINESTRING (683777.143574 7465941.193887, 683778.350000 7465927.357249, 683780.687584 7465895.188325, 683780.226112 7465882.568124, 683779.164481 7465871.217813)

LINESTRING (683777.143574 7465941.193887, 683772.096273 7465927.776723, 683768.382787 7465921.940962, 683761.969754 7465915.174515, 683737.295442 7465900.157782, 683729.921472 7465893.679903, 683726.141860 7465888.310099, 683722.840701 7465879.257479, 683724.894645 7465823.778563, 683725.194061 7465814.659965, 683725.286044 7465811.258735, 683724.945930 7465808.604808, 683724.265523 7465805.811045, 683723.136562 7465803.255323, 683721.753827 7465800.924195, 683720.513623 7465799.344451, 683718.365794 7465797.377045, 683716.212156 7465795.775194, 683713.538016 7465794.401183, 683709.314263 7465793.001732, 683706.394168 7465792.494585, 683704.073260 7465792.323479, 683660.872697 7465790.246533, 683657.567623 7465790.142771, 683655.149114 7465790.382630, 683652.581305 7465791.000864, 683650.733496 7465791.765392, 683648.669157 7465793.285672, 683646.456710 7465796.125711, 683644.099408 7465799.709556)

LINESTRING (683644.099408 7465799.709556, 683642.751417 7465825.531344, 683640.797357 7465862.258573, 683639.674559 7465885.508155)

LINESTRING (683639.674559 7465885.508155, 683630.047587 7466084.326701)

LINESTRING (682596.877821 7467031.684178, 682564.981802 7466988.012689)

LINESTRING (682564.981802 7466988.012689, 682518.776030 7466931.102051)

LINESTRING (682418.067643 7467029.049621, 682493.054240 7466920.271279, 682500.869632 7466908.946583)

LINESTRING (682418.067643 7467029.049621, 682516.156389 7467134.607118, 682519.649527 7467138.363691)

LINESTRING (682500.869632 7466908.946583, 682488.604116 7466894.209759, 682459.616951 7466859.396312, 682449.978371 7466845.513734)

LINESTRING (682519.649527 7467138.363691, 682596.877821 7467031.684178)

LINESTRING (682333.671681 7466938.211300, 682449.978371 7466845.513734)

LINESTRING (682333.671681 7466938.211300, 682407.931227 7467018.130102, 682418.067643 7467029.049621)

LINESTRING (682449.978371 7466845.513734, 682391.950502 7466768.865649)

LINESTRING (683308.302022 7466156.338948, 683311.209129 7466149.857851, 683315.033569 7466141.183790)

LINESTRING (683308.302022 7466156.338948, 683264.551276 7466138.595998, 683221.862825 7466121.294120)

LINESTRING (683315.033569 7466141.183790, 683311.209129 7466149.857851, 683308.302022 7466156.338948)

LINESTRING (683315.033569 7466141.183790, 683366.503370 7466015.585512, 683374.485468 7465996.117925, 683401.810178 7465926.975378)

LINESTRING (683315.033569 7466141.183790, 683330.222791 7466147.400825, 683361.704639 7466160.286609, 683463.861101 7466203.567944, 683521.198302 7466228.144752, 683527.098119 7466230.675714)

LINESTRING (683221.862825 7466121.294120, 683217.129900 7466119.369097, 683184.061951 7466105.970664, 683120.390356 7466080.151546, 683107.522054 7466074.936156)

LINESTRING (683401.810178 7465926.975378, 683411.083841 7465904.036588)

LINESTRING (683401.810178 7465926.975378, 683500.026636 7465966.992731, 683534.064887 7465980.865987, 683560.452050 7465991.620389)

LINESTRING (683411.083841 7465904.036588, 683325.658911 7465869.622480)

LINESTRING (683411.083841 7465904.036588, 683415.850309 7465892.681905, 683449.325116 7465812.942998, 683488.487449 7465712.413014)

LINESTRING (683560.452050 7465991.620389, 683562.773541 7465930.246257, 683564.078679 7465907.636839, 683569.883274 7465790.987971)

LINESTRING (683107.522054 7466074.936156, 683110.322605 7466068.124138, 683114.336409 7466058.982678)

LINESTRING (683107.522054 7466074.936156, 683053.182326 7466052.902056, 683036.973268 7466046.331642)

LINESTRING (683545.251198 7466266.294560, 683547.611198 7466223.260624)

LINESTRING (683545.251198 7466266.294560, 683543.795996 7466263.067201, 683542.285703 7466260.372124, 683540.532424 7466257.945807, 683538.982011 7466256.170465, 683537.382457 7466254.572924, 683535.548291 7466253.088987, 683533.800237 7466251.936262, 683531.578112 7466250.612095, 683522.337548 7466245.895620)

LINESTRING (683547.611198 7466223.260624, 683552.008883 7466146.976119, 683554.329658 7466086.377281)

LINESTRING (683522.337548 7466245.895620, 683515.184667 7466242.416341, 683457.658022 7466218.295895, 683351.073163 7466173.672818, 683308.302022 7466156.338948)

LINESTRING (682768.027208 7465750.592683, 682937.698205 7465767.353918, 682954.226628 7465768.980988)

LINESTRING (682768.027208 7465750.592683, 682766.425433 7465768.288134, 682765.172784 7465785.159791, 682764.706778 7465790.736270)

LINESTRING (682954.226628 7465768.980988, 683023.501404 7465775.561508, 683087.424345 7465781.619648, 683175.062834 7465790.546169)

LINESTRING (682764.706778 7465790.736270, 682761.960503 7465809.663853, 682760.767126 7465817.873967)

LINESTRING (682728.924825 7466105.650319, 682742.460879 7466099.926700)

LINESTRING (682728.924825 7466105.650319, 682718.133343 7466074.493463, 682709.102018 7466041.255307, 682707.851021 7466032.842211, 682706.993565 7466022.187157, 682708.410280 7466013.774996)

LINESTRING (682742.460879 7466099.926700, 682728.924825 7466105.650319)

LINESTRING (682708.410280 7466013.774996, 682599.337779 7466028.650887)

LINESTRING (682708.410280 7466013.774996, 682712.068065 7466003.176040, 682724.656628 7465961.569120, 682726.306983 7465956.354865, 682727.940256 7465947.186963, 682727.995933 7465941.615455, 682727.311830 7465936.806017)

LINESTRING (682373.235177 7466163.267741, 682366.116763 7466173.653668, 682358.810253 7466193.101371, 682341.691816 7466251.386455)

LINESTRING (682373.235177 7466163.267741, 682391.565455 7466153.499461, 682473.936695 7466128.061025, 682500.057451 7466123.625279, 682518.067545 7466122.178183, 682608.884885 7466123.206280, 682632.232824 7466123.654786, 682664.278344 7466123.831884, 682677.399819 7466122.000743, 682694.148683 7466118.076776, 682717.686907 7466109.662675, 682728.924825 7466105.650319)

LINESTRING (682341.691816 7466251.386455, 682347.907913 7466255.486720, 682349.856032 7466260.469175, 682349.648191 7466266.197559, 682345.970671 7466277.738028, 682345.694854 7466282.935624, 682348.931321 7466290.095405, 682355.705959 7466297.112771, 682359.267175 7466299.727799, 682363.343404 7466300.808230, 682367.822370 7466301.252508, 682372.934774 7466299.773124, 682453.081389 7466265.933522, 682460.244196 7466263.465784, 682466.905874 7466262.831507, 682474.011376 7466264.960662, 682499.430003 7466291.543983, 682502.792758 7466294.715139, 682507.555784 7466297.437433, 682525.845307 7466302.111552, 682530.834474 7466303.169825, 682579.820985 7466313.564059, 682629.301217 7466324.051844, 682687.256627 7466332.831011, 682696.468381 7466336.883815, 682703.981151 7466341.289432)

LINESTRING (682341.691816 7466251.386455, 682358.810253 7466193.101371, 682366.116763 7466173.653668, 682373.235177 7466163.267741)

LINESTRING (682341.691816 7466251.386455, 682327.142553 7466301.522364, 682318.467889 7466327.487694)

LINESTRING (683355.452209 7465805.212383, 683325.658911 7465869.622480)

LINESTRING (683325.658911 7465869.622480, 683274.163092 7465994.744734, 683228.486873 7466105.730527)

LINESTRING (682759.244990 7466334.529154, 682729.146955 7466394.411675)

LINESTRING (682759.244990 7466334.529154, 682775.287642 7466340.902539)

LINESTRING (682759.244990 7466334.529154, 682715.357619 7466313.951029)

LINESTRING (682759.244990 7466334.529154, 682781.525528 7466266.279738)

LINESTRING (682729.146955 7466394.411675, 682759.244990 7466334.529154)

LINESTRING (682775.287642 7466340.902539, 682759.244990 7466334.529154)

LINESTRING (682715.357619 7466313.951029, 682703.981151 7466341.289432)

LINESTRING (682715.357619 7466313.951029, 682759.244990 7466334.529154)

LINESTRING (682715.357619 7466313.951029, 682727.359290 7466278.929922, 682728.350110 7466270.932700, 682727.016590 7466267.570901, 682724.288169 7466265.100928, 682700.075458 7466251.716089)

LINESTRING (682781.525528 7466266.279738, 682759.244990 7466334.529154)

LINESTRING (683616.815453 7466364.714048, 683615.988279 7466382.754638, 683614.810111 7466401.464013, 683614.612264 7466404.600719, 683613.428823 7466418.658546, 683612.665514 7466430.983522, 683612.459561 7466434.297531, 683612.024553 7466441.557118, 683611.733111 7466446.278725, 683611.505292 7466449.482247, 683609.383860 7466480.064696, 683609.840252 7466508.312140, 683610.966689 7466542.720355)

LINESTRING (683616.815453 7466364.714048, 683618.685600 7466369.154634, 683620.616003 7466371.800294, 683622.669271 7466373.580589, 683625.892375 7466374.527085, 683630.948099 7466375.141183, 683638.754760 7466375.843645, 683680.242624 7466377.853023, 683732.028001 7466380.357187, 683738.506390 7466380.677053, 683743.290802 7466380.917857, 683754.522423 7466381.445672)

LINESTRING (683610.966689 7466542.720355, 683609.624165 7466558.042693, 683607.637850 7466569.363614, 683607.083908 7466571.906585, 683607.685810 7466581.745173, 683610.526311 7466590.039227)

LINESTRING (683610.966689 7466542.720355, 683621.660558 7466554.706639, 683640.541413 7466584.313762, 683646.263295 7466593.292657, 683651.094215 7466608.318405)

LINESTRING (683754.522423 7466381.445672, 683761.298463 7466381.772981, 683764.440196 7466381.934095, 683771.503630 7466382.268977)

LINESTRING (683754.522423 7466381.445672, 683755.300981 7466362.796512, 683760.255232 7466248.018526, 683762.784828 7466189.465981, 683763.177120 7466180.390556, 683767.864849 7466079.138690, 683771.407131 7466002.642923)

LINESTRING (682726.386784 7465802.762770, 682761.538105 7465791.727109, 682764.706778 7465790.736270)

LINESTRING (682726.386784 7465802.762770, 682757.311541 7465816.354203, 682760.767126 7465817.873967)

LINESTRING (682760.767126 7465817.873967, 682751.100003 7465866.013175, 682750.062916 7465871.031731, 682749.620976 7465874.359648, 682749.674407 7465877.925222, 682750.170643 7465880.776620, 682750.912957 7465883.613964, 682752.492331 7465887.792350, 682754.668191 7465892.085341)

LINESTRING (682754.668191 7465892.085341, 682756.932967 7465893.553074, 682759.150472 7465895.353635, 682760.760162 7465896.951127, 682762.550955 7465899.100187, 682764.097549 7465901.418332, 682765.568643 7465904.280076, 682766.076485 7465905.547577, 682766.672298 7465907.301323, 682767.465439 7465910.946542)

LINESTRING (682767.465439 7465910.946542, 682767.741817 7465915.129629, 682767.604359 7465917.335262, 682767.301553 7465919.443220, 682766.538373 7465922.509222, 682765.414659 7465925.457762, 682763.466953 7465928.992190, 682761.892455 7465931.148772)

LINESTRING (682767.465439 7465910.946542, 682774.271113 7465915.438199, 682778.447184 7465917.990307, 682784.387772 7465920.521047, 682792.593080 7465923.666721, 682905.145222 7465971.632338, 682933.053977 7465983.532259, 683009.400576 7466015.622078, 683033.708205 7466025.837749, 683045.846577 7466030.940220)

LINESTRING (682761.892455 7465931.148772, 682760.009253 7465933.231564, 682757.653877 7465935.297924, 682755.048936 7465937.090423, 682752.296081 7465938.530307, 682749.375196 7465939.651042)

LINESTRING (683045.846577 7466030.940220, 683041.021805 7466039.205475, 683036.973268 7466046.331642)

LINESTRING (683045.846577 7466030.940220, 683059.767268 7466036.641281, 683081.493856 7466045.537001, 683114.336409 7466058.982678)

LINESTRING (682498.795678 7465938.640342, 682498.829868 7465935.527796, 682498.855054 7465933.367827, 682499.746648 7465929.037717, 682499.921131 7465928.193892, 682500.904485 7465925.512878)

LINESTRING (682500.904485 7465925.512878, 682504.719442 7465910.083292, 682505.710088 7465904.611237)

LINESTRING (682500.904485 7465925.512878, 682503.575084 7465920.662874, 682508.556939 7465915.186862, 682514.808574 7465911.201722, 682518.311674 7465909.863563, 682521.902736 7465909.011649, 682529.338487 7465908.766679)

LINESTRING (682522.048681 7465899.020048, 682524.354811 7465903.909553, 682529.338487 7465908.766679)

LINESTRING (682522.048681 7465899.020048, 682520.357342 7465901.698550, 682518.198465 7465903.895396, 682515.770531 7465905.054426, 682512.465243 7465905.781056, 682509.367223 7465905.829591, 682505.710088 7465904.611237)

LINESTRING (682529.338487 7465908.766679, 682533.430727 7465909.481380, 682536.561854 7465910.473509, 682540.793405 7465912.526625, 682543.938596 7465914.681479, 682547.301285 7465917.852621, 682550.022224 7465921.408081)

LINESTRING (682550.022224 7465921.408081, 682558.839653 7465924.269595, 682567.728521 7465925.402507, 682581.370269 7465924.185355, 682604.971250 7465921.828789, 682640.244546 7465918.300960, 682652.066591 7465916.784580, 682688.233668 7465912.503782, 682698.961634 7465911.299637, 682704.220451 7465910.062011, 682707.346240 7465908.916653, 682710.169698 7465907.376246, 682713.538016 7465905.076128, 682718.837140 7465901.235332)

LINESTRING (682550.022224 7465921.408081, 682552.439203 7465926.130113, 682553.644520 7465929.925407, 682554.263879 7465933.628111, 682554.372574 7465937.525269, 682553.936213 7465941.318268, 682551.490274 7465948.624261)

LINESTRING (682718.837140 7465901.235332, 682720.086576 7465899.348495, 682721.552251 7465897.525492, 682723.203656 7465895.788842, 682725.478702 7465893.867438, 682727.951748 7465892.198367, 682730.653973 7465890.814477, 682732.992511 7465889.900148, 682736.500685 7465888.982734, 682739.307437 7465888.605421, 682742.158979 7465888.537672, 682748.645280 7465889.533437, 682754.668191 7465892.085341)

LINESTRING (682551.490274 7465948.624261, 682548.984844 7465952.708087, 682545.827079 7465956.301418, 682542.087453 7465959.292648, 682537.888134 7465961.602774, 682531.642485 7465963.538937, 682528.610156 7465963.930012, 682523.047326 7465963.786851, 682519.097758 7465962.992893, 682514.480379 7465961.276693, 682510.460639 7465958.921978, 682506.832694 7465955.875862, 682503.720185 7465952.181152)

LINESTRING (682503.720185 7465952.181152, 682492.886551 7465951.437195, 682489.836468 7465951.208266, 682486.005778 7465950.911247, 682468.105560 7465950.396683)

LINESTRING (682503.720185 7465952.181152, 682501.825447 7465949.069778, 682500.358903 7465945.731723, 682499.493530 7465942.895858, 682498.795678 7465938.640342)

LINESTRING (682468.105560 7465950.396683, 682351.464966 7465976.614688)

LINESTRING (682468.105560 7465950.396683, 682483.025652 7465946.284616, 682486.869848 7465945.152770, 682488.802070 7465944.575650, 682493.117317 7465942.518866, 682498.795678 7465938.640342)

LINESTRING (682518.776030 7466931.102051, 682513.435018 7466924.720844, 682500.869632 7466908.946583)

LINESTRING (682638.069107 7466636.632044, 682672.478016 7466654.811057, 682676.948565 7466657.093839)

LINESTRING (682638.069107 7466636.632044, 682649.231062 7466638.180453, 682657.749760 7466638.365356, 682663.551967 7466637.918606, 682668.994830 7466637.454051, 682678.154391 7466635.482599)

LINESTRING (682676.948565 7466657.093839, 682696.578924 7466680.955974, 682698.242832 7466685.332697, 682701.684039 7466694.129073, 682703.086799 7466702.363128, 682706.489940 7466760.588608, 682707.158661 7466768.366386)

LINESTRING (682676.948565 7466657.093839, 682724.981833 7466681.033135, 682732.439041 7466686.768448, 682740.475260 7466693.715022, 682745.453995 7466701.529239, 682748.617903 7466709.454021, 682750.519584 7466716.519138, 682751.199149 7466720.952072, 682751.982221 7466728.850293)

LINESTRING (682676.948565 7466657.093839, 682717.242811 7466667.271704, 682737.480699 7466674.347499, 682748.856851 7466678.329792)

LINESTRING (682678.154391 7466635.482599, 682683.540483 7466632.870135, 682686.929170 7466629.694851, 682690.219224 7466626.000225, 682693.602432 7466620.676415, 682760.700231 7466508.990446)

LINESTRING (682678.154391 7466635.482599, 682688.043606 7466642.085598, 682701.148932 7466650.753965, 682748.856851 7466678.329792)

LINESTRING (682358.674197 7466536.057360, 682407.094895 7466543.734539, 682481.045404 7466560.838125, 682501.079030 7466565.469068, 682538.738142 7466578.381581, 682625.838333 7466620.521587, 682639.869019 7466624.261420, 682653.748013 7466624.791266, 682670.215394 7466622.997217, 682682.930919 7466618.955977, 682695.025806 7466612.806871, 682703.938374 7466605.688419, 682713.631667 7466596.101818)

LINESTRING (682358.674197 7466536.057360, 682386.444814 7466546.675277, 682481.367428 7466570.502878, 682486.941991 7466571.598397, 682528.875816 7466583.329598, 682530.895867 7466584.069366, 682566.673581 7466600.914105, 682606.424906 7466619.671019, 682631.813132 7466633.495907, 682631.978352 7466633.582510, 682638.069107 7466636.632044)

LINESTRING (682970.155518 7466416.965723, 682964.682854 7466412.424754, 682956.525221 7466404.770956, 682951.429531 7466399.162192, 682948.465685 7466395.897692, 682940.856756 7466386.952512, 682933.925878 7466378.076639, 682925.928048 7466367.519183, 682910.200642 7466348.217346, 682903.408265 7466339.760643, 682899.480614 7466334.857603)

LINESTRING (682970.155518 7466416.965723, 682965.839556 7466424.050797, 682897.505890 7466536.051842)

LINESTRING (682899.480614 7466334.857603, 682895.855041 7466330.327459, 682892.107229 7466325.023531, 682890.966182 7466323.154567, 682889.709871 7466321.087644, 682886.790437 7466316.404967, 682882.372227 7466308.273901, 682878.786756 7466301.971234)

LINESTRING (682899.480614 7466334.857603, 682899.719043 7466332.517842, 682900.244727 7466330.174601, 682901.082880 7466328.215208, 682902.916298 7466326.254831, 682905.118980 7466325.131698, 682907.442965 7466324.704833, 682910.007202 7466324.629465, 682912.391471 7466324.943909)

LINESTRING (682897.505890 7466536.051842, 682881.116447 7466562.908424)

LINESTRING (682794.490354 7466704.900601, 682786.969665 7466715.114388)

LINESTRING (682794.490354 7466704.900601, 682802.559212 7466709.454505, 682819.076662 7466721.957793, 682861.690751 7466754.213335, 682864.507589 7466756.349964)

LINESTRING (682786.969665 7466715.114388, 682745.032584 7466773.534267)

LINESTRING (682786.969665 7466715.114388, 682769.673705 7466751.883024, 682769.869973 7466751.991400)

LINESTRING (682786.969665 7466715.114388, 682764.272898 7466724.459726, 682759.723701 7466725.854890, 682755.943821 7466727.229665, 682751.982221 7466728.850293)

LINESTRING (682864.507589 7466756.349964, 682926.642637 7466803.375839)

LINESTRING (682749.375196 7465939.651042, 682762.801761 7465983.368497)

LINESTRING (682749.375196 7465939.651042, 682746.255237 7465940.430856, 682741.407505 7465940.877179, 682737.494737 7465940.581218, 682733.203937 7465939.569943, 682730.049052 7465938.312335, 682727.311830 7465936.806017)

LINESTRING (683228.486873 7466105.730527, 683270.909499 7466123.113137, 683315.033569 7466141.183790)

LINESTRING (682727.311830 7465936.806017, 682724.548059 7465934.801634, 682722.088166 7465932.472391, 682719.973990 7465929.884233, 682718.562374 7465927.697353)

LINESTRING (682718.562374 7465927.697353, 682713.237584 7465926.875792, 682706.917824 7465926.077349, 682702.770850 7465925.928192, 682698.986823 7465926.095822, 682688.502645 7465927.097660, 682650.748767 7465931.674539, 682639.619083 7465932.750605, 682606.322088 7465935.955491, 682582.586916 7465938.247229, 682573.223216 7465939.423711, 682564.845756 7465941.551802, 682558.855973 7465944.282298, 682551.490274 7465948.624261)

LINESTRING (682718.562374 7465927.697353, 682717.269306 7465925.132480, 682716.155134 7465922.089207, 682715.429322 7465918.919406, 682715.102666 7465915.667246, 682715.186093 7465912.387972, 682715.545365 7465909.858473, 682716.121278 7465907.426029, 682716.904377 7465905.157205, 682717.823253 7465903.086092, 682718.837140 7465901.235332)

LINESTRING (683527.098119 7466230.675714, 683529.162990 7466231.724911, 683530.251634 7466232.653073, 683531.147376 7466233.749710, 683532.093444 7466235.609927, 683532.518588 7466237.664757, 683532.380291 7466239.792888, 683531.686390 7466241.794871, 683530.405567 7466243.626786, 683529.258543 7466244.648579, 683527.934153 7466245.428873, 683526.411879 7466245.967917, 683524.813887 7466246.186698, 683522.337548 7466245.895620)

LINESTRING (683527.098119 7466230.675714, 683529.451886 7466231.012582, 683530.930133 7466231.072138, 683532.345479 7466231.021705, 683533.585479 7466230.895877, 683534.773780 7466230.737451, 683536.094506 7466230.499889, 683537.484891 7466230.084276, 683538.781060 7466229.514754, 683540.370299 7466228.576185, 683542.324555 7466227.278770, 683544.205651 7466225.871491, 683547.611198 7466223.260624)

LINESTRING (682351.464966 7465976.614688, 682468.105560 7465950.396683)

LINESTRING (682351.464966 7465976.614688, 682349.031475 7466030.823938, 682348.773288 7466036.630459, 682347.343525 7466068.610740)

LINESTRING (683554.329658 7466086.377281, 683560.480292 7465999.848968, 683560.452050 7465991.620389)

LINESTRING (683554.329658 7466086.377281, 683562.571032 7466057.027290, 683574.994256 7466002.851064)

LINESTRING (682585.768487 7466585.609856, 682612.084123 7466599.766888, 682650.566151 7466620.466127, 682657.616434 7466624.799844, 682678.154391 7466635.482599)

LINESTRING (682751.982221 7466728.850293, 682751.755500 7466738.942553, 682749.977723 7466750.593038, 682745.032584 7466773.534267)

LINESTRING (682751.982221 7466728.850293, 682737.023909 7466732.409268, 682727.450805 7466737.520040, 682718.816163 7466745.565453, 682712.671767 7466755.895445, 682707.158661 7466768.366386)

LINESTRING (682745.032584 7466773.534267, 682713.676622 7466835.547239, 682698.412773 7466866.443466, 682628.699063 7466982.612813)

LINESTRING (682707.158661 7466768.366386, 682706.507733 7466783.259338, 682703.474860 7466799.731639, 682696.916182 7466819.923567, 682682.472582 7466847.376540, 682654.110267 7466901.578343, 682633.498054 7466929.748228, 682620.579323 7466942.463740, 682610.635601 7466949.184808, 682598.212214 7466952.801572, 682587.465205 7466953.341301, 682576.442598 7466950.606098, 682562.597986 7466943.607828, 682544.597911 7466929.837460, 682527.096513 7466912.328706, 682502.136516 7466887.268197, 682489.200717 7466875.651604, 682473.141163 7466861.968462, 682466.812297 7466857.050028, 682449.978371 7466845.513734)

LINESTRING (682769.869973 7466751.991400, 682712.732915 7466851.684156)

LINESTRING (682313.559621 7466502.213744, 682318.686438 7466508.719421, 682324.959690 7466516.695326, 682331.291715 7466521.890647, 682339.107413 7466525.894078, 682358.674197 7466536.057360)

LINESTRING (682313.559621 7466502.213744, 682319.372911 7466503.539019, 682330.065411 7466507.009330, 682336.994588 7466508.974558, 682344.929301 7466510.938714, 682387.068149 7466520.131592, 682395.962477 7466519.990919, 682399.789201 7466520.797479, 682405.487383 7466521.935833, 682410.907223 7466525.514091, 682442.631323 7466532.141373, 682447.774713 7466533.219965, 682488.293239 7466541.623662, 682501.374071 7466544.887787, 682506.151619 7466546.258737, 682512.792915 7466548.171992, 682518.183925 7466550.211110, 682536.468326 7466557.831304, 682541.452187 7466560.141142, 682554.179668 7466567.274740, 682559.852562 7466570.561933, 682585.768487 7466585.609856)

LINESTRING (682313.559621 7466502.213744, 682335.471585 7466515.405485, 682342.947084 7466518.427331, 682349.918241 7466520.469573, 682500.193805 7466555.899723, 682534.730237 7466566.834303, 682537.769967 7466567.893998, 682585.768487 7466585.609856)

LINESTRING (682748.856851 7466678.329792, 682777.145806 7466696.117496, 682781.471280 7466698.280177, 682794.490354 7466704.900601)

LINESTRING (683400.992539 7465707.695186, 683368.302285 7465777.689312, 683355.452209 7465805.212383)

LINESTRING (683400.992539 7465707.695186, 683380.980075 7465708.968356, 683358.934974 7465711.838881, 683341.362355 7465715.474611, 683325.046770 7465720.390858, 683304.834810 7465727.203975, 683280.757124 7465738.438734, 683255.220138 7465754.553204, 683227.675808 7465775.199623, 683216.930588 7465783.426070)

LINESTRING (683216.930588 7465783.426070, 683203.276986 7465794.644903)

LINESTRING (683216.930588 7465783.426070, 683215.958795 7465787.048398, 683215.985184 7465788.377107, 683216.291920 7465789.979295, 683217.224843 7465791.607107, 683218.920140 7465793.491470)

LINESTRING (683488.487449 7465712.413014, 683446.310774 7465710.134748, 683400.992539 7465707.695186)

LINESTRING (683284.611636 7466581.550519, 683290.855253 7466586.192778, 683291.492319 7466587.957083, 683291.996687 7466589.778375, 683292.149954 7466591.415650, 683291.803203 7466593.280500, 683291.030848 7466594.740733, 683289.859186 7466596.272265, 683288.538517 7466597.362596, 683286.721235 7466598.115622, 683281.025803 7466598.904651, 683278.766606 7466598.754871)

LINESTRING (683284.611636 7466581.550519, 683302.187525 7466589.931539, 683306.655250 7466591.128801, 683311.630522 7466592.718608, 683316.363377 7466593.779745, 683322.122700 7466594.872719, 683327.859085 7466595.766615, 683332.123282 7466596.257525, 683335.336594 7466596.395712, 683342.626075 7466596.750207, 683351.729531 7466597.769335)

LINESTRING (683278.766606 7466598.754871, 683154.122948 7466527.237284, 683130.787667 7466513.510174, 683110.191002 7466501.388951)

LINESTRING (683351.729531 7466597.769335, 683351.425635 7466595.557977, 683351.136649 7466592.039558, 683350.970758 7466585.983413, 683351.212028 7466582.192749, 683351.674873 7466577.214343, 683352.579135 7466572.252727, 683354.453130 7466565.186113, 683356.589023 7466557.717609, 683360.280653 7466550.772898, 683364.764453 7466545.690282, 683520.827432 7466401.897930, 683523.861407 7466399.103309, 683532.374918 7466390.427566, 683535.959036 7466385.621633, 683538.392913 7466380.730005, 683539.765356 7466376.305367, 683541.552796 7466370.568802, 683542.094921 7466361.989960, 683545.251198 7466266.294560)

LINESTRING (683036.973268 7466046.331642, 682970.511412 7466157.646037)

LINESTRING (683036.973268 7466046.331642, 683026.222794 7466041.455990, 682963.661756 7466015.788916, 682887.510397 7465984.560376, 682852.020646 7465969.385342, 682787.734889 7465941.888917, 682779.597362 7465938.410162, 682761.892455 7465931.148772)

LINESTRING (682970.511412 7466157.646037, 683033.828851 7466193.183063)

LINESTRING (682970.511412 7466157.646037, 682909.696262 7466121.978772)

LINESTRING (682970.511412 7466157.646037, 682895.334767 7466283.995031, 682892.297972 7466289.104274)

LINESTRING (682874.719777 7466294.035265, 682870.979493 7466289.351454, 682805.524783 7466209.494455, 682775.333752 7466173.522237, 682728.924825 7466105.650319)

LINESTRING (683036.713543 7466624.085271, 682897.505890 7466536.051842)

LINESTRING (683036.713543 7466624.085271, 683103.714330 7466512.210475, 683110.191002 7466501.388951)

LINESTRING (683110.191002 7466501.388951, 683096.795940 7466493.377881)

LINESTRING (683110.191002 7466501.388951, 683113.051116 7466497.788038, 683116.006599 7466495.282415, 683119.924918 7466493.485004, 683123.751659 7466492.596872, 683128.007757 7466492.423421, 683133.538416 7466492.433864)

LINESTRING (683203.276986 7465794.644903, 683179.270980 7465820.254283)

LINESTRING (683203.276986 7465794.644903, 683186.918046 7465792.617336)

LINESTRING (683203.276986 7465794.644903, 683218.920140 7465793.491470)

LINESTRING (683179.270980 7465820.254283, 683045.846577 7466030.940220)

LINESTRING (683186.918046 7465792.617336, 683179.270980 7465820.254283)

LINESTRING (683186.918046 7465792.617336, 683203.276986 7465794.644903)

LINESTRING (683186.918046 7465792.617336, 683175.062834 7465790.546169)

LINESTRING (683218.920140 7465793.491470, 683355.452209 7465805.212383)

LINESTRING (682760.700231 7466508.990446, 682772.041245 7466489.737342)

LINESTRING (682760.700231 7466508.990446, 682722.443017 7466485.663949, 682714.934700 7466485.023854, 682653.224018 7466493.268469, 682649.185991 7466492.807861, 682643.762996 7466490.669500, 682627.028860 7466475.488470, 682624.482756 7466471.975203)

LINESTRING (682772.041245 7466489.737342, 682881.116447 7466562.908424)

LINESTRING (682772.041245 7466489.737342, 682828.918116 7466394.986875)

LINESTRING (682624.482756 7466471.975203, 682747.202986 7466435.725170)

LINESTRING (682624.482756 7466471.975203, 682627.028860 7466475.488470, 682643.762996 7466490.669500, 682649.185991 7466492.807861, 682653.224018 7466493.268469, 682714.934700 7466485.023854, 682722.443017 7466485.663949, 682760.700231 7466508.990446)

LINESTRING (682624.482756 7466471.975203, 682622.575158 7466466.959059, 682621.737328 7466462.162555, 682620.126427 7466444.350961, 682620.603457 7466438.829739, 682622.295999 7466435.398102, 682684.234843 7466379.040126, 682691.447412 7466371.355254, 682695.511289 7466364.627724, 682703.981151 7466341.289432)

LINESTRING (682747.202986 7466435.725170, 682624.482756 7466471.975203)

LINESTRING (682703.981151 7466341.289432, 682715.357619 7466313.951029)

LINESTRING (682703.981151 7466341.289432, 682696.468381 7466336.883815, 682687.256627 7466332.831011, 682629.301217 7466324.051844, 682579.820985 7466313.564059, 682530.834474 7466303.169825, 682525.845307 7466302.111552, 682507.555784 7466297.437433, 682502.792758 7466294.715139, 682499.430003 7466291.543983, 682474.011376 7466264.960662, 682466.905874 7466262.831507, 682460.244196 7466263.465784, 682453.081389 7466265.933522, 682372.934774 7466299.773124, 682367.822370 7466301.252508, 682363.343404 7466300.808230, 682359.267175 7466299.727799, 682355.705959 7466297.112771, 682348.931321 7466290.095405, 682345.694854 7466282.935624, 682345.970671 7466277.738028, 682349.648191 7466266.197559, 682349.856032 7466260.469175, 682347.907913 7466255.486720, 682341.691816 7466251.386455)

LINESTRING (682703.981151 7466341.289432, 682695.511289 7466364.627724, 682691.447412 7466371.355254, 682684.234843 7466379.040126, 682622.295999 7466435.398102, 682620.603457 7466438.829739, 682620.126427 7466444.350961, 682621.737328 7466462.162555, 682622.575158 7466466.959059, 682624.482756 7466471.975203)

LINESTRING (683033.828851 7466193.183063, 682970.511412 7466157.646037)

LINESTRING (682946.059098 7466818.003552, 683022.719898 7466876.526362)

LINESTRING (682946.059098 7466818.003552, 682938.840844 7466824.381727, 682934.914586 7466829.767549, 682932.925284 7466835.805492, 682931.913783 7466842.939111)

LINESTRING (683022.719898 7466876.526362, 683013.811901 7466889.105028)

LINESTRING (683022.719898 7466876.526362, 683043.868542 7466892.672424, 683044.666039 7466893.282970, 683045.574067 7466902.165367)

LINESTRING (682931.913783 7466842.939111, 682914.175576 7466833.020168)

LINESTRING (682881.116447 7466562.908424, 682861.889754 7466594.417711, 682802.227227 7466692.203344, 682800.386099 7466695.227016, 682798.666742 7466698.138462, 682794.490354 7466704.900601)

LINESTRING (682828.918116 7466394.986875, 682871.270798 7466321.023058, 682874.606258 7466315.157088, 682876.823481 7466310.999171, 682878.471490 7466306.438367, 682878.786756 7466301.971234)

LINESTRING (682828.918116 7466394.986875, 682824.558856 7466392.569892, 682789.534568 7466370.145820, 682788.529109 7466369.305202, 682787.932809 7466368.359953, 682787.893317 7466367.640543)

LINESTRING (683175.062834 7465790.546169, 683186.918046 7465792.617336)

LINESTRING (682926.642637 7466803.375839, 682946.059098 7466818.003552)

LINESTRING (682926.642637 7466803.375839, 682967.223988 7466737.274558, 682985.829230 7466706.979870, 682992.691504 7466695.788257, 683011.799672 7466664.667865, 683019.064629 7466652.840068, 683036.713543 7466624.085271)

LINESTRING (682712.732915 7466851.684156, 682792.502270 7466893.280766, 682828.703267 7466911.947247)

LINESTRING (682712.732915 7466851.684156, 682636.090777 7466976.985819, 682629.651348 7466984.993539, 682617.922730 7466994.305641, 682608.064458 7466997.913540, 682594.383641 7466999.374764, 682580.659395 7466996.395348, 682564.981802 7466988.012689)

LINESTRING (682843.355288 7466793.253996, 682769.869973 7466751.991400)

LINESTRING (682843.355288 7466793.253996, 682864.507589 7466756.349964)

LINESTRING (682914.175576 7466833.020168, 682879.731211 7466813.668108)

LINESTRING (682914.175576 7466833.020168, 682920.113297 7466828.507078, 682924.583309 7466823.114674, 682927.605461 7466816.787339, 682926.642637 7466803.375839)

LINESTRING (683109.852370 7466988.758530, 683114.905910 7466975.639560, 683123.811335 7466954.388962, 683130.315766 7466939.070570, 683134.180458 7466931.149214, 683139.162680 7466922.306135, 683145.231194 7466913.350202, 683151.659321 7466904.434206, 683159.512972 7466895.456614, 683172.070716 7466884.317662, 683191.715084 7466867.798767, 683243.511680 7466830.522347, 683257.828110 7466819.727455, 683260.877049 7466817.309276, 683266.832636 7466812.585396)

LINESTRING (682828.703267 7466911.947247, 682789.248359 7466995.754753, 682755.460050 7467070.478323, 682743.967304 7467095.891014, 682727.129435 7467140.041157)

LINESTRING (682727.129435 7467140.041157, 682720.242736 7467172.995677)

LINESTRING (682727.129435 7467140.041157, 682723.807760 7467142.827996, 682720.068865 7467145.055048, 682716.024669 7467146.643431, 682712.289545 7467147.486035, 682708.465913 7467147.798099, 682704.635717 7467147.567556)

LINESTRING (683114.336409 7466058.982678, 683110.322605 7466068.124138, 683107.522054 7466074.936156)

LINESTRING (683114.336409 7466058.982678, 683131.072218 7466065.834577, 683180.918935 7466086.250572, 683224.052940 7466103.923705)

LINESTRING (683133.538416 7466492.433864, 683141.226348 7466496.881455, 683142.900431 7466497.857919, 683164.238742 7466510.213757, 683216.687284 7466541.983525, 683284.611636 7466581.550519)

LINESTRING (683573.909342 7465723.833943, 683574.510810 7465709.174045)

LINESTRING (683573.909342 7465723.833943, 683571.122675 7465721.641708, 683569.004823 7465720.449187, 683566.470135 7465719.571843, 683562.396776 7465718.724288, 683544.875751 7465717.320384)

LINESTRING (683544.875751 7465717.320384, 683488.487449 7465712.413014)

LINESTRING (682720.242736 7467172.995677, 682704.635717 7467147.567556)

LINESTRING (682704.635717 7467147.567556, 682691.245142 7467133.165661, 682658.507091 7467097.965973, 682650.241951 7467089.072878, 682606.442350 7467041.968136, 682596.877821 7467031.684178)

LINESTRING (682909.696262 7466121.978772, 682970.511412 7466157.646037)

LINESTRING (682892.297972 7466289.104274, 682889.845730 7466291.648058, 682887.545022 7466293.148934, 682884.717479 7466294.357162, 682881.521210 7466294.772440, 682878.422567 7466294.776751, 682874.719777 7466294.035265)

LINESTRING (682892.297972 7466289.104274, 682892.383745 7466291.949567, 682892.593630 7466294.029166, 682893.007891 7466296.039838, 682893.458359 7466297.651363, 682895.829704 7466302.827989, 682897.299246 7466305.556840, 682899.193570 7466308.623878, 682902.008198 7466312.277827, 682904.226656 7466314.997605, 682908.278486 7466319.987741, 682912.391471 7466324.943909)

LINESTRING (682700.075458 7466251.716089, 682724.288169 7466265.100928, 682727.016590 7466267.570901, 682728.350110 7466270.932700, 682727.359290 7466278.929922, 682715.357619 7466313.951029)

LINESTRING (682879.731211 7466813.668108, 682843.355288 7466793.253996)

LINESTRING (682879.731211 7466813.668108, 682828.703267 7466911.947247)

LINESTRING (682347.343525 7466068.610740, 682342.258093 7466130.925830)

LINESTRING (682347.343525 7466068.610740, 682509.627638 7466041.076839, 682510.979133 7466040.838994, 682531.910395 7466037.451618, 682534.707052 7466037.085543, 682599.337779 7466028.650887)

LINESTRING (682599.337779 7466028.650887, 682708.410280 7466013.774996)

LINESTRING (682599.337779 7466028.650887, 682604.223506 7466083.081812)

LINESTRING (682599.337779 7466028.650887, 682534.707052 7466037.085543, 682531.910395 7466037.451618, 682510.979133 7466040.838994, 682509.627638 7466041.076839, 682347.343525 7466068.610740)

LINESTRING (682604.223506 7466083.081812, 682599.337779 7466028.650887)

LINESTRING (682342.258093 7466130.925830, 682373.235177 7466163.267741)

LINESTRING (682311.506367 7466348.326667, 682318.467889 7466327.487694)

LINESTRING (682311.506367 7466348.326667, 682374.793763 7466381.463430)

LINESTRING (682318.467889 7466327.487694, 682311.506367 7466348.326667)

LINESTRING (682318.467889 7466327.487694, 682327.142553 7466301.522364, 682341.691816 7466251.386455)

LINESTRING (682374.793763 7466381.463430, 682311.506367 7466348.326667)

LINESTRING (683527.619164 7466535.194698, 683540.316630 7466506.898117, 683546.614778 7466489.012536, 683551.651595 7466466.125193, 683553.741523 7466444.757760, 683555.564543 7466407.345518, 683565.192935 7466182.356327, 683567.580616 7466122.199682, 683571.412090 7466075.304717, 683574.994256 7466002.851064)

LINESTRING (683574.994256 7466002.851064, 683578.543671 7465931.084465, 683580.263703 7465894.504085)

LINESTRING (683760.396771 7466438.356447, 683750.307105 7466424.590860, 683747.966438 7466421.961283, 683746.021957 7466419.847422, 683744.081519 7466418.065769, 683741.201430 7466415.797164, 683739.392055 7466414.667357, 683736.987512 7466413.533717, 683734.392358 7466412.756806, 683731.933808 7466412.244038, 683729.189752 7466411.878722, 683724.054092 7466411.442833, 683712.768731 7466410.716292, 683697.266845 7466410.041049, 683684.496465 7466409.542986, 683676.524133 7466409.562454, 683670.965405 7466409.774059, 683665.351319 7466410.495799, 683657.658367 7466412.394653, 683654.888096 7466413.247922, 683649.925703 7466415.246459, 683646.192930 7466417.108209, 683641.681379 7466419.898678, 683637.887161 7466422.613968, 683634.870890 7466425.175816, 683632.418874 7466427.730801, 683628.172909 7466432.954593, 683625.603818 7466436.851107, 683621.679473 7466444.053457, 683615.836865 7466458.046122, 683611.208187 7466468.081226, 683603.997824 7466482.666431, 683595.670425 7466496.523173, 683586.198308 7466509.906516)

LINESTRING (683760.396771 7466438.356447, 683754.212650 7466415.849237, 683753.660819 7466408.446597, 683753.560312 7466405.247067, 683753.750837 7466402.354102, 683753.705297 7466397.769494, 683754.274221 7466386.343963, 683754.522423 7466381.445672)

LINESTRING (683647.620715 7465707.963440, 683644.099408 7465799.709556)

LINESTRING (683647.620715 7465707.963440, 683653.834458 7465736.306986, 683656.480088 7465744.614475, 683660.695074 7465751.197275, 683667.731065 7465758.576391, 683675.101577 7465764.777453, 683689.765783 7465771.709318, 683718.388988 7465783.266859, 683723.871154 7465786.899270, 683729.108688 7465793.192725, 683732.196629 7465798.216538, 683734.762277 7465805.849399, 683735.644636 7465815.961462, 683734.047663 7465871.047186, 683735.744123 7465880.606650, 683739.604581 7465886.717512, 683743.981260 7465890.562731, 683749.038153 7465892.970958, 683754.660118 7465893.755313, 683759.483256 7465893.818423, 683763.896188 7465893.055880, 683768.343292 7465890.886359, 683772.565129 7465887.069362, 683775.874490 7465881.624333, 683779.164481 7465871.217813)

LINESTRING (683771.407131 7466002.642923, 683772.242967 7465984.491441, 683772.545442 7465977.310978, 683774.268525 7465959.558478)

LINESTRING (683771.407131 7466002.642923, 683773.260258 7465999.785091, 683774.678697 7465999.147606, 683776.718885 7465998.170293, 683779.462476 7465997.660653, 683781.770866 7465997.643623, 683784.314390 7465998.398999, 683786.550405 7466000.021991, 683787.828431 7466001.335464, 683788.319487 7466002.902174, 683789.454257 7466006.775781)

LINESTRING (682969.261344 7466392.289882, 682971.483479 7466398.697657, 682972.197758 7466401.756838, 682972.542708 7466404.820495, 682972.485270 7466407.700750, 682972.184430 7466410.816534, 682971.479054 7466413.571739, 682970.155518 7466416.965723)

LINESTRING (682969.261344 7466392.289882, 682974.285821 7466397.102087, 682977.612694 7466399.841648, 682980.750341 7466402.206943)

LINESTRING (682980.750341 7466402.206943, 682988.553655 7466407.716429, 682992.969211 7466410.542468, 682996.878715 7466413.097760, 682998.584362 7466414.140307, 683003.669990 7466417.224027, 683027.591382 7466431.077111, 683061.277702 7466450.581956, 683086.583874 7466465.237731, 683101.215920 7466473.721117, 683102.993261 7466474.751709)

LINESTRING (682980.750341 7466402.206943, 682984.912477 7466395.976521, 683051.701639 7466314.948961, 683076.849933 7466284.452923, 683086.081902 7466273.243579, 683090.732140 7466276.808783)

LINESTRING (682762.801761 7465983.368497, 682749.375196 7465939.651042)

LINESTRING (683648.384497 7465693.157579, 683647.620715 7465707.963440)

LINESTRING (683569.883274 7465790.987971, 683570.476402 7465780.702907, 683572.916266 7465739.196346, 683573.909342 7465723.833943)

LINESTRING (683092.489489 7466932.806585, 683122.687191 7466885.381774, 683151.602251 7466855.737111, 683211.262589 7466809.472009, 683288.432718 7466749.249734, 683300.130417 7466734.056483, 683309.923434 7466720.027095, 683319.505371 7466704.671232, 683336.033175 7466677.424815, 683344.107121 7466663.792829, 683346.905781 7466657.667461, 683350.068744 7466649.433372, 683351.446691 7466644.609983)

LINESTRING (683092.489489 7466932.806585, 683089.776792 7466930.801634, 683084.163237 7466926.506056, 683045.574067 7466902.165367)

LINESTRING (683351.446691 7466644.609983, 683354.366199 7466629.002735, 683354.447299 7466623.851761, 683354.372873 7466621.947722, 683353.423610 7466610.529597, 683352.055021 7466600.069034, 683351.729531 7466597.769335)

LINESTRING (683351.446691 7466644.609983, 683350.078783 7466642.655200, 683348.033087 7466640.653271, 683345.830504 7466639.251311, 683341.025359 7466636.463321, 683328.161338 7466629.110505, 683278.766606 7466598.754871)

LINESTRING (683045.574067 7466902.165367, 683034.506071 7466900.771146, 683013.811901 7466889.105028)

LINESTRING (683045.574067 7466902.165367, 683084.163237 7466926.506056, 683089.776792 7466930.801634, 683092.489489 7466932.806585)

LINESTRING (683774.268525 7465959.558478, 683777.143574 7465941.193887)

LINESTRING (683013.811901 7466889.105028, 682931.913783 7466842.939111)

LINESTRING (683013.811901 7466889.105028, 683022.719898 7466876.526362)

LINESTRING (682878.786756 7466301.971234, 682874.719777 7466294.035265)

LINESTRING (682787.893317 7466367.640543, 682787.932809 7466368.359953, 682788.529109 7466369.305202, 682789.534568 7466370.145820, 682824.558856 7466392.569892, 682828.918116 7466394.986875)

LINESTRING (683789.454257 7466006.775781, 683785.704912 7466079.741066, 683784.866809 7466096.020853, 683783.471618 7466129.750985, 683782.010615 7466167.347187, 683772.845955 7466359.360047, 683772.651632 7466363.626393, 683771.503630 7466382.268977)

LINESTRING (683629.380232 7466598.869500, 683651.094215 7466608.318405)

LINESTRING (683586.612491 7465759.341802, 683583.205907 7465744.143665, 683578.870900 7465719.254884, 683577.200883 7465714.391003, 683574.510810 7465709.174045)

LINESTRING (683580.263703 7465894.504085, 683569.883274 7465790.987971)

LINESTRING (683580.263703 7465894.504085, 683585.251775 7465788.342335, 683586.612491 7465759.341802)

LINESTRING (683224.052940 7466103.923705, 683228.486873 7466105.730527)

LINESTRING (683224.052940 7466103.923705, 683224.994394 7466107.943666, 683225.357897 7466110.840968, 683224.925366 7466114.091265, 683223.214856 7466118.564275, 683221.862825 7466121.294120)

LINESTRING (683459.925113 7466605.824724, 683494.158965 7466572.360160, 683517.385593 7466549.251762, 683527.619164 7466535.194698)

LINESTRING (683096.795940 7466493.377881, 683053.186396 7466467.868820, 683014.639173 7466445.199988, 682991.903483 7466431.819821, 682988.987177 7466429.939154, 682983.309529 7466426.264543, 682975.953660 7466421.270167, 682970.155518 7466416.965723)

LINESTRING (683630.047587 7466084.326701, 683624.003719 7466209.129887, 683617.094387 7466358.120873, 683616.815453 7466364.714048)

LINESTRING (683630.047587 7466084.326701, 683622.788620 7466134.541667, 683614.474773 7466175.643433, 683608.099887 7466199.853976)

LINESTRING (683608.099887 7466199.853976, 683605.637443 7466253.853695, 683594.192763 7466466.981269, 683591.119160 7466490.143790, 683586.198308 7466509.906516)

LINESTRING (682475.056193 7465727.557076, 682507.282223 7465787.704504, 682516.377269 7465810.985361, 682521.738508 7465833.491802, 682522.848850 7465842.161337, 682523.633487 7465849.350733, 682523.684873 7465859.539302, 682523.446574 7465871.226527, 682522.376568 7465879.468344, 682521.185352 7465890.413978, 682521.373700 7465894.110819, 682522.048681 7465899.020048)

LINESTRING (682485.847128 7465712.054221, 682475.056193 7465727.557076)

LINESTRING (682485.847128 7465712.054221, 682487.210426 7465713.643642, 682492.858219 7465719.124032, 682500.073129 7465723.533325, 682585.038387 7465753.283709)

LINESTRING (682585.038387 7465753.283709, 682604.492004 7465760.092195, 682618.746314 7465764.571320, 682636.020831 7465771.051726, 682695.297196 7465791.654122)

LINESTRING (683626.164478 7465824.171535, 683639.674559 7465885.508155)

LINESTRING (683626.164478 7465824.171535, 683621.305141 7465936.677880, 683613.738300 7466077.979608, 683612.313415 7466107.612206, 683608.099887 7466199.853976)

LINESTRING (683102.993261 7466474.751709, 683116.839850 7466482.768371, 683133.538416 7466492.433864)

LINESTRING (683102.993261 7466474.751709, 683103.885036 7466476.368952, 683104.386423 7466477.946630, 683104.795478 7466479.525427, 683105.049704 7466481.028576, 683105.109812 7466482.600530, 683104.912096 7466484.064858, 683104.440336 7466485.776166, 683103.468157 7466487.681821, 683101.728417 7466489.751838, 683100.358061 7466490.975657, 683098.425732 7466492.394571, 683096.795940 7466493.377881)

LINESTRING (683090.732140 7466276.808783, 683107.988688 7466290.199874, 683127.461936 7466305.313945)

LINESTRING (683090.732140 7466276.808783, 683100.855361 7466262.099919, 683137.933636 7466291.420396, 683127.461936 7466305.313945)

LINESTRING (683090.732140 7466276.808783, 683086.081902 7466273.243579, 683076.849933 7466284.452923, 683051.701639 7466314.948961, 682984.912477 7466395.976521, 682980.750341 7466402.206943)

LINESTRING (682912.391471 7466324.943909, 682914.578350 7466327.597617, 682925.468364 7466340.589809, 682931.443906 7466347.683073, 682948.413036 7466367.844785, 682953.877581 7466374.257571, 682965.920249 7466388.376518, 682969.261344 7466392.289882)

LINESTRING (683127.461936 7466305.313945, 683107.988688 7466290.199874, 683090.732140 7466276.808783)

LINESTRING (683127.461936 7466305.313945, 683137.933636 7466291.420396, 683100.855361 7466262.099919, 683090.732140 7466276.808783)

LINESTRING (683127.461936 7466305.313945, 683120.332788 7466314.781147, 683110.971693 7466327.188204)

LINESTRING (683110.971693 7466327.188204, 683120.332788 7466314.781147, 683127.461936 7466305.313945)

LINESTRING (682695.297196 7465791.654122, 682726.386784 7465802.762770)

LINESTRING (682695.297196 7465791.654122, 682701.563286 7465746.491059)

LINESTRING (682701.563286 7465746.491059, 682695.297196 7465791.654122)

LINESTRING (683095.088871 7467033.792199, 683097.099458 7467032.051162, 683098.867922 7467031.498110, 683100.819256 7467031.640579, 683115.515431 7467037.753113, 683122.826944 7467040.754443, 683189.508270 7467068.209697, 683194.720354 7467071.546567, 683196.840317 7467073.746972, 683198.772332 7467076.525568, 683200.204985 7467079.587103, 683201.279191 7467087.780817)

LINESTRING (683095.088871 7467033.792199, 683100.849335 7467019.734347, 683104.228060 7467008.119770, 683109.852370 7466988.758530)

