LINESTRING (5793.636188 5570.254614, 5574.004915 5343.747868)

LINESTRING (5793.636188 5570.254614, 5911.355259 5551.629149)

LINESTRING (5793.636188 5570.254614, 5243.105711 5227.769627)

LINESTRING (5793.636188 5570.254614, 4406.873521 5053.247983)

LINESTRING (1193.916981 5314.660711, 2265.884441 4019.214802)

LINESTRING (1193.916981 5314.660711, 1318.540075 4448.956723)

LINESTRING (1193.916981 5314.660711, 1566.073683 5620.582519)

LINESTRING (1193.916981 5314.660711, 2373.013976 4059.872369)

LINESTRING (1193.916981 5314.660711, 712.866995 5342.354978)

LINESTRING (5744.241185 4497.286035, 4640.795739 5415.176153)

LINESTRING (5744.241185 4497.286035, 5573.253425 2947.623873)

LINESTRING (5744.241185 4497.286035, 5243.105711 5227.769627)

LINESTRING (5744.241185 4497.286035, 6211.607030 6226.373257)

LINESTRING (5744.241185 4497.286035, 4406.873521 5053.247983)

LINESTRING (5754.677330 1165.427476, 5879.945031 1121.418288)

LINESTRING (5754.677330 1165.427476, 3973.512504 1110.181553)

LINESTRING (5754.677330 1165.427476, 6054.426448 1617.390028)

LINESTRING (5879.945031 1121.418288, 6054.426448 1617.390028)

LINESTRING (5879.945031 1121.418288, 4385.709221 223.134756)

LINESTRING (3973.512504 1110.181553, 2986.490385 1713.296332)

LINESTRING (3973.512504 1110.181553, 4742.578615 2689.841599)

LINESTRING (3973.512504 1110.181553, 3229.459398 2451.282948)

LINESTRING (2446.780238 3862.090604, 2265.884441 4019.214802)

LINESTRING (2446.780238 3862.090604, 1266.215049 4531.216544)

LINESTRING (2446.780238 3862.090604, 2645.391175 3760.890618)

LINESTRING (2446.780238 3862.090604, 2373.013976 4059.872369)

LINESTRING (2446.780238 3862.090604, 3229.459398 2451.282948)

LINESTRING (3582.050164 1728.702780, 4385.709221 223.134756)

LINESTRING (3582.050164 1728.702780, 2986.490385 1713.296332)

LINESTRING (3582.050164 1728.702780, 2383.623227 1616.997132)

LINESTRING (3582.050164 1728.702780, 3748.267245 1767.167813)

LINESTRING (3582.050164 1728.702780, 3229.459398 2451.282948)

LINESTRING (5574.004915 5343.747868, 5865.572624 6417.910641)

LINESTRING (5574.004915 5343.747868, 4640.795739 5415.176153)

LINESTRING (5574.004915 5343.747868, 5911.355259 5551.629149)

LINESTRING (5574.004915 5343.747868, 6308.692138 5154.326868)

LINESTRING (5574.004915 5343.747868, 5243.105711 5227.769627)

LINESTRING (5865.572624 6417.910641, 6211.607030 6226.373257)

LINESTRING (4640.795739 5415.176153, 3721.616236 3935.132175)

LINESTRING (4640.795739 5415.176153, 4406.873521 5053.247983)

LINESTRING (2265.884441 4019.214802, 2645.391175 3760.890618)

LINESTRING (2265.884441 4019.214802, 2373.013976 4059.872369)

LINESTRING (2265.884441 4019.214802, 3721.616236 3935.132175)

LINESTRING (6054.426448 1617.390028, 5573.253425 2947.623873)

LINESTRING (3633.383583 4188.175074, 4141.107843 3643.155343)

LINESTRING (3633.383583 4188.175074, 3721.616236 3935.132175)

LINESTRING (3633.383583 4188.175074, 3229.459398 2451.282948)

LINESTRING (1266.215049 4531.216544, 2645.391175 3760.890618)

LINESTRING (1266.215049 4531.216544, 1318.540075 4448.956723)

LINESTRING (1266.215049 4531.216544, 1566.073683 5620.582519)

LINESTRING (5911.355259 5551.629149, 6308.692138 5154.326868)

LINESTRING (5911.355259 5551.629149, 5243.105711 5227.769627)

LINESTRING (5911.355259 5551.629149, 6211.607030 6226.373257)

LINESTRING (5573.253425 2947.623873, 4141.107843 3643.155343)

LINESTRING (5573.253425 2947.623873, 6274.590386 3985.424821)

LINESTRING (5573.253425 2947.623873, 6463.692549 2127.738113)

LINESTRING (5573.253425 2947.623873, 4742.578615 2689.841599)

LINESTRING (3634.856408 2358.653946, 4141.107843 3643.155343)

LINESTRING (3634.856408 2358.653946, 3164.233693 3212.714446)

LINESTRING (3634.856408 2358.653946, 2986.490385 1713.296332)

LINESTRING (3634.856408 2358.653946, 3229.459398 2451.282948)

LINESTRING (4451.495308 3728.761093, 4141.107843 3643.155343)

LINESTRING (4451.495308 3728.761093, 3721.616236 3935.132175)

LINESTRING (4451.495308 3728.761093, 3229.459398 2451.282948)

LINESTRING (4590.573297 467.439742, 4385.709221 223.134756)

LINESTRING (2645.391175 3760.890618, 2373.013976 4059.872369)

LINESTRING (2172.405475 2310.721957, 3164.233693 3212.714446)

LINESTRING (2172.405475 2310.721957, 3748.267245 1767.167813)

LINESTRING (4141.107843 3643.155343, 3721.616236 3935.132175)

LINESTRING (4141.107843 3643.155343, 3229.459398 2451.282948)

LINESTRING (1318.540075 4448.956723, 2373.013976 4059.872369)

LINESTRING (1318.540075 4448.956723, 712.866995 5342.354978)

LINESTRING (1566.073683 5620.582519, 712.866995 5342.354978)

LINESTRING (4385.709221 223.134756, 3748.267245 1767.167813)

LINESTRING (6274.590386 3985.424821, 6521.649585 3368.429432)

LINESTRING (6308.692138 5154.326868, 6211.607030 6226.373257)

LINESTRING (2373.013976 4059.872369, 3721.616236 3935.132175)

LINESTRING (3164.233693 3212.714446, 2383.623227 1616.997132)

LINESTRING (3164.233693 3212.714446, 3721.616236 3935.132175)

LINESTRING (2986.490385 1713.296332, 2383.623227 1616.997132)

LINESTRING (2986.490385 1713.296332, 3748.267245 1767.167813)

LINESTRING (2267.380560 1588.534813, 2383.623227 1616.997132)

LINESTRING (2267.380560 1588.534813, 3748.267245 1767.167813)

LINESTRING (2383.623227 1616.997132, 3229.459398 2451.282948)

LINESTRING (5243.105711 5227.769627, 4406.873521 5053.247983)

LINESTRING (6521.649585 3368.429432, 6463.692549 2127.738113)

LINESTRING (4831.458704 1635.659009, 6463.692549 2127.738113)

LINESTRING (4831.458704 1635.659009, 4742.578615 2689.841599)

