LINESTRING (60.000000 60.000000, 79.135606 49.207005)

LINESTRING (60.000000 60.000000, 84.164450 31.440399)

LINESTRING (60.000000 60.000000, 53.338485 58.836579)

LINESTRING (60.000000 60.000000, 77.315077 52.137338)

LINESTRING (60.000000 60.000000, 51.055148 59.023832)

LINESTRING (60.000000 60.000000, 75.364156 44.557635)

LINESTRING (60.000000 60.000000, 33.832005 57.562352)

LINESTRING (60.000000 60.000000, 51.443859 80.504853)

LINESTRING (79.135606 49.207005, 84.164450 31.440399)

LINESTRING (79.135606 49.207005, 53.338485 58.836579)

LINESTRING (79.135606 49.207005, 51.055148 59.023832)

LINESTRING (79.135606 49.207005, 75.364156 44.557635)

LINESTRING (79.135606 49.207005, 33.832005 57.562352)

LINESTRING (79.135606 49.207005, 51.443859 80.504853)

LINESTRING (84.164450 31.440399, 53.338485 58.836579)

LINESTRING (84.164450 31.440399, 77.315077 52.137338)

LINESTRING (84.164450 31.440399, 33.832005 57.562352)

LINESTRING (84.164450 31.440399, 51.443859 80.504853)

LINESTRING (53.338485 58.836579, 77.315077 52.137338)

LINESTRING (53.338485 58.836579, 75.364156 44.557635)

LINESTRING (53.338485 58.836579, 33.832005 57.562352)

LINESTRING (53.338485 58.836579, 51.443859 80.504853)

LINESTRING (77.315077 52.137338, 75.364156 44.557635)

LINESTRING (77.315077 52.137338, 33.832005 57.562352)

LINESTRING (77.315077 52.137338, 51.443859 80.504853)

LINESTRING (51.055148 59.023832, 33.832005 57.562352)

LINESTRING (51.055148 59.023832, 51.443859 80.504853)

LINESTRING (75.364156 44.557635, 33.832005 57.562352)

LINESTRING (33.832005 57.562352, 51.443859 80.504853)

LINESTRING (360.000000 60.000000, 388.526003 79.791173)

LINESTRING (360.000000 60.000000, 371.753522 39.354364)

LINESTRING (360.000000 60.000000, 326.517916 70.643336)

LINESTRING (360.000000 60.000000, 352.010296 59.461489)

LINESTRING (360.000000 60.000000, 389.687236 81.317395)

LINESTRING (360.000000 60.000000, 394.530805 75.069340)

LINESTRING (360.000000 60.000000, 395.225302 58.978590)

LINESTRING (360.000000 60.000000, 325.048248 29.318972)

LINESTRING (388.526003 79.791173, 352.010296 59.461489)

LINESTRING (388.526003 79.791173, 389.687236 81.317395)

LINESTRING (388.526003 79.791173, 395.225302 58.978590)

LINESTRING (388.526003 79.791173, 325.048248 29.318972)

LINESTRING (371.753522 39.354364, 326.517916 70.643336)

LINESTRING (371.753522 39.354364, 389.687236 81.317395)

LINESTRING (371.753522 39.354364, 394.530805 75.069340)

LINESTRING (371.753522 39.354364, 325.048248 29.318972)

LINESTRING (326.517916 70.643336, 352.010296 59.461489)

LINESTRING (326.517916 70.643336, 394.530805 75.069340)

LINESTRING (326.517916 70.643336, 395.225302 58.978590)

LINESTRING (326.517916 70.643336, 325.048248 29.318972)

LINESTRING (352.010296 59.461489, 394.530805 75.069340)

LINESTRING (352.010296 59.461489, 395.225302 58.978590)

LINESTRING (352.010296 59.461489, 325.048248 29.318972)

LINESTRING (389.687236 81.317395, 394.530805 75.069340)

LINESTRING (389.687236 81.317395, 395.225302 58.978590)

LINESTRING (394.530805 75.069340, 325.048248 29.318972)

LINESTRING (395.225302 58.978590, 325.048248 29.318972)

LINESTRING (660.000000 60.000000, 688.917726 33.271654)

LINESTRING (660.000000 60.000000, 691.105486 54.708811)

LINESTRING (660.000000 60.000000, 654.086483 93.027004)

LINESTRING (660.000000 60.000000, 649.881206 88.607522)

LINESTRING (660.000000 60.000000, 638.833387 39.169801)

LINESTRING (660.000000 60.000000, 634.955283 64.584152)

LINESTRING (660.000000 60.000000, 644.287435 48.710182)

LINESTRING (660.000000 60.000000, 679.195372 55.637997)

LINESTRING (688.917726 33.271654, 691.105486 54.708811)

LINESTRING (688.917726 33.271654, 654.086483 93.027004)

LINESTRING (688.917726 33.271654, 649.881206 88.607522)

LINESTRING (688.917726 33.271654, 638.833387 39.169801)

LINESTRING (688.917726 33.271654, 634.955283 64.584152)

LINESTRING (688.917726 33.271654, 644.287435 48.710182)

LINESTRING (688.917726 33.271654, 679.195372 55.637997)

LINESTRING (691.105486 54.708811, 654.086483 93.027004)

LINESTRING (691.105486 54.708811, 649.881206 88.607522)

LINESTRING (691.105486 54.708811, 638.833387 39.169801)

LINESTRING (691.105486 54.708811, 634.955283 64.584152)

LINESTRING (691.105486 54.708811, 644.287435 48.710182)

LINESTRING (654.086483 93.027004, 649.881206 88.607522)

LINESTRING (654.086483 93.027004, 644.287435 48.710182)

LINESTRING (654.086483 93.027004, 679.195372 55.637997)

LINESTRING (649.881206 88.607522, 638.833387 39.169801)

LINESTRING (649.881206 88.607522, 634.955283 64.584152)

LINESTRING (649.881206 88.607522, 679.195372 55.637997)

LINESTRING (638.833387 39.169801, 644.287435 48.710182)

LINESTRING (638.833387 39.169801, 679.195372 55.637997)

LINESTRING (634.955283 64.584152, 679.195372 55.637997)

LINESTRING (60.000000 360.000000, 82.467457 383.144212)

LINESTRING (60.000000 360.000000, 24.888778 365.914207)

LINESTRING (60.000000 360.000000, 35.235219 338.450758)

LINESTRING (60.000000 360.000000, 70.309558 373.478805)

LINESTRING (60.000000 360.000000, 91.719024 388.663171)

LINESTRING (60.000000 360.000000, 51.768958 353.225097)

LINESTRING (60.000000 360.000000, 57.430871 338.771565)

LINESTRING (60.000000 360.000000, 53.246263 385.789802)

LINESTRING (82.467457 383.144212, 24.888778 365.914207)

LINESTRING (82.467457 383.144212, 70.309558 373.478805)

LINESTRING (82.467457 383.144212, 51.768958 353.225097)

LINESTRING (82.467457 383.144212, 57.430871 338.771565)

LINESTRING (82.467457 383.144212, 53.246263 385.789802)

LINESTRING (24.888778 365.914207, 70.309558 373.478805)

LINESTRING (24.888778 365.914207, 91.719024 388.663171)

LINESTRING (24.888778 365.914207, 51.768958 353.225097)

LINESTRING (24.888778 365.914207, 53.246263 385.789802)

LINESTRING (35.235219 338.450758, 70.309558 373.478805)

LINESTRING (35.235219 338.450758, 91.719024 388.663171)

LINESTRING (35.235219 338.450758, 51.768958 353.225097)

LINESTRING (35.235219 338.450758, 53.246263 385.789802)

LINESTRING (70.309558 373.478805, 91.719024 388.663171)

LINESTRING (70.309558 373.478805, 51.768958 353.225097)

LINESTRING (70.309558 373.478805, 57.430871 338.771565)

LINESTRING (70.309558 373.478805, 53.246263 385.789802)

LINESTRING (91.719024 388.663171, 51.768958 353.225097)

LINESTRING (91.719024 388.663171, 57.430871 338.771565)

LINESTRING (91.719024 388.663171, 53.246263 385.789802)

LINESTRING (57.430871 338.771565, 53.246263 385.789802)

LINESTRING (360.000000 360.000000, 372.213138 381.279430)

LINESTRING (360.000000 360.000000, 390.010647 383.050510)

LINESTRING (360.000000 360.000000, 361.706448 377.164283)

LINESTRING (360.000000 360.000000, 394.306045 344.626448)

LINESTRING (360.000000 360.000000, 341.253232 345.343699)

LINESTRING (360.000000 360.000000, 360.840988 340.018421)

LINESTRING (360.000000 360.000000, 349.574165 387.262245)

LINESTRING (360.000000 360.000000, 367.420936 331.541759)

LINESTRING (372.213138 381.279430, 390.010647 383.050510)

LINESTRING (372.213138 381.279430, 361.706448 377.164283)

LINESTRING (372.213138 381.279430, 394.306045 344.626448)

LINESTRING (372.213138 381.279430, 341.253232 345.343699)

LINESTRING (372.213138 381.279430, 360.840988 340.018421)

LINESTRING (372.213138 381.279430, 349.574165 387.262245)

LINESTRING (390.010647 383.050510, 361.706448 377.164283)

LINESTRING (390.010647 383.050510, 394.306045 344.626448)

LINESTRING (390.010647 383.050510, 341.253232 345.343699)

LINESTRING (390.010647 383.050510, 360.840988 340.018421)

LINESTRING (390.010647 383.050510, 349.574165 387.262245)

LINESTRING (390.010647 383.050510, 367.420936 331.541759)

LINESTRING (361.706448 377.164283, 394.306045 344.626448)

LINESTRING (361.706448 377.164283, 341.253232 345.343699)

LINESTRING (361.706448 377.164283, 349.574165 387.262245)

LINESTRING (361.706448 377.164283, 367.420936 331.541759)

LINESTRING (394.306045 344.626448, 360.840988 340.018421)

LINESTRING (394.306045 344.626448, 349.574165 387.262245)

LINESTRING (394.306045 344.626448, 367.420936 331.541759)

LINESTRING (341.253232 345.343699, 360.840988 340.018421)

LINESTRING (341.253232 345.343699, 367.420936 331.541759)

LINESTRING (349.574165 387.262245, 367.420936 331.541759)

LINESTRING (660.000000 360.000000, 624.101851 347.672266)

LINESTRING (660.000000 360.000000, 625.899453 343.528916)

LINESTRING (660.000000 360.000000, 644.837692 389.690057)

LINESTRING (660.000000 360.000000, 662.819494 395.547471)

LINESTRING (660.000000 360.000000, 691.170462 357.538914)

LINESTRING (660.000000 360.000000, 642.414089 356.872784)

LINESTRING (660.000000 360.000000, 635.974737 330.001564)

LINESTRING (660.000000 360.000000, 627.813670 335.445663)

LINESTRING (624.101851 347.672266, 625.899453 343.528916)

LINESTRING (624.101851 347.672266, 644.837692 389.690057)

LINESTRING (624.101851 347.672266, 662.819494 395.547471)

LINESTRING (624.101851 347.672266, 691.170462 357.538914)

LINESTRING (624.101851 347.672266, 642.414089 356.872784)

LINESTRING (624.101851 347.672266, 627.813670 335.445663)

LINESTRING (625.899453 343.528916, 644.837692 389.690057)

LINESTRING (625.899453 343.528916, 662.819494 395.547471)

LINESTRING (625.899453 343.528916, 691.170462 357.538914)

LINESTRING (625.899453 343.528916, 642.414089 356.872784)

LINESTRING (625.899453 343.528916, 627.813670 335.445663)

LINESTRING (644.837692 389.690057, 642.414089 356.872784)

LINESTRING (644.837692 389.690057, 627.813670 335.445663)

LINESTRING (662.819494 395.547471, 642.414089 356.872784)

LINESTRING (662.819494 395.547471, 627.813670 335.445663)

LINESTRING (691.170462 357.538914, 642.414089 356.872784)

LINESTRING (691.170462 357.538914, 627.813670 335.445663)

LINESTRING (642.414089 356.872784, 635.974737 330.001564)

LINESTRING (635.974737 330.001564, 627.813670 335.445663)

LINESTRING (84.164450 31.440399, 371.753522 39.354364)

LINESTRING (79.135606 49.207005, 388.526003 79.791173)

LINESTRING (60.000000 60.000000, 360.000000 60.000000)

LINESTRING (325.048248 29.318972, 691.105486 54.708811)

LINESTRING (352.010296 59.461489, 691.105486 54.708811)

LINESTRING (360.000000 60.000000, 660.000000 60.000000)

LINESTRING (649.881206 88.607522, 57.430871 338.771565)

LINESTRING (638.833387 39.169801, 24.888778 365.914207)

LINESTRING (660.000000 60.000000, 60.000000 360.000000)

LINESTRING (57.430871 338.771565, 349.574165 387.262245)

LINESTRING (35.235219 338.450758, 349.574165 387.262245)

LINESTRING (60.000000 360.000000, 360.000000 360.000000)

LINESTRING (367.420936 331.541759, 644.837692 389.690057)

LINESTRING (390.010647 383.050510, 624.101851 347.672266)

LINESTRING (360.000000 360.000000, 660.000000 360.000000)

