LINESTRING (49.974210 48.113659, 107.756795 48.743740)

LINESTRING (107.756795 48.743740, 174.152403 45.803237)

LINESTRING (174.152403 45.803237, 226.362525 53.303768)

LINESTRING (226.362525 53.303768, 285.398882 47.728245)

LINESTRING (285.398882 47.728245, 351.412125 48.851734)

LINESTRING (351.412125 48.851734, 408.562342 54.932548)

LINESTRING (408.562342 54.932548, 474.700159 45.539065)

LINESTRING (474.700159 45.539065, 534.970128 53.716591)

LINESTRING (534.970128 53.716591, 593.422281 49.523459)

LINESTRING (593.422281 49.523459, 645.203655 45.370375)

LINESTRING (645.203655 45.370375, 713.300035 50.885876)

LINESTRING (713.300035 50.885876, 767.853908 54.790818)

LINESTRING (50.107495 112.214432, 111.168710 114.652606)

LINESTRING (111.168710 114.652606, 165.036581 107.804569)

LINESTRING (165.036581 107.804569, 231.362385 111.385766)

LINESTRING (231.362385 111.385766, 294.833954 107.993484)

LINESTRING (294.833954 107.993484, 353.213170 107.680425)

LINESTRING (353.213170 107.680425, 410.845898 108.064738)

LINESTRING (410.845898 108.064738, 474.961416 105.877440)

LINESTRING (474.961416 105.877440, 525.669799 108.401081)

LINESTRING (525.669799 108.401081, 592.351964 111.283902)

LINESTRING (592.351964 111.283902, 647.635818 105.755874)

LINESTRING (647.635818 105.755874, 712.508619 109.969164)

LINESTRING (712.508619 109.969164, 774.693208 113.292424)

LINESTRING (50.646810 165.111662, 113.211495 173.843563)

LINESTRING (113.211495 173.843563, 170.448438 165.648850)

LINESTRING (170.448438 165.648850, 227.684155 168.241864)

LINESTRING (227.684155 168.241864, 285.323329 174.572698)

LINESTRING (285.323329 174.572698, 354.760532 168.992987)

LINESTRING (354.760532 168.992987, 414.459116 172.308197)

LINESTRING (414.459116 172.308197, 468.291048 173.971655)

LINESTRING (468.291048 173.971655, 528.010109 171.373522)

LINESTRING (528.010109 171.373522, 586.984516 170.981935)

LINESTRING (586.984516 170.981935, 653.864698 173.090099)

LINESTRING (653.864698 173.090099, 706.894236 171.378392)

LINESTRING (706.894236 171.378392, 769.902067 165.525878)

LINESTRING (49.083007 227.900523, 111.716027 225.640421)

LINESTRING (111.716027 225.640421, 166.732516 230.856003)

LINESTRING (166.732516 230.856003, 232.971382 229.778668)

LINESTRING (232.971382 229.778668, 294.042565 226.662221)

LINESTRING (294.042565 226.662221, 345.545108 230.646349)

LINESTRING (345.545108 230.646349, 411.459231 227.731980)

LINESTRING (411.459231 227.731980, 467.778141 234.342051)

LINESTRING (467.778141 234.342051, 526.551083 227.998692)

LINESTRING (526.551083 227.998692, 587.449380 232.554360)

LINESTRING (587.449380 232.554360, 647.217735 225.359406)

LINESTRING (647.217735 225.359406, 713.932157 226.283947)

LINESTRING (713.932157 226.283947, 771.750398 227.453995)

LINESTRING (49.326022 293.115334, 106.811287 290.238277)

LINESTRING (106.811287 290.238277, 173.992190 289.806594)

LINESTRING (173.992190 289.806594, 233.256974 293.385766)

LINESTRING (233.256974 293.385766, 287.829666 290.560487)

LINESTRING (287.829666 290.560487, 349.459564 292.257686)

LINESTRING (349.459564 292.257686, 413.267033 285.921978)

LINESTRING (413.267033 285.921978, 472.850649 286.925571)

LINESTRING (472.850649 286.925571, 530.643546 294.452055)

LINESTRING (530.643546 294.452055, 586.235366 294.201301)

LINESTRING (586.235366 294.201301, 646.255328 290.883436)

LINESTRING (646.255328 290.883436, 712.845194 285.870000)

LINESTRING (712.845194 285.870000, 772.984445 291.745788)

LINESTRING (47.515563 354.281862, 109.751661 349.819336)

LINESTRING (109.751661 349.819336, 168.209832 352.525721)

LINESTRING (168.209832 352.525721, 229.930657 354.837746)

LINESTRING (229.930657 354.837746, 290.391515 350.607227)

LINESTRING (290.391515 350.607227, 349.234942 348.761483)

LINESTRING (349.234942 348.761483, 406.294367 354.873475)

LINESTRING (406.294367 354.873475, 471.926407 354.734651)

LINESTRING (471.926407 354.734651, 531.200210 352.397915)

LINESTRING (531.200210 352.397915, 592.437089 347.943687)

LINESTRING (592.437089 347.943687, 652.934030 354.537590)

LINESTRING (652.934030 354.537590, 705.515545 354.026272)

LINESTRING (705.515545 354.026272, 770.136726 352.424602)

LINESTRING (50.782437 411.438154, 108.452111 407.325845)

LINESTRING (108.452111 407.325845, 169.559191 406.293962)

LINESTRING (169.559191 406.293962, 227.797195 411.270463)

LINESTRING (227.797195 411.270463, 292.641445 408.616513)

LINESTRING (292.641445 408.616513, 351.025052 407.528161)

LINESTRING (351.025052 407.528161, 412.227083 407.403247)

LINESTRING (412.227083 407.403247, 465.033760 412.238128)

LINESTRING (465.033760 412.238128, 530.482917 412.827835)

LINESTRING (530.482917 412.827835, 590.173728 407.214621)

LINESTRING (590.173728 407.214621, 646.992855 409.186368)

LINESTRING (646.992855 409.186368, 706.158029 409.431067)

LINESTRING (706.158029 409.431067, 774.946820 407.579893)

LINESTRING (48.473978 466.865150, 109.475265 465.340400)

LINESTRING (109.475265 465.340400, 171.024651 470.062843)

LINESTRING (171.024651 470.062843, 231.171494 473.155668)

LINESTRING (231.171494 473.155668, 286.095479 470.849438)

LINESTRING (286.095479 470.849438, 350.000422 471.971628)

LINESTRING (350.000422 471.971628, 408.154729 466.564383)

LINESTRING (408.154729 466.564383, 466.664197 465.249069)

LINESTRING (466.664197 465.249069, 527.638140 465.866968)

LINESTRING (527.638140 465.866968, 593.158244 467.487789)

LINESTRING (593.158244 467.487789, 652.167334 470.227963)

LINESTRING (652.167334 470.227963, 711.193762 473.579129)

LINESTRING (711.193762 473.579129, 770.562512 468.986427)

LINESTRING (54.418081 526.715332, 106.250886 532.411293)

LINESTRING (106.250886 532.411293, 174.821799 529.293482)

LINESTRING (174.821799 529.293482, 229.297825 529.623858)

LINESTRING (229.297825 529.623858, 287.181896 531.510748)

LINESTRING (287.181896 531.510748, 347.367552 529.190937)

LINESTRING (347.367552 529.190937, 407.080616 529.649462)

LINESTRING (407.080616 529.649462, 466.499089 526.091490)

LINESTRING (466.499089 526.091490, 529.964231 528.466944)

LINESTRING (529.964231 528.466944, 588.317664 531.392486)

LINESTRING (588.317664 531.392486, 653.051808 531.647792)

LINESTRING (653.051808 531.647792, 709.935836 529.496864)

LINESTRING (709.935836 529.496864, 770.362303 529.075762)

LINESTRING (45.694282 592.956367, 106.637295 590.181351)

LINESTRING (106.637295 590.181351, 170.676078 592.295664)

LINESTRING (170.676078 592.295664, 228.269863 589.749309)

LINESTRING (228.269863 589.749309, 285.983588 593.852189)

LINESTRING (285.983588 593.852189, 345.083308 586.327844)

LINESTRING (345.083308 586.327844, 405.740896 592.913470)

LINESTRING (405.740896 592.913470, 465.467017 594.093171)

LINESTRING (465.467017 594.093171, 534.359611 592.431831)

LINESTRING (534.359611 592.431831, 587.109306 587.682848)

LINESTRING (587.109306 587.682848, 650.460580 586.273721)

LINESTRING (650.460580 586.273721, 708.682194 589.716275)

LINESTRING (708.682194 589.716275, 772.969618 585.692003)

LINESTRING (54.691419 648.254430, 112.935167 647.680985)

LINESTRING (112.935167 647.680985, 173.149034 653.701404)

LINESTRING (173.149034 653.701404, 233.577489 654.516815)

LINESTRING (233.577489 654.516815, 294.660414 651.114020)

LINESTRING (294.660414 651.114020, 352.087313 652.225819)

LINESTRING (352.087313 652.225819, 410.546449 648.783194)

LINESTRING (410.546449 648.783194, 471.706427 654.006118)

LINESTRING (471.706427 654.006118, 530.081308 654.313896)

LINESTRING (530.081308 654.313896, 585.448910 650.803089)

LINESTRING (585.448910 650.803089, 648.559191 648.269807)

LINESTRING (648.559191 648.269807, 714.074458 649.689615)

LINESTRING (714.074458 649.689615, 771.920620 645.764305)

LINESTRING (49.500665 708.320630, 112.543026 706.227907)

LINESTRING (112.543026 706.227907, 172.544988 709.062903)

LINESTRING (172.544988 709.062903, 227.510433 714.301914)

LINESTRING (227.510433 714.301914, 294.772207 706.944672)

LINESTRING (294.772207 706.944672, 354.052091 711.491390)

LINESTRING (354.052091 711.491390, 405.858593 709.469469)

LINESTRING (405.858593 709.469469, 469.025556 706.993402)

LINESTRING (469.025556 706.993402, 525.595587 714.941292)

LINESTRING (525.595587 714.941292, 585.904364 706.361743)

LINESTRING (585.904364 706.361743, 649.093683 705.369913)

LINESTRING (649.093683 705.369913, 714.880059 710.622750)

LINESTRING (714.880059 710.622750, 769.588594 713.085509)

LINESTRING (52.769542 767.950573, 110.709787 765.393084)

LINESTRING (110.709787 765.393084, 171.832608 765.187496)

LINESTRING (171.832608 765.187496, 233.040478 766.209345)

LINESTRING (233.040478 766.209345, 293.631034 765.112042)

LINESTRING (293.631034 765.112042, 349.876545 772.124248)

LINESTRING (349.876545 772.124248, 413.826557 768.450296)

LINESTRING (413.826557 768.450296, 465.709433 766.768429)

LINESTRING (465.709433 766.768429, 529.275973 772.288477)

LINESTRING (529.275973 772.288477, 592.884948 773.699650)

LINESTRING (592.884948 773.699650, 645.171109 773.648186)

LINESTRING (645.171109 773.648186, 708.628540 771.827456)

LINESTRING (708.628540 771.827456, 773.574406 766.112680)

LINESTRING (49.974210 48.113659, 50.107495 112.214432)

LINESTRING (107.756795 48.743740, 111.168710 114.652606)

LINESTRING (174.152403 45.803237, 165.036581 107.804569)

LINESTRING (226.362525 53.303768, 231.362385 111.385766)

LINESTRING (285.398882 47.728245, 294.833954 107.993484)

LINESTRING (351.412125 48.851734, 353.213170 107.680425)

LINESTRING (408.562342 54.932548, 410.845898 108.064738)

LINESTRING (474.700159 45.539065, 474.961416 105.877440)

LINESTRING (534.970128 53.716591, 525.669799 108.401081)

LINESTRING (593.422281 49.523459, 592.351964 111.283902)

LINESTRING (645.203655 45.370375, 647.635818 105.755874)

LINESTRING (713.300035 50.885876, 712.508619 109.969164)

LINESTRING (767.853908 54.790818, 774.693208 113.292424)

LINESTRING (50.107495 112.214432, 50.646810 165.111662)

LINESTRING (111.168710 114.652606, 113.211495 173.843563)

LINESTRING (165.036581 107.804569, 170.448438 165.648850)

LINESTRING (231.362385 111.385766, 227.684155 168.241864)

LINESTRING (294.833954 107.993484, 285.323329 174.572698)

LINESTRING (353.213170 107.680425, 354.760532 168.992987)

LINESTRING (410.845898 108.064738, 414.459116 172.308197)

LINESTRING (474.961416 105.877440, 468.291048 173.971655)

LINESTRING (525.669799 108.401081, 528.010109 171.373522)

LINESTRING (592.351964 111.283902, 586.984516 170.981935)

LINESTRING (647.635818 105.755874, 653.864698 173.090099)

LINESTRING (712.508619 109.969164, 706.894236 171.378392)

LINESTRING (774.693208 113.292424, 769.902067 165.525878)

LINESTRING (50.646810 165.111662, 49.083007 227.900523)

LINESTRING (113.211495 173.843563, 111.716027 225.640421)

LINESTRING (170.448438 165.648850, 166.732516 230.856003)

LINESTRING (227.684155 168.241864, 232.971382 229.778668)

LINESTRING (285.323329 174.572698, 294.042565 226.662221)

LINESTRING (354.760532 168.992987, 345.545108 230.646349)

LINESTRING (414.459116 172.308197, 411.459231 227.731980)

LINESTRING (468.291048 173.971655, 467.778141 234.342051)

LINESTRING (528.010109 171.373522, 526.551083 227.998692)

LINESTRING (586.984516 170.981935, 587.449380 232.554360)

LINESTRING (653.864698 173.090099, 647.217735 225.359406)

LINESTRING (706.894236 171.378392, 713.932157 226.283947)

LINESTRING (769.902067 165.525878, 771.750398 227.453995)

LINESTRING (49.083007 227.900523, 49.326022 293.115334)

LINESTRING (111.716027 225.640421, 106.811287 290.238277)

LINESTRING (166.732516 230.856003, 173.992190 289.806594)

LINESTRING (232.971382 229.778668, 233.256974 293.385766)

LINESTRING (294.042565 226.662221, 287.829666 290.560487)

LINESTRING (345.545108 230.646349, 349.459564 292.257686)

LINESTRING (411.459231 227.731980, 413.267033 285.921978)

LINESTRING (467.778141 234.342051, 472.850649 286.925571)

LINESTRING (526.551083 227.998692, 530.643546 294.452055)

LINESTRING (587.449380 232.554360, 586.235366 294.201301)

LINESTRING (647.217735 225.359406, 646.255328 290.883436)

LINESTRING (713.932157 226.283947, 712.845194 285.870000)

LINESTRING (771.750398 227.453995, 772.984445 291.745788)

LINESTRING (49.326022 293.115334, 47.515563 354.281862)

LINESTRING (106.811287 290.238277, 109.751661 349.819336)

LINESTRING (173.992190 289.806594, 168.209832 352.525721)

LINESTRING (233.256974 293.385766, 229.930657 354.837746)

LINESTRING (287.829666 290.560487, 290.391515 350.607227)

LINESTRING (349.459564 292.257686, 349.234942 348.761483)

LINESTRING (413.267033 285.921978, 406.294367 354.873475)

LINESTRING (472.850649 286.925571, 471.926407 354.734651)

LINESTRING (530.643546 294.452055, 531.200210 352.397915)

LINESTRING (586.235366 294.201301, 592.437089 347.943687)

LINESTRING (646.255328 290.883436, 652.934030 354.537590)

LINESTRING (712.845194 285.870000, 705.515545 354.026272)

LINESTRING (772.984445 291.745788, 770.136726 352.424602)

LINESTRING (47.515563 354.281862, 50.782437 411.438154)

LINESTRING (109.751661 349.819336, 108.452111 407.325845)

LINESTRING (168.209832 352.525721, 169.559191 406.293962)

LINESTRING (229.930657 354.837746, 227.797195 411.270463)

LINESTRING (290.391515 350.607227, 292.641445 408.616513)

LINESTRING (349.234942 348.761483, 351.025052 407.528161)

LINESTRING (406.294367 354.873475, 412.227083 407.403247)

LINESTRING (471.926407 354.734651, 465.033760 412.238128)

LINESTRING (531.200210 352.397915, 530.482917 412.827835)

LINESTRING (592.437089 347.943687, 590.173728 407.214621)

LINESTRING (652.934030 354.537590, 646.992855 409.186368)

LINESTRING (705.515545 354.026272, 706.158029 409.431067)

LINESTRING (770.136726 352.424602, 774.946820 407.579893)

LINESTRING (50.782437 411.438154, 48.473978 466.865150)

LINESTRING (108.452111 407.325845, 109.475265 465.340400)

LINESTRING (169.559191 406.293962, 171.024651 470.062843)

LINESTRING (227.797195 411.270463, 231.171494 473.155668)

LINESTRING (292.641445 408.616513, 286.095479 470.849438)

LINESTRING (351.025052 407.528161, 350.000422 471.971628)

LINESTRING (412.227083 407.403247, 408.154729 466.564383)

LINESTRING (465.033760 412.238128, 466.664197 465.249069)

LINESTRING (530.482917 412.827835, 527.638140 465.866968)

LINESTRING (590.173728 407.214621, 593.158244 467.487789)

LINESTRING (646.992855 409.186368, 652.167334 470.227963)

LINESTRING (706.158029 409.431067, 711.193762 473.579129)

LINESTRING (774.946820 407.579893, 770.562512 468.986427)

LINESTRING (48.473978 466.865150, 54.418081 526.715332)

LINESTRING (109.475265 465.340400, 106.250886 532.411293)

LINESTRING (171.024651 470.062843, 174.821799 529.293482)

LINESTRING (231.171494 473.155668, 229.297825 529.623858)

LINESTRING (286.095479 470.849438, 287.181896 531.510748)

LINESTRING (350.000422 471.971628, 347.367552 529.190937)

LINESTRING (408.154729 466.564383, 407.080616 529.649462)

LINESTRING (466.664197 465.249069, 466.499089 526.091490)

LINESTRING (527.638140 465.866968, 529.964231 528.466944)

LINESTRING (593.158244 467.487789, 588.317664 531.392486)

LINESTRING (652.167334 470.227963, 653.051808 531.647792)

LINESTRING (711.193762 473.579129, 709.935836 529.496864)

LINESTRING (770.562512 468.986427, 770.362303 529.075762)

LINESTRING (54.418081 526.715332, 45.694282 592.956367)

LINESTRING (106.250886 532.411293, 106.637295 590.181351)

LINESTRING (174.821799 529.293482, 170.676078 592.295664)

LINESTRING (229.297825 529.623858, 228.269863 589.749309)

LINESTRING (287.181896 531.510748, 285.983588 593.852189)

LINESTRING (347.367552 529.190937, 345.083308 586.327844)

LINESTRING (407.080616 529.649462, 405.740896 592.913470)

LINESTRING (466.499089 526.091490, 465.467017 594.093171)

LINESTRING (529.964231 528.466944, 534.359611 592.431831)

LINESTRING (588.317664 531.392486, 587.109306 587.682848)

LINESTRING (653.051808 531.647792, 650.460580 586.273721)

LINESTRING (709.935836 529.496864, 708.682194 589.716275)

LINESTRING (770.362303 529.075762, 772.969618 585.692003)

LINESTRING (45.694282 592.956367, 54.691419 648.254430)

LINESTRING (106.637295 590.181351, 112.935167 647.680985)

LINESTRING (170.676078 592.295664, 173.149034 653.701404)

LINESTRING (228.269863 589.749309, 233.577489 654.516815)

LINESTRING (285.983588 593.852189, 294.660414 651.114020)

LINESTRING (345.083308 586.327844, 352.087313 652.225819)

LINESTRING (405.740896 592.913470, 410.546449 648.783194)

LINESTRING (465.467017 594.093171, 471.706427 654.006118)

LINESTRING (534.359611 592.431831, 530.081308 654.313896)

LINESTRING (587.109306 587.682848, 585.448910 650.803089)

LINESTRING (650.460580 586.273721, 648.559191 648.269807)

LINESTRING (708.682194 589.716275, 714.074458 649.689615)

LINESTRING (772.969618 585.692003, 771.920620 645.764305)

LINESTRING (54.691419 648.254430, 49.500665 708.320630)

LINESTRING (112.935167 647.680985, 112.543026 706.227907)

LINESTRING (173.149034 653.701404, 172.544988 709.062903)

LINESTRING (233.577489 654.516815, 227.510433 714.301914)

LINESTRING (294.660414 651.114020, 294.772207 706.944672)

LINESTRING (352.087313 652.225819, 354.052091 711.491390)

LINESTRING (410.546449 648.783194, 405.858593 709.469469)

LINESTRING (471.706427 654.006118, 469.025556 706.993402)

LINESTRING (530.081308 654.313896, 525.595587 714.941292)

LINESTRING (585.448910 650.803089, 585.904364 706.361743)

LINESTRING (648.559191 648.269807, 649.093683 705.369913)

LINESTRING (714.074458 649.689615, 714.880059 710.622750)

LINESTRING (771.920620 645.764305, 769.588594 713.085509)

LINESTRING (49.500665 708.320630, 52.769542 767.950573)

LINESTRING (112.543026 706.227907, 110.709787 765.393084)

LINESTRING (172.544988 709.062903, 171.832608 765.187496)

LINESTRING (227.510433 714.301914, 233.040478 766.209345)

LINESTRING (294.772207 706.944672, 293.631034 765.112042)

LINESTRING (354.052091 711.491390, 349.876545 772.124248)

LINESTRING (405.858593 709.469469, 413.826557 768.450296)

LINESTRING (469.025556 706.993402, 465.709433 766.768429)

LINESTRING (525.595587 714.941292, 529.275973 772.288477)

LINESTRING (585.904364 706.361743, 592.884948 773.699650)

LINESTRING (649.093683 705.369913, 645.171109 773.648186)

LINESTRING (714.880059 710.622750, 708.628540 771.827456)

LINESTRING (769.588594 713.085509, 773.574406 766.112680)

LINESTRING (525.669799 108.401081, 586.984516 170.981935)

LINESTRING (113.211495 173.843563, 166.732516 230.856003)

LINESTRING (586.984516 170.981935, 647.217735 225.359406)

LINESTRING (294.042565 226.662221, 349.459564 292.257686)

LINESTRING (411.459231 227.731980, 472.850649 286.925571)

LINESTRING (106.811287 290.238277, 168.209832 352.525721)

LINESTRING (173.992190 289.806594, 229.930657 354.837746)

LINESTRING (287.829666 290.560487, 349.234942 348.761483)

LINESTRING (349.459564 292.257686, 406.294367 354.873475)

LINESTRING (50.782437 411.438154, 109.475265 465.340400)

LINESTRING (351.025052 407.528161, 408.154729 466.564383)

LINESTRING (646.992855 409.186368, 711.193762 473.579129)

LINESTRING (231.171494 473.155668, 287.181896 531.510748)

LINESTRING (350.000422 471.971628, 407.080616 529.649462)

LINESTRING (527.638140 465.866968, 588.317664 531.392486)

LINESTRING (711.193762 473.579129, 770.362303 529.075762)

LINESTRING (287.181896 531.510748, 345.083308 586.327844)

LINESTRING (588.317664 531.392486, 650.460580 586.273721)

LINESTRING (345.083308 586.327844, 410.546449 648.783194)

LINESTRING (405.740896 592.913470, 471.706427 654.006118)

LINESTRING (650.460580 586.273721, 714.074458 649.689615)

LINESTRING (54.691419 648.254430, 112.543026 706.227907)

LINESTRING (173.149034 653.701404, 227.510433 714.301914)

LINESTRING (714.074458 649.689615, 769.588594 713.085509)

LINESTRING (405.858593 709.469469, 465.709433 766.768429)

LINESTRING (714.880059 710.622750, 773.574406 766.112680)

