LINESTRING (595.140243 398.005522, 577.922520 500.140479)

LINESTRING (577.922520 500.140479, 502.356248 572.831992)

LINESTRING (502.356248 572.831992, 395.029180 599.908464)

LINESTRING (395.029180 599.908464, 296.197412 568.636023)

LINESTRING (296.197412 568.636023, 225.291370 495.167856)

LINESTRING (225.291370 495.167856, 204.957964 401.447398)

LINESTRING (204.957964 401.447398, 225.430816 299.386456)

LINESTRING (225.430816 299.386456, 297.078636 226.105554)

LINESTRING (297.078636 226.105554, 403.567691 201.350395)

LINESTRING (403.567691 201.350395, 498.766414 228.090679)

LINESTRING (498.766414 228.090679, 577.966458 298.562037)

LINESTRING (577.966458 298.562037, 595.140243 398.005522)

LINESTRING (800.685055 397.274734, 748.926735 595.221074)

LINESTRING (748.926735 595.221074, 603.341162 750.854486)

LINESTRING (603.341162 750.854486, 395.995575 799.979654)

LINESTRING (395.995575 799.979654, 199.180936 747.321965)

LINESTRING (199.180936 747.321965, 54.372992 604.860602)

LINESTRING (54.372992 604.860602, -3.089749 404.375761)

LINESTRING (-3.089749 404.375761, 55.567381 200.065002)

LINESTRING (55.567381 200.065002, 197.586149 54.256396)

LINESTRING (197.586149 54.256396, 402.336129 -2.311418)

LINESTRING (402.336129 -2.311418, 595.246229 51.375129)

LINESTRING (595.246229 51.375129, 743.661220 196.067924)

LINESTRING (743.661220 196.067924, 800.685055 397.274734)

LINESTRING (1000.558386 398.415368, 918.264507 698.590940)

LINESTRING (918.264507 698.590940, 695.653689 920.672862)

LINESTRING (695.653689 920.672862, 398.538504 998.047813)

LINESTRING (398.538504 998.047813, 103.831969 923.945099)

LINESTRING (103.831969 923.945099, -121.637875 695.874087)

LINESTRING (-121.637875 695.874087, -196.681701 400.261773)

LINESTRING (-196.681701 400.261773, -118.490376 101.830873)

LINESTRING (-118.490376 101.830873, 95.869768 -117.704341)

LINESTRING (95.869768 -117.704341, 396.040406 -197.367559)

LINESTRING (396.040406 -197.367559, 702.231347 -115.149594)

LINESTRING (702.231347 -115.149594, 921.807688 96.379019)

LINESTRING (921.807688 96.379019, 1000.558386 398.415368)

LINESTRING (1202.068061 400.580878, 1095.018763 801.673591)

LINESTRING (1095.018763 801.673591, 801.331528 1090.403958)

LINESTRING (801.331528 1090.403958, 399.840956 1197.293554)

LINESTRING (399.840956 1197.293554, -1.833189 1089.079847)

LINESTRING (-1.833189 1089.079847, -294.695930 800.073649)

LINESTRING (-294.695930 800.073649, -402.663923 399.983709)

LINESTRING (-402.663923 399.983709, -289.548606 3.617711)

LINESTRING (-289.548606 3.617711, 1.652701 -295.030529)

LINESTRING (1.652701 -295.030529, 401.659285 -398.823468)

LINESTRING (401.659285 -398.823468, 796.033313 -295.029119)

LINESTRING (796.033313 -295.029119, 1090.040810 -3.614638)

LINESTRING (1090.040810 -3.614638, 1202.068061 400.580878)

LINESTRING (1396.375952 402.354975, 1267.290661 903.662753)

LINESTRING (1267.290661 903.662753, 895.097187 1266.497217)

LINESTRING (895.097187 1266.497217, 404.297450 1399.250163)

LINESTRING (404.297450 1399.250163, -100.454969 1270.652660)

LINESTRING (-100.454969 1270.652660, -466.744276 899.711431)

LINESTRING (-466.744276 899.711431, -602.356607 404.779716)

LINESTRING (-602.356607 404.779716, -469.645558 -99.111208)

LINESTRING (-469.645558 -99.111208, -104.009053 -469.938521)

LINESTRING (-104.009053 -469.938521, 403.696933 -597.280335)

LINESTRING (403.696933 -597.280335, 900.777963 -464.046596)

LINESTRING (900.777963 -464.046596, 1261.701297 -104.084807)

LINESTRING (1261.701297 -104.084807, 1396.375952 402.354975)

LINESTRING (1602.718488 399.603967, 1438.195705 1004.454807)

LINESTRING (1438.195705 1004.454807, 999.203915 1442.966481)

LINESTRING (999.203915 1442.966481, 404.293900 1603.125767)

LINESTRING (404.293900 1603.125767, -197.442395 1440.271055)

LINESTRING (-197.442395 1440.271055, -643.954647 1003.002878)

LINESTRING (-643.954647 1003.002878, -796.363902 402.800183)

LINESTRING (-796.363902 402.800183, -636.135922 -196.985604)

LINESTRING (-636.135922 -196.985604, -198.603656 -635.152330)

LINESTRING (-198.603656 -635.152330, 402.507203 -802.142393)

LINESTRING (402.507203 -802.142393, 999.624375 -638.671951)

LINESTRING (999.624375 -638.671951, 1443.981484 -199.380704)

LINESTRING (1443.981484 -199.380704, 1602.718488 399.603967)

LINESTRING (595.140243 398.005522, 800.685055 397.274734)

LINESTRING (800.685055 397.274734, 1000.558386 398.415368)

LINESTRING (1000.558386 398.415368, 1202.068061 400.580878)

LINESTRING (1202.068061 400.580878, 1396.375952 402.354975)

LINESTRING (1396.375952 402.354975, 1602.718488 399.603967)

LINESTRING (577.922520 500.140479, 748.926735 595.221074)

LINESTRING (748.926735 595.221074, 918.264507 698.590940)

LINESTRING (918.264507 698.590940, 1095.018763 801.673591)

LINESTRING (1095.018763 801.673591, 1267.290661 903.662753)

LINESTRING (1267.290661 903.662753, 1438.195705 1004.454807)

LINESTRING (502.356248 572.831992, 603.341162 750.854486)

LINESTRING (603.341162 750.854486, 695.653689 920.672862)

LINESTRING (695.653689 920.672862, 801.331528 1090.403958)

LINESTRING (801.331528 1090.403958, 895.097187 1266.497217)

LINESTRING (895.097187 1266.497217, 999.203915 1442.966481)

LINESTRING (395.029180 599.908464, 395.995575 799.979654)

LINESTRING (395.995575 799.979654, 398.538504 998.047813)

LINESTRING (398.538504 998.047813, 399.840956 1197.293554)

LINESTRING (399.840956 1197.293554, 404.297450 1399.250163)

LINESTRING (404.297450 1399.250163, 404.293900 1603.125767)

LINESTRING (296.197412 568.636023, 199.180936 747.321965)

LINESTRING (199.180936 747.321965, 103.831969 923.945099)

LINESTRING (103.831969 923.945099, -1.833189 1089.079847)

LINESTRING (-1.833189 1089.079847, -100.454969 1270.652660)

LINESTRING (-100.454969 1270.652660, -197.442395 1440.271055)

LINESTRING (225.291370 495.167856, 54.372992 604.860602)

LINESTRING (54.372992 604.860602, -121.637875 695.874087)

LINESTRING (-121.637875 695.874087, -294.695930 800.073649)

LINESTRING (-294.695930 800.073649, -466.744276 899.711431)

LINESTRING (-466.744276 899.711431, -643.954647 1003.002878)

LINESTRING (204.957964 401.447398, -3.089749 404.375761)

LINESTRING (-3.089749 404.375761, -196.681701 400.261773)

LINESTRING (-196.681701 400.261773, -402.663923 399.983709)

LINESTRING (-402.663923 399.983709, -602.356607 404.779716)

LINESTRING (-602.356607 404.779716, -796.363902 402.800183)

LINESTRING (225.430816 299.386456, 55.567381 200.065002)

LINESTRING (55.567381 200.065002, -118.490376 101.830873)

LINESTRING (-118.490376 101.830873, -289.548606 3.617711)

LINESTRING (-289.548606 3.617711, -469.645558 -99.111208)

LINESTRING (-469.645558 -99.111208, -636.135922 -196.985604)

LINESTRING (297.078636 226.105554, 197.586149 54.256396)

LINESTRING (197.586149 54.256396, 95.869768 -117.704341)

LINESTRING (95.869768 -117.704341, 1.652701 -295.030529)

LINESTRING (1.652701 -295.030529, -104.009053 -469.938521)

LINESTRING (-104.009053 -469.938521, -198.603656 -635.152330)

LINESTRING (403.567691 201.350395, 402.336129 -2.311418)

LINESTRING (402.336129 -2.311418, 396.040406 -197.367559)

LINESTRING (396.040406 -197.367559, 401.659285 -398.823468)

LINESTRING (401.659285 -398.823468, 403.696933 -597.280335)

LINESTRING (403.696933 -597.280335, 402.507203 -802.142393)

LINESTRING (498.766414 228.090679, 595.246229 51.375129)

LINESTRING (595.246229 51.375129, 702.231347 -115.149594)

LINESTRING (702.231347 -115.149594, 796.033313 -295.029119)

LINESTRING (796.033313 -295.029119, 900.777963 -464.046596)

LINESTRING (900.777963 -464.046596, 999.624375 -638.671951)

LINESTRING (577.966458 298.562037, 743.661220 196.067924)

LINESTRING (743.661220 196.067924, 921.807688 96.379019)

LINESTRING (921.807688 96.379019, 1090.040810 -3.614638)

LINESTRING (1090.040810 -3.614638, 1261.701297 -104.084807)

LINESTRING (1261.701297 -104.084807, 1443.981484 -199.380704)

LINESTRING (400.000000 400.000000, 595.140243 398.005522)

