LINESTRING (80.000000 80.000000, 778.503749 125.743994)

LINESTRING (80.000000 80.000000, 464.177062 105.159197)

LINESTRING (464.177062 105.159197, 778.503749 125.743994)

LINESTRING (80.000000 80.000000, 677.244618 445.101173)

LINESTRING (80.000000 80.000000, 408.484540 280.805645)

LINESTRING (408.484540 280.805645, 677.244618 445.101173)

LINESTRING (80.000000 80.000000, 335.040060 731.885395)

LINESTRING (80.000000 80.000000, 220.272033 438.536967)

LINESTRING (220.272033 438.536967, 335.040060 731.885395)

LINESTRING (80.000000 80.000000, -143.359029 743.408429)

LINESTRING (80.000000 80.000000, -42.847466 444.874636)

LINESTRING (-42.847466 444.874636, -143.359029 743.408429)

LINESTRING (80.000000 80.000000, -454.783740 531.670623)

LINESTRING (80.000000 80.000000, -214.131057 328.418842)

LINESTRING (-214.131057 328.418842, -454.783740 531.670623)

LINESTRING (80.000000 80.000000, -618.622842 36.112363)

LINESTRING (80.000000 80.000000, -304.242563 55.861800)

LINESTRING (-304.242563 55.861800, -618.622842 36.112363)

LINESTRING (80.000000 80.000000, -452.154550 -374.765363)

LINESTRING (80.000000 80.000000, -212.685002 -170.120950)

LINESTRING (-212.685002 -170.120950, -452.154550 -374.765363)

LINESTRING (80.000000 80.000000, -114.436879 -592.453939)

LINESTRING (80.000000 80.000000, -26.940283 -289.849666)

LINESTRING (-26.940283 -289.849666, -114.436879 -592.453939)

LINESTRING (80.000000 80.000000, 290.262931 -587.674696)

LINESTRING (80.000000 80.000000, 195.644612 -287.221083)

LINESTRING (195.644612 -287.221083, 290.262931 -587.674696)

LINESTRING (80.000000 80.000000, 637.623997 -343.149475)

LINESTRING (80.000000 80.000000, 386.693198 -152.732211)

LINESTRING (386.693198 -152.732211, 637.623997 -343.149475)

LINESTRING (778.503749 125.743994, 677.244618 445.101173)

LINESTRING (677.244618 445.101173, 335.040060 731.885395)

LINESTRING (335.040060 731.885395, -143.359029 743.408429)

LINESTRING (-143.359029 743.408429, -454.783740 531.670623)

LINESTRING (-454.783740 531.670623, -618.622842 36.112363)

LINESTRING (-618.622842 36.112363, -452.154550 -374.765363)

LINESTRING (-452.154550 -374.765363, -114.436879 -592.453939)

LINESTRING (-114.436879 -592.453939, 290.262931 -587.674696)

LINESTRING (290.262931 -587.674696, 637.623997 -343.149475)

LINESTRING (637.623997 -343.149475, 778.503749 125.743994)

LINESTRING (280.000000 80.000000, 979.042508 116.600171)

LINESTRING (280.000000 80.000000, 664.473379 100.130094)

LINESTRING (664.473379 100.130094, 979.042508 116.600171)

LINESTRING (280.000000 80.000000, 849.328346 487.265558)

LINESTRING (280.000000 80.000000, 593.130590 303.996057)

LINESTRING (593.130590 303.996057, 849.328346 487.265558)

LINESTRING (280.000000 80.000000, 483.207053 749.855875)

LINESTRING (280.000000 80.000000, 391.763879 448.420731)

LINESTRING (391.763879 448.420731, 483.207053 749.855875)

LINESTRING (280.000000 80.000000, 116.107754 760.543409)

LINESTRING (280.000000 80.000000, 189.859265 454.298875)

LINESTRING (189.859265 454.298875, 116.107754 760.543409)

LINESTRING (280.000000 80.000000, -302.393946 468.352021)

LINESTRING (280.000000 80.000000, -40.316670 293.593612)

LINESTRING (-40.316670 293.593612, -302.393946 468.352021)

LINESTRING (280.000000 80.000000, -419.993841 82.936353)

LINESTRING (280.000000 80.000000, -104.996613 81.614994)

LINESTRING (-104.996613 81.614994, -419.993841 82.936353)

LINESTRING (280.000000 80.000000, -297.739865 -315.242519)

LINESTRING (280.000000 80.000000, -37.756925 -137.383386)

LINESTRING (-37.756925 -137.383386, -297.739865 -315.242519)

LINESTRING (280.000000 80.000000, 66.913940 -586.779072)

LINESTRING (280.000000 80.000000, 162.802667 -286.728490)

LINESTRING (162.802667 -286.728490, 66.913940 -586.779072)

LINESTRING (280.000000 80.000000, 454.235878 -597.968922)

LINESTRING (280.000000 80.000000, 375.829733 -292.882907)

LINESTRING (375.829733 -292.882907, 454.235878 -597.968922)

LINESTRING (280.000000 80.000000, 860.208958 -311.608945)

LINESTRING (280.000000 80.000000, 599.114927 -135.384920)

LINESTRING (599.114927 -135.384920, 860.208958 -311.608945)

LINESTRING (979.042508 116.600171, 849.328346 487.265558)

LINESTRING (849.328346 487.265558, 483.207053 749.855875)

LINESTRING (483.207053 749.855875, 116.107754 760.543409)

LINESTRING (116.107754 760.543409, -302.393946 468.352021)

LINESTRING (-302.393946 468.352021, -419.993841 82.936353)

LINESTRING (-419.993841 82.936353, -297.739865 -315.242519)

LINESTRING (-297.739865 -315.242519, 66.913940 -586.779072)

LINESTRING (66.913940 -586.779072, 454.235878 -597.968922)

LINESTRING (454.235878 -597.968922, 860.208958 -311.608945)

LINESTRING (860.208958 -311.608945, 979.042508 116.600171)

LINESTRING (80.000000 80.000000, 280.000000 80.000000)

