LINESTRING (52.857957 51.713343, 128.614809 21.322217)

LINESTRING (128.614809 21.322217, 269.745150 47.249408)

LINESTRING (269.745150 47.249408, 337.447127 48.077298)

LINESTRING (337.447127 48.077298, 431.734181 72.735979)

LINESTRING (431.734181 72.735979, 571.352324 53.401713)

LINESTRING (571.352324 53.401713, 642.054328 24.006023)

LINESTRING (642.054328 24.006023, 743.268467 58.182426)

LINESTRING (743.268467 58.182426, 865.969270 77.645830)

LINESTRING (865.969270 77.645830, 940.283946 74.327909)

LINESTRING (940.283946 74.327909, 1035.094009 38.378240)

LINESTRING (1035.094009 38.378240, 1121.596990 36.507545)

LINESTRING (1121.596990 36.507545, 1256.204311 77.727972)

LINESTRING (1256.204311 77.727972, 1365.618675 48.276633)

LINESTRING (1365.618675 48.276633, 1463.950191 75.117535)

LINESTRING (1463.950191 75.117535, 1558.857689 49.196027)

LINESTRING (1558.857689 49.196027, 1667.325184 78.150641)

LINESTRING (1667.325184 78.150641, 1726.404926 20.795370)

LINESTRING (1726.404926 20.795370, 1874.887567 62.092204)

LINESTRING (46.813609 160.404074, 141.193144 130.949372)

LINESTRING (141.193144 130.949372, 233.127345 169.190466)

LINESTRING (233.127345 169.190466, 365.729545 123.638574)

LINESTRING (365.729545 123.638574, 433.960190 150.873932)

LINESTRING (433.960190 150.873932, 551.629800 133.026097)

LINESTRING (551.629800 133.026097, 658.695835 177.526229)

LINESTRING (658.695835 177.526229, 737.617988 158.547405)

LINESTRING (737.617988 158.547405, 843.877686 168.293729)

LINESTRING (843.877686 168.293729, 955.125448 164.840570)

LINESTRING (955.125448 164.840570, 1021.401695 153.967816)

LINESTRING (1021.401695 153.967816, 1131.154739 149.432693)

LINESTRING (1131.154739 149.432693, 1237.654059 142.624026)

LINESTRING (1237.654059 142.624026, 1354.718942 172.985771)

LINESTRING (1354.718942 172.985771, 1424.784159 146.818749)

LINESTRING (1424.784159 146.818749, 1566.124387 148.506845)

LINESTRING (1566.124387 148.506845, 1636.938086 125.254465)

LINESTRING (1636.938086 125.254465, 1763.488872 122.149013)

LINESTRING (1763.488872 122.149013, 1877.591747 167.565099)

LINESTRING (23.492770 233.667303, 143.179466 248.285942)

LINESTRING (143.179466 248.285942, 232.549720 253.888234)

LINESTRING (232.549720 253.888234, 336.983271 223.006633)

LINESTRING (336.983271 223.006633, 421.733391 268.626403)

LINESTRING (421.733391 268.626403, 543.754924 246.631362)

LINESTRING (543.754924 246.631362, 635.111729 243.389830)

LINESTRING (635.111729 243.389830, 722.657190 262.178060)

LINESTRING (722.657190 262.178060, 826.890431 231.631323)

LINESTRING (826.890431 231.631323, 949.111693 276.805853)

LINESTRING (949.111693 276.805853, 1062.971371 235.213831)

LINESTRING (1062.971371 235.213831, 1134.713296 250.044689)

LINESTRING (1134.713296 250.044689, 1254.629558 242.204369)

LINESTRING (1254.629558 242.204369, 1367.343272 227.024020)

LINESTRING (1367.343272 227.024020, 1479.025937 232.296591)

LINESTRING (1479.025937 232.296591, 1543.524169 271.120289)

LINESTRING (1543.524169 271.120289, 1642.503817 266.968728)

LINESTRING (1642.503817 266.968728, 1771.355821 263.734509)

LINESTRING (1771.355821 263.734509, 1833.087079 260.989767)

LINESTRING (30.992228 361.368487, 158.277204 359.731927)

LINESTRING (158.277204 359.731927, 224.952705 379.023501)

LINESTRING (224.952705 379.023501, 352.605936 333.266020)

LINESTRING (352.605936 333.266020, 437.838857 378.049108)

LINESTRING (437.838857 378.049108, 564.355611 322.039837)

LINESTRING (564.355611 322.039837, 629.086621 324.820361)

LINESTRING (629.086621 324.820361, 743.324343 358.990230)

LINESTRING (743.324343 358.990230, 824.306574 363.924649)

LINESTRING (824.306574 363.924649, 952.984283 372.748666)

LINESTRING (952.984283 372.748666, 1061.822173 377.668028)

LINESTRING (1061.822173 377.668028, 1143.820123 360.671142)

LINESTRING (1143.820123 360.671142, 1231.862057 320.570062)

LINESTRING (1231.862057 320.570062, 1373.704242 338.671876)

LINESTRING (1373.704242 338.671876, 1462.021879 352.815662)

LINESTRING (1462.021879 352.815662, 1554.421580 347.475628)

LINESTRING (1554.421580 347.475628, 1653.517370 355.338419)

LINESTRING (1653.517370 355.338419, 1738.364260 357.050426)

LINESTRING (1738.364260 357.050426, 1856.283760 345.116574)

LINESTRING (23.626422 422.978118, 165.058227 459.455071)

LINESTRING (165.058227 459.455071, 233.584333 479.955467)

LINESTRING (233.584333 479.955467, 370.443028 447.493967)

LINESTRING (370.443028 447.493967, 452.445107 449.465594)

LINESTRING (452.445107 449.465594, 561.223935 447.180130)

LINESTRING (561.223935 447.180130, 662.015008 473.018646)

LINESTRING (662.015008 473.018646, 723.286380 460.670233)

LINESTRING (723.286380 460.670233, 827.551611 436.345094)

LINESTRING (827.551611 436.345094, 969.144104 447.555579)

LINESTRING (969.144104 447.555579, 1068.708002 448.026237)

LINESTRING (1068.708002 448.026237, 1147.825132 421.399272)

LINESTRING (1147.825132 421.399272, 1240.023947 437.704300)

LINESTRING (1240.023947 437.704300, 1369.142808 448.484037)

LINESTRING (1369.142808 448.484037, 1458.836247 467.518272)

LINESTRING (1458.836247 467.518272, 1535.676345 430.193326)

LINESTRING (1535.676345 430.193326, 1664.624732 443.800070)

LINESTRING (1664.624732 443.800070, 1725.058649 431.695482)

LINESTRING (1725.058649 431.695482, 1865.889966 430.095173)

LINESTRING (53.268607 540.946941, 144.329964 577.007438)

LINESTRING (144.329964 577.007438, 256.103227 569.703022)

LINESTRING (256.103227 569.703022, 336.610930 536.830881)

LINESTRING (336.610930 536.830881, 423.857559 538.033710)

LINESTRING (423.857559 538.033710, 570.848211 521.403695)

LINESTRING (570.848211 521.403695, 643.048969 525.232829)

LINESTRING (643.048969 525.232829, 720.176427 572.099093)

LINESTRING (720.176427 572.099093, 874.855763 537.956950)

LINESTRING (874.855763 537.956950, 952.193184 575.428272)

LINESTRING (952.193184 575.428272, 1064.641239 533.689139)

LINESTRING (1064.641239 533.689139, 1137.784180 540.150417)

LINESTRING (1137.784180 540.150417, 1225.529781 563.018890)

LINESTRING (1225.529781 563.018890, 1345.622237 543.656370)

LINESTRING (1345.622237 543.656370, 1469.605451 525.606229)

LINESTRING (1469.605451 525.606229, 1522.002719 523.707627)

LINESTRING (1522.002719 523.707627, 1631.547763 547.378903)

LINESTRING (1631.547763 547.378903, 1768.303900 570.608743)

LINESTRING (1768.303900 570.608743, 1825.277888 553.524315)

LINESTRING (24.758950 621.533417, 150.939758 657.997212)

LINESTRING (150.939758 657.997212, 263.819904 635.045077)

LINESTRING (263.819904 635.045077, 363.310541 621.151954)

LINESTRING (363.310541 621.151954, 441.346784 661.222440)

LINESTRING (441.346784 661.222440, 557.384001 677.301399)

LINESTRING (557.384001 677.301399, 676.966433 670.390857)

LINESTRING (676.966433 670.390857, 728.886254 669.406042)

LINESTRING (728.886254 669.406042, 835.323113 676.745058)

LINESTRING (835.323113 676.745058, 939.249413 631.050230)

LINESTRING (939.249413 631.050230, 1066.735297 639.403783)

LINESTRING (1066.735297 639.403783, 1157.209191 659.128159)

LINESTRING (1157.209191 659.128159, 1224.860712 644.135696)

LINESTRING (1224.860712 644.135696, 1341.589219 660.131956)

LINESTRING (1341.589219 660.131956, 1458.375437 677.224009)

LINESTRING (1458.375437 677.224009, 1541.211723 633.445875)

LINESTRING (1541.211723 633.445875, 1647.011909 646.665526)

LINESTRING (1647.011909 646.665526, 1749.111908 626.577426)

LINESTRING (1749.111908 626.577426, 1856.393676 627.761618)

LINESTRING (29.328698 738.205061, 173.079533 768.677676)

LINESTRING (173.079533 768.677676, 258.617675 730.290514)

LINESTRING (258.617675 730.290514, 379.485666 743.091566)

LINESTRING (379.485666 743.091566, 430.337650 741.839982)

LINESTRING (430.337650 741.839982, 574.181332 736.760030)

LINESTRING (574.181332 736.760030, 624.302340 774.540071)

LINESTRING (624.302340 774.540071, 748.639826 764.042130)

LINESTRING (748.639826 764.042130, 839.136106 776.473925)

LINESTRING (839.136106 776.473925, 925.598410 746.126652)

LINESTRING (925.598410 746.126652, 1028.665337 758.878627)

LINESTRING (1028.665337 758.878627, 1179.253584 758.030246)

LINESTRING (1179.253584 758.030246, 1230.710754 751.709967)

LINESTRING (1230.710754 751.709967, 1365.294786 723.197964)

LINESTRING (1365.294786 723.197964, 1438.576765 751.793710)

LINESTRING (1438.576765 751.793710, 1574.510489 760.343798)

LINESTRING (1574.510489 760.343798, 1628.053696 744.810518)

LINESTRING (1628.053696 744.810518, 1760.433898 766.469802)

LINESTRING (1760.433898 766.469802, 1872.420425 750.060389)

LINESTRING (51.668063 820.725288, 158.535033 835.195726)

LINESTRING (158.535033 835.195726, 247.496536 826.281877)

LINESTRING (247.496536 826.281877, 361.018784 852.584807)

LINESTRING (361.018784 852.584807, 472.700736 847.081048)

LINESTRING (472.700736 847.081048, 550.302313 837.612935)

LINESTRING (550.302313 837.612935, 646.824906 845.577644)

LINESTRING (646.824906 845.577644, 737.036310 846.830996)

LINESTRING (737.036310 846.830996, 825.555927 872.351816)

LINESTRING (825.555927 872.351816, 923.621249 876.983392)

LINESTRING (923.621249 876.983392, 1063.601586 850.339555)

LINESTRING (1063.601586 850.339555, 1145.563458 856.284308)

LINESTRING (1145.563458 856.284308, 1238.355102 853.123695)

LINESTRING (1238.355102 853.123695, 1353.019274 836.624970)

LINESTRING (1353.019274 836.624970, 1476.248335 822.181643)

LINESTRING (1476.248335 822.181643, 1564.719431 854.084147)

LINESTRING (1564.719431 854.084147, 1657.560363 849.434122)

LINESTRING (1657.560363 849.434122, 1768.870871 864.520020)

LINESTRING (1768.870871 864.520020, 1846.891853 849.353285)

LINESTRING (47.006244 954.028409, 179.421816 922.445145)

LINESTRING (179.421816 922.445145, 272.006292 931.951798)

LINESTRING (272.006292 931.951798, 365.497211 969.114254)

LINESTRING (365.497211 969.114254, 467.617161 947.992740)

LINESTRING (467.617161 947.992740, 570.358708 943.917083)

LINESTRING (570.358708 943.917083, 672.528152 973.826202)

LINESTRING (672.528152 973.826202, 750.666293 925.701389)

LINESTRING (750.666293 925.701389, 861.916845 943.149654)

LINESTRING (861.916845 943.149654, 921.679044 936.431204)

LINESTRING (921.679044 936.431204, 1027.660689 935.600735)

LINESTRING (1027.660689 935.600735, 1167.987546 933.685662)

LINESTRING (1167.987546 933.685662, 1250.036465 975.269152)

LINESTRING (1250.036465 975.269152, 1347.419452 962.413792)

LINESTRING (1347.419452 962.413792, 1452.642799 965.849264)

LINESTRING (1452.642799 965.849264, 1568.999051 927.203414)

LINESTRING (1568.999051 927.203414, 1667.680290 932.471184)

LINESTRING (1667.680290 932.471184, 1728.780873 978.010035)

LINESTRING (1728.780873 978.010035, 1849.618384 958.709385)

LINESTRING (53.471719 1021.326201, 152.743115 1023.431509)

LINESTRING (152.743115 1023.431509, 222.115843 1032.425240)

LINESTRING (222.115843 1032.425240, 320.755076 1032.159053)

LINESTRING (320.755076 1032.159053, 424.294071 1068.422369)

LINESTRING (424.294071 1068.422369, 528.167766 1040.000127)

LINESTRING (528.167766 1040.000127, 624.573393 1028.401426)

LINESTRING (624.573393 1028.401426, 725.211076 1065.577057)

LINESTRING (725.211076 1065.577057, 850.705705 1065.062260)

LINESTRING (850.705705 1065.062260, 947.533055 1060.158516)

LINESTRING (947.533055 1060.158516, 1069.919693 1074.972880)

LINESTRING (1069.919693 1074.972880, 1124.170506 1029.826589)

LINESTRING (1124.170506 1029.826589, 1247.671678 1071.175168)

LINESTRING (1247.671678 1071.175168, 1321.432143 1036.367147)

LINESTRING (1321.432143 1036.367147, 1439.237693 1035.759786)

LINESTRING (1439.237693 1035.759786, 1540.310886 1047.018445)

LINESTRING (1540.310886 1047.018445, 1657.248902 1073.550832)

LINESTRING (1657.248902 1073.550832, 1755.085851 1060.473103)

LINESTRING (1755.085851 1060.473103, 1866.101572 1078.936771)

LINESTRING (31.313411 1161.125019, 160.249991 1131.724569)

LINESTRING (160.249991 1131.724569, 254.025601 1164.181972)

LINESTRING (254.025601 1164.181972, 359.069870 1146.970150)

LINESTRING (359.069870 1146.970150, 458.310344 1179.651557)

LINESTRING (458.310344 1179.651557, 536.035872 1128.692476)

LINESTRING (536.035872 1128.692476, 643.499226 1122.287907)

LINESTRING (643.499226 1122.287907, 743.319879 1136.095927)

LINESTRING (743.319879 1136.095927, 870.090508 1150.162331)

LINESTRING (870.090508 1150.162331, 967.972767 1145.336403)

LINESTRING (967.972767 1145.336403, 1065.623403 1163.739684)

LINESTRING (1065.623403 1163.739684, 1138.744065 1178.220751)

LINESTRING (1138.744065 1178.220751, 1240.245655 1179.744093)

LINESTRING (1240.245655 1179.744093, 1339.215343 1142.832911)

LINESTRING (1339.215343 1142.832911, 1462.809472 1159.294668)

LINESTRING (1462.809472 1159.294668, 1573.236249 1152.733377)

LINESTRING (1573.236249 1152.733377, 1660.320044 1127.804222)

LINESTRING (1660.320044 1127.804222, 1756.005930 1139.532713)

LINESTRING (1756.005930 1139.532713, 1831.550041 1130.857794)

LINESTRING (76.622633 1257.022775, 151.663524 1256.308744)

LINESTRING (151.663524 1256.308744, 225.805336 1273.215002)

LINESTRING (225.805336 1273.215002, 359.613377 1267.966021)

LINESTRING (359.613377 1267.966021, 439.559436 1227.052808)

LINESTRING (439.559436 1227.052808, 560.242324 1267.326017)

LINESTRING (560.242324 1267.326017, 662.181546 1248.912961)

LINESTRING (662.181546 1248.912961, 758.148652 1228.275513)

LINESTRING (758.148652 1228.275513, 821.201967 1256.357032)

LINESTRING (821.201967 1256.357032, 962.088269 1266.020316)

LINESTRING (962.088269 1266.020316, 1037.043580 1229.649636)

LINESTRING (1037.043580 1229.649636, 1166.704836 1264.736053)

LINESTRING (1166.704836 1264.736053, 1236.606761 1279.030011)

LINESTRING (1236.606761 1279.030011, 1332.053499 1258.988819)

LINESTRING (1332.053499 1258.988819, 1440.114116 1245.735692)

LINESTRING (1440.114116 1245.735692, 1548.648372 1248.035149)

LINESTRING (1548.648372 1248.035149, 1659.787522 1231.362354)

LINESTRING (1659.787522 1231.362354, 1765.159999 1226.448322)

LINESTRING (1765.159999 1226.448322, 1869.553531 1226.808252)

LINESTRING (20.550344 1336.547095, 144.838412 1345.848726)

LINESTRING (144.838412 1345.848726, 275.711004 1343.027712)

LINESTRING (275.711004 1343.027712, 330.995301 1361.092395)

LINESTRING (330.995301 1361.092395, 464.529502 1367.787644)

LINESTRING (464.529502 1367.787644, 546.057290 1333.707596)

LINESTRING (546.057290 1333.707596, 648.104221 1358.356942)

LINESTRING (648.104221 1358.356942, 720.492188 1348.717258)

LINESTRING (720.492188 1348.717258, 839.915774 1371.974504)

LINESTRING (839.915774 1371.974504, 978.363905 1347.280721)

LINESTRING (978.363905 1347.280721, 1059.723141 1374.410032)

LINESTRING (1059.723141 1374.410032, 1170.719379 1362.854317)

LINESTRING (1170.719379 1362.854317, 1247.703494 1361.696486)

LINESTRING (1247.703494 1361.696486, 1373.265269 1324.072250)

LINESTRING (1373.265269 1324.072250, 1449.294020 1364.646950)

LINESTRING (1449.294020 1364.646950, 1546.232726 1379.364125)

LINESTRING (1546.232726 1379.364125, 1660.522508 1359.547780)

LINESTRING (1660.522508 1359.547780, 1776.331503 1377.584929)

LINESTRING (1776.331503 1377.584929, 1823.642194 1332.071284)

LINESTRING (73.818022 1464.493495, 166.602687 1448.864741)

LINESTRING (166.602687 1448.864741, 251.149792 1456.741511)

LINESTRING (251.149792 1456.741511, 327.957291 1468.137709)

LINESTRING (327.957291 1468.137709, 471.360558 1457.117556)

LINESTRING (471.360558 1457.117556, 563.034316 1466.401601)

LINESTRING (563.034316 1466.401601, 633.128890 1451.576962)

LINESTRING (633.128890 1451.576962, 753.185211 1429.134269)

LINESTRING (753.185211 1429.134269, 823.833739 1443.637779)

LINESTRING (823.833739 1443.637779, 952.015983 1433.206005)

LINESTRING (952.015983 1433.206005, 1023.695300 1456.957955)

LINESTRING (1023.695300 1456.957955, 1172.040934 1463.790066)

LINESTRING (1172.040934 1463.790066, 1223.306894 1429.931798)

LINESTRING (1223.306894 1429.931798, 1321.992270 1475.065727)

LINESTRING (1321.992270 1475.065727, 1424.961792 1425.041624)

LINESTRING (1424.961792 1425.041624, 1555.507545 1466.227517)

LINESTRING (1555.507545 1466.227517, 1648.067942 1431.155395)

LINESTRING (1648.067942 1431.155395, 1747.435395 1454.813626)

LINESTRING (1747.435395 1454.813626, 1876.763648 1443.191324)

LINESTRING (20.730939 1525.573328, 138.760620 1571.568538)

LINESTRING (138.760620 1571.568538, 222.089257 1559.092455)

LINESTRING (222.089257 1559.092455, 340.527352 1560.460564)

LINESTRING (340.527352 1560.460564, 461.974171 1552.401923)

LINESTRING (461.974171 1552.401923, 543.268963 1568.556533)

LINESTRING (543.268963 1568.556533, 637.287448 1561.347340)

LINESTRING (637.287448 1561.347340, 731.648428 1544.173143)

LINESTRING (731.648428 1544.173143, 864.571581 1572.119069)

LINESTRING (864.571581 1572.119069, 969.253260 1533.044774)

LINESTRING (969.253260 1533.044774, 1026.682012 1572.241879)

LINESTRING (1026.682012 1572.241879, 1120.406144 1542.064281)

LINESTRING (1120.406144 1542.064281, 1268.766318 1563.496135)

LINESTRING (1268.766318 1563.496135, 1336.269813 1556.255111)

LINESTRING (1336.269813 1556.255111, 1463.089822 1553.746284)

LINESTRING (1463.089822 1553.746284, 1535.798094 1535.831508)

LINESTRING (1535.798094 1535.831508, 1674.320440 1570.677873)

LINESTRING (1674.320440 1570.677873, 1774.077709 1522.118505)

LINESTRING (1774.077709 1522.118505, 1867.416186 1554.396046)

LINESTRING (45.306895 1624.336042, 142.553843 1675.711732)

LINESTRING (142.553843 1675.711732, 276.933000 1631.709895)

LINESTRING (276.933000 1631.709895, 327.891642 1670.972978)

LINESTRING (327.891642 1670.972978, 434.885189 1656.372252)

LINESTRING (434.885189 1656.372252, 572.384344 1643.529536)

LINESTRING (572.384344 1643.529536, 663.332495 1641.628672)

LINESTRING (663.332495 1641.628672, 764.724419 1653.707371)

LINESTRING (764.724419 1653.707371, 836.242985 1652.593835)

LINESTRING (836.242985 1652.593835, 974.359475 1656.772568)

LINESTRING (974.359475 1656.772568, 1030.740331 1639.927945)

LINESTRING (1030.740331 1639.927945, 1149.344856 1667.130902)

LINESTRING (1149.344856 1667.130902, 1233.626395 1622.087002)

LINESTRING (1233.626395 1622.087002, 1325.755377 1653.195199)

LINESTRING (1325.755377 1653.195199, 1441.303502 1679.838664)

LINESTRING (1441.303502 1679.838664, 1539.714126 1677.672828)

LINESTRING (1539.714126 1677.672828, 1663.374238 1663.062540)

LINESTRING (1663.374238 1663.062540, 1721.055550 1657.278908)

LINESTRING (1721.055550 1657.278908, 1822.068142 1651.055766)

LINESTRING (50.441819 1767.565318, 167.555142 1722.103536)

LINESTRING (167.555142 1722.103536, 272.164344 1722.628093)

LINESTRING (272.164344 1722.628093, 348.493351 1779.459791)

LINESTRING (348.493351 1779.459791, 465.271466 1762.839084)

LINESTRING (465.271466 1762.839084, 565.011609 1758.618440)

LINESTRING (565.011609 1758.618440, 650.374722 1736.737108)

LINESTRING (650.374722 1736.737108, 722.260808 1758.273710)

LINESTRING (722.260808 1758.273710, 860.303167 1723.320034)

LINESTRING (860.303167 1723.320034, 925.923191 1756.456572)

LINESTRING (925.923191 1756.456572, 1049.373612 1725.706630)

LINESTRING (1049.373612 1725.706630, 1173.232194 1751.376783)

LINESTRING (1173.232194 1751.376783, 1227.837725 1729.372265)

LINESTRING (1227.837725 1729.372265, 1373.640435 1746.336231)

LINESTRING (1373.640435 1746.336231, 1463.807047 1776.928877)

LINESTRING (1463.807047 1776.928877, 1520.304311 1721.350529)

LINESTRING (1520.304311 1721.350529, 1647.374235 1744.017412)

LINESTRING (1647.374235 1744.017412, 1735.362550 1757.107505)

LINESTRING (1735.362550 1757.107505, 1850.979466 1721.985793)

LINESTRING (44.074124 1839.150323, 169.541809 1831.334158)

LINESTRING (169.541809 1831.334158, 268.943420 1850.931458)

LINESTRING (268.943420 1850.931458, 367.958751 1871.535386)

LINESTRING (367.958751 1871.535386, 470.242713 1842.264755)

LINESTRING (470.242713 1842.264755, 577.528980 1862.316974)

LINESTRING (577.528980 1862.316974, 665.152720 1869.066258)

LINESTRING (665.152720 1869.066258, 745.311809 1876.956771)

LINESTRING (745.311809 1876.956771, 836.394344 1872.146641)

LINESTRING (836.394344 1872.146641, 954.371459 1853.140694)

LINESTRING (954.371459 1853.140694, 1049.362388 1846.989525)

LINESTRING (1049.362388 1846.989525, 1158.087018 1863.481731)

LINESTRING (1158.087018 1863.481731, 1274.398235 1857.385978)

LINESTRING (1274.398235 1857.385978, 1336.986824 1859.822090)

LINESTRING (1336.986824 1859.822090, 1438.629170 1863.968277)

LINESTRING (1438.629170 1863.968277, 1545.045555 1861.890520)

LINESTRING (1545.045555 1861.890520, 1621.324387 1832.187367)

LINESTRING (1621.324387 1832.187367, 1764.107806 1840.441221)

LINESTRING (1764.107806 1840.441221, 1863.196384 1841.413226)

LINESTRING (52.857957 51.713343, 46.813609 160.404074)

LINESTRING (128.614809 21.322217, 141.193144 130.949372)

LINESTRING (269.745150 47.249408, 233.127345 169.190466)

LINESTRING (337.447127 48.077298, 365.729545 123.638574)

LINESTRING (431.734181 72.735979, 433.960190 150.873932)

LINESTRING (571.352324 53.401713, 551.629800 133.026097)

LINESTRING (642.054328 24.006023, 658.695835 177.526229)

LINESTRING (743.268467 58.182426, 737.617988 158.547405)

LINESTRING (865.969270 77.645830, 843.877686 168.293729)

LINESTRING (940.283946 74.327909, 955.125448 164.840570)

LINESTRING (1035.094009 38.378240, 1021.401695 153.967816)

LINESTRING (1121.596990 36.507545, 1131.154739 149.432693)

LINESTRING (1256.204311 77.727972, 1237.654059 142.624026)

LINESTRING (1365.618675 48.276633, 1354.718942 172.985771)

LINESTRING (1463.950191 75.117535, 1424.784159 146.818749)

LINESTRING (1558.857689 49.196027, 1566.124387 148.506845)

LINESTRING (1667.325184 78.150641, 1636.938086 125.254465)

LINESTRING (1726.404926 20.795370, 1763.488872 122.149013)

LINESTRING (1874.887567 62.092204, 1877.591747 167.565099)

LINESTRING (46.813609 160.404074, 23.492770 233.667303)

LINESTRING (141.193144 130.949372, 143.179466 248.285942)

LINESTRING (233.127345 169.190466, 232.549720 253.888234)

LINESTRING (365.729545 123.638574, 336.983271 223.006633)

LINESTRING (433.960190 150.873932, 421.733391 268.626403)

LINESTRING (551.629800 133.026097, 543.754924 246.631362)

LINESTRING (658.695835 177.526229, 635.111729 243.389830)

LINESTRING (737.617988 158.547405, 722.657190 262.178060)

LINESTRING (843.877686 168.293729, 826.890431 231.631323)

LINESTRING (955.125448 164.840570, 949.111693 276.805853)

LINESTRING (1021.401695 153.967816, 1062.971371 235.213831)

LINESTRING (1131.154739 149.432693, 1134.713296 250.044689)

LINESTRING (1237.654059 142.624026, 1254.629558 242.204369)

LINESTRING (1354.718942 172.985771, 1367.343272 227.024020)

LINESTRING (1424.784159 146.818749, 1479.025937 232.296591)

LINESTRING (1566.124387 148.506845, 1543.524169 271.120289)

LINESTRING (1636.938086 125.254465, 1642.503817 266.968728)

LINESTRING (1763.488872 122.149013, 1771.355821 263.734509)

LINESTRING (1877.591747 167.565099, 1833.087079 260.989767)

LINESTRING (23.492770 233.667303, 30.992228 361.368487)

LINESTRING (143.179466 248.285942, 158.277204 359.731927)

LINESTRING (232.549720 253.888234, 224.952705 379.023501)

LINESTRING (336.983271 223.006633, 352.605936 333.266020)

LINESTRING (421.733391 268.626403, 437.838857 378.049108)

LINESTRING (543.754924 246.631362, 564.355611 322.039837)

LINESTRING (635.111729 243.389830, 629.086621 324.820361)

LINESTRING (722.657190 262.178060, 743.324343 358.990230)

LINESTRING (826.890431 231.631323, 824.306574 363.924649)

LINESTRING (949.111693 276.805853, 952.984283 372.748666)

LINESTRING (1062.971371 235.213831, 1061.822173 377.668028)

LINESTRING (1134.713296 250.044689, 1143.820123 360.671142)

LINESTRING (1254.629558 242.204369, 1231.862057 320.570062)

LINESTRING (1367.343272 227.024020, 1373.704242 338.671876)

LINESTRING (1479.025937 232.296591, 1462.021879 352.815662)

LINESTRING (1543.524169 271.120289, 1554.421580 347.475628)

LINESTRING (1642.503817 266.968728, 1653.517370 355.338419)

LINESTRING (1771.355821 263.734509, 1738.364260 357.050426)

LINESTRING (1833.087079 260.989767, 1856.283760 345.116574)

LINESTRING (30.992228 361.368487, 23.626422 422.978118)

LINESTRING (158.277204 359.731927, 165.058227 459.455071)

LINESTRING (224.952705 379.023501, 233.584333 479.955467)

LINESTRING (352.605936 333.266020, 370.443028 447.493967)

LINESTRING (437.838857 378.049108, 452.445107 449.465594)

LINESTRING (564.355611 322.039837, 561.223935 447.180130)

LINESTRING (629.086621 324.820361, 662.015008 473.018646)

LINESTRING (743.324343 358.990230, 723.286380 460.670233)

LINESTRING (824.306574 363.924649, 827.551611 436.345094)

LINESTRING (952.984283 372.748666, 969.144104 447.555579)

LINESTRING (1061.822173 377.668028, 1068.708002 448.026237)

LINESTRING (1143.820123 360.671142, 1147.825132 421.399272)

LINESTRING (1231.862057 320.570062, 1240.023947 437.704300)

LINESTRING (1373.704242 338.671876, 1369.142808 448.484037)

LINESTRING (1462.021879 352.815662, 1458.836247 467.518272)

LINESTRING (1554.421580 347.475628, 1535.676345 430.193326)

LINESTRING (1653.517370 355.338419, 1664.624732 443.800070)

LINESTRING (1738.364260 357.050426, 1725.058649 431.695482)

LINESTRING (1856.283760 345.116574, 1865.889966 430.095173)

LINESTRING (23.626422 422.978118, 53.268607 540.946941)

LINESTRING (165.058227 459.455071, 144.329964 577.007438)

LINESTRING (233.584333 479.955467, 256.103227 569.703022)

LINESTRING (370.443028 447.493967, 336.610930 536.830881)

LINESTRING (452.445107 449.465594, 423.857559 538.033710)

LINESTRING (561.223935 447.180130, 570.848211 521.403695)

LINESTRING (662.015008 473.018646, 643.048969 525.232829)

LINESTRING (723.286380 460.670233, 720.176427 572.099093)

LINESTRING (827.551611 436.345094, 874.855763 537.956950)

LINESTRING (969.144104 447.555579, 952.193184 575.428272)

LINESTRING (1068.708002 448.026237, 1064.641239 533.689139)

LINESTRING (1147.825132 421.399272, 1137.784180 540.150417)

LINESTRING (1240.023947 437.704300, 1225.529781 563.018890)

LINESTRING (1369.142808 448.484037, 1345.622237 543.656370)

LINESTRING (1458.836247 467.518272, 1469.605451 525.606229)

LINESTRING (1535.676345 430.193326, 1522.002719 523.707627)

LINESTRING (1664.624732 443.800070, 1631.547763 547.378903)

LINESTRING (1725.058649 431.695482, 1768.303900 570.608743)

LINESTRING (1865.889966 430.095173, 1825.277888 553.524315)

LINESTRING (53.268607 540.946941, 24.758950 621.533417)

LINESTRING (144.329964 577.007438, 150.939758 657.997212)

LINESTRING (256.103227 569.703022, 263.819904 635.045077)

LINESTRING (336.610930 536.830881, 363.310541 621.151954)

LINESTRING (423.857559 538.033710, 441.346784 661.222440)

LINESTRING (570.848211 521.403695, 557.384001 677.301399)

LINESTRING (643.048969 525.232829, 676.966433 670.390857)

LINESTRING (720.176427 572.099093, 728.886254 669.406042)

LINESTRING (874.855763 537.956950, 835.323113 676.745058)

LINESTRING (952.193184 575.428272, 939.249413 631.050230)

LINESTRING (1064.641239 533.689139, 1066.735297 639.403783)

LINESTRING (1137.784180 540.150417, 1157.209191 659.128159)

LINESTRING (1225.529781 563.018890, 1224.860712 644.135696)

LINESTRING (1345.622237 543.656370, 1341.589219 660.131956)

LINESTRING (1469.605451 525.606229, 1458.375437 677.224009)

LINESTRING (1522.002719 523.707627, 1541.211723 633.445875)

LINESTRING (1631.547763 547.378903, 1647.011909 646.665526)

LINESTRING (1768.303900 570.608743, 1749.111908 626.577426)

LINESTRING (1825.277888 553.524315, 1856.393676 627.761618)

LINESTRING (24.758950 621.533417, 29.328698 738.205061)

LINESTRING (150.939758 657.997212, 173.079533 768.677676)

LINESTRING (263.819904 635.045077, 258.617675 730.290514)

LINESTRING (363.310541 621.151954, 379.485666 743.091566)

LINESTRING (441.346784 661.222440, 430.337650 741.839982)

LINESTRING (557.384001 677.301399, 574.181332 736.760030)

LINESTRING (676.966433 670.390857, 624.302340 774.540071)

LINESTRING (728.886254 669.406042, 748.639826 764.042130)

LINESTRING (835.323113 676.745058, 839.136106 776.473925)

LINESTRING (939.249413 631.050230, 925.598410 746.126652)

LINESTRING (1066.735297 639.403783, 1028.665337 758.878627)

LINESTRING (1157.209191 659.128159, 1179.253584 758.030246)

LINESTRING (1224.860712 644.135696, 1230.710754 751.709967)

LINESTRING (1341.589219 660.131956, 1365.294786 723.197964)

LINESTRING (1458.375437 677.224009, 1438.576765 751.793710)

LINESTRING (1541.211723 633.445875, 1574.510489 760.343798)

LINESTRING (1647.011909 646.665526, 1628.053696 744.810518)

LINESTRING (1749.111908 626.577426, 1760.433898 766.469802)

LINESTRING (1856.393676 627.761618, 1872.420425 750.060389)

LINESTRING (29.328698 738.205061, 51.668063 820.725288)

LINESTRING (173.079533 768.677676, 158.535033 835.195726)

LINESTRING (258.617675 730.290514, 247.496536 826.281877)

LINESTRING (379.485666 743.091566, 361.018784 852.584807)

LINESTRING (430.337650 741.839982, 472.700736 847.081048)

LINESTRING (574.181332 736.760030, 550.302313 837.612935)

LINESTRING (624.302340 774.540071, 646.824906 845.577644)

LINESTRING (748.639826 764.042130, 737.036310 846.830996)

LINESTRING (839.136106 776.473925, 825.555927 872.351816)

LINESTRING (925.598410 746.126652, 923.621249 876.983392)

LINESTRING (1028.665337 758.878627, 1063.601586 850.339555)

LINESTRING (1179.253584 758.030246, 1145.563458 856.284308)

LINESTRING (1230.710754 751.709967, 1238.355102 853.123695)

LINESTRING (1365.294786 723.197964, 1353.019274 836.624970)

LINESTRING (1438.576765 751.793710, 1476.248335 822.181643)

LINESTRING (1574.510489 760.343798, 1564.719431 854.084147)

LINESTRING (1628.053696 744.810518, 1657.560363 849.434122)

LINESTRING (1760.433898 766.469802, 1768.870871 864.520020)

LINESTRING (1872.420425 750.060389, 1846.891853 849.353285)

LINESTRING (51.668063 820.725288, 47.006244 954.028409)

LINESTRING (158.535033 835.195726, 179.421816 922.445145)

LINESTRING (247.496536 826.281877, 272.006292 931.951798)

LINESTRING (361.018784 852.584807, 365.497211 969.114254)

LINESTRING (472.700736 847.081048, 467.617161 947.992740)

LINESTRING (550.302313 837.612935, 570.358708 943.917083)

LINESTRING (646.824906 845.577644, 672.528152 973.826202)

LINESTRING (737.036310 846.830996, 750.666293 925.701389)

LINESTRING (825.555927 872.351816, 861.916845 943.149654)

LINESTRING (923.621249 876.983392, 921.679044 936.431204)

LINESTRING (1063.601586 850.339555, 1027.660689 935.600735)

LINESTRING (1145.563458 856.284308, 1167.987546 933.685662)

LINESTRING (1238.355102 853.123695, 1250.036465 975.269152)

LINESTRING (1353.019274 836.624970, 1347.419452 962.413792)

LINESTRING (1476.248335 822.181643, 1452.642799 965.849264)

LINESTRING (1564.719431 854.084147, 1568.999051 927.203414)

LINESTRING (1657.560363 849.434122, 1667.680290 932.471184)

LINESTRING (1768.870871 864.520020, 1728.780873 978.010035)

LINESTRING (1846.891853 849.353285, 1849.618384 958.709385)

LINESTRING (47.006244 954.028409, 53.471719 1021.326201)

LINESTRING (179.421816 922.445145, 152.743115 1023.431509)

LINESTRING (272.006292 931.951798, 222.115843 1032.425240)

LINESTRING (365.497211 969.114254, 320.755076 1032.159053)

LINESTRING (467.617161 947.992740, 424.294071 1068.422369)

LINESTRING (570.358708 943.917083, 528.167766 1040.000127)

LINESTRING (672.528152 973.826202, 624.573393 1028.401426)

LINESTRING (750.666293 925.701389, 725.211076 1065.577057)

LINESTRING (861.916845 943.149654, 850.705705 1065.062260)

LINESTRING (921.679044 936.431204, 947.533055 1060.158516)

LINESTRING (1027.660689 935.600735, 1069.919693 1074.972880)

LINESTRING (1167.987546 933.685662, 1124.170506 1029.826589)

LINESTRING (1250.036465 975.269152, 1247.671678 1071.175168)

LINESTRING (1347.419452 962.413792, 1321.432143 1036.367147)

LINESTRING (1452.642799 965.849264, 1439.237693 1035.759786)

LINESTRING (1568.999051 927.203414, 1540.310886 1047.018445)

LINESTRING (1667.680290 932.471184, 1657.248902 1073.550832)

LINESTRING (1728.780873 978.010035, 1755.085851 1060.473103)

LINESTRING (1849.618384 958.709385, 1866.101572 1078.936771)

LINESTRING (53.471719 1021.326201, 31.313411 1161.125019)

LINESTRING (152.743115 1023.431509, 160.249991 1131.724569)

LINESTRING (222.115843 1032.425240, 254.025601 1164.181972)

LINESTRING (320.755076 1032.159053, 359.069870 1146.970150)

LINESTRING (424.294071 1068.422369, 458.310344 1179.651557)

LINESTRING (528.167766 1040.000127, 536.035872 1128.692476)

LINESTRING (624.573393 1028.401426, 643.499226 1122.287907)

LINESTRING (725.211076 1065.577057, 743.319879 1136.095927)

LINESTRING (850.705705 1065.062260, 870.090508 1150.162331)

LINESTRING (947.533055 1060.158516, 967.972767 1145.336403)

LINESTRING (1069.919693 1074.972880, 1065.623403 1163.739684)

LINESTRING (1124.170506 1029.826589, 1138.744065 1178.220751)

LINESTRING (1247.671678 1071.175168, 1240.245655 1179.744093)

LINESTRING (1321.432143 1036.367147, 1339.215343 1142.832911)

LINESTRING (1439.237693 1035.759786, 1462.809472 1159.294668)

LINESTRING (1540.310886 1047.018445, 1573.236249 1152.733377)

LINESTRING (1657.248902 1073.550832, 1660.320044 1127.804222)

LINESTRING (1755.085851 1060.473103, 1756.005930 1139.532713)

LINESTRING (1866.101572 1078.936771, 1831.550041 1130.857794)

LINESTRING (31.313411 1161.125019, 76.622633 1257.022775)

LINESTRING (160.249991 1131.724569, 151.663524 1256.308744)

LINESTRING (254.025601 1164.181972, 225.805336 1273.215002)

LINESTRING (359.069870 1146.970150, 359.613377 1267.966021)

LINESTRING (458.310344 1179.651557, 439.559436 1227.052808)

LINESTRING (536.035872 1128.692476, 560.242324 1267.326017)

LINESTRING (643.499226 1122.287907, 662.181546 1248.912961)

LINESTRING (743.319879 1136.095927, 758.148652 1228.275513)

LINESTRING (870.090508 1150.162331, 821.201967 1256.357032)

LINESTRING (967.972767 1145.336403, 962.088269 1266.020316)

LINESTRING (1065.623403 1163.739684, 1037.043580 1229.649636)

LINESTRING (1138.744065 1178.220751, 1166.704836 1264.736053)

LINESTRING (1240.245655 1179.744093, 1236.606761 1279.030011)

LINESTRING (1339.215343 1142.832911, 1332.053499 1258.988819)

LINESTRING (1462.809472 1159.294668, 1440.114116 1245.735692)

LINESTRING (1573.236249 1152.733377, 1548.648372 1248.035149)

LINESTRING (1660.320044 1127.804222, 1659.787522 1231.362354)

LINESTRING (1756.005930 1139.532713, 1765.159999 1226.448322)

LINESTRING (1831.550041 1130.857794, 1869.553531 1226.808252)

LINESTRING (76.622633 1257.022775, 20.550344 1336.547095)

LINESTRING (151.663524 1256.308744, 144.838412 1345.848726)

LINESTRING (225.805336 1273.215002, 275.711004 1343.027712)

LINESTRING (359.613377 1267.966021, 330.995301 1361.092395)

LINESTRING (439.559436 1227.052808, 464.529502 1367.787644)

LINESTRING (560.242324 1267.326017, 546.057290 1333.707596)

LINESTRING (662.181546 1248.912961, 648.104221 1358.356942)

LINESTRING (758.148652 1228.275513, 720.492188 1348.717258)

LINESTRING (821.201967 1256.357032, 839.915774 1371.974504)

LINESTRING (962.088269 1266.020316, 978.363905 1347.280721)

LINESTRING (1037.043580 1229.649636, 1059.723141 1374.410032)

LINESTRING (1166.704836 1264.736053, 1170.719379 1362.854317)

LINESTRING (1236.606761 1279.030011, 1247.703494 1361.696486)

LINESTRING (1332.053499 1258.988819, 1373.265269 1324.072250)

LINESTRING (1440.114116 1245.735692, 1449.294020 1364.646950)

LINESTRING (1548.648372 1248.035149, 1546.232726 1379.364125)

LINESTRING (1659.787522 1231.362354, 1660.522508 1359.547780)

LINESTRING (1765.159999 1226.448322, 1776.331503 1377.584929)

LINESTRING (1869.553531 1226.808252, 1823.642194 1332.071284)

LINESTRING (20.550344 1336.547095, 73.818022 1464.493495)

LINESTRING (144.838412 1345.848726, 166.602687 1448.864741)

LINESTRING (275.711004 1343.027712, 251.149792 1456.741511)

LINESTRING (330.995301 1361.092395, 327.957291 1468.137709)

LINESTRING (464.529502 1367.787644, 471.360558 1457.117556)

LINESTRING (546.057290 1333.707596, 563.034316 1466.401601)

LINESTRING (648.104221 1358.356942, 633.128890 1451.576962)

LINESTRING (720.492188 1348.717258, 753.185211 1429.134269)

LINESTRING (839.915774 1371.974504, 823.833739 1443.637779)

LINESTRING (978.363905 1347.280721, 952.015983 1433.206005)

LINESTRING (1059.723141 1374.410032, 1023.695300 1456.957955)

LINESTRING (1170.719379 1362.854317, 1172.040934 1463.790066)

LINESTRING (1247.703494 1361.696486, 1223.306894 1429.931798)

LINESTRING (1373.265269 1324.072250, 1321.992270 1475.065727)

LINESTRING (1449.294020 1364.646950, 1424.961792 1425.041624)

LINESTRING (1546.232726 1379.364125, 1555.507545 1466.227517)

LINESTRING (1660.522508 1359.547780, 1648.067942 1431.155395)

LINESTRING (1776.331503 1377.584929, 1747.435395 1454.813626)

LINESTRING (1823.642194 1332.071284, 1876.763648 1443.191324)

LINESTRING (73.818022 1464.493495, 20.730939 1525.573328)

LINESTRING (166.602687 1448.864741, 138.760620 1571.568538)

LINESTRING (251.149792 1456.741511, 222.089257 1559.092455)

LINESTRING (327.957291 1468.137709, 340.527352 1560.460564)

LINESTRING (471.360558 1457.117556, 461.974171 1552.401923)

LINESTRING (563.034316 1466.401601, 543.268963 1568.556533)

LINESTRING (633.128890 1451.576962, 637.287448 1561.347340)

LINESTRING (753.185211 1429.134269, 731.648428 1544.173143)

LINESTRING (823.833739 1443.637779, 864.571581 1572.119069)

LINESTRING (952.015983 1433.206005, 969.253260 1533.044774)

LINESTRING (1023.695300 1456.957955, 1026.682012 1572.241879)

LINESTRING (1172.040934 1463.790066, 1120.406144 1542.064281)

LINESTRING (1223.306894 1429.931798, 1268.766318 1563.496135)

LINESTRING (1321.992270 1475.065727, 1336.269813 1556.255111)

LINESTRING (1424.961792 1425.041624, 1463.089822 1553.746284)

LINESTRING (1555.507545 1466.227517, 1535.798094 1535.831508)

LINESTRING (1648.067942 1431.155395, 1674.320440 1570.677873)

LINESTRING (1747.435395 1454.813626, 1774.077709 1522.118505)

LINESTRING (1876.763648 1443.191324, 1867.416186 1554.396046)

LINESTRING (20.730939 1525.573328, 45.306895 1624.336042)

LINESTRING (138.760620 1571.568538, 142.553843 1675.711732)

LINESTRING (222.089257 1559.092455, 276.933000 1631.709895)

LINESTRING (340.527352 1560.460564, 327.891642 1670.972978)

LINESTRING (461.974171 1552.401923, 434.885189 1656.372252)

LINESTRING (543.268963 1568.556533, 572.384344 1643.529536)

LINESTRING (637.287448 1561.347340, 663.332495 1641.628672)

LINESTRING (731.648428 1544.173143, 764.724419 1653.707371)

LINESTRING (864.571581 1572.119069, 836.242985 1652.593835)

LINESTRING (969.253260 1533.044774, 974.359475 1656.772568)

LINESTRING (1026.682012 1572.241879, 1030.740331 1639.927945)

LINESTRING (1120.406144 1542.064281, 1149.344856 1667.130902)

LINESTRING (1268.766318 1563.496135, 1233.626395 1622.087002)

LINESTRING (1336.269813 1556.255111, 1325.755377 1653.195199)

LINESTRING (1463.089822 1553.746284, 1441.303502 1679.838664)

LINESTRING (1535.798094 1535.831508, 1539.714126 1677.672828)

LINESTRING (1674.320440 1570.677873, 1663.374238 1663.062540)

LINESTRING (1774.077709 1522.118505, 1721.055550 1657.278908)

LINESTRING (1867.416186 1554.396046, 1822.068142 1651.055766)

LINESTRING (45.306895 1624.336042, 50.441819 1767.565318)

LINESTRING (142.553843 1675.711732, 167.555142 1722.103536)

LINESTRING (276.933000 1631.709895, 272.164344 1722.628093)

LINESTRING (327.891642 1670.972978, 348.493351 1779.459791)

LINESTRING (434.885189 1656.372252, 465.271466 1762.839084)

LINESTRING (572.384344 1643.529536, 565.011609 1758.618440)

LINESTRING (663.332495 1641.628672, 650.374722 1736.737108)

LINESTRING (764.724419 1653.707371, 722.260808 1758.273710)

LINESTRING (836.242985 1652.593835, 860.303167 1723.320034)

LINESTRING (974.359475 1656.772568, 925.923191 1756.456572)

LINESTRING (1030.740331 1639.927945, 1049.373612 1725.706630)

LINESTRING (1149.344856 1667.130902, 1173.232194 1751.376783)

LINESTRING (1233.626395 1622.087002, 1227.837725 1729.372265)

LINESTRING (1325.755377 1653.195199, 1373.640435 1746.336231)

LINESTRING (1441.303502 1679.838664, 1463.807047 1776.928877)

LINESTRING (1539.714126 1677.672828, 1520.304311 1721.350529)

LINESTRING (1663.374238 1663.062540, 1647.374235 1744.017412)

LINESTRING (1721.055550 1657.278908, 1735.362550 1757.107505)

LINESTRING (1822.068142 1651.055766, 1850.979466 1721.985793)

LINESTRING (50.441819 1767.565318, 44.074124 1839.150323)

LINESTRING (167.555142 1722.103536, 169.541809 1831.334158)

LINESTRING (272.164344 1722.628093, 268.943420 1850.931458)

LINESTRING (348.493351 1779.459791, 367.958751 1871.535386)

LINESTRING (465.271466 1762.839084, 470.242713 1842.264755)

LINESTRING (565.011609 1758.618440, 577.528980 1862.316974)

LINESTRING (650.374722 1736.737108, 665.152720 1869.066258)

LINESTRING (722.260808 1758.273710, 745.311809 1876.956771)

LINESTRING (860.303167 1723.320034, 836.394344 1872.146641)

LINESTRING (925.923191 1756.456572, 954.371459 1853.140694)

LINESTRING (1049.373612 1725.706630, 1049.362388 1846.989525)

LINESTRING (1173.232194 1751.376783, 1158.087018 1863.481731)

LINESTRING (1227.837725 1729.372265, 1274.398235 1857.385978)

LINESTRING (1373.640435 1746.336231, 1336.986824 1859.822090)

LINESTRING (1463.807047 1776.928877, 1438.629170 1863.968277)

LINESTRING (1520.304311 1721.350529, 1545.045555 1861.890520)

LINESTRING (1647.374235 1744.017412, 1621.324387 1832.187367)

LINESTRING (1735.362550 1757.107505, 1764.107806 1840.441221)

LINESTRING (1850.979466 1721.985793, 1863.196384 1841.413226)

LINESTRING (1558.857689 49.196027, 1636.938086 125.254465)

LINESTRING (1726.404926 20.795370, 1877.591747 167.565099)

LINESTRING (141.193144 130.949372, 232.549720 253.888234)

LINESTRING (551.629800 133.026097, 635.111729 243.389830)

LINESTRING (1237.654059 142.624026, 1367.343272 227.024020)

LINESTRING (1424.784159 146.818749, 1543.524169 271.120289)

LINESTRING (543.754924 246.631362, 629.086621 324.820361)

LINESTRING (1062.971371 235.213831, 1143.820123 360.671142)

LINESTRING (1771.355821 263.734509, 1856.283760 345.116574)

LINESTRING (224.952705 379.023501, 370.443028 447.493967)

LINESTRING (1554.421580 347.475628, 1664.624732 443.800070)

LINESTRING (233.584333 479.955467, 336.610930 536.830881)

LINESTRING (452.445107 449.465594, 570.848211 521.403695)

LINESTRING (1240.023947 437.704300, 1345.622237 543.656370)

LINESTRING (1535.676345 430.193326, 1631.547763 547.378903)

LINESTRING (1725.058649 431.695482, 1825.277888 553.524315)

LINESTRING (336.610930 536.830881, 441.346784 661.222440)

LINESTRING (720.176427 572.099093, 835.323113 676.745058)

LINESTRING (1631.547763 547.378903, 1749.111908 626.577426)

LINESTRING (24.758950 621.533417, 173.079533 768.677676)

LINESTRING (263.819904 635.045077, 379.485666 743.091566)

LINESTRING (839.136106 776.473925, 923.621249 876.983392)

LINESTRING (1179.253584 758.030246, 1238.355102 853.123695)

LINESTRING (51.668063 820.725288, 179.421816 922.445145)

LINESTRING (247.496536 826.281877, 365.497211 969.114254)

LINESTRING (472.700736 847.081048, 570.358708 943.917083)

LINESTRING (1476.248335 822.181643, 1568.999051 927.203414)

LINESTRING (1657.560363 849.434122, 1728.780873 978.010035)

LINESTRING (1768.870871 864.520020, 1849.618384 958.709385)

LINESTRING (1250.036465 975.269152, 1321.432143 1036.367147)

LINESTRING (1667.680290 932.471184, 1755.085851 1060.473103)

LINESTRING (725.211076 1065.577057, 870.090508 1150.162331)

LINESTRING (31.313411 1161.125019, 151.663524 1256.308744)

LINESTRING (254.025601 1164.181972, 359.613377 1267.966021)

LINESTRING (643.499226 1122.287907, 758.148652 1228.275513)

LINESTRING (1240.245655 1179.744093, 1332.053499 1258.988819)

LINESTRING (1660.320044 1127.804222, 1765.159999 1226.448322)

LINESTRING (225.805336 1273.215002, 330.995301 1361.092395)

LINESTRING (1236.606761 1279.030011, 1373.265269 1324.072250)

LINESTRING (1765.159999 1226.448322, 1823.642194 1332.071284)

LINESTRING (20.550344 1336.547095, 166.602687 1448.864741)

LINESTRING (144.838412 1345.848726, 251.149792 1456.741511)

LINESTRING (1170.719379 1362.854317, 1223.306894 1429.931798)

LINESTRING (166.602687 1448.864741, 222.089257 1559.092455)

LINESTRING (327.957291 1468.137709, 461.974171 1552.401923)

LINESTRING (471.360558 1457.117556, 543.268963 1568.556533)

LINESTRING (633.128890 1451.576962, 731.648428 1544.173143)

LINESTRING (753.185211 1429.134269, 864.571581 1572.119069)

LINESTRING (952.015983 1433.206005, 1026.682012 1572.241879)

LINESTRING (1321.992270 1475.065727, 1463.089822 1553.746284)

LINESTRING (543.268963 1568.556533, 663.332495 1641.628672)

LINESTRING (1336.269813 1556.255111, 1441.303502 1679.838664)

LINESTRING (572.384344 1643.529536, 650.374722 1736.737108)

LINESTRING (974.359475 1656.772568, 1049.373612 1725.706630)

LINESTRING (1149.344856 1667.130902, 1227.837725 1729.372265)

LINESTRING (1663.374238 1663.062540, 1735.362550 1757.107505)

LINESTRING (650.374722 1736.737108, 745.311809 1876.956771)

LINESTRING (1647.374235 1744.017412, 1764.107806 1840.441221)

