LINESTRING (140.325250 177.563306, 173.476520 165.412698)

LINESTRING (140.325250 177.563306, 150.481429 104.530930)

LINESTRING (140.325250 177.563306, 179.672385 175.413858)

LINESTRING (140.325250 177.563306, 124.932286 140.751097)

LINESTRING (122.053227 170.687831, 145.498573 126.220348)

LINESTRING (122.053227 170.687831, 102.008421 126.689868)

LINESTRING (122.053227 170.687831, 137.132425 120.002105)

LINESTRING (122.053227 170.687831, 150.481429 104.530930)

LINESTRING (122.053227 170.687831, 124.932286 140.751097)

LINESTRING (119.988896 120.288988, 102.008421 126.689868)

LINESTRING (119.988896 120.288988, 168.515871 111.456260)

LINESTRING (119.988896 120.288988, 179.672385 175.413858)

LINESTRING (145.498573 126.220348, 171.760813 127.936823)

LINESTRING (145.498573 126.220348, 173.476520 165.412698)

LINESTRING (145.498573 126.220348, 150.481429 104.530930)

LINESTRING (145.498573 126.220348, 179.672385 175.413858)

LINESTRING (145.498573 126.220348, 124.932286 140.751097)

LINESTRING (102.008421 126.689868, 171.760813 127.936823)

LINESTRING (102.008421 126.689868, 163.604086 120.409515)

LINESTRING (102.008421 126.689868, 173.476520 165.412698)

LINESTRING (102.008421 126.689868, 150.481429 104.530930)

LINESTRING (102.008421 126.689868, 124.932286 140.751097)

LINESTRING (171.760813 127.936823, 137.132425 120.002105)

LINESTRING (171.760813 127.936823, 150.481429 104.530930)

LINESTRING (171.760813 127.936823, 168.853700 170.074989)

LINESTRING (171.760813 127.936823, 124.932286 140.751097)

LINESTRING (137.132425 120.002105, 173.476520 165.412698)

LINESTRING (163.604086 120.409515, 173.476520 165.412698)

LINESTRING (163.604086 120.409515, 160.313082 146.476070)

LINESTRING (163.604086 120.409515, 150.481429 104.530930)

LINESTRING (173.476520 165.412698, 160.313082 146.476070)

LINESTRING (173.476520 165.412698, 168.515871 111.456260)

LINESTRING (173.476520 165.412698, 150.481429 104.530930)

LINESTRING (173.476520 165.412698, 168.853700 170.074989)

LINESTRING (173.476520 165.412698, 124.932286 140.751097)

LINESTRING (160.313082 146.476070, 124.932286 140.751097)

LINESTRING (168.515871 111.456260, 179.672385 175.413858)

LINESTRING (168.515871 111.456260, 124.932286 140.751097)

LINESTRING (150.481429 104.530930, 168.853700 170.074989)

LINESTRING (525.884171 107.306497, 455.562727 159.974176)

LINESTRING (525.884171 107.306497, 450.095609 115.015962)

LINESTRING (525.884171 107.306497, 473.774833 142.226348)

LINESTRING (525.884171 107.306497, 452.422580 129.193970)

LINESTRING (525.884171 107.306497, 494.841114 159.329434)

LINESTRING (525.884171 107.306497, 511.668865 177.772591)

LINESTRING (525.884171 107.306497, 516.771723 157.888541)

LINESTRING (455.562727 159.974176, 504.832487 171.891438)

LINESTRING (455.562727 159.974176, 523.202490 147.261634)

LINESTRING (455.562727 159.974176, 494.841114 159.329434)

LINESTRING (455.562727 159.974176, 512.994775 172.332775)

LINESTRING (455.562727 159.974176, 511.668865 177.772591)

LINESTRING (450.095609 115.015962, 504.832487 171.891438)

LINESTRING (450.095609 115.015962, 452.422580 129.193970)

LINESTRING (450.095609 115.015962, 464.256677 126.913067)

LINESTRING (450.095609 115.015962, 512.994775 172.332775)

LINESTRING (450.095609 115.015962, 503.489682 147.452073)

LINESTRING (450.095609 115.015962, 516.771723 157.888541)

LINESTRING (473.774833 142.226348, 494.841114 159.329434)

LINESTRING (473.774833 142.226348, 512.994775 172.332775)

LINESTRING (473.774833 142.226348, 456.167890 152.036528)

LINESTRING (504.832487 171.891438, 494.841114 159.329434)

LINESTRING (504.832487 171.891438, 512.994775 172.332775)

LINESTRING (504.832487 171.891438, 456.167890 152.036528)

LINESTRING (504.832487 171.891438, 511.668865 177.772591)

LINESTRING (504.832487 171.891438, 503.489682 147.452073)

LINESTRING (504.832487 171.891438, 516.771723 157.888541)

LINESTRING (499.212308 108.422749, 523.202490 147.261634)

LINESTRING (499.212308 108.422749, 464.256677 126.913067)

LINESTRING (499.212308 108.422749, 456.167890 152.036528)

LINESTRING (499.212308 108.422749, 511.668865 177.772591)

LINESTRING (499.212308 108.422749, 516.771723 157.888541)

LINESTRING (452.422580 129.193970, 512.994775 172.332775)

LINESTRING (452.422580 129.193970, 516.771723 157.888541)

LINESTRING (523.202490 147.261634, 494.841114 159.329434)

LINESTRING (523.202490 147.261634, 512.994775 172.332775)

LINESTRING (523.202490 147.261634, 511.668865 177.772591)

LINESTRING (494.841114 159.329434, 464.256677 126.913067)

LINESTRING (494.841114 159.329434, 511.668865 177.772591)

LINESTRING (494.841114 159.329434, 503.489682 147.452073)

LINESTRING (494.841114 159.329434, 516.771723 157.888541)

LINESTRING (464.256677 126.913067, 512.994775 172.332775)

LINESTRING (464.256677 126.913067, 503.489682 147.452073)

LINESTRING (512.994775 172.332775, 456.167890 152.036528)

LINESTRING (512.994775 172.332775, 503.489682 147.452073)

LINESTRING (456.167890 152.036528, 511.668865 177.772591)

LINESTRING (456.167890 152.036528, 516.771723 157.888541)

LINESTRING (511.668865 177.772591, 516.771723 157.888541)

LINESTRING (503.489682 147.452073, 516.771723 157.888541)

LINESTRING (168.515871 111.456260, 504.832487 171.891438)

LINESTRING (140.325250 177.563306, 525.884171 107.306497)

