LINESTRING (106.035089 147.618255, 178.175763 159.963611)

LINESTRING (106.035089 147.618255, 116.021733 104.393373)

LINESTRING (106.035089 147.618255, 157.745565 160.673665)

LINESTRING (106.035089 147.618255, 137.360924 159.017392)

LINESTRING (106.035089 147.618255, 103.203755 100.095979)

LINESTRING (106.035089 147.618255, 163.954911 168.458277)

LINESTRING (106.035089 147.618255, 144.574691 101.578790)

LINESTRING (106.035089 147.618255, 142.937947 161.277857)

LINESTRING (106.035089 147.618255, 158.098692 150.616344)

LINESTRING (106.035089 147.618255, 158.186608 134.952487)

LINESTRING (106.035089 147.618255, 141.197534 133.139837)

LINESTRING (178.175763 159.963611, 163.954911 168.458277)

LINESTRING (178.175763 159.963611, 142.937947 161.277857)

LINESTRING (178.175763 159.963611, 164.528889 159.249216)

LINESTRING (178.175763 159.963611, 158.098692 150.616344)

LINESTRING (178.175763 159.963611, 158.186608 134.952487)

LINESTRING (178.175763 159.963611, 120.902703 111.970241)

LINESTRING (178.175763 159.963611, 150.012481 170.234445)

LINESTRING (116.021733 104.393373, 157.745565 160.673665)

LINESTRING (116.021733 104.393373, 137.360924 159.017392)

LINESTRING (116.021733 104.393373, 103.203755 100.095979)

LINESTRING (116.021733 104.393373, 163.954911 168.458277)

LINESTRING (116.021733 104.393373, 142.937947 161.277857)

LINESTRING (116.021733 104.393373, 164.528889 159.249216)

LINESTRING (116.021733 104.393373, 158.098692 150.616344)

LINESTRING (116.021733 104.393373, 120.902703 111.970241)

LINESTRING (116.021733 104.393373, 150.012481 170.234445)

LINESTRING (157.745565 160.673665, 137.360924 159.017392)

LINESTRING (157.745565 160.673665, 103.203755 100.095979)

LINESTRING (157.745565 160.673665, 144.574691 101.578790)

LINESTRING (157.745565 160.673665, 142.937947 161.277857)

LINESTRING (157.745565 160.673665, 164.528889 159.249216)

LINESTRING (157.745565 160.673665, 141.197534 133.139837)

LINESTRING (157.745565 160.673665, 120.902703 111.970241)

LINESTRING (137.360924 159.017392, 163.954911 168.458277)

LINESTRING (137.360924 159.017392, 142.937947 161.277857)

LINESTRING (137.360924 159.017392, 164.528889 159.249216)

LINESTRING (137.360924 159.017392, 158.098692 150.616344)

LINESTRING (137.360924 159.017392, 120.902703 111.970241)

LINESTRING (103.203755 100.095979, 142.937947 161.277857)

LINESTRING (103.203755 100.095979, 164.528889 159.249216)

LINESTRING (103.203755 100.095979, 158.186608 134.952487)

LINESTRING (103.203755 100.095979, 120.902703 111.970241)

LINESTRING (163.954911 168.458277, 144.574691 101.578790)

LINESTRING (163.954911 168.458277, 142.937947 161.277857)

LINESTRING (163.954911 168.458277, 158.098692 150.616344)

LINESTRING (163.954911 168.458277, 158.186608 134.952487)

LINESTRING (163.954911 168.458277, 120.902703 111.970241)

LINESTRING (163.954911 168.458277, 150.012481 170.234445)

LINESTRING (144.574691 101.578790, 142.937947 161.277857)

LINESTRING (144.574691 101.578790, 158.098692 150.616344)

LINESTRING (144.574691 101.578790, 158.186608 134.952487)

LINESTRING (144.574691 101.578790, 141.197534 133.139837)

LINESTRING (144.574691 101.578790, 120.902703 111.970241)

LINESTRING (144.574691 101.578790, 150.012481 170.234445)

LINESTRING (142.937947 161.277857, 164.528889 159.249216)

LINESTRING (142.937947 161.277857, 158.098692 150.616344)

LINESTRING (142.937947 161.277857, 158.186608 134.952487)

LINESTRING (142.937947 161.277857, 141.197534 133.139837)

LINESTRING (142.937947 161.277857, 120.902703 111.970241)

LINESTRING (164.528889 159.249216, 141.197534 133.139837)

LINESTRING (164.528889 159.249216, 120.902703 111.970241)

LINESTRING (164.528889 159.249216, 150.012481 170.234445)

LINESTRING (158.098692 150.616344, 158.186608 134.952487)

LINESTRING (158.098692 150.616344, 141.197534 133.139837)

LINESTRING (158.098692 150.616344, 120.902703 111.970241)

LINESTRING (158.098692 150.616344, 150.012481 170.234445)

LINESTRING (141.197534 133.139837, 120.902703 111.970241)

LINESTRING (141.197534 133.139837, 150.012481 170.234445)

LINESTRING (120.902703 111.970241, 150.012481 170.234445)

LINESTRING (486.528604 129.176817, 464.224665 139.544718)

LINESTRING (486.528604 129.176817, 516.124913 161.805090)

LINESTRING (486.528604 129.176817, 480.622926 145.885048)

LINESTRING (486.528604 129.176817, 465.907227 117.949239)

LINESTRING (486.528604 129.176817, 476.366802 111.266097)

LINESTRING (486.528604 129.176817, 493.577933 114.788726)

LINESTRING (488.484018 176.347814, 462.277304 140.808580)

LINESTRING (488.484018 176.347814, 484.913193 135.923809)

LINESTRING (488.484018 176.347814, 468.728064 165.689677)

LINESTRING (488.484018 176.347814, 473.801588 101.922880)

LINESTRING (488.484018 176.347814, 476.366802 111.266097)

LINESTRING (488.484018 176.347814, 493.577933 114.788726)

LINESTRING (462.277304 140.808580, 464.224665 139.544718)

LINESTRING (462.277304 140.808580, 484.913193 135.923809)

LINESTRING (462.277304 140.808580, 473.801588 101.922880)

LINESTRING (462.277304 140.808580, 495.790778 138.383224)

LINESTRING (462.277304 140.808580, 467.953560 146.986489)

LINESTRING (462.277304 140.808580, 476.366802 111.266097)

LINESTRING (462.277304 140.808580, 493.577933 114.788726)

LINESTRING (464.224665 139.544718, 480.622926 145.885048)

LINESTRING (464.224665 139.544718, 473.801588 101.922880)

LINESTRING (464.224665 139.544718, 495.790778 138.383224)

LINESTRING (464.224665 139.544718, 465.907227 117.949239)

LINESTRING (464.224665 139.544718, 476.366802 111.266097)

LINESTRING (464.224665 139.544718, 493.577933 114.788726)

LINESTRING (516.124913 161.805090, 468.728064 165.689677)

LINESTRING (516.124913 161.805090, 473.801588 101.922880)

LINESTRING (516.124913 161.805090, 465.669305 116.266878)

LINESTRING (484.913193 135.923809, 480.622926 145.885048)

LINESTRING (484.913193 135.923809, 468.728064 165.689677)

LINESTRING (484.913193 135.923809, 473.801588 101.922880)

LINESTRING (484.913193 135.923809, 465.907227 117.949239)

LINESTRING (484.913193 135.923809, 465.669305 116.266878)

LINESTRING (484.913193 135.923809, 467.953560 146.986489)

LINESTRING (484.913193 135.923809, 476.366802 111.266097)

LINESTRING (484.913193 135.923809, 493.577933 114.788726)

LINESTRING (480.622926 145.885048, 468.728064 165.689677)

LINESTRING (480.622926 145.885048, 473.801588 101.922880)

LINESTRING (480.622926 145.885048, 495.790778 138.383224)

LINESTRING (480.622926 145.885048, 467.953560 146.986489)

LINESTRING (468.728064 165.689677, 473.801588 101.922880)

LINESTRING (468.728064 165.689677, 495.790778 138.383224)

LINESTRING (468.728064 165.689677, 465.907227 117.949239)

LINESTRING (468.728064 165.689677, 467.953560 146.986489)

LINESTRING (468.728064 165.689677, 493.577933 114.788726)

LINESTRING (473.801588 101.922880, 465.907227 117.949239)

LINESTRING (473.801588 101.922880, 465.669305 116.266878)

LINESTRING (473.801588 101.922880, 467.953560 146.986489)

LINESTRING (495.790778 138.383224, 465.907227 117.949239)

LINESTRING (495.790778 138.383224, 465.669305 116.266878)

LINESTRING (495.790778 138.383224, 476.366802 111.266097)

LINESTRING (495.790778 138.383224, 493.577933 114.788726)

LINESTRING (465.907227 117.949239, 465.669305 116.266878)

LINESTRING (465.907227 117.949239, 467.953560 146.986489)

LINESTRING (465.907227 117.949239, 493.577933 114.788726)

LINESTRING (465.669305 116.266878, 467.953560 146.986489)

LINESTRING (465.669305 116.266878, 476.366802 111.266097)

LINESTRING (476.366802 111.266097, 493.577933 114.788726)

LINESTRING (844.595313 135.850123, 858.882283 168.061404)

LINESTRING (844.595313 135.850123, 828.405990 144.426894)

LINESTRING (844.595313 135.850123, 824.640538 152.080849)

LINESTRING (844.595313 135.850123, 802.991049 179.762023)

LINESTRING (844.595313 135.850123, 845.085163 116.692673)

LINESTRING (844.595313 135.850123, 828.464656 115.850812)

LINESTRING (858.195225 143.879307, 842.352015 117.012369)

LINESTRING (858.195225 143.879307, 824.640538 152.080849)

LINESTRING (858.195225 143.879307, 802.991049 179.762023)

LINESTRING (858.195225 143.879307, 868.622319 113.723594)

LINESTRING (858.195225 143.879307, 850.070831 113.160001)

LINESTRING (858.195225 143.879307, 845.085163 116.692673)

LINESTRING (858.195225 143.879307, 833.198025 147.865724)

LINESTRING (858.195225 143.879307, 834.558600 178.010204)

LINESTRING (858.195225 143.879307, 828.464656 115.850812)

LINESTRING (858.882283 168.061404, 828.405990 144.426894)

LINESTRING (858.882283 168.061404, 842.352015 117.012369)

LINESTRING (858.882283 168.061404, 802.991049 179.762023)

LINESTRING (858.882283 168.061404, 845.085163 116.692673)

LINESTRING (858.882283 168.061404, 828.464656 115.850812)

LINESTRING (858.882283 168.061404, 851.839162 179.549429)

LINESTRING (828.405990 144.426894, 842.352015 117.012369)

LINESTRING (828.405990 144.426894, 845.085163 116.692673)

LINESTRING (828.405990 144.426894, 833.198025 147.865724)

LINESTRING (828.405990 144.426894, 834.558600 178.010204)

LINESTRING (828.405990 144.426894, 851.839162 179.549429)

LINESTRING (828.405990 144.426894, 851.021060 116.132658)

LINESTRING (842.352015 117.012369, 824.640538 152.080849)

LINESTRING (842.352015 117.012369, 868.622319 113.723594)

LINESTRING (842.352015 117.012369, 845.085163 116.692673)

LINESTRING (842.352015 117.012369, 833.198025 147.865724)

LINESTRING (842.352015 117.012369, 828.464656 115.850812)

LINESTRING (842.352015 117.012369, 851.021060 116.132658)

LINESTRING (824.640538 152.080849, 802.991049 179.762023)

LINESTRING (824.640538 152.080849, 850.070831 113.160001)

LINESTRING (824.640538 152.080849, 834.558600 178.010204)

LINESTRING (824.640538 152.080849, 851.839162 179.549429)

LINESTRING (824.640538 152.080849, 851.021060 116.132658)

LINESTRING (802.991049 179.762023, 868.622319 113.723594)

LINESTRING (802.991049 179.762023, 845.085163 116.692673)

LINESTRING (802.991049 179.762023, 834.558600 178.010204)

LINESTRING (802.991049 179.762023, 828.464656 115.850812)

LINESTRING (802.991049 179.762023, 851.839162 179.549429)

LINESTRING (802.991049 179.762023, 851.021060 116.132658)

LINESTRING (868.622319 113.723594, 833.198025 147.865724)

LINESTRING (868.622319 113.723594, 834.558600 178.010204)

LINESTRING (868.622319 113.723594, 828.464656 115.850812)

LINESTRING (850.070831 113.160001, 833.198025 147.865724)

LINESTRING (850.070831 113.160001, 834.558600 178.010204)

LINESTRING (850.070831 113.160001, 851.839162 179.549429)

LINESTRING (845.085163 116.692673, 851.839162 179.549429)

LINESTRING (845.085163 116.692673, 851.021060 116.132658)

LINESTRING (833.198025 147.865724, 834.558600 178.010204)

LINESTRING (833.198025 147.865724, 828.464656 115.850812)

LINESTRING (833.198025 147.865724, 851.839162 179.549429)

LINESTRING (833.198025 147.865724, 851.021060 116.132658)

LINESTRING (834.558600 178.010204, 851.839162 179.549429)

LINESTRING (828.464656 115.850812, 851.839162 179.549429)

LINESTRING (828.464656 115.850812, 851.021060 116.132658)

LINESTRING (851.839162 179.549429, 851.021060 116.132658)

LINESTRING (1160.132110 142.789669, 1219.750836 140.945691)

LINESTRING (1160.132110 142.789669, 1167.335413 154.639465)

LINESTRING (1160.132110 142.789669, 1163.589039 167.453983)

LINESTRING (1160.132110 142.789669, 1177.089570 173.681189)

LINESTRING (1160.132110 142.789669, 1150.169921 175.467549)

LINESTRING (1160.132110 142.789669, 1190.452622 173.352658)

LINESTRING (1205.683714 154.063129, 1219.750836 140.945691)

LINESTRING (1205.683714 154.063129, 1191.399641 103.743894)

LINESTRING (1205.683714 154.063129, 1206.855094 172.485579)

LINESTRING (1205.683714 154.063129, 1164.386086 143.442586)

LINESTRING (1205.683714 154.063129, 1167.335413 154.639465)

LINESTRING (1205.683714 154.063129, 1166.209628 164.533024)

LINESTRING (1205.683714 154.063129, 1186.996521 119.414582)

LINESTRING (1205.683714 154.063129, 1169.658617 144.618808)

LINESTRING (1205.683714 154.063129, 1190.452622 173.352658)

LINESTRING (1219.750836 140.945691, 1191.399641 103.743894)

LINESTRING (1219.750836 140.945691, 1164.386086 143.442586)

LINESTRING (1219.750836 140.945691, 1167.335413 154.639465)

LINESTRING (1219.750836 140.945691, 1166.209628 164.533024)

LINESTRING (1219.750836 140.945691, 1186.996521 119.414582)

LINESTRING (1191.399641 103.743894, 1164.386086 143.442586)

LINESTRING (1191.399641 103.743894, 1167.335413 154.639465)

LINESTRING (1191.399641 103.743894, 1163.589039 167.453983)

LINESTRING (1191.399641 103.743894, 1177.089570 173.681189)

LINESTRING (1191.399641 103.743894, 1190.452622 173.352658)

LINESTRING (1206.855094 172.485579, 1167.335413 154.639465)

LINESTRING (1206.855094 172.485579, 1166.209628 164.533024)

LINESTRING (1206.855094 172.485579, 1177.089570 173.681189)

LINESTRING (1206.855094 172.485579, 1150.169921 175.467549)

LINESTRING (1206.855094 172.485579, 1221.998278 109.685051)

LINESTRING (1164.386086 143.442586, 1167.335413 154.639465)

LINESTRING (1164.386086 143.442586, 1166.209628 164.533024)

LINESTRING (1164.386086 143.442586, 1163.589039 167.453983)

LINESTRING (1164.386086 143.442586, 1177.089570 173.681189)

LINESTRING (1164.386086 143.442586, 1186.996521 119.414582)

LINESTRING (1164.386086 143.442586, 1169.658617 144.618808)

LINESTRING (1164.386086 143.442586, 1150.169921 175.467549)

LINESTRING (1167.335413 154.639465, 1163.589039 167.453983)

LINESTRING (1167.335413 154.639465, 1177.089570 173.681189)

LINESTRING (1167.335413 154.639465, 1186.996521 119.414582)

LINESTRING (1167.335413 154.639465, 1169.658617 144.618808)

LINESTRING (1167.335413 154.639465, 1221.998278 109.685051)

LINESTRING (1167.335413 154.639465, 1190.452622 173.352658)

LINESTRING (1166.209628 164.533024, 1163.589039 167.453983)

LINESTRING (1166.209628 164.533024, 1186.996521 119.414582)

LINESTRING (1166.209628 164.533024, 1169.658617 144.618808)

LINESTRING (1166.209628 164.533024, 1150.169921 175.467549)

LINESTRING (1166.209628 164.533024, 1221.998278 109.685051)

LINESTRING (1166.209628 164.533024, 1190.452622 173.352658)

LINESTRING (1163.589039 167.453983, 1177.089570 173.681189)

LINESTRING (1163.589039 167.453983, 1169.658617 144.618808)

LINESTRING (1163.589039 167.453983, 1190.452622 173.352658)

LINESTRING (1177.089570 173.681189, 1150.169921 175.467549)

LINESTRING (1177.089570 173.681189, 1190.452622 173.352658)

LINESTRING (1186.996521 119.414582, 1169.658617 144.618808)

LINESTRING (1186.996521 119.414582, 1221.998278 109.685051)

LINESTRING (1186.996521 119.414582, 1190.452622 173.352658)

LINESTRING (1169.658617 144.618808, 1150.169921 175.467549)

LINESTRING (1169.658617 144.618808, 1221.998278 109.685051)

LINESTRING (1150.169921 175.467549, 1221.998278 109.685051)

LINESTRING (150.012481 170.234445, 516.124913 161.805090)

LINESTRING (106.035089 147.618255, 486.528604 129.176817)

LINESTRING (464.224665 139.544718, 851.021060 116.132658)

LINESTRING (486.528604 129.176817, 844.595313 135.850123)

LINESTRING (845.085163 116.692673, 1164.386086 143.442586)

LINESTRING (844.595313 135.850123, 1160.132110 142.789669)

