LINESTRING (60.000000 60.000000, 56.642945 59.849573)

LINESTRING (60.000000 60.000000, 50.385632 49.006654)

LINESTRING (60.000000 60.000000, 73.851750 67.271141)

LINESTRING (60.000000 60.000000, 56.909333 59.992607)

LINESTRING (60.000000 60.000000, 73.031792 48.191906)

LINESTRING (60.000000 60.000000, 61.876267 66.070477)

LINESTRING (60.000000 60.000000, 69.458255 55.024733)

LINESTRING (60.000000 60.000000, 63.023013 46.314934)

LINESTRING (60.000000 60.000000, 49.839360 73.387386)

LINESTRING (60.000000 60.000000, 46.188086 46.068221)

LINESTRING (60.000000 60.000000, 52.882803 60.812068)

LINESTRING (60.000000 60.000000, 52.315460 58.143876)

LINESTRING (60.000000 60.000000, 49.165348 73.718749)

LINESTRING (60.000000 60.000000, 70.901310 61.914566)

LINESTRING (60.000000 60.000000, 66.672832 51.983766)

LINESTRING (60.000000 60.000000, 61.533781 57.969200)

LINESTRING (60.000000 60.000000, 54.796179 53.480558)

LINESTRING (60.000000 60.000000, 52.341000 68.845222)

LINESTRING (60.000000 60.000000, 66.557554 72.130721)

LINESTRING (60.000000 60.000000, 66.319062 48.674116)

LINESTRING (56.642945 59.849573, 69.458255 55.024733)

LINESTRING (56.642945 59.849573, 63.023013 46.314934)

LINESTRING (56.642945 59.849573, 49.839360 73.387386)

LINESTRING (56.642945 59.849573, 46.188086 46.068221)

LINESTRING (56.642945 59.849573, 52.882803 60.812068)

LINESTRING (56.642945 59.849573, 52.315460 58.143876)

LINESTRING (56.642945 59.849573, 49.165348 73.718749)

LINESTRING (56.642945 59.849573, 70.901310 61.914566)

LINESTRING (50.385632 49.006654, 69.458255 55.024733)

LINESTRING (50.385632 49.006654, 63.023013 46.314934)

LINESTRING (50.385632 49.006654, 49.839360 73.387386)

LINESTRING (50.385632 49.006654, 52.882803 60.812068)

LINESTRING (50.385632 49.006654, 52.315460 58.143876)

LINESTRING (50.385632 49.006654, 49.165348 73.718749)

LINESTRING (50.385632 49.006654, 70.901310 61.914566)

LINESTRING (50.385632 49.006654, 61.533781 57.969200)

LINESTRING (50.385632 49.006654, 66.557554 72.130721)

LINESTRING (73.851750 67.271141, 56.909333 59.992607)

LINESTRING (73.851750 67.271141, 69.458255 55.024733)

LINESTRING (73.851750 67.271141, 49.839360 73.387386)

LINESTRING (73.851750 67.271141, 66.672832 51.983766)

LINESTRING (73.851750 67.271141, 61.533781 57.969200)

LINESTRING (73.851750 67.271141, 52.341000 68.845222)

LINESTRING (73.851750 67.271141, 66.319062 48.674116)

LINESTRING (56.909333 59.992607, 73.031792 48.191906)

LINESTRING (56.909333 59.992607, 69.458255 55.024733)

LINESTRING (56.909333 59.992607, 63.023013 46.314934)

LINESTRING (56.909333 59.992607, 49.839360 73.387386)

LINESTRING (56.909333 59.992607, 52.882803 60.812068)

LINESTRING (56.909333 59.992607, 49.165348 73.718749)

LINESTRING (56.909333 59.992607, 70.901310 61.914566)

LINESTRING (56.909333 59.992607, 66.557554 72.130721)

LINESTRING (73.031792 48.191906, 69.458255 55.024733)

LINESTRING (73.031792 48.191906, 63.023013 46.314934)

LINESTRING (73.031792 48.191906, 49.165348 73.718749)

LINESTRING (73.031792 48.191906, 61.533781 57.969200)

LINESTRING (73.031792 48.191906, 66.319062 48.674116)

LINESTRING (61.876267 66.070477, 49.839360 73.387386)

LINESTRING (61.876267 66.070477, 46.188086 46.068221)

LINESTRING (61.876267 66.070477, 52.315460 58.143876)

LINESTRING (61.876267 66.070477, 49.165348 73.718749)

LINESTRING (61.876267 66.070477, 70.901310 61.914566)

LINESTRING (61.876267 66.070477, 66.672832 51.983766)

LINESTRING (69.458255 55.024733, 63.023013 46.314934)

LINESTRING (69.458255 55.024733, 49.165348 73.718749)

LINESTRING (69.458255 55.024733, 61.533781 57.969200)

LINESTRING (69.458255 55.024733, 54.796179 53.480558)

LINESTRING (69.458255 55.024733, 66.319062 48.674116)

LINESTRING (63.023013 46.314934, 49.839360 73.387386)

LINESTRING (63.023013 46.314934, 49.165348 73.718749)

LINESTRING (63.023013 46.314934, 66.672832 51.983766)

LINESTRING (63.023013 46.314934, 61.533781 57.969200)

LINESTRING (63.023013 46.314934, 52.341000 68.845222)

LINESTRING (49.839360 73.387386, 46.188086 46.068221)

LINESTRING (49.839360 73.387386, 52.882803 60.812068)

LINESTRING (49.839360 73.387386, 49.165348 73.718749)

LINESTRING (49.839360 73.387386, 52.341000 68.845222)

LINESTRING (49.839360 73.387386, 66.557554 72.130721)

LINESTRING (49.839360 73.387386, 66.319062 48.674116)

LINESTRING (46.188086 46.068221, 52.882803 60.812068)

LINESTRING (46.188086 46.068221, 52.315460 58.143876)

LINESTRING (46.188086 46.068221, 49.165348 73.718749)

LINESTRING (46.188086 46.068221, 70.901310 61.914566)

LINESTRING (46.188086 46.068221, 66.672832 51.983766)

LINESTRING (46.188086 46.068221, 66.557554 72.130721)

LINESTRING (52.882803 60.812068, 49.165348 73.718749)

LINESTRING (52.882803 60.812068, 70.901310 61.914566)

LINESTRING (52.882803 60.812068, 66.672832 51.983766)

LINESTRING (52.882803 60.812068, 61.533781 57.969200)

LINESTRING (52.882803 60.812068, 52.341000 68.845222)

LINESTRING (52.882803 60.812068, 66.557554 72.130721)

LINESTRING (52.882803 60.812068, 66.319062 48.674116)

LINESTRING (52.315460 58.143876, 49.165348 73.718749)

LINESTRING (52.315460 58.143876, 70.901310 61.914566)

LINESTRING (52.315460 58.143876, 61.533781 57.969200)

LINESTRING (52.315460 58.143876, 54.796179 53.480558)

LINESTRING (52.315460 58.143876, 66.319062 48.674116)

LINESTRING (49.165348 73.718749, 70.901310 61.914566)

LINESTRING (49.165348 73.718749, 66.672832 51.983766)

LINESTRING (49.165348 73.718749, 61.533781 57.969200)

LINESTRING (49.165348 73.718749, 54.796179 53.480558)

LINESTRING (49.165348 73.718749, 52.341000 68.845222)

LINESTRING (49.165348 73.718749, 66.557554 72.130721)

LINESTRING (49.165348 73.718749, 66.319062 48.674116)

LINESTRING (70.901310 61.914566, 66.672832 51.983766)

LINESTRING (70.901310 61.914566, 61.533781 57.969200)

LINESTRING (70.901310 61.914566, 52.341000 68.845222)

LINESTRING (54.796179 53.480558, 66.319062 48.674116)

LINESTRING (52.341000 68.845222, 66.557554 72.130721)

LINESTRING (180.000000 60.000000, 185.266283 59.737795)

LINESTRING (180.000000 60.000000, 184.892370 65.879333)

LINESTRING (180.000000 60.000000, 175.491182 49.905106)

LINESTRING (180.000000 60.000000, 166.776881 56.077544)

LINESTRING (180.000000 60.000000, 177.469053 72.870153)

LINESTRING (180.000000 60.000000, 188.896394 67.415116)

LINESTRING (180.000000 60.000000, 178.320885 57.376785)

LINESTRING (180.000000 60.000000, 171.584124 61.942530)

LINESTRING (180.000000 60.000000, 166.079892 54.498216)

LINESTRING (180.000000 60.000000, 189.755792 64.785752)

LINESTRING (180.000000 60.000000, 181.837691 70.350262)

LINESTRING (180.000000 60.000000, 188.189782 69.355424)

LINESTRING (180.000000 60.000000, 191.504594 45.896056)

LINESTRING (180.000000 60.000000, 191.708622 68.484838)

LINESTRING (180.000000 60.000000, 194.122265 71.215980)

LINESTRING (180.000000 60.000000, 185.459004 71.284928)

LINESTRING (180.000000 60.000000, 189.030827 55.227601)

LINESTRING (180.000000 60.000000, 190.233577 54.351967)

LINESTRING (180.000000 60.000000, 166.490985 74.170488)

LINESTRING (180.000000 60.000000, 193.565553 51.441601)

LINESTRING (185.266283 59.737795, 175.491182 49.905106)

LINESTRING (185.266283 59.737795, 188.896394 67.415116)

LINESTRING (185.266283 59.737795, 171.584124 61.942530)

LINESTRING (185.266283 59.737795, 181.837691 70.350262)

LINESTRING (185.266283 59.737795, 188.189782 69.355424)

LINESTRING (185.266283 59.737795, 191.504594 45.896056)

LINESTRING (185.266283 59.737795, 191.708622 68.484838)

LINESTRING (185.266283 59.737795, 193.565553 51.441601)

LINESTRING (184.892370 65.879333, 177.469053 72.870153)

LINESTRING (184.892370 65.879333, 181.837691 70.350262)

LINESTRING (184.892370 65.879333, 191.504594 45.896056)

LINESTRING (184.892370 65.879333, 185.459004 71.284928)

LINESTRING (184.892370 65.879333, 193.565553 51.441601)

LINESTRING (175.491182 49.905106, 188.896394 67.415116)

LINESTRING (175.491182 49.905106, 171.584124 61.942530)

LINESTRING (175.491182 49.905106, 166.079892 54.498216)

LINESTRING (175.491182 49.905106, 188.189782 69.355424)

LINESTRING (175.491182 49.905106, 185.459004 71.284928)

LINESTRING (175.491182 49.905106, 189.030827 55.227601)

LINESTRING (175.491182 49.905106, 190.233577 54.351967)

LINESTRING (166.776881 56.077544, 177.469053 72.870153)

LINESTRING (166.776881 56.077544, 178.320885 57.376785)

LINESTRING (166.776881 56.077544, 181.837691 70.350262)

LINESTRING (166.776881 56.077544, 191.504594 45.896056)

LINESTRING (166.776881 56.077544, 194.122265 71.215980)

LINESTRING (166.776881 56.077544, 185.459004 71.284928)

LINESTRING (166.776881 56.077544, 189.030827 55.227601)

LINESTRING (166.776881 56.077544, 166.490985 74.170488)

LINESTRING (177.469053 72.870153, 188.896394 67.415116)

LINESTRING (177.469053 72.870153, 178.320885 57.376785)

LINESTRING (177.469053 72.870153, 189.755792 64.785752)

LINESTRING (177.469053 72.870153, 188.189782 69.355424)

LINESTRING (177.469053 72.870153, 191.504594 45.896056)

LINESTRING (177.469053 72.870153, 191.708622 68.484838)

LINESTRING (177.469053 72.870153, 185.459004 71.284928)

LINESTRING (177.469053 72.870153, 166.490985 74.170488)

LINESTRING (188.896394 67.415116, 171.584124 61.942530)

LINESTRING (188.896394 67.415116, 166.079892 54.498216)

LINESTRING (188.896394 67.415116, 181.837691 70.350262)

LINESTRING (188.896394 67.415116, 188.189782 69.355424)

LINESTRING (188.896394 67.415116, 191.504594 45.896056)

LINESTRING (188.896394 67.415116, 191.708622 68.484838)

LINESTRING (188.896394 67.415116, 194.122265 71.215980)

LINESTRING (188.896394 67.415116, 185.459004 71.284928)

LINESTRING (188.896394 67.415116, 189.030827 55.227601)

LINESTRING (188.896394 67.415116, 190.233577 54.351967)

LINESTRING (188.896394 67.415116, 193.565553 51.441601)

LINESTRING (178.320885 57.376785, 171.584124 61.942530)

LINESTRING (178.320885 57.376785, 189.755792 64.785752)

LINESTRING (178.320885 57.376785, 188.189782 69.355424)

LINESTRING (178.320885 57.376785, 185.459004 71.284928)

LINESTRING (171.584124 61.942530, 166.079892 54.498216)

LINESTRING (171.584124 61.942530, 189.755792 64.785752)

LINESTRING (171.584124 61.942530, 181.837691 70.350262)

LINESTRING (171.584124 61.942530, 188.189782 69.355424)

LINESTRING (171.584124 61.942530, 191.504594 45.896056)

LINESTRING (171.584124 61.942530, 194.122265 71.215980)

LINESTRING (171.584124 61.942530, 185.459004 71.284928)

LINESTRING (171.584124 61.942530, 166.490985 74.170488)

LINESTRING (171.584124 61.942530, 193.565553 51.441601)

LINESTRING (166.079892 54.498216, 188.189782 69.355424)

LINESTRING (166.079892 54.498216, 191.504594 45.896056)

LINESTRING (166.079892 54.498216, 191.708622 68.484838)

LINESTRING (166.079892 54.498216, 194.122265 71.215980)

LINESTRING (166.079892 54.498216, 189.030827 55.227601)

LINESTRING (166.079892 54.498216, 190.233577 54.351967)

LINESTRING (166.079892 54.498216, 166.490985 74.170488)

LINESTRING (166.079892 54.498216, 193.565553 51.441601)

LINESTRING (189.755792 64.785752, 181.837691 70.350262)

LINESTRING (189.755792 64.785752, 185.459004 71.284928)

LINESTRING (189.755792 64.785752, 166.490985 74.170488)

LINESTRING (181.837691 70.350262, 188.189782 69.355424)

LINESTRING (181.837691 70.350262, 191.504594 45.896056)

LINESTRING (181.837691 70.350262, 185.459004 71.284928)

LINESTRING (181.837691 70.350262, 193.565553 51.441601)

LINESTRING (188.189782 69.355424, 185.459004 71.284928)

LINESTRING (188.189782 69.355424, 190.233577 54.351967)

LINESTRING (191.504594 45.896056, 185.459004 71.284928)

LINESTRING (191.504594 45.896056, 189.030827 55.227601)

LINESTRING (191.504594 45.896056, 190.233577 54.351967)

LINESTRING (191.504594 45.896056, 193.565553 51.441601)

LINESTRING (191.708622 68.484838, 194.122265 71.215980)

LINESTRING (191.708622 68.484838, 190.233577 54.351967)

LINESTRING (191.708622 68.484838, 193.565553 51.441601)

LINESTRING (194.122265 71.215980, 190.233577 54.351967)

LINESTRING (185.459004 71.284928, 190.233577 54.351967)

LINESTRING (185.459004 71.284928, 166.490985 74.170488)

LINESTRING (185.459004 71.284928, 193.565553 51.441601)

LINESTRING (189.030827 55.227601, 190.233577 54.351967)

LINESTRING (189.030827 55.227601, 166.490985 74.170488)

LINESTRING (189.030827 55.227601, 193.565553 51.441601)

LINESTRING (190.233577 54.351967, 166.490985 74.170488)

LINESTRING (60.000000 180.000000, 61.780707 171.611168)

LINESTRING (60.000000 180.000000, 56.327735 176.414562)

LINESTRING (60.000000 180.000000, 61.973379 183.750552)

LINESTRING (60.000000 180.000000, 68.501433 192.078501)

LINESTRING (60.000000 180.000000, 66.163928 180.808049)

LINESTRING (60.000000 180.000000, 73.657959 174.966673)

LINESTRING (60.000000 180.000000, 53.668567 170.382748)

LINESTRING (60.000000 180.000000, 52.024142 189.279795)

LINESTRING (60.000000 180.000000, 56.973770 168.060668)

LINESTRING (60.000000 180.000000, 57.690899 170.277687)

LINESTRING (60.000000 180.000000, 57.835412 172.195894)

LINESTRING (60.000000 180.000000, 70.133836 192.841964)

LINESTRING (60.000000 180.000000, 67.496165 189.531284)

LINESTRING (60.000000 180.000000, 72.072401 185.001717)

LINESTRING (60.000000 180.000000, 45.838809 184.810636)

LINESTRING (60.000000 180.000000, 71.060243 192.345747)

LINESTRING (60.000000 180.000000, 52.083485 181.022229)

LINESTRING (60.000000 180.000000, 63.611479 172.921878)

LINESTRING (60.000000 180.000000, 68.909253 173.318556)

LINESTRING (60.000000 180.000000, 50.470804 194.171887)

LINESTRING (61.780707 171.611168, 66.163928 180.808049)

LINESTRING (61.780707 171.611168, 52.024142 189.279795)

LINESTRING (61.780707 171.611168, 56.973770 168.060668)

LINESTRING (61.780707 171.611168, 57.690899 170.277687)

LINESTRING (61.780707 171.611168, 67.496165 189.531284)

LINESTRING (61.780707 171.611168, 72.072401 185.001717)

LINESTRING (61.780707 171.611168, 71.060243 192.345747)

LINESTRING (61.780707 171.611168, 50.470804 194.171887)

LINESTRING (56.327735 176.414562, 66.163928 180.808049)

LINESTRING (56.327735 176.414562, 73.657959 174.966673)

LINESTRING (56.327735 176.414562, 56.973770 168.060668)

LINESTRING (56.327735 176.414562, 57.835412 172.195894)

LINESTRING (56.327735 176.414562, 70.133836 192.841964)

LINESTRING (56.327735 176.414562, 67.496165 189.531284)

LINESTRING (56.327735 176.414562, 72.072401 185.001717)

LINESTRING (56.327735 176.414562, 45.838809 184.810636)

LINESTRING (56.327735 176.414562, 71.060243 192.345747)

LINESTRING (61.973379 183.750552, 68.501433 192.078501)

LINESTRING (61.973379 183.750552, 53.668567 170.382748)

LINESTRING (61.973379 183.750552, 57.690899 170.277687)

LINESTRING (61.973379 183.750552, 57.835412 172.195894)

LINESTRING (61.973379 183.750552, 70.133836 192.841964)

LINESTRING (61.973379 183.750552, 67.496165 189.531284)

LINESTRING (61.973379 183.750552, 72.072401 185.001717)

LINESTRING (61.973379 183.750552, 45.838809 184.810636)

LINESTRING (61.973379 183.750552, 71.060243 192.345747)

LINESTRING (61.973379 183.750552, 52.083485 181.022229)

LINESTRING (61.973379 183.750552, 63.611479 172.921878)

LINESTRING (61.973379 183.750552, 68.909253 173.318556)

LINESTRING (61.973379 183.750552, 50.470804 194.171887)

LINESTRING (68.501433 192.078501, 66.163928 180.808049)

LINESTRING (68.501433 192.078501, 73.657959 174.966673)

LINESTRING (68.501433 192.078501, 56.973770 168.060668)

LINESTRING (68.501433 192.078501, 57.690899 170.277687)

LINESTRING (68.501433 192.078501, 57.835412 172.195894)

LINESTRING (68.501433 192.078501, 70.133836 192.841964)

LINESTRING (68.501433 192.078501, 67.496165 189.531284)

LINESTRING (68.501433 192.078501, 71.060243 192.345747)

LINESTRING (68.501433 192.078501, 52.083485 181.022229)

LINESTRING (68.501433 192.078501, 63.611479 172.921878)

LINESTRING (68.501433 192.078501, 68.909253 173.318556)

LINESTRING (66.163928 180.808049, 73.657959 174.966673)

LINESTRING (66.163928 180.808049, 57.835412 172.195894)

LINESTRING (66.163928 180.808049, 70.133836 192.841964)

LINESTRING (66.163928 180.808049, 67.496165 189.531284)

LINESTRING (66.163928 180.808049, 72.072401 185.001717)

LINESTRING (66.163928 180.808049, 71.060243 192.345747)

LINESTRING (66.163928 180.808049, 52.083485 181.022229)

LINESTRING (66.163928 180.808049, 63.611479 172.921878)

LINESTRING (66.163928 180.808049, 50.470804 194.171887)

LINESTRING (73.657959 174.966673, 53.668567 170.382748)

LINESTRING (73.657959 174.966673, 52.024142 189.279795)

LINESTRING (73.657959 174.966673, 56.973770 168.060668)

LINESTRING (73.657959 174.966673, 57.690899 170.277687)

LINESTRING (73.657959 174.966673, 57.835412 172.195894)

LINESTRING (73.657959 174.966673, 67.496165 189.531284)

LINESTRING (73.657959 174.966673, 45.838809 184.810636)

LINESTRING (73.657959 174.966673, 71.060243 192.345747)

LINESTRING (73.657959 174.966673, 50.470804 194.171887)

LINESTRING (53.668567 170.382748, 56.973770 168.060668)

LINESTRING (53.668567 170.382748, 70.133836 192.841964)

LINESTRING (53.668567 170.382748, 72.072401 185.001717)

LINESTRING (53.668567 170.382748, 71.060243 192.345747)

LINESTRING (53.668567 170.382748, 52.083485 181.022229)

LINESTRING (53.668567 170.382748, 68.909253 173.318556)

LINESTRING (52.024142 189.279795, 56.973770 168.060668)

LINESTRING (52.024142 189.279795, 57.835412 172.195894)

LINESTRING (52.024142 189.279795, 70.133836 192.841964)

LINESTRING (52.024142 189.279795, 67.496165 189.531284)

LINESTRING (52.024142 189.279795, 45.838809 184.810636)

LINESTRING (52.024142 189.279795, 52.083485 181.022229)

LINESTRING (52.024142 189.279795, 68.909253 173.318556)

LINESTRING (56.973770 168.060668, 57.690899 170.277687)

LINESTRING (56.973770 168.060668, 70.133836 192.841964)

LINESTRING (56.973770 168.060668, 67.496165 189.531284)

LINESTRING (56.973770 168.060668, 72.072401 185.001717)

LINESTRING (56.973770 168.060668, 71.060243 192.345747)

LINESTRING (56.973770 168.060668, 52.083485 181.022229)

LINESTRING (56.973770 168.060668, 50.470804 194.171887)

LINESTRING (57.690899 170.277687, 70.133836 192.841964)

LINESTRING (57.690899 170.277687, 72.072401 185.001717)

LINESTRING (57.690899 170.277687, 50.470804 194.171887)

LINESTRING (57.835412 172.195894, 67.496165 189.531284)

LINESTRING (57.835412 172.195894, 45.838809 184.810636)

LINESTRING (57.835412 172.195894, 68.909253 173.318556)

LINESTRING (70.133836 192.841964, 72.072401 185.001717)

LINESTRING (70.133836 192.841964, 45.838809 184.810636)

LINESTRING (70.133836 192.841964, 71.060243 192.345747)

LINESTRING (70.133836 192.841964, 52.083485 181.022229)

LINESTRING (70.133836 192.841964, 68.909253 173.318556)

LINESTRING (67.496165 189.531284, 71.060243 192.345747)

LINESTRING (67.496165 189.531284, 63.611479 172.921878)

LINESTRING (67.496165 189.531284, 68.909253 173.318556)

LINESTRING (72.072401 185.001717, 52.083485 181.022229)

LINESTRING (45.838809 184.810636, 71.060243 192.345747)

LINESTRING (45.838809 184.810636, 63.611479 172.921878)

LINESTRING (45.838809 184.810636, 68.909253 173.318556)

LINESTRING (71.060243 192.345747, 52.083485 181.022229)

LINESTRING (71.060243 192.345747, 68.909253 173.318556)

LINESTRING (71.060243 192.345747, 50.470804 194.171887)

LINESTRING (52.083485 181.022229, 68.909253 173.318556)

LINESTRING (63.611479 172.921878, 50.470804 194.171887)

LINESTRING (56.642945 59.849573, 189.755792 64.785752)

LINESTRING (60.000000 60.000000, 180.000000 60.000000)

LINESTRING (190.233577 54.351967, 73.657959 174.966673)

LINESTRING (180.000000 60.000000, 60.000000 180.000000)

