LINESTRING (80.000000 80.000000, 195.911099 111.058285)

LINESTRING (195.911099 111.058285, 311.822198 80.000000)

LINESTRING (311.822198 80.000000, 396.675012 -4.852814)

LINESTRING (396.675012 -4.852814, 427.733297 -120.763913)

LINESTRING (396.675012 -4.852814, 481.527826 -89.705627)

LINESTRING (396.675012 -4.852814, 512.586111 -35.911099)

LINESTRING (311.822198 80.000000, 427.733297 48.941715)

LINESTRING (427.733297 48.941715, 512.586111 -35.911099)

LINESTRING (427.733297 48.941715, 543.644397 17.883429)

LINESTRING (427.733297 48.941715, 543.644397 80.000000)

LINESTRING (311.822198 80.000000, 427.733297 111.058285)

LINESTRING (427.733297 111.058285, 543.644397 80.000000)

LINESTRING (427.733297 111.058285, 543.644397 142.116571)

LINESTRING (427.733297 111.058285, 512.586111 195.911099)

LINESTRING (195.911099 111.058285, 311.822198 142.116571)

LINESTRING (311.822198 142.116571, 427.733297 111.058285)

LINESTRING (427.733297 111.058285, 512.586111 26.205472)

LINESTRING (427.733297 111.058285, 543.644397 80.000000)

LINESTRING (427.733297 111.058285, 543.644397 142.116571)

LINESTRING (311.822198 142.116571, 427.733297 173.174856)

LINESTRING (427.733297 173.174856, 543.644397 142.116571)

LINESTRING (427.733297 173.174856, 543.644397 204.233142)

LINESTRING (427.733297 173.174856, 512.586111 258.027670)

LINESTRING (311.822198 142.116571, 396.675012 226.969385)

LINESTRING (396.675012 226.969385, 512.586111 258.027670)

LINESTRING (396.675012 226.969385, 481.527826 311.822198)

LINESTRING (396.675012 226.969385, 427.733297 342.880484)

LINESTRING (195.911099 111.058285, 280.763913 195.911099)

LINESTRING (280.763913 195.911099, 396.675012 226.969385)

LINESTRING (396.675012 226.969385, 512.586111 195.911099)

LINESTRING (396.675012 226.969385, 512.586111 258.027670)

LINESTRING (396.675012 226.969385, 481.527826 311.822198)

LINESTRING (280.763913 195.911099, 365.616727 280.763913)

LINESTRING (365.616727 280.763913, 481.527826 311.822198)

LINESTRING (365.616727 280.763913, 450.469540 365.616727)

LINESTRING (365.616727 280.763913, 396.675012 396.675012)

LINESTRING (280.763913 195.911099, 311.822198 311.822198)

LINESTRING (311.822198 311.822198, 396.675012 396.675012)

LINESTRING (311.822198 311.822198, 342.880484 427.733297)

LINESTRING (311.822198 311.822198, 280.763913 427.733297)

LINESTRING (80.000000 80.000000, 164.852814 164.852814)

LINESTRING (164.852814 164.852814, 280.763913 195.911099)

LINESTRING (280.763913 195.911099, 396.675012 164.852814)

LINESTRING (396.675012 164.852814, 481.527826 80.000000)

LINESTRING (396.675012 164.852814, 512.586111 133.794528)

LINESTRING (396.675012 164.852814, 512.586111 195.911099)

LINESTRING (280.763913 195.911099, 396.675012 226.969385)

LINESTRING (396.675012 226.969385, 512.586111 195.911099)

LINESTRING (396.675012 226.969385, 512.586111 258.027670)

LINESTRING (396.675012 226.969385, 481.527826 311.822198)

LINESTRING (280.763913 195.911099, 365.616727 280.763913)

LINESTRING (365.616727 280.763913, 481.527826 311.822198)

LINESTRING (365.616727 280.763913, 450.469540 365.616727)

LINESTRING (365.616727 280.763913, 396.675012 396.675012)

LINESTRING (164.852814 164.852814, 249.705627 249.705627)

LINESTRING (249.705627 249.705627, 365.616727 280.763913)

LINESTRING (365.616727 280.763913, 481.527826 249.705627)

LINESTRING (365.616727 280.763913, 481.527826 311.822198)

LINESTRING (365.616727 280.763913, 450.469540 365.616727)

LINESTRING (249.705627 249.705627, 334.558441 334.558441)

LINESTRING (334.558441 334.558441, 450.469540 365.616727)

LINESTRING (334.558441 334.558441, 419.411255 419.411255)

LINESTRING (334.558441 334.558441, 365.616727 450.469540)

LINESTRING (249.705627 249.705627, 280.763913 365.616727)

LINESTRING (280.763913 365.616727, 365.616727 450.469540)

LINESTRING (280.763913 365.616727, 311.822198 481.527826)

LINESTRING (280.763913 365.616727, 249.705627 481.527826)

LINESTRING (164.852814 164.852814, 195.911099 280.763913)

LINESTRING (195.911099 280.763913, 280.763913 365.616727)

LINESTRING (280.763913 365.616727, 396.675012 396.675012)

LINESTRING (280.763913 365.616727, 365.616727 450.469540)

LINESTRING (280.763913 365.616727, 311.822198 481.527826)

LINESTRING (195.911099 280.763913, 226.969385 396.675012)

LINESTRING (226.969385 396.675012, 311.822198 481.527826)

LINESTRING (226.969385 396.675012, 258.027670 512.586111)

LINESTRING (226.969385 396.675012, 195.911099 512.586111)

LINESTRING (195.911099 280.763913, 164.852814 396.675012)

LINESTRING (164.852814 396.675012, 195.911099 512.586111)

LINESTRING (164.852814 396.675012, 133.794528 512.586111)

LINESTRING (164.852814 396.675012, 80.000000 481.527826)

LINESTRING (80.000000 80.000000, 111.058285 195.911099)

LINESTRING (111.058285 195.911099, 195.911099 280.763913)

LINESTRING (195.911099 280.763913, 311.822198 311.822198)

LINESTRING (311.822198 311.822198, 427.733297 280.763913)

LINESTRING (311.822198 311.822198, 427.733297 342.880484)

LINESTRING (311.822198 311.822198, 396.675012 396.675012)

LINESTRING (195.911099 280.763913, 280.763913 365.616727)

LINESTRING (280.763913 365.616727, 396.675012 396.675012)

LINESTRING (280.763913 365.616727, 365.616727 450.469540)

LINESTRING (280.763913 365.616727, 311.822198 481.527826)

LINESTRING (195.911099 280.763913, 226.969385 396.675012)

LINESTRING (226.969385 396.675012, 311.822198 481.527826)

LINESTRING (226.969385 396.675012, 258.027670 512.586111)

LINESTRING (226.969385 396.675012, 195.911099 512.586111)

LINESTRING (111.058285 195.911099, 142.116571 311.822198)

LINESTRING (142.116571 311.822198, 226.969385 396.675012)

LINESTRING (226.969385 396.675012, 342.880484 427.733297)

LINESTRING (226.969385 396.675012, 311.822198 481.527826)

LINESTRING (226.969385 396.675012, 258.027670 512.586111)

LINESTRING (142.116571 311.822198, 173.174856 427.733297)

LINESTRING (173.174856 427.733297, 258.027670 512.586111)

LINESTRING (173.174856 427.733297, 204.233142 543.644397)

LINESTRING (173.174856 427.733297, 142.116571 543.644397)

LINESTRING (142.116571 311.822198, 111.058285 427.733297)

LINESTRING (111.058285 427.733297, 142.116571 543.644397)

LINESTRING (111.058285 427.733297, 80.000000 543.644397)

LINESTRING (111.058285 427.733297, 26.205472 512.586111)

LINESTRING (111.058285 195.911099, 80.000000 311.822198)

LINESTRING (80.000000 311.822198, 111.058285 427.733297)

LINESTRING (111.058285 427.733297, 195.911099 512.586111)

LINESTRING (111.058285 427.733297, 142.116571 543.644397)

LINESTRING (111.058285 427.733297, 80.000000 543.644397)

LINESTRING (80.000000 311.822198, 48.941715 427.733297)

LINESTRING (48.941715 427.733297, 80.000000 543.644397)

LINESTRING (48.941715 427.733297, 17.883429 543.644397)

LINESTRING (48.941715 427.733297, -35.911099 512.586111)

LINESTRING (80.000000 311.822198, -4.852814 396.675012)

LINESTRING (-4.852814 396.675012, -35.911099 512.586111)

LINESTRING (-4.852814 396.675012, -89.705627 481.527826)

LINESTRING (-4.852814 396.675012, -120.763913 427.733297)

