LINESTRING (60.000000 60.000000, 52.896820 82.463877)

LINESTRING (60.000000 60.000000, 40.952378 61.130448)

LINESTRING (60.000000 60.000000, 74.191705 56.699660)

LINESTRING (60.000000 60.000000, 41.598067 57.997323)

LINESTRING (60.000000 60.000000, 78.487237 67.823205)

LINESTRING (60.000000 60.000000, 72.941087 41.024128)

LINESTRING (60.000000 60.000000, 39.779544 53.438595)

LINESTRING (60.000000 60.000000, 75.726772 47.907620)

LINESTRING (52.896820 82.463877, 40.952378 61.130448)

LINESTRING (52.896820 82.463877, 74.191705 56.699660)

LINESTRING (52.896820 82.463877, 41.598067 57.997323)

LINESTRING (52.896820 82.463877, 72.941087 41.024128)

LINESTRING (52.896820 82.463877, 75.726772 47.907620)

LINESTRING (40.952378 61.130448, 74.191705 56.699660)

LINESTRING (40.952378 61.130448, 41.598067 57.997323)

LINESTRING (40.952378 61.130448, 78.487237 67.823205)

LINESTRING (40.952378 61.130448, 39.779544 53.438595)

LINESTRING (40.952378 61.130448, 75.726772 47.907620)

LINESTRING (74.191705 56.699660, 78.487237 67.823205)

LINESTRING (74.191705 56.699660, 72.941087 41.024128)

LINESTRING (74.191705 56.699660, 75.726772 47.907620)

LINESTRING (41.598067 57.997323, 39.779544 53.438595)

LINESTRING (41.598067 57.997323, 75.726772 47.907620)

LINESTRING (78.487237 67.823205, 72.941087 41.024128)

LINESTRING (72.941087 41.024128, 75.726772 47.907620)

LINESTRING (39.779544 53.438595, 75.726772 47.907620)

LINESTRING (260.000000 60.000000, 275.087601 53.582649)

LINESTRING (260.000000 60.000000, 236.797448 58.123122)

LINESTRING (260.000000 60.000000, 273.535614 63.742895)

LINESTRING (260.000000 60.000000, 261.561687 82.552400)

LINESTRING (260.000000 60.000000, 261.826733 67.803485)

LINESTRING (260.000000 60.000000, 267.273473 75.204057)

LINESTRING (260.000000 60.000000, 277.943740 80.940431)

LINESTRING (260.000000 60.000000, 277.617514 47.582363)

LINESTRING (275.087601 53.582649, 273.535614 63.742895)

LINESTRING (275.087601 53.582649, 261.826733 67.803485)

LINESTRING (275.087601 53.582649, 277.943740 80.940431)

LINESTRING (236.797448 58.123122, 273.535614 63.742895)

LINESTRING (236.797448 58.123122, 267.273473 75.204057)

LINESTRING (236.797448 58.123122, 277.943740 80.940431)

LINESTRING (236.797448 58.123122, 277.617514 47.582363)

LINESTRING (273.535614 63.742895, 261.561687 82.552400)

LINESTRING (273.535614 63.742895, 277.943740 80.940431)

LINESTRING (273.535614 63.742895, 277.617514 47.582363)

LINESTRING (261.561687 82.552400, 261.826733 67.803485)

LINESTRING (261.561687 82.552400, 267.273473 75.204057)

LINESTRING (261.561687 82.552400, 277.943740 80.940431)

LINESTRING (261.561687 82.552400, 277.617514 47.582363)

LINESTRING (261.826733 67.803485, 277.943740 80.940431)

LINESTRING (261.826733 67.803485, 277.617514 47.582363)

LINESTRING (267.273473 75.204057, 277.943740 80.940431)

LINESTRING (267.273473 75.204057, 277.617514 47.582363)

LINESTRING (277.943740 80.940431, 277.617514 47.582363)

LINESTRING (60.000000 260.000000, 57.351897 266.142944)

LINESTRING (60.000000 260.000000, 49.987916 248.474505)

LINESTRING (60.000000 260.000000, 55.279307 237.702217)

LINESTRING (60.000000 260.000000, 64.387031 245.989930)

LINESTRING (60.000000 260.000000, 39.101717 242.619336)

LINESTRING (60.000000 260.000000, 65.143516 257.887706)

LINESTRING (60.000000 260.000000, 46.244062 249.214507)

LINESTRING (60.000000 260.000000, 59.491152 244.380035)

LINESTRING (57.351897 266.142944, 49.987916 248.474505)

LINESTRING (57.351897 266.142944, 55.279307 237.702217)

LINESTRING (57.351897 266.142944, 64.387031 245.989930)

LINESTRING (57.351897 266.142944, 39.101717 242.619336)

LINESTRING (57.351897 266.142944, 65.143516 257.887706)

LINESTRING (57.351897 266.142944, 46.244062 249.214507)

LINESTRING (49.987916 248.474505, 64.387031 245.989930)

LINESTRING (49.987916 248.474505, 46.244062 249.214507)

LINESTRING (49.987916 248.474505, 59.491152 244.380035)

LINESTRING (55.279307 237.702217, 64.387031 245.989930)

LINESTRING (55.279307 237.702217, 39.101717 242.619336)

LINESTRING (55.279307 237.702217, 65.143516 257.887706)

LINESTRING (55.279307 237.702217, 46.244062 249.214507)

LINESTRING (55.279307 237.702217, 59.491152 244.380035)

LINESTRING (64.387031 245.989930, 65.143516 257.887706)

LINESTRING (39.101717 242.619336, 46.244062 249.214507)

LINESTRING (39.101717 242.619336, 59.491152 244.380035)

LINESTRING (65.143516 257.887706, 46.244062 249.214507)

LINESTRING (65.143516 257.887706, 59.491152 244.380035)

LINESTRING (46.244062 249.214507, 59.491152 244.380035)

LINESTRING (260.000000 260.000000, 278.995105 277.876658)

LINESTRING (260.000000 260.000000, 269.159606 244.804289)

LINESTRING (260.000000 260.000000, 255.885176 262.029525)

LINESTRING (260.000000 260.000000, 246.796622 281.875248)

LINESTRING (260.000000 260.000000, 243.067792 238.803743)

LINESTRING (260.000000 260.000000, 281.695944 236.915334)

LINESTRING (260.000000 260.000000, 282.353168 242.752348)

LINESTRING (260.000000 260.000000, 237.087044 258.708677)

LINESTRING (278.995105 277.876658, 246.796622 281.875248)

LINESTRING (278.995105 277.876658, 243.067792 238.803743)

LINESTRING (278.995105 277.876658, 282.353168 242.752348)

LINESTRING (278.995105 277.876658, 237.087044 258.708677)

LINESTRING (269.159606 244.804289, 281.695944 236.915334)

LINESTRING (269.159606 244.804289, 282.353168 242.752348)

LINESTRING (269.159606 244.804289, 237.087044 258.708677)

LINESTRING (255.885176 262.029525, 246.796622 281.875248)

LINESTRING (255.885176 262.029525, 282.353168 242.752348)

LINESTRING (255.885176 262.029525, 237.087044 258.708677)

LINESTRING (246.796622 281.875248, 243.067792 238.803743)

LINESTRING (246.796622 281.875248, 281.695944 236.915334)

LINESTRING (246.796622 281.875248, 282.353168 242.752348)

LINESTRING (243.067792 238.803743, 281.695944 236.915334)

LINESTRING (243.067792 238.803743, 282.353168 242.752348)

LINESTRING (243.067792 238.803743, 237.087044 258.708677)

LINESTRING (281.695944 236.915334, 282.353168 242.752348)

LINESTRING (281.695944 236.915334, 237.087044 258.708677)

LINESTRING (282.353168 242.752348, 237.087044 258.708677)

LINESTRING (52.896820 82.463877, 273.535614 63.742895)

LINESTRING (60.000000 60.000000, 260.000000 60.000000)

LINESTRING (267.273473 75.204057, 57.351897 266.142944)

LINESTRING (260.000000 60.000000, 60.000000 260.000000)

LINESTRING (59.491152 244.380035, 237.087044 258.708677)

LINESTRING (60.000000 260.000000, 260.000000 260.000000)

