LINESTRING (681758.057797 7468116.324415, 681716.238028 7468098.143710, 681693.027362 7468079.484387, 681654.264112 7468049.217027, 681646.603473 7468048.766453)

LINESTRING (681646.603473 7468048.766453, 681604.582105 7468014.639707, 681556.431451 7467974.262625, 681529.942501 7467953.460677)

LINESTRING (681529.942501 7467953.460677, 681501.865624 7467943.974389, 681491.308517 7467942.439951, 681479.338921 7467943.768779, 681469.542856 7467945.791372, 681447.911292 7467952.618737, 681410.229669 7467964.500781, 681399.935205 7467967.747574)

LINESTRING (681529.942501 7467953.460677, 681511.910604 7467941.317502, 681492.116773 7467930.280836, 681466.858608 7467918.811404, 681448.226115 7467913.043565, 681424.918223 7467907.597656, 681403.543881 7467903.368908, 681381.747625 7467901.603871, 681351.027572 7467901.861924)

LINESTRING (681399.935205 7467967.747574, 681379.580448 7467976.652701, 681368.575409 7467977.980934, 681355.389949 7467977.186761, 681345.057261 7467974.685992, 681335.658833 7467970.512736, 681323.890185 7467962.081856, 681316.989369 7467953.969099, 681310.707758 7467941.872944, 681307.671541 7467930.003642, 681292.859637 7467849.255583, 681291.617776 7467844.962269, 681286.350568 7467826.751550, 681280.004570 7467813.559724, 681270.637514 7467799.163735, 681258.952378 7467784.850932)

LINESTRING (681351.027572 7467901.861924, 681328.896739 7467904.708074, 681289.412456 7467912.591192)

LINESTRING (681790.324999 7468093.653033, 681812.707523 7468092.940697, 681824.689616 7468087.524736, 681837.216149 7468077.040876, 681905.337874 7467985.360377, 681921.119584 7467964.847460)

LINESTRING (681790.324999 7468093.653033, 681802.942435 7468097.543635, 681815.533893 7468100.127673, 681828.970961 7468102.203143, 681841.256881 7468102.420758, 681856.294280 7468101.896436, 681869.116794 7468100.656726, 681884.184960 7468097.573649, 681897.209725 7468093.529469, 681909.265089 7468089.087170, 681921.319639 7468083.725634, 681931.977054 7468078.236934, 681942.774348 7468069.878080, 681958.266095 7468055.958332)

LINESTRING (681921.119584 7467964.847460, 681977.834082 7467882.928209)

LINESTRING (681921.119584 7467964.847460, 681947.488697 7468039.552938, 681949.444573 7468043.472134, 681950.209039 7468044.747645, 681951.476264 7468046.869886, 681954.211386 7468050.735397, 681958.266095 7468055.958332)

LINESTRING (681958.266095 7468055.958332, 681954.211386 7468050.735397, 681951.476264 7468046.869886, 681950.209039 7468044.747645, 681949.444573 7468043.472134, 681947.488697 7468039.552938, 681921.119584 7467964.847460)

LINESTRING (681958.266095 7468055.958332, 681974.205107 7468039.984277, 682060.416328 7467944.828998)

LINESTRING (681183.984452 7467915.107466, 681240.609639 7467885.322868)

LINESTRING (681183.984452 7467915.107466, 681188.778909 7467906.743638, 681190.094660 7467901.799437, 681189.877175 7467895.644289, 681189.271102 7467890.457335, 681180.704283 7467875.187839)

LINESTRING (681240.609639 7467885.322868, 681282.039350 7467875.378708, 681326.722146 7467864.597977, 681349.525141 7467862.186761, 681371.188311 7467860.564453, 681389.480283 7467860.200855, 681415.167462 7467861.265719, 681450.671031 7467867.129990)

LINESTRING (681180.704283 7467875.187839, 681197.591594 7467884.332684, 681203.876538 7467886.450170, 681212.488430 7467887.509756, 681222.612173 7467887.997447, 681240.609639 7467885.322868)

LINESTRING (681180.704283 7467875.187839, 681131.797266 7467834.065488, 681126.412213 7467824.838047)

LINESTRING (681565.070219 7467921.197567, 681566.811487 7467922.638556, 681587.024370 7467938.653898, 681613.100447 7467959.250285, 681648.023843 7467987.670051, 681679.059028 7468016.158653, 681702.660266 7468035.732528, 681721.229022 7468050.682122, 681744.870884 7468068.505579, 681753.843229 7468075.629706, 681763.170163 7468081.520221, 681770.935953 7468085.591042, 681781.910138 7468090.221314, 681790.324999 7468093.653033)

LINESTRING (681915.014977 7467463.903492, 681906.707207 7467465.930624)

LINESTRING (681915.014977 7467463.903492, 681966.353228 7467460.571677, 681997.010485 7467458.574259)

LINESTRING (681906.707207 7467465.930624, 681875.092358 7467473.620937, 681869.073721 7467475.720160, 681863.075341 7467478.649772, 681857.226736 7467482.939821, 681852.757878 7467487.623037, 681846.874649 7467495.856250, 681843.104136 7467503.144789, 681834.098487 7467520.508280, 681800.957646 7467593.250030, 681771.995585 7467656.837626)

LINESTRING (681997.010485 7467458.574259, 681966.353228 7467460.571677, 681915.014977 7467463.903492)

LINESTRING (682063.498407 7468340.263294, 682068.574720 7468352.761345)

LINESTRING (682063.498407 7468340.263294, 682019.103759 7468305.202631)

LINESTRING (682068.574720 7468352.761345, 682063.498407 7468340.263294)

LINESTRING (682019.103759 7468305.202631, 681973.394340 7468264.908069, 681884.491911 7468191.265629, 681852.739903 7468168.079938)

LINESTRING (681971.340311 7468117.367595, 681971.814197 7468121.780870, 681972.496214 7468125.582506, 681974.810054 7468132.808857, 681977.011013 7468138.330995, 681979.413978 7468143.584896, 681982.315041 7468149.297954, 681986.065462 7468156.518076, 682007.561872 7468198.942748, 682029.341924 7468248.717878, 682040.562515 7468277.189799)

LINESTRING (681971.340311 7468117.367595, 681958.832372 7468130.243578, 681950.764259 7468136.864002, 681943.327994 7468141.416836, 681938.211201 7468144.291539, 681933.517339 7468146.496639, 681929.309968 7468148.197497, 681917.203386 7468151.798715, 681887.887647 7468159.649530, 681880.513699 7468160.856888, 681877.951025 7468161.087090, 681872.584358 7468161.107391, 681868.945149 7468160.564215, 681863.422176 7468159.534257, 681856.146957 7468157.860879, 681844.834246 7468154.951376, 681832.013543 7468151.229379)

LINESTRING (682040.562515 7468277.189799, 682037.110068 7468293.855188, 682035.849823 7468297.425492, 682033.819246 7468300.938627, 682030.829904 7468303.233970, 682027.801898 7468304.023558, 682019.103759 7468305.202631)

LINESTRING (682040.562515 7468277.189799, 682054.166557 7468310.140582, 682059.870541 7468327.038980, 682063.498407 7468340.263294)

LINESTRING (681832.013543 7468151.229379, 681805.554668 7468144.924853)

LINESTRING (681771.995585 7467656.837626, 681767.019910 7467654.372368, 681746.923887 7467643.793764, 681726.530621 7467634.093647, 681700.884448 7467621.056625)

LINESTRING (681700.884448 7467621.056625, 681651.278118 7467731.762213)

LINESTRING (681700.884448 7467621.056625, 681679.317087 7467610.994017, 681642.547175 7467592.796778, 681628.951825 7467583.491021)

LINESTRING (681126.412213 7467824.838047, 681124.579282 7467818.314640)

LINESTRING (681126.412213 7467824.838047, 681113.478338 7467830.464215, 681107.372877 7467832.187602)

LINESTRING (681126.412213 7467824.838047, 681131.797266 7467834.065488, 681180.704283 7467875.187839)

LINESTRING (681124.579282 7467818.314640, 681126.412213 7467824.838047)

LINESTRING (681124.579282 7467818.314640, 681125.465515 7467805.789152, 681128.709144 7467796.458253, 681134.573621 7467786.619697)

LINESTRING (681107.372877 7467832.187602, 681113.478338 7467830.464215, 681126.412213 7467824.838047)

LINESTRING (681107.372877 7467832.187602, 681102.783943 7467850.848780, 681088.344829 7467880.714204)

LINESTRING (681450.671031 7467867.129990, 681455.730500 7467864.610543, 681461.049698 7467860.648210, 681463.266229 7467856.379815, 681465.529838 7467850.050882, 681465.588880 7467843.006397, 681464.770443 7467838.087801, 681462.718380 7467827.856890)

LINESTRING (681450.671031 7467867.129990, 681472.079810 7467873.373927, 681496.169237 7467882.376560, 681515.405538 7467891.426393, 681534.371213 7467901.863847, 681556.189840 7467915.733506)

LINESTRING (681307.822136 7467771.550246, 681303.241762 7467789.192494, 681301.043751 7467800.991716, 681301.473473 7467813.711859, 681303.437734 7467828.606457, 681305.973982 7467844.989330, 681306.418939 7467847.863518, 681321.978708 7467928.502917, 681325.471059 7467939.901589, 681331.564223 7467949.120471, 681339.802210 7467956.641266, 681348.491062 7467961.542919, 681359.311685 7467964.514057, 681370.325356 7467963.905609, 681379.868174 7467960.446358, 681388.429517 7467955.581271)

LINESTRING (681307.822136 7467771.550246, 681300.908674 7467778.621615, 681296.085644 7467783.740824, 681290.079812 7467787.777789, 681284.799599 7467789.004042, 681274.565525 7467790.433716, 681271.329235 7467790.107072, 681268.150121 7467789.414262, 681263.335707 7467787.556038, 681258.952378 7467784.850932)

LINESTRING (681388.429517 7467955.581271, 681395.062394 7467949.066991, 681399.064264 7467943.071604, 681400.665130 7467937.093971, 681401.310628 7467930.175350, 681399.300507 7467922.579808, 681395.879635 7467917.138702, 681390.066544 7467912.446201, 681383.565452 7467909.423226, 681375.878290 7467907.610600, 681351.027572 7467901.861924)

LINESTRING (681388.429517 7467955.581271, 681392.668856 7467959.107632, 681396.189190 7467962.576175, 681399.935205 7467967.747574)

LINESTRING (681258.952378 7467784.850932, 681211.075818 7467746.651377)

LINESTRING (681172.047864 7467714.691600, 681226.961038 7467717.610160)

LINESTRING (681172.047864 7467714.691600, 681097.015242 7467651.267137)

LINESTRING (681226.961038 7467717.610160, 681172.047864 7467714.691600)

LINESTRING (681226.961038 7467717.610160, 681259.205759 7467719.593357)

LINESTRING (681226.961038 7467717.610160, 681232.716877 7467698.724500)

LINESTRING (681097.015242 7467651.267137, 681071.080629 7467682.599390)

LINESTRING (681097.015242 7467651.267137, 681085.385379 7467640.685865, 681081.033474 7467637.171854, 681069.656734 7467628.016225)

LINESTRING (681211.075818 7467746.651377, 681172.047864 7467714.691600)

LINESTRING (681211.075818 7467746.651377, 681199.339988 7467743.502848, 681191.890512 7467741.820187, 681183.908249 7467741.915929, 681175.248396 7467742.839351, 681160.391806 7467749.850865)

LINESTRING (681069.656734 7467628.016225, 681089.740294 7467603.365948, 681102.219229 7467588.054525)

LINESTRING (681102.219229 7467588.054525, 681232.716877 7467698.724500)

LINESTRING (681102.219229 7467588.054525, 681123.344308 7467562.129144, 681126.054511 7467558.807340, 681136.296356 7467546.058906)

LINESTRING (681160.391806 7467749.850865, 681157.304706 7467754.262552)

LINESTRING (681160.391806 7467749.850865, 681169.657146 7467735.242438, 681171.640645 7467728.651113, 681171.838909 7467722.081199, 681172.047864 7467714.691600)

LINESTRING (681930.261126 7467736.356801, 681997.010485 7467458.574259)

LINESTRING (681930.261126 7467736.356801, 681888.324567 7467714.379262, 681832.312226 7467686.668006, 681825.695331 7467683.402961, 681808.063752 7467674.677541, 681779.562234 7467660.578570, 681771.995585 7467656.837626)

LINESTRING (681651.278118 7467731.762213, 681700.884448 7467621.056625)

LINESTRING (682060.416328 7467944.828998, 681977.834082 7467882.928209)

LINESTRING (682000.984996 7467772.263298, 681930.261126 7467736.356801)

LINESTRING (682043.002093 7467793.231740, 682000.984996 7467772.263298)

LINESTRING (681628.951825 7467583.491021, 681614.085574 7467576.869641, 681597.168293 7467570.350432, 681564.052124 7467555.608829, 681546.510336 7467551.766179, 681531.986265 7467549.703563, 681501.440924 7467549.926653, 681481.131127 7467553.980527, 681447.482808 7467565.825366, 681436.875556 7467572.907957)

LINESTRING (681436.875556 7467572.907957, 681387.983285 7467511.640624)

LINESTRING (681436.875556 7467572.907957, 681427.337201 7467579.279969, 681416.360099 7467589.744898, 681385.169209 7467624.230837, 681329.837916 7467690.747778, 681318.400592 7467704.773258)

LINESTRING (681977.834082 7467882.928209, 682060.416328 7467944.828998)

LINESTRING (681977.834082 7467882.928209, 682011.330388 7467837.138714)

LINESTRING (681132.856973 7467518.523144, 681129.718145 7467511.771746)

LINESTRING (681132.856973 7467518.523144, 681139.255571 7467526.708439, 681143.002259 7467533.662973, 681145.952534 7467540.948235, 681151.998420 7467559.935982)

LINESTRING (681129.718145 7467511.771746, 681132.856973 7467518.523144)

LINESTRING (681151.998420 7467559.935982, 681186.564506 7467592.082204)

LINESTRING (681186.564506 7467592.082204, 681257.707779 7467652.905953)

LINESTRING (681257.707779 7467652.905953, 681304.280357 7467691.907334, 681318.400592 7467704.773258)

LINESTRING (681318.400592 7467704.773258, 681358.514755 7467739.145090)

LINESTRING (681318.400592 7467704.773258, 681314.089093 7467724.295055, 681310.049185 7467755.331705)

LINESTRING (681358.514755 7467739.145090, 681345.039154 7467733.824687, 681337.821120 7467731.762765, 681330.344387 7467732.085093, 681323.478393 7467734.559734, 681318.535880 7467739.126630, 681315.207504 7467743.951029, 681312.277645 7467749.490525, 681310.049185 7467755.331705)

LINESTRING (681358.514755 7467739.145090, 681415.245584 7467787.449134, 681462.718380 7467827.856890)

LINESTRING (681310.049185 7467755.331705, 681307.822136 7467771.550246)

LINESTRING (681462.718380 7467827.856890, 681477.358850 7467838.733990, 681547.064771 7467896.738580, 681565.070219 7467921.197567)

LINESTRING (681462.718380 7467827.856890, 681415.245584 7467787.449134, 681358.514755 7467739.145090)

LINESTRING (681289.412456 7467912.591192, 681275.808704 7467934.229065)

LINESTRING (681289.412456 7467912.591192, 681282.444065 7467914.236403, 681264.225909 7467920.756740, 681252.714454 7467925.203071)

LINESTRING (681157.304706 7467754.262552, 681071.080629 7467682.599390)

LINESTRING (681157.304706 7467754.262552, 681134.573621 7467786.619697)

LINESTRING (681157.304706 7467754.262552, 681160.391806 7467749.850865)

LINESTRING (681071.080629 7467682.599390, 681157.304706 7467754.262552)

LINESTRING (681071.080629 7467682.599390, 681097.015242 7467651.267137)

LINESTRING (681337.892425 7467873.623014, 681387.156764 7467868.380037, 681408.339140 7467868.590842, 681424.499136 7467869.282789, 681444.948455 7467872.536930, 681463.637289 7467877.019378, 681486.283402 7467884.610673, 681513.570235 7467895.823118, 681556.189840 7467915.733506)

LINESTRING (681556.189840 7467915.733506, 681565.070219 7467921.197567)

LINESTRING (681134.573621 7467786.619697, 681157.304706 7467754.262552)

LINESTRING (681134.573621 7467786.619697, 681128.709144 7467796.458253, 681125.465515 7467805.789152, 681124.579282 7467818.314640)

LINESTRING (681088.344829 7467880.714204, 681161.177024 7467929.136256)

LINESTRING (681088.344829 7467880.714204, 681102.783943 7467850.848780, 681107.372877 7467832.187602)

LINESTRING (681259.205759 7467719.593357, 681226.961038 7467717.610160)

LINESTRING (681259.205759 7467719.593357, 681301.279093 7467723.130867)

LINESTRING (681232.716877 7467698.724500, 681102.219229 7467588.054525)

LINESTRING (681232.716877 7467698.724500, 681259.205759 7467719.593357)

LINESTRING (681136.296356 7467546.058906, 681151.998420 7467559.935982)

LINESTRING (681136.296356 7467546.058906, 681135.603255 7467535.324368, 681135.132308 7467530.279768, 681134.249109 7467525.085061, 681132.856973 7467518.523144)

LINESTRING (681301.279093 7467723.130867, 681259.205759 7467719.593357)

LINESTRING (682011.330388 7467837.138714, 682043.002093 7467793.231740)

LINESTRING (681704.214314 7468374.014688, 681720.110820 7468387.733879)

LINESTRING (681704.214314 7468374.014688, 681686.525601 7468359.741124)

LINESTRING (681720.110820 7468387.733879, 681757.237446 7468424.333647)

LINESTRING (681720.110820 7468387.733879, 681704.214314 7468374.014688)

LINESTRING (681720.110820 7468387.733879, 681743.125392 7468363.601260, 681743.270783 7468361.185133, 681742.024758 7468358.265211, 681698.804822 7468308.182740)

LINESTRING (681686.525601 7468359.741124, 681704.214314 7468374.014688)

LINESTRING (681686.525601 7468359.741124, 681663.505929 7468343.338762)

LINESTRING (681686.525601 7468359.741124, 681637.644135 7468445.629383)

LINESTRING (681663.505929 7468343.338762, 681686.525601 7468359.741124)

LINESTRING (681663.505929 7468343.338762, 681683.021543 7468323.501149, 681698.804822 7468308.182740)

LINESTRING (681663.505929 7468343.338762, 681656.531018 7468352.138739, 681643.435542 7468373.372126, 681626.709602 7468401.626463, 681610.425291 7468432.478120)

LINESTRING (681637.644135 7468445.629383, 681686.525601 7468359.741124)

LINESTRING (681637.644135 7468445.629383, 681610.425291 7468432.478120)

LINESTRING (681757.237446 7468424.333647, 681720.110820 7468387.733879)

LINESTRING (681698.804822 7468308.182740, 681714.271444 7468295.548300, 681722.775083 7468287.582690, 681731.364388 7468280.767858, 681747.601676 7468269.076571)

LINESTRING (681698.804822 7468308.182740, 681683.021543 7468323.501149, 681663.505929 7468343.338762)

LINESTRING (681698.804822 7468308.182740, 681742.024758 7468358.265211, 681743.270783 7468361.185133, 681743.125392 7468363.601260, 681720.110820 7468387.733879)

LINESTRING (681610.425291 7468432.478120, 681637.644135 7468445.629383)

LINESTRING (681610.425291 7468432.478120, 681626.709602 7468401.626463, 681643.435542 7468373.372126, 681656.531018 7468352.138739, 681663.505929 7468343.338762)

LINESTRING (681805.554668 7468144.924853, 681794.653717 7468148.090608, 681789.303312 7468149.461850, 681784.176098 7468152.325549, 681777.524491 7468158.131421)

LINESTRING (681805.554668 7468144.924853, 681784.020748 7468139.413813, 681770.192708 7468134.696048)

LINESTRING (681777.524491 7468158.131421, 681779.001985 7468151.291363, 681778.956688 7468147.526363, 681777.119573 7468143.240239, 681773.481982 7468138.565997, 681770.192708 7468134.696048)

LINESTRING (681777.524491 7468158.131421, 681750.174555 7468193.767964, 681748.125279 7468196.583548, 681735.220520 7468213.174266, 681702.296962 7468255.533895)

LINESTRING (681770.192708 7468134.696048, 681748.145150 7468126.577407, 681734.921299 7468120.047098, 681711.134911 7468105.570047, 681664.683545 7468064.895951, 681646.603473 7468048.766453)

LINESTRING (681398.889513 7468092.609870, 681408.956589 7468100.330175, 681434.668055 7468122.182735, 681487.203614 7468164.523210, 681493.709305 7468170.481001, 681524.212860 7468198.278575, 681558.689580 7468231.344411, 681590.078790 7468261.944307, 681615.578476 7468287.476084)

LINESTRING (681398.889513 7468092.609870, 681373.185727 7468071.388446, 681271.903000 7468002.122027, 681270.335780 7468000.645692, 681269.665474 7467998.660216, 681269.550812 7467996.800974, 681270.185140 7467994.932745, 681277.007192 7467983.653958)

LINESTRING (681398.889513 7468092.609870, 681366.561813 7468134.219533, 681363.745062 7468138.074258, 681363.402933 7468149.751529, 681362.142390 7468154.163478, 681351.689081 7468170.691188, 681341.829038 7468185.351149, 681335.880993 7468194.216172, 681368.043383 7468217.464413, 681403.607908 7468245.434044, 681423.677644 7468260.620704, 681431.341029 7468251.037315, 681442.297522 7468237.958943)

LINESTRING (681615.578476 7468287.476084, 681590.078790 7468261.944307, 681558.689580 7468231.344411, 681524.212860 7468198.278575, 681493.709305 7468170.481001, 681487.203614 7468164.523210, 681434.668055 7468122.182735, 681408.956589 7468100.330175, 681398.889513 7468092.609870)

LINESTRING (681615.578476 7468287.476084, 681642.864600 7468314.780517, 681667.650321 7468292.863895, 681689.405836 7468270.706785, 681702.296962 7468255.533895)

LINESTRING (681615.578476 7468287.476084, 681609.179189 7468288.671588, 681605.867897 7468288.091180, 681580.626945 7468266.155693, 681577.453715 7468265.108466, 681573.741065 7468265.285983, 681564.441346 7468271.909906, 681562.225376 7468271.958684, 681560.473930 7468271.381673, 681509.860872 7468229.383796, 681500.456633 7468225.598326, 681491.853563 7468225.291889, 681470.173050 7468228.077424, 681451.538424 7468240.107293, 681448.621944 7468240.784673, 681442.297522 7468237.958943)

LINESTRING (681277.007192 7467983.653958, 681242.146016 7467962.065985, 681235.482699 7467957.494378, 681225.217647 7467950.363325, 681217.563589 7467943.610726)

LINESTRING (681277.007192 7467983.653958, 681304.828914 7468001.815529, 681356.244478 7468032.131199, 681417.533306 7468070.246862, 681465.088592 7468099.512112, 681489.064861 7468113.588545, 681543.959789 7468146.453416, 681590.137371 7468175.457985, 681639.115887 7468208.670527, 681673.392576 7468232.756600, 681702.296962 7468255.533895)

LINESTRING (681277.007192 7467983.653958, 681270.185140 7467994.932745, 681269.550812 7467996.800974, 681269.665474 7467998.660216, 681270.335780 7468000.645692, 681271.903000 7468002.122027, 681373.185727 7468071.388446, 681398.889513 7468092.609870)

LINESTRING (681442.297522 7468237.958943, 681448.621944 7468240.784673, 681451.538424 7468240.107293, 681470.173050 7468228.077424, 681491.853563 7468225.291889, 681500.456633 7468225.598326, 681509.860872 7468229.383796, 681560.473930 7468271.381673, 681562.225376 7468271.958684, 681564.441346 7468271.909906, 681573.741065 7468265.285983, 681577.453715 7468265.108466, 681580.626945 7468266.155693, 681605.867897 7468288.091180, 681609.179189 7468288.671588, 681615.578476 7468287.476084)

LINESTRING (681442.297522 7468237.958943, 681431.341029 7468251.037315, 681423.677644 7468260.620704, 681403.607908 7468245.434044, 681368.043383 7468217.464413, 681335.880993 7468194.216172, 681341.829038 7468185.351149, 681351.689081 7468170.691188, 681362.142390 7468154.163478, 681363.402933 7468149.751529, 681363.745062 7468138.074258, 681366.561813 7468134.219533, 681398.889513 7468092.609870)

LINESTRING (681442.297522 7468237.958943, 681453.412330 7468223.538570, 681477.871537 7468189.809040)

LINESTRING (681702.296962 7468255.533895, 681673.392576 7468232.756600, 681639.115887 7468208.670527, 681590.137371 7468175.457985, 681543.959789 7468146.453416, 681489.064861 7468113.588545, 681465.088592 7468099.512112, 681417.533306 7468070.246862, 681356.244478 7468032.131199, 681304.828914 7468001.815529, 681277.007192 7467983.653958)

LINESTRING (681702.296962 7468255.533895, 681689.405836 7468270.706785, 681667.650321 7468292.863895, 681642.864600 7468314.780517, 681615.578476 7468287.476084)

LINESTRING (681702.296962 7468255.533895, 681735.220520 7468213.174266, 681748.125279 7468196.583548, 681750.174555 7468193.767964, 681777.524491 7468158.131421)

LINESTRING (681217.563589 7467943.610726, 681201.849276 7467952.703597, 681184.116750 7467965.497588, 681165.435907 7467980.506872, 681156.337026 7467990.184865, 681140.178382 7468008.442098, 681109.409311 7468048.282621, 681096.721889 7468065.069499)

LINESTRING (681217.563589 7467943.610726, 681225.217647 7467950.363325, 681235.482699 7467957.494378, 681242.146016 7467962.065985, 681277.007192 7467983.653958)

LINESTRING (681852.739903 7468168.079938, 681847.440914 7468163.492159)

LINESTRING (681852.739903 7468168.079938, 681843.515115 7468176.652370, 681833.186337 7468188.139767, 681823.820681 7468198.652028, 681815.963278 7468209.146133, 681800.401945 7468230.952041, 681792.112644 7468239.668231, 681782.156629 7468247.175129, 681773.972851 7468253.575335, 681761.943030 7468260.154705, 681747.601676 7468269.076571)

LINESTRING (681847.440914 7468163.492159, 681841.550828 7468158.390961, 681832.013543 7468151.229379)

LINESTRING (681747.601676 7468269.076571, 681761.943030 7468260.154705, 681773.972851 7468253.575335, 681782.156629 7468247.175129, 681792.112644 7468239.668231, 681800.401945 7468230.952041, 681815.963278 7468209.146133, 681823.820681 7468198.652028, 681833.186337 7468188.139767, 681843.515115 7468176.652370, 681852.739903 7468168.079938)

LINESTRING (681747.601676 7468269.076571, 681731.364388 7468280.767858, 681722.775083 7468287.582690, 681714.271444 7468295.548300, 681698.804822 7468308.182740)

LINESTRING (681110.566072 7467525.944954, 681136.296356 7467546.058906)

LINESTRING (681110.566072 7467525.944954, 681116.391999 7467524.025555, 681121.680333 7467520.916490, 681124.047901 7467518.972107, 681126.196957 7467516.775617, 681128.097254 7467514.371682, 681129.718145 7467511.771746)

LINESTRING (681161.177024 7467929.136256, 681183.984452 7467915.107466)

LINESTRING (681161.177024 7467929.136256, 681088.344829 7467880.714204)

LINESTRING (681908.802261 7467458.407516, 681906.707207 7467465.930624)

LINESTRING (681908.802261 7467458.407516, 681915.014977 7467463.903492)

LINESTRING (681252.714454 7467925.203071, 681275.808704 7467934.229065)

LINESTRING (681252.714454 7467925.203071, 681242.444467 7467929.634499, 681217.563589 7467943.610726)

LINESTRING (681275.808704 7467934.229065, 681252.714454 7467925.203071)

LINESTRING (681275.808704 7467934.229065, 681289.412456 7467912.591192)

LINESTRING (681275.808704 7467934.229065, 681282.842167 7467947.412646, 681295.682156 7467962.176735)

LINESTRING (681295.682156 7467962.176735, 681282.842167 7467947.412646, 681275.808704 7467934.229065)

LINESTRING (681477.871537 7468189.809040, 681453.412330 7468223.538570, 681442.297522 7468237.958943)

LINESTRING (681387.983285 7467511.640624, 681436.875556 7467572.907957)

LINESTRING (682055.368023 7468003.621361, 682024.691971 7468034.813127, 681993.571033 7468068.269509, 681980.404768 7468081.009468, 681969.412291 7468091.054123, 681958.674289 7468099.224005, 681946.285573 7468107.513433, 681934.993744 7468114.006543, 681918.836545 7468121.244887, 681901.875425 7468127.341076, 681883.640277 7468131.603034, 681865.274397 7468134.382474, 681846.029454 7468135.743779, 681830.793077 7468135.085443, 681815.034228 7468133.647045, 681797.799904 7468130.686941, 681783.210739 7468126.676080, 681767.324931 7468120.654056, 681758.057797 7468116.324415)

LINESTRING (682055.368023 7468003.621361, 682029.439994 7468039.662212, 682007.310778 7468064.803600, 681981.334743 7468094.321667, 681976.691032 7468098.984860, 681968.019074 7468107.439967, 681960.840153 7468113.761734, 681955.175862 7468118.038506, 681949.236266 7468121.609781, 681944.461929 7468123.948756, 681940.969185 7468125.341984, 681939.243200 7468126.027277, 681930.598477 7468129.077362, 681878.885695 7468143.255941, 681870.346618 7468145.706661, 681861.204451 7468149.205698, 681856.672742 7468151.242694, 681851.527550 7468154.317060, 681845.829103 7468158.317319, 681839.632564 7468163.563986, 681835.321915 7468167.769041, 681829.589349 7468174.903968, 681800.609832 7468214.115338, 681792.617423 7468224.478151, 681784.052824 7468233.341626, 681774.664058 7468241.938132, 681731.087423 7468269.684986, 681719.356044 7468278.043825, 681707.505511 7468288.441910, 681696.881820 7468297.606968, 681675.727243 7468319.391382, 681613.773578 7468383.197896)

