LINESTRING (64.901604 64.776300, 122.503435 43.443004)

LINESTRING (122.503435 43.443004, 175.621855 31.295797)

LINESTRING (175.621855 31.295797, 233.560929 32.132866)

LINESTRING (233.560929 32.132866, 292.309930 50.134497)

LINESTRING (292.309930 50.134497, 354.380982 31.982227)

LINESTRING (354.380982 31.982227, 398.489962 40.712930)

LINESTRING (398.489962 40.712930, 478.961814 65.642666)

LINESTRING (478.961814 65.642666, 518.983562 62.433811)

LINESTRING (518.983562 62.433811, 578.046579 61.094558)

LINESTRING (578.046579 61.094558, 645.771094 54.609239)

LINESTRING (645.771094 54.609239, 701.289128 56.623996)

LINESTRING (701.289128 56.623996, 785.163526 51.572192)

LINESTRING (50.006165 97.648891, 92.944628 124.425404)

LINESTRING (92.944628 124.425404, 171.106768 127.407816)

LINESTRING (171.106768 127.407816, 212.728679 112.477683)

LINESTRING (212.728679 112.477683, 303.641762 125.409007)

LINESTRING (303.641762 125.409007, 339.605781 92.201318)

LINESTRING (339.605781 92.201318, 415.013772 111.940489)

LINESTRING (415.013772 111.940489, 462.203334 108.996473)

LINESTRING (462.203334 108.996473, 526.489456 91.819713)

LINESTRING (526.489456 91.819713, 582.687439 95.618754)

LINESTRING (582.687439 95.618754, 666.081870 116.017574)

LINESTRING (666.081870 116.017574, 710.077460 94.357162)

LINESTRING (710.077460 94.357162, 756.221311 117.254186)

LINESTRING (30.347319 173.778766, 90.034762 155.053904)

LINESTRING (90.034762 155.053904, 179.065599 154.311622)

LINESTRING (179.065599 154.311622, 225.355318 176.909679)

LINESTRING (225.355318 176.909679, 308.656274 155.862196)

LINESTRING (308.656274 155.862196, 334.722436 172.951502)

LINESTRING (334.722436 172.951502, 403.366811 184.411917)

LINESTRING (403.366811 184.411917, 476.321170 189.021806)

LINESTRING (476.321170 189.021806, 529.239648 178.407154)

LINESTRING (529.239648 178.407154, 596.134717 151.166714)

LINESTRING (596.134717 151.166714, 666.080124 168.929940)

LINESTRING (666.080124 168.929940, 703.781614 186.880234)

LINESTRING (703.781614 186.880234, 770.206498 157.862065)

LINESTRING (36.624070 224.736319, 97.551179 211.296619)

LINESTRING (97.551179 211.296619, 168.547054 226.282978)

LINESTRING (168.547054 226.282978, 235.047874 219.014052)

LINESTRING (235.047874 219.014052, 300.848704 227.529908)

LINESTRING (300.848704 227.529908, 363.047799 213.789006)

LINESTRING (363.047799 213.789006, 429.441812 231.209229)

LINESTRING (429.441812 231.209229, 474.203178 219.530813)

LINESTRING (474.203178 219.530813, 547.922633 224.543535)

LINESTRING (547.922633 224.543535, 578.659846 242.308905)

LINESTRING (578.659846 242.308905, 635.833600 219.832251)

LINESTRING (635.833600 219.832251, 698.854912 240.633968)

LINESTRING (698.854912 240.633968, 779.484047 222.954427)

LINESTRING (41.991252 278.416897, 122.807844 277.963357)

LINESTRING (122.807844 277.963357, 153.222262 281.633492)

LINESTRING (153.222262 281.633492, 228.899100 272.278272)

LINESTRING (228.899100 272.278272, 275.931230 279.838129)

LINESTRING (275.931230 279.838129, 363.578366 285.926327)

LINESTRING (363.578366 285.926327, 394.842925 303.293704)

LINESTRING (394.842925 303.293704, 470.743704 292.657202)

LINESTRING (470.743704 292.657202, 544.821806 271.384256)

LINESTRING (544.821806 271.384256, 599.821090 280.486916)

LINESTRING (599.821090 280.486916, 653.770073 288.754760)

LINESTRING (653.770073 288.754760, 720.161397 308.302172)

LINESTRING (720.161397 308.302172, 765.973264 301.752252)

LINESTRING (40.799300 341.049022, 96.361987 344.304446)

LINESTRING (96.361987 344.304446, 160.854903 367.273912)

LINESTRING (160.854903 367.273912, 212.189751 365.867237)

LINESTRING (212.189751 365.867237, 278.804158 344.115584)

LINESTRING (278.804158 344.115584, 359.495977 352.053089)

LINESTRING (359.495977 352.053089, 416.341641 363.109054)

LINESTRING (416.341641 363.109054, 455.835250 340.266138)

LINESTRING (455.835250 340.266138, 541.561086 334.775111)

LINESTRING (541.561086 334.775111, 597.708164 351.118535)

LINESTRING (597.708164 351.118535, 648.306319 355.209073)

LINESTRING (648.306319 355.209073, 692.327381 343.448826)

LINESTRING (692.327381 343.448826, 768.250691 358.049302)

LINESTRING (39.923158 396.670758, 122.844242 424.897829)

LINESTRING (122.844242 424.897829, 182.748537 427.975033)

LINESTRING (182.748537 427.975033, 231.475791 415.642767)

LINESTRING (231.475791 415.642767, 305.863814 393.173717)

LINESTRING (305.863814 393.173717, 355.694432 420.099646)

LINESTRING (355.694432 420.099646, 392.775529 428.193614)

LINESTRING (392.775529 428.193614, 466.244313 409.283444)

LINESTRING (466.244313 409.283444, 531.305686 397.362592)

LINESTRING (531.305686 397.362592, 585.934123 394.391601)

LINESTRING (585.934123 394.391601, 669.635611 404.437442)

LINESTRING (669.635611 404.437442, 691.307283 396.056996)

LINESTRING (691.307283 396.056996, 756.559273 415.182638)

LINESTRING (61.277955 469.112831, 104.613930 464.667864)

LINESTRING (104.613930 464.667864, 153.724504 464.535268)

LINESTRING (153.724504 464.535268, 219.378169 487.525319)

LINESTRING (219.378169 487.525319, 291.035583 472.367895)

LINESTRING (291.035583 472.367895, 360.171481 488.532991)

LINESTRING (360.171481 488.532991, 412.329968 482.923710)

LINESTRING (412.329968 482.923710, 485.172607 469.076892)

LINESTRING (485.172607 469.076892, 549.067206 469.733189)

LINESTRING (549.067206 469.733189, 604.325360 455.311465)

LINESTRING (604.325360 455.311465, 651.379965 469.457066)

LINESTRING (651.379965 469.457066, 712.924690 471.519555)

LINESTRING (712.924690 471.519555, 761.643266 464.740370)

LINESTRING (51.293762 546.963269, 117.146630 532.990668)

LINESTRING (117.146630 532.990668, 153.783496 535.954586)

LINESTRING (153.783496 535.954586, 235.599332 541.237768)

LINESTRING (235.599332 541.237768, 295.240371 527.918604)

LINESTRING (295.240371 527.918604, 331.538255 545.119731)

LINESTRING (331.538255 545.119731, 427.180021 510.437778)

LINESTRING (427.180021 510.437778, 461.053166 549.327136)

LINESTRING (461.053166 549.327136, 545.086334 511.695235)

LINESTRING (545.086334 511.695235, 588.566104 514.827648)

LINESTRING (588.566104 514.827648, 651.478020 519.571617)

LINESTRING (651.478020 519.571617, 724.654680 529.218986)

LINESTRING (724.654680 529.218986, 780.464985 532.016701)

LINESTRING (62.003296 595.768811, 94.881918 589.778187)

LINESTRING (94.881918 589.778187, 150.392424 571.059724)

LINESTRING (150.392424 571.059724, 214.376815 579.008121)

LINESTRING (214.376815 579.008121, 305.707623 581.351456)

LINESTRING (305.707623 581.351456, 358.369831 596.735626)

LINESTRING (358.369831 596.735626, 425.020076 572.272089)

LINESTRING (425.020076 572.272089, 486.643383 596.339834)

LINESTRING (486.643383 596.339834, 520.854960 583.285627)

LINESTRING (520.854960 583.285627, 606.804304 594.914533)

LINESTRING (606.804304 594.914533, 661.312648 605.649421)

LINESTRING (661.312648 605.649421, 726.783765 606.646736)

LINESTRING (726.783765 606.646736, 787.273737 598.833218)

LINESTRING (46.384312 631.866396, 101.272493 663.136371)

LINESTRING (101.272493 663.136371, 177.771998 639.007979)

LINESTRING (177.771998 639.007979, 239.504100 634.927133)

LINESTRING (239.504100 634.927133, 286.524105 635.453552)

LINESTRING (286.524105 635.453552, 358.100773 665.610783)

LINESTRING (358.100773 665.610783, 405.411761 637.904882)

LINESTRING (405.411761 637.904882, 473.155651 660.989392)

LINESTRING (473.155651 660.989392, 518.800183 641.387546)

LINESTRING (518.800183 641.387546, 601.053681 650.143017)

LINESTRING (601.053681 650.143017, 651.860457 641.569238)

LINESTRING (651.860457 641.569238, 695.228865 632.177615)

LINESTRING (695.228865 632.177615, 760.067953 644.637061)

LINESTRING (32.407004 693.797537, 105.488486 728.311670)

LINESTRING (105.488486 728.311670, 183.891480 713.471254)

LINESTRING (183.891480 713.471254, 221.642821 708.658146)

LINESTRING (221.642821 708.658146, 275.825349 718.689749)

LINESTRING (275.825349 718.689749, 340.050939 725.416431)

LINESTRING (340.050939 725.416431, 392.685408 690.965552)

LINESTRING (392.685408 690.965552, 464.824205 726.703339)

LINESTRING (464.824205 726.703339, 533.134359 720.867763)

LINESTRING (533.134359 720.867763, 587.023271 709.953383)

LINESTRING (587.023271 709.953383, 659.175044 709.262763)

LINESTRING (659.175044 709.262763, 714.356929 709.568675)

LINESTRING (714.356929 709.568675, 771.036819 725.058015)

LINESTRING (63.288224 780.283900, 110.637042 752.550702)

LINESTRING (110.637042 752.550702, 157.968501 766.464665)

LINESTRING (157.968501 766.464665, 241.541057 760.710390)

LINESTRING (241.541057 760.710390, 300.026584 753.850761)

LINESTRING (300.026584 753.850761, 364.058332 781.625465)

LINESTRING (364.058332 781.625465, 394.331875 771.744770)

LINESTRING (394.331875 771.744770, 484.640140 768.361735)

LINESTRING (484.640140 768.361735, 522.784196 773.186924)

LINESTRING (522.784196 773.186924, 608.548083 769.523094)

LINESTRING (608.548083 769.523094, 647.254881 784.260760)

LINESTRING (647.254881 784.260760, 709.572458 754.026862)

LINESTRING (709.572458 754.026862, 784.569033 785.441523)

LINESTRING (64.901604 64.776300, 50.006165 97.648891)

LINESTRING (122.503435 43.443004, 92.944628 124.425404)

LINESTRING (175.621855 31.295797, 171.106768 127.407816)

LINESTRING (233.560929 32.132866, 212.728679 112.477683)

LINESTRING (292.309930 50.134497, 303.641762 125.409007)

LINESTRING (354.380982 31.982227, 339.605781 92.201318)

LINESTRING (398.489962 40.712930, 415.013772 111.940489)

LINESTRING (478.961814 65.642666, 462.203334 108.996473)

LINESTRING (518.983562 62.433811, 526.489456 91.819713)

LINESTRING (578.046579 61.094558, 582.687439 95.618754)

LINESTRING (645.771094 54.609239, 666.081870 116.017574)

LINESTRING (701.289128 56.623996, 710.077460 94.357162)

LINESTRING (785.163526 51.572192, 756.221311 117.254186)

LINESTRING (50.006165 97.648891, 30.347319 173.778766)

LINESTRING (92.944628 124.425404, 90.034762 155.053904)

LINESTRING (171.106768 127.407816, 179.065599 154.311622)

LINESTRING (212.728679 112.477683, 225.355318 176.909679)

LINESTRING (303.641762 125.409007, 308.656274 155.862196)

LINESTRING (339.605781 92.201318, 334.722436 172.951502)

LINESTRING (415.013772 111.940489, 403.366811 184.411917)

LINESTRING (462.203334 108.996473, 476.321170 189.021806)

LINESTRING (526.489456 91.819713, 529.239648 178.407154)

LINESTRING (582.687439 95.618754, 596.134717 151.166714)

LINESTRING (666.081870 116.017574, 666.080124 168.929940)

LINESTRING (710.077460 94.357162, 703.781614 186.880234)

LINESTRING (756.221311 117.254186, 770.206498 157.862065)

LINESTRING (30.347319 173.778766, 36.624070 224.736319)

LINESTRING (90.034762 155.053904, 97.551179 211.296619)

LINESTRING (179.065599 154.311622, 168.547054 226.282978)

LINESTRING (225.355318 176.909679, 235.047874 219.014052)

LINESTRING (308.656274 155.862196, 300.848704 227.529908)

LINESTRING (334.722436 172.951502, 363.047799 213.789006)

LINESTRING (403.366811 184.411917, 429.441812 231.209229)

LINESTRING (476.321170 189.021806, 474.203178 219.530813)

LINESTRING (529.239648 178.407154, 547.922633 224.543535)

LINESTRING (596.134717 151.166714, 578.659846 242.308905)

LINESTRING (666.080124 168.929940, 635.833600 219.832251)

LINESTRING (703.781614 186.880234, 698.854912 240.633968)

LINESTRING (770.206498 157.862065, 779.484047 222.954427)

LINESTRING (36.624070 224.736319, 41.991252 278.416897)

LINESTRING (97.551179 211.296619, 122.807844 277.963357)

LINESTRING (168.547054 226.282978, 153.222262 281.633492)

LINESTRING (235.047874 219.014052, 228.899100 272.278272)

LINESTRING (300.848704 227.529908, 275.931230 279.838129)

LINESTRING (363.047799 213.789006, 363.578366 285.926327)

LINESTRING (429.441812 231.209229, 394.842925 303.293704)

LINESTRING (474.203178 219.530813, 470.743704 292.657202)

LINESTRING (547.922633 224.543535, 544.821806 271.384256)

LINESTRING (578.659846 242.308905, 599.821090 280.486916)

LINESTRING (635.833600 219.832251, 653.770073 288.754760)

LINESTRING (698.854912 240.633968, 720.161397 308.302172)

LINESTRING (779.484047 222.954427, 765.973264 301.752252)

LINESTRING (41.991252 278.416897, 40.799300 341.049022)

LINESTRING (122.807844 277.963357, 96.361987 344.304446)

LINESTRING (153.222262 281.633492, 160.854903 367.273912)

LINESTRING (228.899100 272.278272, 212.189751 365.867237)

LINESTRING (275.931230 279.838129, 278.804158 344.115584)

LINESTRING (363.578366 285.926327, 359.495977 352.053089)

LINESTRING (394.842925 303.293704, 416.341641 363.109054)

LINESTRING (470.743704 292.657202, 455.835250 340.266138)

LINESTRING (544.821806 271.384256, 541.561086 334.775111)

LINESTRING (599.821090 280.486916, 597.708164 351.118535)

LINESTRING (653.770073 288.754760, 648.306319 355.209073)

LINESTRING (720.161397 308.302172, 692.327381 343.448826)

LINESTRING (765.973264 301.752252, 768.250691 358.049302)

LINESTRING (40.799300 341.049022, 39.923158 396.670758)

LINESTRING (96.361987 344.304446, 122.844242 424.897829)

LINESTRING (160.854903 367.273912, 182.748537 427.975033)

LINESTRING (212.189751 365.867237, 231.475791 415.642767)

LINESTRING (278.804158 344.115584, 305.863814 393.173717)

LINESTRING (359.495977 352.053089, 355.694432 420.099646)

LINESTRING (416.341641 363.109054, 392.775529 428.193614)

LINESTRING (455.835250 340.266138, 466.244313 409.283444)

LINESTRING (541.561086 334.775111, 531.305686 397.362592)

LINESTRING (597.708164 351.118535, 585.934123 394.391601)

LINESTRING (648.306319 355.209073, 669.635611 404.437442)

LINESTRING (692.327381 343.448826, 691.307283 396.056996)

LINESTRING (768.250691 358.049302, 756.559273 415.182638)

LINESTRING (39.923158 396.670758, 61.277955 469.112831)

LINESTRING (122.844242 424.897829, 104.613930 464.667864)

LINESTRING (182.748537 427.975033, 153.724504 464.535268)

LINESTRING (231.475791 415.642767, 219.378169 487.525319)

LINESTRING (305.863814 393.173717, 291.035583 472.367895)

LINESTRING (355.694432 420.099646, 360.171481 488.532991)

LINESTRING (392.775529 428.193614, 412.329968 482.923710)

LINESTRING (466.244313 409.283444, 485.172607 469.076892)

LINESTRING (531.305686 397.362592, 549.067206 469.733189)

LINESTRING (585.934123 394.391601, 604.325360 455.311465)

LINESTRING (669.635611 404.437442, 651.379965 469.457066)

LINESTRING (691.307283 396.056996, 712.924690 471.519555)

LINESTRING (756.559273 415.182638, 761.643266 464.740370)

LINESTRING (61.277955 469.112831, 51.293762 546.963269)

LINESTRING (104.613930 464.667864, 117.146630 532.990668)

LINESTRING (153.724504 464.535268, 153.783496 535.954586)

LINESTRING (219.378169 487.525319, 235.599332 541.237768)

LINESTRING (291.035583 472.367895, 295.240371 527.918604)

LINESTRING (360.171481 488.532991, 331.538255 545.119731)

LINESTRING (412.329968 482.923710, 427.180021 510.437778)

LINESTRING (485.172607 469.076892, 461.053166 549.327136)

LINESTRING (549.067206 469.733189, 545.086334 511.695235)

LINESTRING (604.325360 455.311465, 588.566104 514.827648)

LINESTRING (651.379965 469.457066, 651.478020 519.571617)

LINESTRING (712.924690 471.519555, 724.654680 529.218986)

LINESTRING (761.643266 464.740370, 780.464985 532.016701)

LINESTRING (51.293762 546.963269, 62.003296 595.768811)

LINESTRING (117.146630 532.990668, 94.881918 589.778187)

LINESTRING (153.783496 535.954586, 150.392424 571.059724)

LINESTRING (235.599332 541.237768, 214.376815 579.008121)

LINESTRING (295.240371 527.918604, 305.707623 581.351456)

LINESTRING (331.538255 545.119731, 358.369831 596.735626)

LINESTRING (427.180021 510.437778, 425.020076 572.272089)

LINESTRING (461.053166 549.327136, 486.643383 596.339834)

LINESTRING (545.086334 511.695235, 520.854960 583.285627)

LINESTRING (588.566104 514.827648, 606.804304 594.914533)

LINESTRING (651.478020 519.571617, 661.312648 605.649421)

LINESTRING (724.654680 529.218986, 726.783765 606.646736)

LINESTRING (780.464985 532.016701, 787.273737 598.833218)

LINESTRING (62.003296 595.768811, 46.384312 631.866396)

LINESTRING (94.881918 589.778187, 101.272493 663.136371)

LINESTRING (150.392424 571.059724, 177.771998 639.007979)

LINESTRING (214.376815 579.008121, 239.504100 634.927133)

LINESTRING (305.707623 581.351456, 286.524105 635.453552)

LINESTRING (358.369831 596.735626, 358.100773 665.610783)

LINESTRING (425.020076 572.272089, 405.411761 637.904882)

LINESTRING (486.643383 596.339834, 473.155651 660.989392)

LINESTRING (520.854960 583.285627, 518.800183 641.387546)

LINESTRING (606.804304 594.914533, 601.053681 650.143017)

LINESTRING (661.312648 605.649421, 651.860457 641.569238)

LINESTRING (726.783765 606.646736, 695.228865 632.177615)

LINESTRING (787.273737 598.833218, 760.067953 644.637061)

LINESTRING (46.384312 631.866396, 32.407004 693.797537)

LINESTRING (101.272493 663.136371, 105.488486 728.311670)

LINESTRING (177.771998 639.007979, 183.891480 713.471254)

LINESTRING (239.504100 634.927133, 221.642821 708.658146)

LINESTRING (286.524105 635.453552, 275.825349 718.689749)

LINESTRING (358.100773 665.610783, 340.050939 725.416431)

LINESTRING (405.411761 637.904882, 392.685408 690.965552)

LINESTRING (473.155651 660.989392, 464.824205 726.703339)

LINESTRING (518.800183 641.387546, 533.134359 720.867763)

LINESTRING (601.053681 650.143017, 587.023271 709.953383)

LINESTRING (651.860457 641.569238, 659.175044 709.262763)

LINESTRING (695.228865 632.177615, 714.356929 709.568675)

LINESTRING (760.067953 644.637061, 771.036819 725.058015)

LINESTRING (32.407004 693.797537, 63.288224 780.283900)

LINESTRING (105.488486 728.311670, 110.637042 752.550702)

LINESTRING (183.891480 713.471254, 157.968501 766.464665)

LINESTRING (221.642821 708.658146, 241.541057 760.710390)

LINESTRING (275.825349 718.689749, 300.026584 753.850761)

LINESTRING (340.050939 725.416431, 364.058332 781.625465)

LINESTRING (392.685408 690.965552, 394.331875 771.744770)

LINESTRING (464.824205 726.703339, 484.640140 768.361735)

LINESTRING (533.134359 720.867763, 522.784196 773.186924)

LINESTRING (587.023271 709.953383, 608.548083 769.523094)

LINESTRING (659.175044 709.262763, 647.254881 784.260760)

LINESTRING (714.356929 709.568675, 709.572458 754.026862)

LINESTRING (771.036819 725.058015, 784.569033 785.441523)

LINESTRING (122.503435 43.443004, 171.106768 127.407816)

LINESTRING (354.380982 31.982227, 415.013772 111.940489)

LINESTRING (578.046579 61.094558, 666.081870 116.017574)

LINESTRING (303.641762 125.409007, 334.722436 172.951502)

LINESTRING (526.489456 91.819713, 596.134717 151.166714)

LINESTRING (666.081870 116.017574, 703.781614 186.880234)

LINESTRING (225.355318 176.909679, 300.848704 227.529908)

LINESTRING (168.547054 226.282978, 228.899100 272.278272)

LINESTRING (300.848704 227.529908, 363.578366 285.926327)

LINESTRING (698.854912 240.633968, 765.973264 301.752252)

LINESTRING (394.842925 303.293704, 455.835250 340.266138)

LINESTRING (720.161397 308.302172, 768.250691 358.049302)

LINESTRING (160.854903 367.273912, 231.475791 415.642767)

LINESTRING (541.561086 334.775111, 585.934123 394.391601)

LINESTRING (648.306319 355.209073, 691.307283 396.056996)

LINESTRING (122.844242 424.897829, 153.724504 464.535268)

LINESTRING (182.748537 427.975033, 219.378169 487.525319)

LINESTRING (531.305686 397.362592, 604.325360 455.311465)

LINESTRING (61.277955 469.112831, 117.146630 532.990668)

LINESTRING (153.783496 535.954586, 214.376815 579.008121)

LINESTRING (461.053166 549.327136, 520.854960 583.285627)

LINESTRING (651.478020 519.571617, 726.783765 606.646736)

LINESTRING (150.392424 571.059724, 239.504100 634.927133)

LINESTRING (214.376815 579.008121, 286.524105 635.453552)

LINESTRING (305.707623 581.351456, 358.100773 665.610783)

LINESTRING (726.783765 606.646736, 760.067953 644.637061)

LINESTRING (286.524105 635.453552, 340.050939 725.416431)

LINESTRING (601.053681 650.143017, 659.175044 709.262763)

LINESTRING (183.891480 713.471254, 241.541057 760.710390)

LINESTRING (275.825349 718.689749, 364.058332 781.625465)

