LINESTRING (50.000000 50.000000, 170.000000 50.000000)

LINESTRING (170.000000 50.000000, 290.000000 50.000000)

LINESTRING (290.000000 50.000000, 410.000000 50.000000)

LINESTRING (410.000000 50.000000, 530.000000 50.000000)

LINESTRING (530.000000 50.000000, 650.000000 50.000000)

LINESTRING (650.000000 50.000000, 770.000000 50.000000)

LINESTRING (770.000000 50.000000, 890.000000 50.000000)

LINESTRING (890.000000 50.000000, 1010.000000 50.000000)

LINESTRING (1010.000000 50.000000, 1130.000000 50.000000)

LINESTRING (1130.000000 50.000000, 1250.000000 50.000000)

LINESTRING (1250.000000 50.000000, 1370.000000 50.000000)

LINESTRING (1370.000000 50.000000, 1490.000000 50.000000)

LINESTRING (1490.000000 50.000000, 1610.000000 50.000000)

LINESTRING (1610.000000 50.000000, 1730.000000 50.000000)

LINESTRING (1730.000000 50.000000, 1850.000000 50.000000)

LINESTRING (1850.000000 50.000000, 1970.000000 50.000000)

LINESTRING (1970.000000 50.000000, 2090.000000 50.000000)

LINESTRING (2090.000000 50.000000, 2210.000000 50.000000)

LINESTRING (2210.000000 50.000000, 2330.000000 50.000000)

LINESTRING (2330.000000 50.000000, 2450.000000 50.000000)

LINESTRING (50.000000 170.000000, 170.000000 170.000000)

LINESTRING (170.000000 170.000000, 290.000000 170.000000)

LINESTRING (290.000000 170.000000, 410.000000 170.000000)

LINESTRING (410.000000 170.000000, 530.000000 170.000000)

LINESTRING (530.000000 170.000000, 650.000000 170.000000)

LINESTRING (650.000000 170.000000, 770.000000 170.000000)

LINESTRING (770.000000 170.000000, 890.000000 170.000000)

LINESTRING (890.000000 170.000000, 1010.000000 170.000000)

LINESTRING (1010.000000 170.000000, 1130.000000 170.000000)

LINESTRING (1130.000000 170.000000, 1250.000000 170.000000)

LINESTRING (1250.000000 170.000000, 1370.000000 170.000000)

LINESTRING (1370.000000 170.000000, 1490.000000 170.000000)

LINESTRING (1490.000000 170.000000, 1610.000000 170.000000)

LINESTRING (1610.000000 170.000000, 1730.000000 170.000000)

LINESTRING (1730.000000 170.000000, 1850.000000 170.000000)

LINESTRING (1850.000000 170.000000, 1970.000000 170.000000)

LINESTRING (1970.000000 170.000000, 2090.000000 170.000000)

LINESTRING (2090.000000 170.000000, 2210.000000 170.000000)

LINESTRING (2210.000000 170.000000, 2330.000000 170.000000)

LINESTRING (2330.000000 170.000000, 2450.000000 170.000000)

LINESTRING (50.000000 290.000000, 170.000000 290.000000)

LINESTRING (170.000000 290.000000, 290.000000 290.000000)

LINESTRING (290.000000 290.000000, 410.000000 290.000000)

LINESTRING (410.000000 290.000000, 530.000000 290.000000)

LINESTRING (530.000000 290.000000, 650.000000 290.000000)

LINESTRING (650.000000 290.000000, 770.000000 290.000000)

LINESTRING (770.000000 290.000000, 890.000000 290.000000)

LINESTRING (890.000000 290.000000, 1010.000000 290.000000)

LINESTRING (1010.000000 290.000000, 1130.000000 290.000000)

LINESTRING (1130.000000 290.000000, 1250.000000 290.000000)

LINESTRING (1250.000000 290.000000, 1370.000000 290.000000)

LINESTRING (1370.000000 290.000000, 1490.000000 290.000000)

LINESTRING (1490.000000 290.000000, 1610.000000 290.000000)

LINESTRING (1610.000000 290.000000, 1730.000000 290.000000)

LINESTRING (1730.000000 290.000000, 1850.000000 290.000000)

LINESTRING (1850.000000 290.000000, 1970.000000 290.000000)

LINESTRING (1970.000000 290.000000, 2090.000000 290.000000)

LINESTRING (2090.000000 290.000000, 2210.000000 290.000000)

LINESTRING (2210.000000 290.000000, 2330.000000 290.000000)

LINESTRING (2330.000000 290.000000, 2450.000000 290.000000)

LINESTRING (50.000000 410.000000, 170.000000 410.000000)

LINESTRING (170.000000 410.000000, 290.000000 410.000000)

LINESTRING (290.000000 410.000000, 410.000000 410.000000)

LINESTRING (410.000000 410.000000, 530.000000 410.000000)

LINESTRING (530.000000 410.000000, 650.000000 410.000000)

LINESTRING (650.000000 410.000000, 770.000000 410.000000)

LINESTRING (770.000000 410.000000, 890.000000 410.000000)

LINESTRING (890.000000 410.000000, 1010.000000 410.000000)

LINESTRING (1010.000000 410.000000, 1130.000000 410.000000)

LINESTRING (1130.000000 410.000000, 1250.000000 410.000000)

LINESTRING (1250.000000 410.000000, 1370.000000 410.000000)

LINESTRING (1370.000000 410.000000, 1490.000000 410.000000)

LINESTRING (1490.000000 410.000000, 1610.000000 410.000000)

LINESTRING (1610.000000 410.000000, 1730.000000 410.000000)

LINESTRING (1730.000000 410.000000, 1850.000000 410.000000)

LINESTRING (1850.000000 410.000000, 1970.000000 410.000000)

LINESTRING (1970.000000 410.000000, 2090.000000 410.000000)

LINESTRING (2090.000000 410.000000, 2210.000000 410.000000)

LINESTRING (2210.000000 410.000000, 2330.000000 410.000000)

LINESTRING (2330.000000 410.000000, 2450.000000 410.000000)

LINESTRING (50.000000 530.000000, 170.000000 530.000000)

LINESTRING (170.000000 530.000000, 290.000000 530.000000)

LINESTRING (290.000000 530.000000, 410.000000 530.000000)

LINESTRING (410.000000 530.000000, 530.000000 530.000000)

LINESTRING (530.000000 530.000000, 650.000000 530.000000)

LINESTRING (650.000000 530.000000, 770.000000 530.000000)

LINESTRING (770.000000 530.000000, 890.000000 530.000000)

LINESTRING (890.000000 530.000000, 1010.000000 530.000000)

LINESTRING (1010.000000 530.000000, 1130.000000 530.000000)

LINESTRING (1130.000000 530.000000, 1250.000000 530.000000)

LINESTRING (1250.000000 530.000000, 1370.000000 530.000000)

LINESTRING (1370.000000 530.000000, 1490.000000 530.000000)

LINESTRING (1490.000000 530.000000, 1610.000000 530.000000)

LINESTRING (1610.000000 530.000000, 1730.000000 530.000000)

LINESTRING (1730.000000 530.000000, 1850.000000 530.000000)

LINESTRING (1850.000000 530.000000, 1970.000000 530.000000)

LINESTRING (1970.000000 530.000000, 2090.000000 530.000000)

LINESTRING (2090.000000 530.000000, 2210.000000 530.000000)

LINESTRING (2210.000000 530.000000, 2330.000000 530.000000)

LINESTRING (2330.000000 530.000000, 2450.000000 530.000000)

LINESTRING (50.000000 650.000000, 170.000000 650.000000)

LINESTRING (170.000000 650.000000, 290.000000 650.000000)

LINESTRING (290.000000 650.000000, 410.000000 650.000000)

LINESTRING (410.000000 650.000000, 530.000000 650.000000)

LINESTRING (530.000000 650.000000, 650.000000 650.000000)

LINESTRING (650.000000 650.000000, 770.000000 650.000000)

LINESTRING (770.000000 650.000000, 890.000000 650.000000)

LINESTRING (890.000000 650.000000, 1010.000000 650.000000)

LINESTRING (1010.000000 650.000000, 1130.000000 650.000000)

LINESTRING (1130.000000 650.000000, 1250.000000 650.000000)

LINESTRING (1250.000000 650.000000, 1370.000000 650.000000)

LINESTRING (1370.000000 650.000000, 1490.000000 650.000000)

LINESTRING (1490.000000 650.000000, 1610.000000 650.000000)

LINESTRING (1610.000000 650.000000, 1730.000000 650.000000)

LINESTRING (1730.000000 650.000000, 1850.000000 650.000000)

LINESTRING (1850.000000 650.000000, 1970.000000 650.000000)

LINESTRING (1970.000000 650.000000, 2090.000000 650.000000)

LINESTRING (2090.000000 650.000000, 2210.000000 650.000000)

LINESTRING (2210.000000 650.000000, 2330.000000 650.000000)

LINESTRING (2330.000000 650.000000, 2450.000000 650.000000)

LINESTRING (50.000000 770.000000, 170.000000 770.000000)

LINESTRING (170.000000 770.000000, 290.000000 770.000000)

LINESTRING (290.000000 770.000000, 410.000000 770.000000)

LINESTRING (410.000000 770.000000, 530.000000 770.000000)

LINESTRING (530.000000 770.000000, 650.000000 770.000000)

LINESTRING (650.000000 770.000000, 770.000000 770.000000)

LINESTRING (770.000000 770.000000, 890.000000 770.000000)

LINESTRING (890.000000 770.000000, 1010.000000 770.000000)

LINESTRING (1010.000000 770.000000, 1130.000000 770.000000)

LINESTRING (1130.000000 770.000000, 1250.000000 770.000000)

LINESTRING (1250.000000 770.000000, 1370.000000 770.000000)

LINESTRING (1370.000000 770.000000, 1490.000000 770.000000)

LINESTRING (1490.000000 770.000000, 1610.000000 770.000000)

LINESTRING (1610.000000 770.000000, 1730.000000 770.000000)

LINESTRING (1730.000000 770.000000, 1850.000000 770.000000)

LINESTRING (1850.000000 770.000000, 1970.000000 770.000000)

LINESTRING (1970.000000 770.000000, 2090.000000 770.000000)

LINESTRING (2090.000000 770.000000, 2210.000000 770.000000)

LINESTRING (2210.000000 770.000000, 2330.000000 770.000000)

LINESTRING (2330.000000 770.000000, 2450.000000 770.000000)

LINESTRING (50.000000 890.000000, 170.000000 890.000000)

LINESTRING (170.000000 890.000000, 290.000000 890.000000)

LINESTRING (290.000000 890.000000, 410.000000 890.000000)

LINESTRING (410.000000 890.000000, 530.000000 890.000000)

LINESTRING (530.000000 890.000000, 650.000000 890.000000)

LINESTRING (650.000000 890.000000, 770.000000 890.000000)

LINESTRING (770.000000 890.000000, 890.000000 890.000000)

LINESTRING (890.000000 890.000000, 1010.000000 890.000000)

LINESTRING (1010.000000 890.000000, 1130.000000 890.000000)

LINESTRING (1130.000000 890.000000, 1250.000000 890.000000)

LINESTRING (1250.000000 890.000000, 1370.000000 890.000000)

LINESTRING (1370.000000 890.000000, 1490.000000 890.000000)

LINESTRING (1490.000000 890.000000, 1610.000000 890.000000)

LINESTRING (1610.000000 890.000000, 1730.000000 890.000000)

LINESTRING (1730.000000 890.000000, 1850.000000 890.000000)

LINESTRING (1850.000000 890.000000, 1970.000000 890.000000)

LINESTRING (1970.000000 890.000000, 2090.000000 890.000000)

LINESTRING (2090.000000 890.000000, 2210.000000 890.000000)

LINESTRING (2210.000000 890.000000, 2330.000000 890.000000)

LINESTRING (2330.000000 890.000000, 2450.000000 890.000000)

LINESTRING (50.000000 1010.000000, 170.000000 1010.000000)

LINESTRING (170.000000 1010.000000, 290.000000 1010.000000)

LINESTRING (290.000000 1010.000000, 410.000000 1010.000000)

LINESTRING (410.000000 1010.000000, 530.000000 1010.000000)

LINESTRING (530.000000 1010.000000, 650.000000 1010.000000)

LINESTRING (650.000000 1010.000000, 770.000000 1010.000000)

LINESTRING (770.000000 1010.000000, 890.000000 1010.000000)

LINESTRING (890.000000 1010.000000, 1010.000000 1010.000000)

LINESTRING (1010.000000 1010.000000, 1130.000000 1010.000000)

LINESTRING (1130.000000 1010.000000, 1250.000000 1010.000000)

LINESTRING (1250.000000 1010.000000, 1370.000000 1010.000000)

LINESTRING (1370.000000 1010.000000, 1490.000000 1010.000000)

LINESTRING (1490.000000 1010.000000, 1610.000000 1010.000000)

LINESTRING (1610.000000 1010.000000, 1730.000000 1010.000000)

LINESTRING (1730.000000 1010.000000, 1850.000000 1010.000000)

LINESTRING (1850.000000 1010.000000, 1970.000000 1010.000000)

LINESTRING (1970.000000 1010.000000, 2090.000000 1010.000000)

LINESTRING (2090.000000 1010.000000, 2210.000000 1010.000000)

LINESTRING (2210.000000 1010.000000, 2330.000000 1010.000000)

LINESTRING (2330.000000 1010.000000, 2450.000000 1010.000000)

LINESTRING (50.000000 1130.000000, 170.000000 1130.000000)

LINESTRING (170.000000 1130.000000, 290.000000 1130.000000)

LINESTRING (290.000000 1130.000000, 410.000000 1130.000000)

LINESTRING (410.000000 1130.000000, 530.000000 1130.000000)

LINESTRING (530.000000 1130.000000, 650.000000 1130.000000)

LINESTRING (650.000000 1130.000000, 770.000000 1130.000000)

LINESTRING (770.000000 1130.000000, 890.000000 1130.000000)

LINESTRING (890.000000 1130.000000, 1010.000000 1130.000000)

LINESTRING (1010.000000 1130.000000, 1130.000000 1130.000000)

LINESTRING (1130.000000 1130.000000, 1250.000000 1130.000000)

LINESTRING (1250.000000 1130.000000, 1370.000000 1130.000000)

LINESTRING (1370.000000 1130.000000, 1490.000000 1130.000000)

LINESTRING (1490.000000 1130.000000, 1610.000000 1130.000000)

LINESTRING (1610.000000 1130.000000, 1730.000000 1130.000000)

LINESTRING (1730.000000 1130.000000, 1850.000000 1130.000000)

LINESTRING (1850.000000 1130.000000, 1970.000000 1130.000000)

LINESTRING (1970.000000 1130.000000, 2090.000000 1130.000000)

LINESTRING (2090.000000 1130.000000, 2210.000000 1130.000000)

LINESTRING (2210.000000 1130.000000, 2330.000000 1130.000000)

LINESTRING (2330.000000 1130.000000, 2450.000000 1130.000000)

LINESTRING (50.000000 1250.000000, 170.000000 1250.000000)

LINESTRING (170.000000 1250.000000, 290.000000 1250.000000)

LINESTRING (290.000000 1250.000000, 410.000000 1250.000000)

LINESTRING (410.000000 1250.000000, 530.000000 1250.000000)

LINESTRING (530.000000 1250.000000, 650.000000 1250.000000)

LINESTRING (650.000000 1250.000000, 770.000000 1250.000000)

LINESTRING (770.000000 1250.000000, 890.000000 1250.000000)

LINESTRING (890.000000 1250.000000, 1010.000000 1250.000000)

LINESTRING (1010.000000 1250.000000, 1130.000000 1250.000000)

LINESTRING (1130.000000 1250.000000, 1250.000000 1250.000000)

LINESTRING (1250.000000 1250.000000, 1370.000000 1250.000000)

LINESTRING (1370.000000 1250.000000, 1490.000000 1250.000000)

LINESTRING (1490.000000 1250.000000, 1610.000000 1250.000000)

LINESTRING (1610.000000 1250.000000, 1730.000000 1250.000000)

LINESTRING (1730.000000 1250.000000, 1850.000000 1250.000000)

LINESTRING (1850.000000 1250.000000, 1970.000000 1250.000000)

LINESTRING (1970.000000 1250.000000, 2090.000000 1250.000000)

LINESTRING (2090.000000 1250.000000, 2210.000000 1250.000000)

LINESTRING (2210.000000 1250.000000, 2330.000000 1250.000000)

LINESTRING (2330.000000 1250.000000, 2450.000000 1250.000000)

LINESTRING (50.000000 1370.000000, 170.000000 1370.000000)

LINESTRING (170.000000 1370.000000, 290.000000 1370.000000)

LINESTRING (290.000000 1370.000000, 410.000000 1370.000000)

LINESTRING (410.000000 1370.000000, 530.000000 1370.000000)

LINESTRING (530.000000 1370.000000, 650.000000 1370.000000)

LINESTRING (650.000000 1370.000000, 770.000000 1370.000000)

LINESTRING (770.000000 1370.000000, 890.000000 1370.000000)

LINESTRING (890.000000 1370.000000, 1010.000000 1370.000000)

LINESTRING (1010.000000 1370.000000, 1130.000000 1370.000000)

LINESTRING (1130.000000 1370.000000, 1250.000000 1370.000000)

LINESTRING (1250.000000 1370.000000, 1370.000000 1370.000000)

LINESTRING (1370.000000 1370.000000, 1490.000000 1370.000000)

LINESTRING (1490.000000 1370.000000, 1610.000000 1370.000000)

LINESTRING (1610.000000 1370.000000, 1730.000000 1370.000000)

LINESTRING (1730.000000 1370.000000, 1850.000000 1370.000000)

LINESTRING (1850.000000 1370.000000, 1970.000000 1370.000000)

LINESTRING (1970.000000 1370.000000, 2090.000000 1370.000000)

LINESTRING (2090.000000 1370.000000, 2210.000000 1370.000000)

LINESTRING (2210.000000 1370.000000, 2330.000000 1370.000000)

LINESTRING (2330.000000 1370.000000, 2450.000000 1370.000000)

LINESTRING (50.000000 1490.000000, 170.000000 1490.000000)

LINESTRING (170.000000 1490.000000, 290.000000 1490.000000)

LINESTRING (290.000000 1490.000000, 410.000000 1490.000000)

LINESTRING (410.000000 1490.000000, 530.000000 1490.000000)

LINESTRING (530.000000 1490.000000, 650.000000 1490.000000)

LINESTRING (650.000000 1490.000000, 770.000000 1490.000000)

LINESTRING (770.000000 1490.000000, 890.000000 1490.000000)

LINESTRING (890.000000 1490.000000, 1010.000000 1490.000000)

LINESTRING (1010.000000 1490.000000, 1130.000000 1490.000000)

LINESTRING (1130.000000 1490.000000, 1250.000000 1490.000000)

LINESTRING (1250.000000 1490.000000, 1370.000000 1490.000000)

LINESTRING (1370.000000 1490.000000, 1490.000000 1490.000000)

LINESTRING (1490.000000 1490.000000, 1610.000000 1490.000000)

LINESTRING (1610.000000 1490.000000, 1730.000000 1490.000000)

LINESTRING (1730.000000 1490.000000, 1850.000000 1490.000000)

LINESTRING (1850.000000 1490.000000, 1970.000000 1490.000000)

LINESTRING (1970.000000 1490.000000, 2090.000000 1490.000000)

LINESTRING (2090.000000 1490.000000, 2210.000000 1490.000000)

LINESTRING (2210.000000 1490.000000, 2330.000000 1490.000000)

LINESTRING (2330.000000 1490.000000, 2450.000000 1490.000000)

LINESTRING (50.000000 1610.000000, 170.000000 1610.000000)

LINESTRING (170.000000 1610.000000, 290.000000 1610.000000)

LINESTRING (290.000000 1610.000000, 410.000000 1610.000000)

LINESTRING (410.000000 1610.000000, 530.000000 1610.000000)

LINESTRING (530.000000 1610.000000, 650.000000 1610.000000)

LINESTRING (650.000000 1610.000000, 770.000000 1610.000000)

LINESTRING (770.000000 1610.000000, 890.000000 1610.000000)

LINESTRING (890.000000 1610.000000, 1010.000000 1610.000000)

LINESTRING (1010.000000 1610.000000, 1130.000000 1610.000000)

LINESTRING (1130.000000 1610.000000, 1250.000000 1610.000000)

LINESTRING (1250.000000 1610.000000, 1370.000000 1610.000000)

LINESTRING (1370.000000 1610.000000, 1490.000000 1610.000000)

LINESTRING (1490.000000 1610.000000, 1610.000000 1610.000000)

LINESTRING (1610.000000 1610.000000, 1730.000000 1610.000000)

LINESTRING (1730.000000 1610.000000, 1850.000000 1610.000000)

LINESTRING (1850.000000 1610.000000, 1970.000000 1610.000000)

LINESTRING (1970.000000 1610.000000, 2090.000000 1610.000000)

LINESTRING (2090.000000 1610.000000, 2210.000000 1610.000000)

LINESTRING (2210.000000 1610.000000, 2330.000000 1610.000000)

LINESTRING (2330.000000 1610.000000, 2450.000000 1610.000000)

LINESTRING (50.000000 1730.000000, 170.000000 1730.000000)

LINESTRING (170.000000 1730.000000, 290.000000 1730.000000)

LINESTRING (290.000000 1730.000000, 410.000000 1730.000000)

LINESTRING (410.000000 1730.000000, 530.000000 1730.000000)

LINESTRING (530.000000 1730.000000, 650.000000 1730.000000)

LINESTRING (650.000000 1730.000000, 770.000000 1730.000000)

LINESTRING (770.000000 1730.000000, 890.000000 1730.000000)

LINESTRING (890.000000 1730.000000, 1010.000000 1730.000000)

LINESTRING (1010.000000 1730.000000, 1130.000000 1730.000000)

LINESTRING (1130.000000 1730.000000, 1250.000000 1730.000000)

LINESTRING (1250.000000 1730.000000, 1370.000000 1730.000000)

LINESTRING (1370.000000 1730.000000, 1490.000000 1730.000000)

LINESTRING (1490.000000 1730.000000, 1610.000000 1730.000000)

LINESTRING (1610.000000 1730.000000, 1730.000000 1730.000000)

LINESTRING (1730.000000 1730.000000, 1850.000000 1730.000000)

LINESTRING (1850.000000 1730.000000, 1970.000000 1730.000000)

LINESTRING (1970.000000 1730.000000, 2090.000000 1730.000000)

LINESTRING (2090.000000 1730.000000, 2210.000000 1730.000000)

LINESTRING (2210.000000 1730.000000, 2330.000000 1730.000000)

LINESTRING (2330.000000 1730.000000, 2450.000000 1730.000000)

LINESTRING (50.000000 1850.000000, 170.000000 1850.000000)

LINESTRING (170.000000 1850.000000, 290.000000 1850.000000)

LINESTRING (290.000000 1850.000000, 410.000000 1850.000000)

LINESTRING (410.000000 1850.000000, 530.000000 1850.000000)

LINESTRING (530.000000 1850.000000, 650.000000 1850.000000)

LINESTRING (650.000000 1850.000000, 770.000000 1850.000000)

LINESTRING (770.000000 1850.000000, 890.000000 1850.000000)

LINESTRING (890.000000 1850.000000, 1010.000000 1850.000000)

LINESTRING (1010.000000 1850.000000, 1130.000000 1850.000000)

LINESTRING (1130.000000 1850.000000, 1250.000000 1850.000000)

LINESTRING (1250.000000 1850.000000, 1370.000000 1850.000000)

LINESTRING (1370.000000 1850.000000, 1490.000000 1850.000000)

LINESTRING (1490.000000 1850.000000, 1610.000000 1850.000000)

LINESTRING (1610.000000 1850.000000, 1730.000000 1850.000000)

LINESTRING (1730.000000 1850.000000, 1850.000000 1850.000000)

LINESTRING (1850.000000 1850.000000, 1970.000000 1850.000000)

LINESTRING (1970.000000 1850.000000, 2090.000000 1850.000000)

LINESTRING (2090.000000 1850.000000, 2210.000000 1850.000000)

LINESTRING (2210.000000 1850.000000, 2330.000000 1850.000000)

LINESTRING (2330.000000 1850.000000, 2450.000000 1850.000000)

LINESTRING (50.000000 1970.000000, 170.000000 1970.000000)

LINESTRING (170.000000 1970.000000, 290.000000 1970.000000)

LINESTRING (290.000000 1970.000000, 410.000000 1970.000000)

LINESTRING (410.000000 1970.000000, 530.000000 1970.000000)

LINESTRING (530.000000 1970.000000, 650.000000 1970.000000)

LINESTRING (650.000000 1970.000000, 770.000000 1970.000000)

LINESTRING (770.000000 1970.000000, 890.000000 1970.000000)

LINESTRING (890.000000 1970.000000, 1010.000000 1970.000000)

LINESTRING (1010.000000 1970.000000, 1130.000000 1970.000000)

LINESTRING (1130.000000 1970.000000, 1250.000000 1970.000000)

LINESTRING (1250.000000 1970.000000, 1370.000000 1970.000000)

LINESTRING (1370.000000 1970.000000, 1490.000000 1970.000000)

LINESTRING (1490.000000 1970.000000, 1610.000000 1970.000000)

LINESTRING (1610.000000 1970.000000, 1730.000000 1970.000000)

LINESTRING (1730.000000 1970.000000, 1850.000000 1970.000000)

LINESTRING (1850.000000 1970.000000, 1970.000000 1970.000000)

LINESTRING (1970.000000 1970.000000, 2090.000000 1970.000000)

LINESTRING (2090.000000 1970.000000, 2210.000000 1970.000000)

LINESTRING (2210.000000 1970.000000, 2330.000000 1970.000000)

LINESTRING (2330.000000 1970.000000, 2450.000000 1970.000000)

LINESTRING (50.000000 2090.000000, 170.000000 2090.000000)

LINESTRING (170.000000 2090.000000, 290.000000 2090.000000)

LINESTRING (290.000000 2090.000000, 410.000000 2090.000000)

LINESTRING (410.000000 2090.000000, 530.000000 2090.000000)

LINESTRING (530.000000 2090.000000, 650.000000 2090.000000)

LINESTRING (650.000000 2090.000000, 770.000000 2090.000000)

LINESTRING (770.000000 2090.000000, 890.000000 2090.000000)

LINESTRING (890.000000 2090.000000, 1010.000000 2090.000000)

LINESTRING (1010.000000 2090.000000, 1130.000000 2090.000000)

LINESTRING (1130.000000 2090.000000, 1250.000000 2090.000000)

LINESTRING (1250.000000 2090.000000, 1370.000000 2090.000000)

LINESTRING (1370.000000 2090.000000, 1490.000000 2090.000000)

LINESTRING (1490.000000 2090.000000, 1610.000000 2090.000000)

LINESTRING (1610.000000 2090.000000, 1730.000000 2090.000000)

LINESTRING (1730.000000 2090.000000, 1850.000000 2090.000000)

LINESTRING (1850.000000 2090.000000, 1970.000000 2090.000000)

LINESTRING (1970.000000 2090.000000, 2090.000000 2090.000000)

LINESTRING (2090.000000 2090.000000, 2210.000000 2090.000000)

LINESTRING (2210.000000 2090.000000, 2330.000000 2090.000000)

LINESTRING (2330.000000 2090.000000, 2450.000000 2090.000000)

LINESTRING (50.000000 2210.000000, 170.000000 2210.000000)

LINESTRING (170.000000 2210.000000, 290.000000 2210.000000)

LINESTRING (290.000000 2210.000000, 410.000000 2210.000000)

LINESTRING (410.000000 2210.000000, 530.000000 2210.000000)

LINESTRING (530.000000 2210.000000, 650.000000 2210.000000)

LINESTRING (650.000000 2210.000000, 770.000000 2210.000000)

LINESTRING (770.000000 2210.000000, 890.000000 2210.000000)

LINESTRING (890.000000 2210.000000, 1010.000000 2210.000000)

LINESTRING (1010.000000 2210.000000, 1130.000000 2210.000000)

LINESTRING (1130.000000 2210.000000, 1250.000000 2210.000000)

LINESTRING (1250.000000 2210.000000, 1370.000000 2210.000000)

LINESTRING (1370.000000 2210.000000, 1490.000000 2210.000000)

LINESTRING (1490.000000 2210.000000, 1610.000000 2210.000000)

LINESTRING (1610.000000 2210.000000, 1730.000000 2210.000000)

LINESTRING (1730.000000 2210.000000, 1850.000000 2210.000000)

LINESTRING (1850.000000 2210.000000, 1970.000000 2210.000000)

LINESTRING (1970.000000 2210.000000, 2090.000000 2210.000000)

LINESTRING (2090.000000 2210.000000, 2210.000000 2210.000000)

LINESTRING (2210.000000 2210.000000, 2330.000000 2210.000000)

LINESTRING (2330.000000 2210.000000, 2450.000000 2210.000000)

LINESTRING (50.000000 2330.000000, 170.000000 2330.000000)

LINESTRING (170.000000 2330.000000, 290.000000 2330.000000)

LINESTRING (290.000000 2330.000000, 410.000000 2330.000000)

LINESTRING (410.000000 2330.000000, 530.000000 2330.000000)

LINESTRING (530.000000 2330.000000, 650.000000 2330.000000)

LINESTRING (650.000000 2330.000000, 770.000000 2330.000000)

LINESTRING (770.000000 2330.000000, 890.000000 2330.000000)

LINESTRING (890.000000 2330.000000, 1010.000000 2330.000000)

LINESTRING (1010.000000 2330.000000, 1130.000000 2330.000000)

LINESTRING (1130.000000 2330.000000, 1250.000000 2330.000000)

LINESTRING (1250.000000 2330.000000, 1370.000000 2330.000000)

LINESTRING (1370.000000 2330.000000, 1490.000000 2330.000000)

LINESTRING (1490.000000 2330.000000, 1610.000000 2330.000000)

LINESTRING (1610.000000 2330.000000, 1730.000000 2330.000000)

LINESTRING (1730.000000 2330.000000, 1850.000000 2330.000000)

LINESTRING (1850.000000 2330.000000, 1970.000000 2330.000000)

LINESTRING (1970.000000 2330.000000, 2090.000000 2330.000000)

LINESTRING (2090.000000 2330.000000, 2210.000000 2330.000000)

LINESTRING (2210.000000 2330.000000, 2330.000000 2330.000000)

LINESTRING (2330.000000 2330.000000, 2450.000000 2330.000000)

LINESTRING (50.000000 2450.000000, 170.000000 2450.000000)

LINESTRING (170.000000 2450.000000, 290.000000 2450.000000)

LINESTRING (290.000000 2450.000000, 410.000000 2450.000000)

LINESTRING (410.000000 2450.000000, 530.000000 2450.000000)

LINESTRING (530.000000 2450.000000, 650.000000 2450.000000)

LINESTRING (650.000000 2450.000000, 770.000000 2450.000000)

LINESTRING (770.000000 2450.000000, 890.000000 2450.000000)

LINESTRING (890.000000 2450.000000, 1010.000000 2450.000000)

LINESTRING (1010.000000 2450.000000, 1130.000000 2450.000000)

LINESTRING (1130.000000 2450.000000, 1250.000000 2450.000000)

LINESTRING (1250.000000 2450.000000, 1370.000000 2450.000000)

LINESTRING (1370.000000 2450.000000, 1490.000000 2450.000000)

LINESTRING (1490.000000 2450.000000, 1610.000000 2450.000000)

LINESTRING (1610.000000 2450.000000, 1730.000000 2450.000000)

LINESTRING (1730.000000 2450.000000, 1850.000000 2450.000000)

LINESTRING (1850.000000 2450.000000, 1970.000000 2450.000000)

LINESTRING (1970.000000 2450.000000, 2090.000000 2450.000000)

LINESTRING (2090.000000 2450.000000, 2210.000000 2450.000000)

LINESTRING (2210.000000 2450.000000, 2330.000000 2450.000000)

LINESTRING (2330.000000 2450.000000, 2450.000000 2450.000000)

LINESTRING (50.000000 50.000000, 50.000000 170.000000)

LINESTRING (170.000000 50.000000, 170.000000 170.000000)

LINESTRING (290.000000 50.000000, 290.000000 170.000000)

LINESTRING (410.000000 50.000000, 410.000000 170.000000)

LINESTRING (530.000000 50.000000, 530.000000 170.000000)

LINESTRING (650.000000 50.000000, 650.000000 170.000000)

LINESTRING (770.000000 50.000000, 770.000000 170.000000)

LINESTRING (890.000000 50.000000, 890.000000 170.000000)

LINESTRING (1010.000000 50.000000, 1010.000000 170.000000)

LINESTRING (1130.000000 50.000000, 1130.000000 170.000000)

LINESTRING (1250.000000 50.000000, 1250.000000 170.000000)

LINESTRING (1370.000000 50.000000, 1370.000000 170.000000)

LINESTRING (1490.000000 50.000000, 1490.000000 170.000000)

LINESTRING (1610.000000 50.000000, 1610.000000 170.000000)

LINESTRING (1730.000000 50.000000, 1730.000000 170.000000)

LINESTRING (1850.000000 50.000000, 1850.000000 170.000000)

LINESTRING (1970.000000 50.000000, 1970.000000 170.000000)

LINESTRING (2090.000000 50.000000, 2090.000000 170.000000)

LINESTRING (2210.000000 50.000000, 2210.000000 170.000000)

LINESTRING (2330.000000 50.000000, 2330.000000 170.000000)

LINESTRING (2450.000000 50.000000, 2450.000000 170.000000)

LINESTRING (50.000000 170.000000, 50.000000 290.000000)

LINESTRING (170.000000 170.000000, 170.000000 290.000000)

LINESTRING (290.000000 170.000000, 290.000000 290.000000)

LINESTRING (410.000000 170.000000, 410.000000 290.000000)

LINESTRING (530.000000 170.000000, 530.000000 290.000000)

LINESTRING (650.000000 170.000000, 650.000000 290.000000)

LINESTRING (770.000000 170.000000, 770.000000 290.000000)

LINESTRING (890.000000 170.000000, 890.000000 290.000000)

LINESTRING (1010.000000 170.000000, 1010.000000 290.000000)

LINESTRING (1130.000000 170.000000, 1130.000000 290.000000)

LINESTRING (1250.000000 170.000000, 1250.000000 290.000000)

LINESTRING (1370.000000 170.000000, 1370.000000 290.000000)

LINESTRING (1490.000000 170.000000, 1490.000000 290.000000)

LINESTRING (1610.000000 170.000000, 1610.000000 290.000000)

LINESTRING (1730.000000 170.000000, 1730.000000 290.000000)

LINESTRING (1850.000000 170.000000, 1850.000000 290.000000)

LINESTRING (1970.000000 170.000000, 1970.000000 290.000000)

LINESTRING (2090.000000 170.000000, 2090.000000 290.000000)

LINESTRING (2210.000000 170.000000, 2210.000000 290.000000)

LINESTRING (2330.000000 170.000000, 2330.000000 290.000000)

LINESTRING (2450.000000 170.000000, 2450.000000 290.000000)

LINESTRING (50.000000 290.000000, 50.000000 410.000000)

LINESTRING (170.000000 290.000000, 170.000000 410.000000)

LINESTRING (290.000000 290.000000, 290.000000 410.000000)

LINESTRING (410.000000 290.000000, 410.000000 410.000000)

LINESTRING (530.000000 290.000000, 530.000000 410.000000)

LINESTRING (650.000000 290.000000, 650.000000 410.000000)

LINESTRING (770.000000 290.000000, 770.000000 410.000000)

LINESTRING (890.000000 290.000000, 890.000000 410.000000)

LINESTRING (1010.000000 290.000000, 1010.000000 410.000000)

LINESTRING (1130.000000 290.000000, 1130.000000 410.000000)

LINESTRING (1250.000000 290.000000, 1250.000000 410.000000)

LINESTRING (1370.000000 290.000000, 1370.000000 410.000000)

LINESTRING (1490.000000 290.000000, 1490.000000 410.000000)

LINESTRING (1610.000000 290.000000, 1610.000000 410.000000)

LINESTRING (1730.000000 290.000000, 1730.000000 410.000000)

LINESTRING (1850.000000 290.000000, 1850.000000 410.000000)

LINESTRING (1970.000000 290.000000, 1970.000000 410.000000)

LINESTRING (2090.000000 290.000000, 2090.000000 410.000000)

LINESTRING (2210.000000 290.000000, 2210.000000 410.000000)

LINESTRING (2330.000000 290.000000, 2330.000000 410.000000)

LINESTRING (2450.000000 290.000000, 2450.000000 410.000000)

LINESTRING (50.000000 410.000000, 50.000000 530.000000)

LINESTRING (170.000000 410.000000, 170.000000 530.000000)

LINESTRING (290.000000 410.000000, 290.000000 530.000000)

LINESTRING (410.000000 410.000000, 410.000000 530.000000)

LINESTRING (530.000000 410.000000, 530.000000 530.000000)

LINESTRING (650.000000 410.000000, 650.000000 530.000000)

LINESTRING (770.000000 410.000000, 770.000000 530.000000)

LINESTRING (890.000000 410.000000, 890.000000 530.000000)

LINESTRING (1010.000000 410.000000, 1010.000000 530.000000)

LINESTRING (1130.000000 410.000000, 1130.000000 530.000000)

LINESTRING (1250.000000 410.000000, 1250.000000 530.000000)

LINESTRING (1370.000000 410.000000, 1370.000000 530.000000)

LINESTRING (1490.000000 410.000000, 1490.000000 530.000000)

LINESTRING (1610.000000 410.000000, 1610.000000 530.000000)

LINESTRING (1730.000000 410.000000, 1730.000000 530.000000)

LINESTRING (1850.000000 410.000000, 1850.000000 530.000000)

LINESTRING (1970.000000 410.000000, 1970.000000 530.000000)

LINESTRING (2090.000000 410.000000, 2090.000000 530.000000)

LINESTRING (2210.000000 410.000000, 2210.000000 530.000000)

LINESTRING (2330.000000 410.000000, 2330.000000 530.000000)

LINESTRING (2450.000000 410.000000, 2450.000000 530.000000)

LINESTRING (50.000000 530.000000, 50.000000 650.000000)

LINESTRING (170.000000 530.000000, 170.000000 650.000000)

LINESTRING (290.000000 530.000000, 290.000000 650.000000)

LINESTRING (410.000000 530.000000, 410.000000 650.000000)

LINESTRING (530.000000 530.000000, 530.000000 650.000000)

LINESTRING (650.000000 530.000000, 650.000000 650.000000)

LINESTRING (770.000000 530.000000, 770.000000 650.000000)

LINESTRING (890.000000 530.000000, 890.000000 650.000000)

LINESTRING (1010.000000 530.000000, 1010.000000 650.000000)

LINESTRING (1130.000000 530.000000, 1130.000000 650.000000)

LINESTRING (1250.000000 530.000000, 1250.000000 650.000000)

LINESTRING (1370.000000 530.000000, 1370.000000 650.000000)

LINESTRING (1490.000000 530.000000, 1490.000000 650.000000)

LINESTRING (1610.000000 530.000000, 1610.000000 650.000000)

LINESTRING (1730.000000 530.000000, 1730.000000 650.000000)

LINESTRING (1850.000000 530.000000, 1850.000000 650.000000)

LINESTRING (1970.000000 530.000000, 1970.000000 650.000000)

LINESTRING (2090.000000 530.000000, 2090.000000 650.000000)

LINESTRING (2210.000000 530.000000, 2210.000000 650.000000)

LINESTRING (2330.000000 530.000000, 2330.000000 650.000000)

LINESTRING (2450.000000 530.000000, 2450.000000 650.000000)

LINESTRING (50.000000 650.000000, 50.000000 770.000000)

LINESTRING (170.000000 650.000000, 170.000000 770.000000)

LINESTRING (290.000000 650.000000, 290.000000 770.000000)

LINESTRING (410.000000 650.000000, 410.000000 770.000000)

LINESTRING (530.000000 650.000000, 530.000000 770.000000)

LINESTRING (650.000000 650.000000, 650.000000 770.000000)

LINESTRING (770.000000 650.000000, 770.000000 770.000000)

LINESTRING (890.000000 650.000000, 890.000000 770.000000)

LINESTRING (1010.000000 650.000000, 1010.000000 770.000000)

LINESTRING (1130.000000 650.000000, 1130.000000 770.000000)

LINESTRING (1250.000000 650.000000, 1250.000000 770.000000)

LINESTRING (1370.000000 650.000000, 1370.000000 770.000000)

LINESTRING (1490.000000 650.000000, 1490.000000 770.000000)

LINESTRING (1610.000000 650.000000, 1610.000000 770.000000)

LINESTRING (1730.000000 650.000000, 1730.000000 770.000000)

LINESTRING (1850.000000 650.000000, 1850.000000 770.000000)

LINESTRING (1970.000000 650.000000, 1970.000000 770.000000)

LINESTRING (2090.000000 650.000000, 2090.000000 770.000000)

LINESTRING (2210.000000 650.000000, 2210.000000 770.000000)

LINESTRING (2330.000000 650.000000, 2330.000000 770.000000)

LINESTRING (2450.000000 650.000000, 2450.000000 770.000000)

LINESTRING (50.000000 770.000000, 50.000000 890.000000)

LINESTRING (170.000000 770.000000, 170.000000 890.000000)

LINESTRING (290.000000 770.000000, 290.000000 890.000000)

LINESTRING (410.000000 770.000000, 410.000000 890.000000)

LINESTRING (530.000000 770.000000, 530.000000 890.000000)

LINESTRING (650.000000 770.000000, 650.000000 890.000000)

LINESTRING (770.000000 770.000000, 770.000000 890.000000)

LINESTRING (890.000000 770.000000, 890.000000 890.000000)

LINESTRING (1010.000000 770.000000, 1010.000000 890.000000)

LINESTRING (1130.000000 770.000000, 1130.000000 890.000000)

LINESTRING (1250.000000 770.000000, 1250.000000 890.000000)

LINESTRING (1370.000000 770.000000, 1370.000000 890.000000)

LINESTRING (1490.000000 770.000000, 1490.000000 890.000000)

LINESTRING (1610.000000 770.000000, 1610.000000 890.000000)

LINESTRING (1730.000000 770.000000, 1730.000000 890.000000)

LINESTRING (1850.000000 770.000000, 1850.000000 890.000000)

LINESTRING (1970.000000 770.000000, 1970.000000 890.000000)

LINESTRING (2090.000000 770.000000, 2090.000000 890.000000)

LINESTRING (2210.000000 770.000000, 2210.000000 890.000000)

LINESTRING (2330.000000 770.000000, 2330.000000 890.000000)

LINESTRING (2450.000000 770.000000, 2450.000000 890.000000)

LINESTRING (50.000000 890.000000, 50.000000 1010.000000)

LINESTRING (170.000000 890.000000, 170.000000 1010.000000)

LINESTRING (290.000000 890.000000, 290.000000 1010.000000)

LINESTRING (410.000000 890.000000, 410.000000 1010.000000)

LINESTRING (530.000000 890.000000, 530.000000 1010.000000)

LINESTRING (650.000000 890.000000, 650.000000 1010.000000)

LINESTRING (770.000000 890.000000, 770.000000 1010.000000)

LINESTRING (890.000000 890.000000, 890.000000 1010.000000)

LINESTRING (1010.000000 890.000000, 1010.000000 1010.000000)

LINESTRING (1130.000000 890.000000, 1130.000000 1010.000000)

LINESTRING (1250.000000 890.000000, 1250.000000 1010.000000)

LINESTRING (1370.000000 890.000000, 1370.000000 1010.000000)

LINESTRING (1490.000000 890.000000, 1490.000000 1010.000000)

LINESTRING (1610.000000 890.000000, 1610.000000 1010.000000)

LINESTRING (1730.000000 890.000000, 1730.000000 1010.000000)

LINESTRING (1850.000000 890.000000, 1850.000000 1010.000000)

LINESTRING (1970.000000 890.000000, 1970.000000 1010.000000)

LINESTRING (2090.000000 890.000000, 2090.000000 1010.000000)

LINESTRING (2210.000000 890.000000, 2210.000000 1010.000000)

LINESTRING (2330.000000 890.000000, 2330.000000 1010.000000)

LINESTRING (2450.000000 890.000000, 2450.000000 1010.000000)

LINESTRING (50.000000 1010.000000, 50.000000 1130.000000)

LINESTRING (170.000000 1010.000000, 170.000000 1130.000000)

LINESTRING (290.000000 1010.000000, 290.000000 1130.000000)

LINESTRING (410.000000 1010.000000, 410.000000 1130.000000)

LINESTRING (530.000000 1010.000000, 530.000000 1130.000000)

LINESTRING (650.000000 1010.000000, 650.000000 1130.000000)

LINESTRING (770.000000 1010.000000, 770.000000 1130.000000)

LINESTRING (890.000000 1010.000000, 890.000000 1130.000000)

LINESTRING (1010.000000 1010.000000, 1010.000000 1130.000000)

LINESTRING (1130.000000 1010.000000, 1130.000000 1130.000000)

LINESTRING (1250.000000 1010.000000, 1250.000000 1130.000000)

LINESTRING (1370.000000 1010.000000, 1370.000000 1130.000000)

LINESTRING (1490.000000 1010.000000, 1490.000000 1130.000000)

LINESTRING (1610.000000 1010.000000, 1610.000000 1130.000000)

LINESTRING (1730.000000 1010.000000, 1730.000000 1130.000000)

LINESTRING (1850.000000 1010.000000, 1850.000000 1130.000000)

LINESTRING (1970.000000 1010.000000, 1970.000000 1130.000000)

LINESTRING (2090.000000 1010.000000, 2090.000000 1130.000000)

LINESTRING (2210.000000 1010.000000, 2210.000000 1130.000000)

LINESTRING (2330.000000 1010.000000, 2330.000000 1130.000000)

LINESTRING (2450.000000 1010.000000, 2450.000000 1130.000000)

LINESTRING (50.000000 1130.000000, 50.000000 1250.000000)

LINESTRING (170.000000 1130.000000, 170.000000 1250.000000)

LINESTRING (290.000000 1130.000000, 290.000000 1250.000000)

LINESTRING (410.000000 1130.000000, 410.000000 1250.000000)

LINESTRING (530.000000 1130.000000, 530.000000 1250.000000)

LINESTRING (650.000000 1130.000000, 650.000000 1250.000000)

LINESTRING (770.000000 1130.000000, 770.000000 1250.000000)

LINESTRING (890.000000 1130.000000, 890.000000 1250.000000)

LINESTRING (1010.000000 1130.000000, 1010.000000 1250.000000)

LINESTRING (1130.000000 1130.000000, 1130.000000 1250.000000)

LINESTRING (1250.000000 1130.000000, 1250.000000 1250.000000)

LINESTRING (1370.000000 1130.000000, 1370.000000 1250.000000)

LINESTRING (1490.000000 1130.000000, 1490.000000 1250.000000)

LINESTRING (1610.000000 1130.000000, 1610.000000 1250.000000)

LINESTRING (1730.000000 1130.000000, 1730.000000 1250.000000)

LINESTRING (1850.000000 1130.000000, 1850.000000 1250.000000)

LINESTRING (1970.000000 1130.000000, 1970.000000 1250.000000)

LINESTRING (2090.000000 1130.000000, 2090.000000 1250.000000)

LINESTRING (2210.000000 1130.000000, 2210.000000 1250.000000)

LINESTRING (2330.000000 1130.000000, 2330.000000 1250.000000)

LINESTRING (2450.000000 1130.000000, 2450.000000 1250.000000)

LINESTRING (50.000000 1250.000000, 50.000000 1370.000000)

LINESTRING (170.000000 1250.000000, 170.000000 1370.000000)

LINESTRING (290.000000 1250.000000, 290.000000 1370.000000)

LINESTRING (410.000000 1250.000000, 410.000000 1370.000000)

LINESTRING (530.000000 1250.000000, 530.000000 1370.000000)

LINESTRING (650.000000 1250.000000, 650.000000 1370.000000)

LINESTRING (770.000000 1250.000000, 770.000000 1370.000000)

LINESTRING (890.000000 1250.000000, 890.000000 1370.000000)

LINESTRING (1010.000000 1250.000000, 1010.000000 1370.000000)

LINESTRING (1130.000000 1250.000000, 1130.000000 1370.000000)

LINESTRING (1250.000000 1250.000000, 1250.000000 1370.000000)

LINESTRING (1370.000000 1250.000000, 1370.000000 1370.000000)

LINESTRING (1490.000000 1250.000000, 1490.000000 1370.000000)

LINESTRING (1610.000000 1250.000000, 1610.000000 1370.000000)

LINESTRING (1730.000000 1250.000000, 1730.000000 1370.000000)

LINESTRING (1850.000000 1250.000000, 1850.000000 1370.000000)

LINESTRING (1970.000000 1250.000000, 1970.000000 1370.000000)

LINESTRING (2090.000000 1250.000000, 2090.000000 1370.000000)

LINESTRING (2210.000000 1250.000000, 2210.000000 1370.000000)

LINESTRING (2330.000000 1250.000000, 2330.000000 1370.000000)

LINESTRING (2450.000000 1250.000000, 2450.000000 1370.000000)

LINESTRING (50.000000 1370.000000, 50.000000 1490.000000)

LINESTRING (170.000000 1370.000000, 170.000000 1490.000000)

LINESTRING (290.000000 1370.000000, 290.000000 1490.000000)

LINESTRING (410.000000 1370.000000, 410.000000 1490.000000)

LINESTRING (530.000000 1370.000000, 530.000000 1490.000000)

LINESTRING (650.000000 1370.000000, 650.000000 1490.000000)

LINESTRING (770.000000 1370.000000, 770.000000 1490.000000)

LINESTRING (890.000000 1370.000000, 890.000000 1490.000000)

LINESTRING (1010.000000 1370.000000, 1010.000000 1490.000000)

LINESTRING (1130.000000 1370.000000, 1130.000000 1490.000000)

LINESTRING (1250.000000 1370.000000, 1250.000000 1490.000000)

LINESTRING (1370.000000 1370.000000, 1370.000000 1490.000000)

LINESTRING (1490.000000 1370.000000, 1490.000000 1490.000000)

LINESTRING (1610.000000 1370.000000, 1610.000000 1490.000000)

LINESTRING (1730.000000 1370.000000, 1730.000000 1490.000000)

LINESTRING (1850.000000 1370.000000, 1850.000000 1490.000000)

LINESTRING (1970.000000 1370.000000, 1970.000000 1490.000000)

LINESTRING (2090.000000 1370.000000, 2090.000000 1490.000000)

LINESTRING (2210.000000 1370.000000, 2210.000000 1490.000000)

LINESTRING (2330.000000 1370.000000, 2330.000000 1490.000000)

LINESTRING (2450.000000 1370.000000, 2450.000000 1490.000000)

LINESTRING (50.000000 1490.000000, 50.000000 1610.000000)

LINESTRING (170.000000 1490.000000, 170.000000 1610.000000)

LINESTRING (290.000000 1490.000000, 290.000000 1610.000000)

LINESTRING (410.000000 1490.000000, 410.000000 1610.000000)

LINESTRING (530.000000 1490.000000, 530.000000 1610.000000)

LINESTRING (650.000000 1490.000000, 650.000000 1610.000000)

LINESTRING (770.000000 1490.000000, 770.000000 1610.000000)

LINESTRING (890.000000 1490.000000, 890.000000 1610.000000)

LINESTRING (1010.000000 1490.000000, 1010.000000 1610.000000)

LINESTRING (1130.000000 1490.000000, 1130.000000 1610.000000)

LINESTRING (1250.000000 1490.000000, 1250.000000 1610.000000)

LINESTRING (1370.000000 1490.000000, 1370.000000 1610.000000)

LINESTRING (1490.000000 1490.000000, 1490.000000 1610.000000)

LINESTRING (1610.000000 1490.000000, 1610.000000 1610.000000)

LINESTRING (1730.000000 1490.000000, 1730.000000 1610.000000)

LINESTRING (1850.000000 1490.000000, 1850.000000 1610.000000)

LINESTRING (1970.000000 1490.000000, 1970.000000 1610.000000)

LINESTRING (2090.000000 1490.000000, 2090.000000 1610.000000)

LINESTRING (2210.000000 1490.000000, 2210.000000 1610.000000)

LINESTRING (2330.000000 1490.000000, 2330.000000 1610.000000)

LINESTRING (2450.000000 1490.000000, 2450.000000 1610.000000)

LINESTRING (50.000000 1610.000000, 50.000000 1730.000000)

LINESTRING (170.000000 1610.000000, 170.000000 1730.000000)

LINESTRING (290.000000 1610.000000, 290.000000 1730.000000)

LINESTRING (410.000000 1610.000000, 410.000000 1730.000000)

LINESTRING (530.000000 1610.000000, 530.000000 1730.000000)

LINESTRING (650.000000 1610.000000, 650.000000 1730.000000)

LINESTRING (770.000000 1610.000000, 770.000000 1730.000000)

LINESTRING (890.000000 1610.000000, 890.000000 1730.000000)

LINESTRING (1010.000000 1610.000000, 1010.000000 1730.000000)

LINESTRING (1130.000000 1610.000000, 1130.000000 1730.000000)

LINESTRING (1250.000000 1610.000000, 1250.000000 1730.000000)

LINESTRING (1370.000000 1610.000000, 1370.000000 1730.000000)

LINESTRING (1490.000000 1610.000000, 1490.000000 1730.000000)

LINESTRING (1610.000000 1610.000000, 1610.000000 1730.000000)

LINESTRING (1730.000000 1610.000000, 1730.000000 1730.000000)

LINESTRING (1850.000000 1610.000000, 1850.000000 1730.000000)

LINESTRING (1970.000000 1610.000000, 1970.000000 1730.000000)

LINESTRING (2090.000000 1610.000000, 2090.000000 1730.000000)

LINESTRING (2210.000000 1610.000000, 2210.000000 1730.000000)

LINESTRING (2330.000000 1610.000000, 2330.000000 1730.000000)

LINESTRING (2450.000000 1610.000000, 2450.000000 1730.000000)

LINESTRING (50.000000 1730.000000, 50.000000 1850.000000)

LINESTRING (170.000000 1730.000000, 170.000000 1850.000000)

LINESTRING (290.000000 1730.000000, 290.000000 1850.000000)

LINESTRING (410.000000 1730.000000, 410.000000 1850.000000)

LINESTRING (530.000000 1730.000000, 530.000000 1850.000000)

LINESTRING (650.000000 1730.000000, 650.000000 1850.000000)

LINESTRING (770.000000 1730.000000, 770.000000 1850.000000)

LINESTRING (890.000000 1730.000000, 890.000000 1850.000000)

LINESTRING (1010.000000 1730.000000, 1010.000000 1850.000000)

LINESTRING (1130.000000 1730.000000, 1130.000000 1850.000000)

LINESTRING (1250.000000 1730.000000, 1250.000000 1850.000000)

LINESTRING (1370.000000 1730.000000, 1370.000000 1850.000000)

LINESTRING (1490.000000 1730.000000, 1490.000000 1850.000000)

LINESTRING (1610.000000 1730.000000, 1610.000000 1850.000000)

LINESTRING (1730.000000 1730.000000, 1730.000000 1850.000000)

LINESTRING (1850.000000 1730.000000, 1850.000000 1850.000000)

LINESTRING (1970.000000 1730.000000, 1970.000000 1850.000000)

LINESTRING (2090.000000 1730.000000, 2090.000000 1850.000000)

LINESTRING (2210.000000 1730.000000, 2210.000000 1850.000000)

LINESTRING (2330.000000 1730.000000, 2330.000000 1850.000000)

LINESTRING (2450.000000 1730.000000, 2450.000000 1850.000000)

LINESTRING (50.000000 1850.000000, 50.000000 1970.000000)

LINESTRING (170.000000 1850.000000, 170.000000 1970.000000)

LINESTRING (290.000000 1850.000000, 290.000000 1970.000000)

LINESTRING (410.000000 1850.000000, 410.000000 1970.000000)

LINESTRING (530.000000 1850.000000, 530.000000 1970.000000)

LINESTRING (650.000000 1850.000000, 650.000000 1970.000000)

LINESTRING (770.000000 1850.000000, 770.000000 1970.000000)

LINESTRING (890.000000 1850.000000, 890.000000 1970.000000)

LINESTRING (1010.000000 1850.000000, 1010.000000 1970.000000)

LINESTRING (1130.000000 1850.000000, 1130.000000 1970.000000)

LINESTRING (1250.000000 1850.000000, 1250.000000 1970.000000)

LINESTRING (1370.000000 1850.000000, 1370.000000 1970.000000)

LINESTRING (1490.000000 1850.000000, 1490.000000 1970.000000)

LINESTRING (1610.000000 1850.000000, 1610.000000 1970.000000)

LINESTRING (1730.000000 1850.000000, 1730.000000 1970.000000)

LINESTRING (1850.000000 1850.000000, 1850.000000 1970.000000)

LINESTRING (1970.000000 1850.000000, 1970.000000 1970.000000)

LINESTRING (2090.000000 1850.000000, 2090.000000 1970.000000)

LINESTRING (2210.000000 1850.000000, 2210.000000 1970.000000)

LINESTRING (2330.000000 1850.000000, 2330.000000 1970.000000)

LINESTRING (2450.000000 1850.000000, 2450.000000 1970.000000)

LINESTRING (50.000000 1970.000000, 50.000000 2090.000000)

LINESTRING (170.000000 1970.000000, 170.000000 2090.000000)

LINESTRING (290.000000 1970.000000, 290.000000 2090.000000)

LINESTRING (410.000000 1970.000000, 410.000000 2090.000000)

LINESTRING (530.000000 1970.000000, 530.000000 2090.000000)

LINESTRING (650.000000 1970.000000, 650.000000 2090.000000)

LINESTRING (770.000000 1970.000000, 770.000000 2090.000000)

LINESTRING (890.000000 1970.000000, 890.000000 2090.000000)

LINESTRING (1010.000000 1970.000000, 1010.000000 2090.000000)

LINESTRING (1130.000000 1970.000000, 1130.000000 2090.000000)

LINESTRING (1250.000000 1970.000000, 1250.000000 2090.000000)

LINESTRING (1370.000000 1970.000000, 1370.000000 2090.000000)

LINESTRING (1490.000000 1970.000000, 1490.000000 2090.000000)

LINESTRING (1610.000000 1970.000000, 1610.000000 2090.000000)

LINESTRING (1730.000000 1970.000000, 1730.000000 2090.000000)

LINESTRING (1850.000000 1970.000000, 1850.000000 2090.000000)

LINESTRING (1970.000000 1970.000000, 1970.000000 2090.000000)

LINESTRING (2090.000000 1970.000000, 2090.000000 2090.000000)

LINESTRING (2210.000000 1970.000000, 2210.000000 2090.000000)

LINESTRING (2330.000000 1970.000000, 2330.000000 2090.000000)

LINESTRING (2450.000000 1970.000000, 2450.000000 2090.000000)

LINESTRING (50.000000 2090.000000, 50.000000 2210.000000)

LINESTRING (170.000000 2090.000000, 170.000000 2210.000000)

LINESTRING (290.000000 2090.000000, 290.000000 2210.000000)

LINESTRING (410.000000 2090.000000, 410.000000 2210.000000)

LINESTRING (530.000000 2090.000000, 530.000000 2210.000000)

LINESTRING (650.000000 2090.000000, 650.000000 2210.000000)

LINESTRING (770.000000 2090.000000, 770.000000 2210.000000)

LINESTRING (890.000000 2090.000000, 890.000000 2210.000000)

LINESTRING (1010.000000 2090.000000, 1010.000000 2210.000000)

LINESTRING (1130.000000 2090.000000, 1130.000000 2210.000000)

LINESTRING (1250.000000 2090.000000, 1250.000000 2210.000000)

LINESTRING (1370.000000 2090.000000, 1370.000000 2210.000000)

LINESTRING (1490.000000 2090.000000, 1490.000000 2210.000000)

LINESTRING (1610.000000 2090.000000, 1610.000000 2210.000000)

LINESTRING (1730.000000 2090.000000, 1730.000000 2210.000000)

LINESTRING (1850.000000 2090.000000, 1850.000000 2210.000000)

LINESTRING (1970.000000 2090.000000, 1970.000000 2210.000000)

LINESTRING (2090.000000 2090.000000, 2090.000000 2210.000000)

LINESTRING (2210.000000 2090.000000, 2210.000000 2210.000000)

LINESTRING (2330.000000 2090.000000, 2330.000000 2210.000000)

LINESTRING (2450.000000 2090.000000, 2450.000000 2210.000000)

LINESTRING (50.000000 2210.000000, 50.000000 2330.000000)

LINESTRING (170.000000 2210.000000, 170.000000 2330.000000)

LINESTRING (290.000000 2210.000000, 290.000000 2330.000000)

LINESTRING (410.000000 2210.000000, 410.000000 2330.000000)

LINESTRING (530.000000 2210.000000, 530.000000 2330.000000)

LINESTRING (650.000000 2210.000000, 650.000000 2330.000000)

LINESTRING (770.000000 2210.000000, 770.000000 2330.000000)

LINESTRING (890.000000 2210.000000, 890.000000 2330.000000)

LINESTRING (1010.000000 2210.000000, 1010.000000 2330.000000)

LINESTRING (1130.000000 2210.000000, 1130.000000 2330.000000)

LINESTRING (1250.000000 2210.000000, 1250.000000 2330.000000)

LINESTRING (1370.000000 2210.000000, 1370.000000 2330.000000)

LINESTRING (1490.000000 2210.000000, 1490.000000 2330.000000)

LINESTRING (1610.000000 2210.000000, 1610.000000 2330.000000)

LINESTRING (1730.000000 2210.000000, 1730.000000 2330.000000)

LINESTRING (1850.000000 2210.000000, 1850.000000 2330.000000)

LINESTRING (1970.000000 2210.000000, 1970.000000 2330.000000)

LINESTRING (2090.000000 2210.000000, 2090.000000 2330.000000)

LINESTRING (2210.000000 2210.000000, 2210.000000 2330.000000)

LINESTRING (2330.000000 2210.000000, 2330.000000 2330.000000)

LINESTRING (2450.000000 2210.000000, 2450.000000 2330.000000)

LINESTRING (50.000000 2330.000000, 50.000000 2450.000000)

LINESTRING (170.000000 2330.000000, 170.000000 2450.000000)

LINESTRING (290.000000 2330.000000, 290.000000 2450.000000)

LINESTRING (410.000000 2330.000000, 410.000000 2450.000000)

LINESTRING (530.000000 2330.000000, 530.000000 2450.000000)

LINESTRING (650.000000 2330.000000, 650.000000 2450.000000)

LINESTRING (770.000000 2330.000000, 770.000000 2450.000000)

LINESTRING (890.000000 2330.000000, 890.000000 2450.000000)

LINESTRING (1010.000000 2330.000000, 1010.000000 2450.000000)

LINESTRING (1130.000000 2330.000000, 1130.000000 2450.000000)

LINESTRING (1250.000000 2330.000000, 1250.000000 2450.000000)

LINESTRING (1370.000000 2330.000000, 1370.000000 2450.000000)

LINESTRING (1490.000000 2330.000000, 1490.000000 2450.000000)

LINESTRING (1610.000000 2330.000000, 1610.000000 2450.000000)

LINESTRING (1730.000000 2330.000000, 1730.000000 2450.000000)

LINESTRING (1850.000000 2330.000000, 1850.000000 2450.000000)

LINESTRING (1970.000000 2330.000000, 1970.000000 2450.000000)

LINESTRING (2090.000000 2330.000000, 2090.000000 2450.000000)

LINESTRING (2210.000000 2330.000000, 2210.000000 2450.000000)

LINESTRING (2330.000000 2330.000000, 2330.000000 2450.000000)

LINESTRING (2450.000000 2330.000000, 2450.000000 2450.000000)

LINESTRING (410.000000 50.000000, 530.000000 170.000000)

LINESTRING (530.000000 50.000000, 650.000000 170.000000)

LINESTRING (1010.000000 50.000000, 1130.000000 170.000000)

LINESTRING (1130.000000 50.000000, 1250.000000 170.000000)

LINESTRING (1250.000000 50.000000, 1370.000000 170.000000)

LINESTRING (1370.000000 50.000000, 1490.000000 170.000000)

LINESTRING (1610.000000 50.000000, 1730.000000 170.000000)

LINESTRING (1730.000000 50.000000, 1850.000000 170.000000)

LINESTRING (2330.000000 50.000000, 2450.000000 170.000000)

LINESTRING (1010.000000 170.000000, 1130.000000 290.000000)

LINESTRING (1370.000000 170.000000, 1490.000000 290.000000)

LINESTRING (1490.000000 170.000000, 1610.000000 290.000000)

LINESTRING (1970.000000 170.000000, 2090.000000 290.000000)

LINESTRING (170.000000 290.000000, 290.000000 410.000000)

LINESTRING (290.000000 290.000000, 410.000000 410.000000)

LINESTRING (650.000000 290.000000, 770.000000 410.000000)

LINESTRING (1010.000000 290.000000, 1130.000000 410.000000)

LINESTRING (1250.000000 290.000000, 1370.000000 410.000000)

LINESTRING (1370.000000 290.000000, 1490.000000 410.000000)

LINESTRING (1490.000000 290.000000, 1610.000000 410.000000)

LINESTRING (1610.000000 290.000000, 1730.000000 410.000000)

LINESTRING (2090.000000 290.000000, 2210.000000 410.000000)

LINESTRING (410.000000 410.000000, 530.000000 530.000000)

LINESTRING (1010.000000 410.000000, 1130.000000 530.000000)

LINESTRING (1610.000000 410.000000, 1730.000000 530.000000)

LINESTRING (1970.000000 410.000000, 2090.000000 530.000000)

LINESTRING (410.000000 530.000000, 530.000000 650.000000)

LINESTRING (530.000000 530.000000, 650.000000 650.000000)

LINESTRING (890.000000 530.000000, 1010.000000 650.000000)

LINESTRING (1850.000000 530.000000, 1970.000000 650.000000)

LINESTRING (2210.000000 530.000000, 2330.000000 650.000000)

LINESTRING (2330.000000 530.000000, 2450.000000 650.000000)

LINESTRING (410.000000 650.000000, 530.000000 770.000000)

LINESTRING (1250.000000 650.000000, 1370.000000 770.000000)

LINESTRING (1490.000000 650.000000, 1610.000000 770.000000)

LINESTRING (1850.000000 650.000000, 1970.000000 770.000000)

LINESTRING (1970.000000 650.000000, 2090.000000 770.000000)

LINESTRING (2090.000000 650.000000, 2210.000000 770.000000)

LINESTRING (410.000000 770.000000, 530.000000 890.000000)

LINESTRING (1010.000000 770.000000, 1130.000000 890.000000)

LINESTRING (1130.000000 770.000000, 1250.000000 890.000000)

LINESTRING (1370.000000 770.000000, 1490.000000 890.000000)

LINESTRING (1490.000000 770.000000, 1610.000000 890.000000)

LINESTRING (1970.000000 770.000000, 2090.000000 890.000000)

LINESTRING (2330.000000 770.000000, 2450.000000 890.000000)

LINESTRING (770.000000 890.000000, 890.000000 1010.000000)

LINESTRING (1130.000000 890.000000, 1250.000000 1010.000000)

LINESTRING (1610.000000 890.000000, 1730.000000 1010.000000)

LINESTRING (1730.000000 890.000000, 1850.000000 1010.000000)

LINESTRING (1850.000000 890.000000, 1970.000000 1010.000000)

LINESTRING (2330.000000 890.000000, 2450.000000 1010.000000)

LINESTRING (170.000000 1010.000000, 290.000000 1130.000000)

LINESTRING (770.000000 1010.000000, 890.000000 1130.000000)

LINESTRING (1730.000000 1010.000000, 1850.000000 1130.000000)

LINESTRING (2330.000000 1010.000000, 2450.000000 1130.000000)

LINESTRING (50.000000 1130.000000, 170.000000 1250.000000)

LINESTRING (170.000000 1130.000000, 290.000000 1250.000000)

LINESTRING (290.000000 1130.000000, 410.000000 1250.000000)

LINESTRING (410.000000 1130.000000, 530.000000 1250.000000)

LINESTRING (650.000000 1130.000000, 770.000000 1250.000000)

LINESTRING (770.000000 1130.000000, 890.000000 1250.000000)

LINESTRING (1010.000000 1130.000000, 1130.000000 1250.000000)

LINESTRING (2210.000000 1130.000000, 2330.000000 1250.000000)

LINESTRING (170.000000 1250.000000, 290.000000 1370.000000)

LINESTRING (410.000000 1250.000000, 530.000000 1370.000000)

LINESTRING (890.000000 1250.000000, 1010.000000 1370.000000)

LINESTRING (1730.000000 1250.000000, 1850.000000 1370.000000)

LINESTRING (1850.000000 1250.000000, 1970.000000 1370.000000)

LINESTRING (1970.000000 1250.000000, 2090.000000 1370.000000)

LINESTRING (170.000000 1370.000000, 290.000000 1490.000000)

LINESTRING (650.000000 1370.000000, 770.000000 1490.000000)

LINESTRING (890.000000 1370.000000, 1010.000000 1490.000000)

LINESTRING (1850.000000 1370.000000, 1970.000000 1490.000000)

LINESTRING (1970.000000 1370.000000, 2090.000000 1490.000000)

LINESTRING (2090.000000 1370.000000, 2210.000000 1490.000000)

LINESTRING (410.000000 1490.000000, 530.000000 1610.000000)

LINESTRING (770.000000 1490.000000, 890.000000 1610.000000)

LINESTRING (1130.000000 1490.000000, 1250.000000 1610.000000)

LINESTRING (1850.000000 1490.000000, 1970.000000 1610.000000)

LINESTRING (2210.000000 1490.000000, 2330.000000 1610.000000)

LINESTRING (2330.000000 1490.000000, 2450.000000 1610.000000)

LINESTRING (50.000000 1610.000000, 170.000000 1730.000000)

LINESTRING (170.000000 1610.000000, 290.000000 1730.000000)

LINESTRING (530.000000 1610.000000, 650.000000 1730.000000)

LINESTRING (890.000000 1610.000000, 1010.000000 1730.000000)

LINESTRING (1610.000000 1610.000000, 1730.000000 1730.000000)

LINESTRING (290.000000 1730.000000, 410.000000 1850.000000)

LINESTRING (530.000000 1730.000000, 650.000000 1850.000000)

LINESTRING (1010.000000 1730.000000, 1130.000000 1850.000000)

LINESTRING (1610.000000 1730.000000, 1730.000000 1850.000000)

LINESTRING (1730.000000 1730.000000, 1850.000000 1850.000000)

LINESTRING (2210.000000 1730.000000, 2330.000000 1850.000000)

LINESTRING (650.000000 1850.000000, 770.000000 1970.000000)

LINESTRING (890.000000 1850.000000, 1010.000000 1970.000000)

LINESTRING (1370.000000 1850.000000, 1490.000000 1970.000000)

LINESTRING (1850.000000 1850.000000, 1970.000000 1970.000000)

LINESTRING (2330.000000 1850.000000, 2450.000000 1970.000000)

LINESTRING (770.000000 2090.000000, 890.000000 2210.000000)

LINESTRING (1130.000000 2090.000000, 1250.000000 2210.000000)

LINESTRING (1730.000000 2090.000000, 1850.000000 2210.000000)

LINESTRING (890.000000 2210.000000, 1010.000000 2330.000000)

LINESTRING (1370.000000 2210.000000, 1490.000000 2330.000000)

LINESTRING (2330.000000 2210.000000, 2450.000000 2330.000000)

LINESTRING (170.000000 2330.000000, 290.000000 2450.000000)

LINESTRING (650.000000 2330.000000, 770.000000 2450.000000)

LINESTRING (1610.000000 2330.000000, 1730.000000 2450.000000)

