LINESTRING (60.000000 60.000000, 49.040423 54.708761)

LINESTRING (60.000000 60.000000, 93.193894 89.780302)

LINESTRING (60.000000 60.000000, 56.544591 28.246734)

LINESTRING (60.000000 60.000000, 49.548903 93.451283)

LINESTRING (60.000000 60.000000, 25.089889 24.259531)

LINESTRING (60.000000 60.000000, 53.844040 38.514275)

LINESTRING (60.000000 60.000000, 71.670374 54.032048)

LINESTRING (60.000000 60.000000, 54.621221 43.172624)

LINESTRING (49.040423 54.708761, 56.544591 28.246734)

LINESTRING (49.040423 54.708761, 25.089889 24.259531)

LINESTRING (49.040423 54.708761, 54.621221 43.172624)

LINESTRING (93.193894 89.780302, 25.089889 24.259531)

LINESTRING (93.193894 89.780302, 53.844040 38.514275)

LINESTRING (93.193894 89.780302, 54.621221 43.172624)

LINESTRING (56.544591 28.246734, 25.089889 24.259531)

LINESTRING (56.544591 28.246734, 53.844040 38.514275)

LINESTRING (56.544591 28.246734, 71.670374 54.032048)

LINESTRING (49.548903 93.451283, 25.089889 24.259531)

LINESTRING (49.548903 93.451283, 53.844040 38.514275)

LINESTRING (49.548903 93.451283, 71.670374 54.032048)

LINESTRING (25.089889 24.259531, 53.844040 38.514275)

LINESTRING (53.844040 38.514275, 54.621221 43.172624)

LINESTRING (360.000000 60.000000, 337.999671 95.344462)

LINESTRING (360.000000 60.000000, 387.371132 93.604182)

LINESTRING (360.000000 60.000000, 378.881841 49.560747)

LINESTRING (360.000000 60.000000, 372.029153 65.659034)

LINESTRING (360.000000 60.000000, 344.133113 85.358456)

LINESTRING (360.000000 60.000000, 363.816048 71.561971)

LINESTRING (360.000000 60.000000, 331.177591 81.572117)

LINESTRING (360.000000 60.000000, 391.007997 45.288644)

LINESTRING (337.999671 95.344462, 387.371132 93.604182)

LINESTRING (337.999671 95.344462, 378.881841 49.560747)

LINESTRING (337.999671 95.344462, 344.133113 85.358456)

LINESTRING (337.999671 95.344462, 363.816048 71.561971)

LINESTRING (387.371132 93.604182, 378.881841 49.560747)

LINESTRING (387.371132 93.604182, 372.029153 65.659034)

LINESTRING (387.371132 93.604182, 363.816048 71.561971)

LINESTRING (387.371132 93.604182, 331.177591 81.572117)

LINESTRING (378.881841 49.560747, 372.029153 65.659034)

LINESTRING (378.881841 49.560747, 363.816048 71.561971)

LINESTRING (372.029153 65.659034, 331.177591 81.572117)

LINESTRING (372.029153 65.659034, 391.007997 45.288644)

LINESTRING (344.133113 85.358456, 331.177591 81.572117)

LINESTRING (344.133113 85.358456, 391.007997 45.288644)

LINESTRING (363.816048 71.561971, 331.177591 81.572117)

LINESTRING (331.177591 81.572117, 391.007997 45.288644)

LINESTRING (60.000000 360.000000, 65.602645 324.854206)

LINESTRING (60.000000 360.000000, 67.154841 378.327569)

LINESTRING (60.000000 360.000000, 59.981612 353.429400)

LINESTRING (60.000000 360.000000, 61.217098 378.919352)

LINESTRING (60.000000 360.000000, 89.574783 371.914515)

LINESTRING (60.000000 360.000000, 66.493682 349.619228)

LINESTRING (60.000000 360.000000, 24.192419 328.299995)

LINESTRING (60.000000 360.000000, 34.627280 339.507209)

LINESTRING (65.602645 324.854206, 67.154841 378.327569)

LINESTRING (65.602645 324.854206, 24.192419 328.299995)

LINESTRING (65.602645 324.854206, 34.627280 339.507209)

LINESTRING (67.154841 378.327569, 59.981612 353.429400)

LINESTRING (67.154841 378.327569, 89.574783 371.914515)

LINESTRING (67.154841 378.327569, 66.493682 349.619228)

LINESTRING (67.154841 378.327569, 24.192419 328.299995)

LINESTRING (59.981612 353.429400, 66.493682 349.619228)

LINESTRING (59.981612 353.429400, 24.192419 328.299995)

LINESTRING (61.217098 378.919352, 89.574783 371.914515)

LINESTRING (61.217098 378.919352, 66.493682 349.619228)

LINESTRING (89.574783 371.914515, 66.493682 349.619228)

LINESTRING (89.574783 371.914515, 34.627280 339.507209)

LINESTRING (66.493682 349.619228, 24.192419 328.299995)

LINESTRING (24.192419 328.299995, 34.627280 339.507209)

LINESTRING (53.844040 38.514275, 363.816048 71.561971)

LINESTRING (49.548903 93.451283, 344.133113 85.358456)

LINESTRING (60.000000 60.000000, 360.000000 60.000000)

LINESTRING (337.999671 95.344462, 34.627280 339.507209)

LINESTRING (378.881841 49.560747, 65.602645 324.854206)

LINESTRING (360.000000 60.000000, 60.000000 360.000000)

