LINESTRING (52.213184 36.378962, 119.875081 47.108937)

LINESTRING (119.875081 47.108937, 153.386606 34.834736)

LINESTRING (153.386606 34.834736, 230.337700 55.812162)

LINESTRING (230.337700 55.812162, 306.027925 48.439112)

LINESTRING (306.027925 48.439112, 354.331935 39.207021)

LINESTRING (354.331935 39.207021, 402.423946 36.287696)

LINESTRING (402.423946 36.287696, 454.142581 47.022196)

LINESTRING (454.142581 47.022196, 540.290452 49.080045)

LINESTRING (540.290452 49.080045, 600.672693 41.847647)

LINESTRING (600.672693 41.847647, 642.110822 38.765139)

LINESTRING (642.110822 38.765139, 698.654969 67.561995)

LINESTRING (698.654969 67.561995, 775.829483 42.991711)

LINESTRING (62.253565 98.237836, 121.539263 92.053681)

LINESTRING (121.539263 92.053681, 177.504761 90.825536)

LINESTRING (177.504761 90.825536, 221.988068 115.814589)

LINESTRING (221.988068 115.814589, 275.398575 105.692452)

LINESTRING (275.398575 105.692452, 333.792340 111.734908)

LINESTRING (333.792340 111.734908, 397.010004 115.439086)

LINESTRING (397.010004 115.439086, 477.596766 109.732624)

LINESTRING (477.596766 109.732624, 542.196649 119.901885)

LINESTRING (542.196649 119.901885, 571.137920 109.364671)

LINESTRING (571.137920 109.364671, 669.404951 95.151515)

LINESTRING (669.404951 95.151515, 702.825544 103.825846)

LINESTRING (702.825544 103.825846, 774.542181 122.812929)

LINESTRING (32.429513 160.400147, 117.538687 186.141829)

LINESTRING (117.538687 186.141829, 164.296500 162.158225)

LINESTRING (164.296500 162.158225, 241.156636 164.334655)

LINESTRING (241.156636 164.334655, 285.785626 150.974447)

LINESTRING (285.785626 150.974447, 345.600464 159.755430)

LINESTRING (345.600464 159.755430, 399.685015 162.696531)

LINESTRING (399.685015 162.696531, 472.323134 169.766512)

LINESTRING (472.323134 169.766512, 519.429858 188.373279)

LINESTRING (519.429858 188.373279, 581.593625 172.448359)

LINESTRING (581.593625 172.448359, 634.684232 182.037512)

LINESTRING (634.684232 182.037512, 725.016151 165.562514)

LINESTRING (725.016151 165.562514, 776.949114 150.020663)

LINESTRING (32.421486 213.476061, 116.045273 237.126631)

LINESTRING (116.045273 237.126631, 160.417722 230.077319)

LINESTRING (160.417722 230.077319, 236.720072 216.885609)

LINESTRING (236.720072 216.885609, 303.231039 243.081192)

LINESTRING (303.231039 243.081192, 335.681354 239.789225)

LINESTRING (335.681354 239.789225, 396.869907 237.198090)

LINESTRING (396.869907 237.198090, 467.174111 248.693323)

LINESTRING (467.174111 248.693323, 545.518990 221.410281)

LINESTRING (545.518990 221.410281, 602.346671 222.327333)

LINESTRING (602.346671 222.327333, 656.577026 235.719248)

LINESTRING (656.577026 235.719248, 715.746227 242.361646)

LINESTRING (715.746227 242.361646, 766.652534 219.092192)

LINESTRING (63.998409 308.919910, 127.419926 307.617896)

LINESTRING (127.419926 307.617896, 188.384937 275.029410)

LINESTRING (188.384937 275.029410, 214.394052 305.003518)

LINESTRING (214.394052 305.003518, 284.835467 291.909417)

LINESTRING (284.835467 291.909417, 352.751305 291.304603)

LINESTRING (352.751305 291.304603, 426.589663 286.701027)

LINESTRING (426.589663 286.701027, 483.992577 278.353108)

LINESTRING (483.992577 278.353108, 532.405974 278.771425)

LINESTRING (532.405974 278.771425, 607.235351 293.842253)

LINESTRING (607.235351 293.842253, 637.932655 283.073224)

LINESTRING (637.932655 283.073224, 701.194464 297.544990)

LINESTRING (701.194464 297.544990, 757.259296 308.976551)

LINESTRING (42.726710 331.993642, 128.366273 364.409047)

LINESTRING (128.366273 364.409047, 176.896664 358.347159)

LINESTRING (176.896664 358.347159, 235.142891 336.550450)

LINESTRING (235.142891 336.550450, 273.506274 332.571843)

LINESTRING (273.506274 332.571843, 369.037219 351.008662)

LINESTRING (369.037219 351.008662, 421.842366 344.284177)

LINESTRING (421.842366 344.284177, 452.819799 344.689983)

LINESTRING (452.819799 344.689983, 522.711529 351.159971)

LINESTRING (522.711529 351.159971, 581.259902 336.264352)

LINESTRING (581.259902 336.264352, 645.647970 346.037383)

LINESTRING (645.647970 346.037383, 705.641091 348.460003)

LINESTRING (705.641091 348.460003, 759.406635 364.727184)

LINESTRING (37.510201 390.968771, 107.861423 411.130389)

LINESTRING (107.861423 411.130389, 158.470107 394.453344)

LINESTRING (158.470107 394.453344, 229.470722 404.954537)

LINESTRING (229.470722 404.954537, 270.295057 416.344124)

LINESTRING (270.295057 416.344124, 341.713018 407.083049)

LINESTRING (341.713018 407.083049, 406.645897 427.537336)

LINESTRING (406.645897 427.537336, 481.123765 415.234595)

LINESTRING (481.123765 415.234595, 526.322940 398.200519)

LINESTRING (526.322940 398.200519, 588.542332 397.606551)

LINESTRING (588.542332 397.606551, 658.532915 409.154225)

LINESTRING (658.532915 409.154225, 726.609559 413.941605)

LINESTRING (726.609559 413.941605, 752.137354 413.801810)

LINESTRING (63.111076 480.008810, 127.670159 459.087002)

LINESTRING (127.670159 459.087002, 188.080982 462.923969)

LINESTRING (188.080982 462.923969, 230.587621 489.566037)

LINESTRING (230.587621 489.566037, 274.954027 450.977809)

LINESTRING (274.954027 450.977809, 346.142144 469.758026)

LINESTRING (346.142144 469.758026, 391.316362 489.416498)

LINESTRING (391.316362 489.416498, 485.362474 487.747801)

LINESTRING (485.362474 487.747801, 511.602911 457.615058)

LINESTRING (511.602911 457.615058, 582.115635 459.332409)

LINESTRING (582.115635 459.332409, 648.289830 463.991995)

LINESTRING (648.289830 463.991995, 697.972839 487.324611)

LINESTRING (697.972839 487.324611, 781.992385 451.329491)

LINESTRING (57.896050 549.203736, 109.641040 546.402003)

LINESTRING (109.641040 546.402003, 174.551373 531.123257)

LINESTRING (174.551373 531.123257, 243.651850 519.791305)

LINESTRING (243.651850 519.791305, 288.612268 518.623309)

LINESTRING (288.612268 518.623309, 345.615502 539.244921)

LINESTRING (345.615502 539.244921, 394.374197 543.425682)

LINESTRING (394.374197 543.425682, 468.931314 539.095092)

LINESTRING (468.931314 539.095092, 525.351141 521.006635)

LINESTRING (525.351141 521.006635, 599.836309 513.844825)

LINESTRING (599.836309 513.844825, 642.998540 533.812853)

LINESTRING (642.998540 533.812853, 712.258148 535.426126)

LINESTRING (712.258148 535.426126, 777.099514 532.185487)

LINESTRING (58.700050 590.984122, 125.037440 571.774268)

LINESTRING (125.037440 571.774268, 183.055119 571.310235)

LINESTRING (183.055119 571.310235, 235.598190 579.798726)

LINESTRING (235.598190 579.798726, 286.419891 573.102364)

LINESTRING (286.419891 573.102364, 344.723430 587.310280)

LINESTRING (344.723430 587.310280, 402.095129 572.793238)

LINESTRING (402.095129 572.793238, 455.184986 600.791932)

LINESTRING (455.184986 600.791932, 523.427090 596.460606)

LINESTRING (523.427090 596.460606, 585.655100 571.948697)

LINESTRING (585.655100 571.948697, 633.692634 589.008728)

LINESTRING (633.692634 589.008728, 725.098788 609.138473)

LINESTRING (725.098788 609.138473, 766.192216 598.014672)

LINESTRING (42.656261 656.331769, 95.947059 660.827775)

LINESTRING (95.947059 660.827775, 179.152541 646.825106)

LINESTRING (179.152541 646.825106, 216.809727 651.688700)

LINESTRING (216.809727 651.688700, 293.198986 669.401726)

LINESTRING (293.198986 669.401726, 354.166538 639.462538)

LINESTRING (354.166538 639.462538, 427.725067 644.126940)

LINESTRING (427.725067 644.126940, 486.123501 631.750837)

LINESTRING (486.123501 631.750837, 528.314294 657.208772)

LINESTRING (528.314294 657.208772, 594.576566 636.142534)

LINESTRING (594.576566 636.142534, 634.395511 666.826447)

LINESTRING (634.395511 666.826447, 724.152607 657.372865)

LINESTRING (724.152607 657.372865, 750.756428 639.414780)

LINESTRING (39.282156 727.882453, 125.127557 723.988616)

LINESTRING (125.127557 723.988616, 170.599225 705.412793)

LINESTRING (170.599225 705.412793, 213.868711 697.035474)

LINESTRING (213.868711 697.035474, 300.283425 710.393416)

LINESTRING (300.283425 710.393416, 336.717024 722.609779)

LINESTRING (336.717024 722.609779, 395.074149 709.757554)

LINESTRING (395.074149 709.757554, 455.330936 712.793434)

LINESTRING (455.330936 712.793434, 547.229993 691.542457)

LINESTRING (547.229993 691.542457, 586.678015 721.979491)

LINESTRING (586.678015 721.979491, 645.395229 691.889752)

LINESTRING (645.395229 691.889752, 699.782728 705.029924)

LINESTRING (699.782728 705.029924, 787.986559 701.834493)

LINESTRING (49.097999 787.603983, 90.744086 783.699849)

LINESTRING (90.744086 783.699849, 184.328177 751.552619)

LINESTRING (184.328177 751.552619, 213.104869 757.020822)

LINESTRING (213.104869 757.020822, 285.974028 762.134900)

LINESTRING (285.974028 762.134900, 347.891161 750.314028)

LINESTRING (347.891161 750.314028, 411.137401 788.463277)

LINESTRING (411.137401 788.463277, 452.321931 775.483227)

LINESTRING (452.321931 775.483227, 519.639402 761.632472)

LINESTRING (519.639402 761.632472, 609.779024 755.270140)

LINESTRING (609.779024 755.270140, 665.365051 757.476426)

LINESTRING (665.365051 757.476426, 712.871898 786.132440)

LINESTRING (712.871898 786.132440, 751.449603 761.073205)

LINESTRING (52.213184 36.378962, 62.253565 98.237836)

LINESTRING (119.875081 47.108937, 121.539263 92.053681)

LINESTRING (153.386606 34.834736, 177.504761 90.825536)

LINESTRING (230.337700 55.812162, 221.988068 115.814589)

LINESTRING (306.027925 48.439112, 275.398575 105.692452)

LINESTRING (354.331935 39.207021, 333.792340 111.734908)

LINESTRING (402.423946 36.287696, 397.010004 115.439086)

LINESTRING (454.142581 47.022196, 477.596766 109.732624)

LINESTRING (540.290452 49.080045, 542.196649 119.901885)

LINESTRING (600.672693 41.847647, 571.137920 109.364671)

LINESTRING (642.110822 38.765139, 669.404951 95.151515)

LINESTRING (698.654969 67.561995, 702.825544 103.825846)

LINESTRING (775.829483 42.991711, 774.542181 122.812929)

LINESTRING (62.253565 98.237836, 32.429513 160.400147)

LINESTRING (121.539263 92.053681, 117.538687 186.141829)

LINESTRING (177.504761 90.825536, 164.296500 162.158225)

LINESTRING (221.988068 115.814589, 241.156636 164.334655)

LINESTRING (275.398575 105.692452, 285.785626 150.974447)

LINESTRING (333.792340 111.734908, 345.600464 159.755430)

LINESTRING (397.010004 115.439086, 399.685015 162.696531)

LINESTRING (477.596766 109.732624, 472.323134 169.766512)

LINESTRING (542.196649 119.901885, 519.429858 188.373279)

LINESTRING (571.137920 109.364671, 581.593625 172.448359)

LINESTRING (669.404951 95.151515, 634.684232 182.037512)

LINESTRING (702.825544 103.825846, 725.016151 165.562514)

LINESTRING (774.542181 122.812929, 776.949114 150.020663)

LINESTRING (32.429513 160.400147, 32.421486 213.476061)

LINESTRING (117.538687 186.141829, 116.045273 237.126631)

LINESTRING (164.296500 162.158225, 160.417722 230.077319)

LINESTRING (241.156636 164.334655, 236.720072 216.885609)

LINESTRING (285.785626 150.974447, 303.231039 243.081192)

LINESTRING (345.600464 159.755430, 335.681354 239.789225)

LINESTRING (399.685015 162.696531, 396.869907 237.198090)

LINESTRING (472.323134 169.766512, 467.174111 248.693323)

LINESTRING (519.429858 188.373279, 545.518990 221.410281)

LINESTRING (581.593625 172.448359, 602.346671 222.327333)

LINESTRING (634.684232 182.037512, 656.577026 235.719248)

LINESTRING (725.016151 165.562514, 715.746227 242.361646)

LINESTRING (776.949114 150.020663, 766.652534 219.092192)

LINESTRING (32.421486 213.476061, 63.998409 308.919910)

LINESTRING (116.045273 237.126631, 127.419926 307.617896)

LINESTRING (160.417722 230.077319, 188.384937 275.029410)

LINESTRING (236.720072 216.885609, 214.394052 305.003518)

LINESTRING (303.231039 243.081192, 284.835467 291.909417)

LINESTRING (335.681354 239.789225, 352.751305 291.304603)

LINESTRING (396.869907 237.198090, 426.589663 286.701027)

LINESTRING (467.174111 248.693323, 483.992577 278.353108)

LINESTRING (545.518990 221.410281, 532.405974 278.771425)

LINESTRING (602.346671 222.327333, 607.235351 293.842253)

LINESTRING (656.577026 235.719248, 637.932655 283.073224)

LINESTRING (715.746227 242.361646, 701.194464 297.544990)

LINESTRING (766.652534 219.092192, 757.259296 308.976551)

LINESTRING (63.998409 308.919910, 42.726710 331.993642)

LINESTRING (127.419926 307.617896, 128.366273 364.409047)

LINESTRING (188.384937 275.029410, 176.896664 358.347159)

LINESTRING (214.394052 305.003518, 235.142891 336.550450)

LINESTRING (284.835467 291.909417, 273.506274 332.571843)

LINESTRING (352.751305 291.304603, 369.037219 351.008662)

LINESTRING (426.589663 286.701027, 421.842366 344.284177)

LINESTRING (483.992577 278.353108, 452.819799 344.689983)

LINESTRING (532.405974 278.771425, 522.711529 351.159971)

LINESTRING (607.235351 293.842253, 581.259902 336.264352)

LINESTRING (637.932655 283.073224, 645.647970 346.037383)

LINESTRING (701.194464 297.544990, 705.641091 348.460003)

LINESTRING (757.259296 308.976551, 759.406635 364.727184)

LINESTRING (42.726710 331.993642, 37.510201 390.968771)

LINESTRING (128.366273 364.409047, 107.861423 411.130389)

LINESTRING (176.896664 358.347159, 158.470107 394.453344)

LINESTRING (235.142891 336.550450, 229.470722 404.954537)

LINESTRING (273.506274 332.571843, 270.295057 416.344124)

LINESTRING (369.037219 351.008662, 341.713018 407.083049)

LINESTRING (421.842366 344.284177, 406.645897 427.537336)

LINESTRING (452.819799 344.689983, 481.123765 415.234595)

LINESTRING (522.711529 351.159971, 526.322940 398.200519)

LINESTRING (581.259902 336.264352, 588.542332 397.606551)

LINESTRING (645.647970 346.037383, 658.532915 409.154225)

LINESTRING (705.641091 348.460003, 726.609559 413.941605)

LINESTRING (759.406635 364.727184, 752.137354 413.801810)

LINESTRING (37.510201 390.968771, 63.111076 480.008810)

LINESTRING (107.861423 411.130389, 127.670159 459.087002)

LINESTRING (158.470107 394.453344, 188.080982 462.923969)

LINESTRING (229.470722 404.954537, 230.587621 489.566037)

LINESTRING (270.295057 416.344124, 274.954027 450.977809)

LINESTRING (341.713018 407.083049, 346.142144 469.758026)

LINESTRING (406.645897 427.537336, 391.316362 489.416498)

LINESTRING (481.123765 415.234595, 485.362474 487.747801)

LINESTRING (526.322940 398.200519, 511.602911 457.615058)

LINESTRING (588.542332 397.606551, 582.115635 459.332409)

LINESTRING (658.532915 409.154225, 648.289830 463.991995)

LINESTRING (726.609559 413.941605, 697.972839 487.324611)

LINESTRING (752.137354 413.801810, 781.992385 451.329491)

LINESTRING (63.111076 480.008810, 57.896050 549.203736)

LINESTRING (127.670159 459.087002, 109.641040 546.402003)

LINESTRING (188.080982 462.923969, 174.551373 531.123257)

LINESTRING (230.587621 489.566037, 243.651850 519.791305)

LINESTRING (274.954027 450.977809, 288.612268 518.623309)

LINESTRING (346.142144 469.758026, 345.615502 539.244921)

LINESTRING (391.316362 489.416498, 394.374197 543.425682)

LINESTRING (485.362474 487.747801, 468.931314 539.095092)

LINESTRING (511.602911 457.615058, 525.351141 521.006635)

LINESTRING (582.115635 459.332409, 599.836309 513.844825)

LINESTRING (648.289830 463.991995, 642.998540 533.812853)

LINESTRING (697.972839 487.324611, 712.258148 535.426126)

LINESTRING (781.992385 451.329491, 777.099514 532.185487)

LINESTRING (57.896050 549.203736, 58.700050 590.984122)

LINESTRING (109.641040 546.402003, 125.037440 571.774268)

LINESTRING (174.551373 531.123257, 183.055119 571.310235)

LINESTRING (243.651850 519.791305, 235.598190 579.798726)

LINESTRING (288.612268 518.623309, 286.419891 573.102364)

LINESTRING (345.615502 539.244921, 344.723430 587.310280)

LINESTRING (394.374197 543.425682, 402.095129 572.793238)

LINESTRING (468.931314 539.095092, 455.184986 600.791932)

LINESTRING (525.351141 521.006635, 523.427090 596.460606)

LINESTRING (599.836309 513.844825, 585.655100 571.948697)

LINESTRING (642.998540 533.812853, 633.692634 589.008728)

LINESTRING (712.258148 535.426126, 725.098788 609.138473)

LINESTRING (777.099514 532.185487, 766.192216 598.014672)

LINESTRING (58.700050 590.984122, 42.656261 656.331769)

LINESTRING (125.037440 571.774268, 95.947059 660.827775)

LINESTRING (183.055119 571.310235, 179.152541 646.825106)

LINESTRING (235.598190 579.798726, 216.809727 651.688700)

LINESTRING (286.419891 573.102364, 293.198986 669.401726)

LINESTRING (344.723430 587.310280, 354.166538 639.462538)

LINESTRING (402.095129 572.793238, 427.725067 644.126940)

LINESTRING (455.184986 600.791932, 486.123501 631.750837)

LINESTRING (523.427090 596.460606, 528.314294 657.208772)

LINESTRING (585.655100 571.948697, 594.576566 636.142534)

LINESTRING (633.692634 589.008728, 634.395511 666.826447)

LINESTRING (725.098788 609.138473, 724.152607 657.372865)

LINESTRING (766.192216 598.014672, 750.756428 639.414780)

LINESTRING (42.656261 656.331769, 39.282156 727.882453)

LINESTRING (95.947059 660.827775, 125.127557 723.988616)

LINESTRING (179.152541 646.825106, 170.599225 705.412793)

LINESTRING (216.809727 651.688700, 213.868711 697.035474)

LINESTRING (293.198986 669.401726, 300.283425 710.393416)

LINESTRING (354.166538 639.462538, 336.717024 722.609779)

LINESTRING (427.725067 644.126940, 395.074149 709.757554)

LINESTRING (486.123501 631.750837, 455.330936 712.793434)

LINESTRING (528.314294 657.208772, 547.229993 691.542457)

LINESTRING (594.576566 636.142534, 586.678015 721.979491)

LINESTRING (634.395511 666.826447, 645.395229 691.889752)

LINESTRING (724.152607 657.372865, 699.782728 705.029924)

LINESTRING (750.756428 639.414780, 787.986559 701.834493)

LINESTRING (39.282156 727.882453, 49.097999 787.603983)

LINESTRING (125.127557 723.988616, 90.744086 783.699849)

LINESTRING (170.599225 705.412793, 184.328177 751.552619)

LINESTRING (213.868711 697.035474, 213.104869 757.020822)

LINESTRING (300.283425 710.393416, 285.974028 762.134900)

LINESTRING (336.717024 722.609779, 347.891161 750.314028)

LINESTRING (395.074149 709.757554, 411.137401 788.463277)

LINESTRING (455.330936 712.793434, 452.321931 775.483227)

LINESTRING (547.229993 691.542457, 519.639402 761.632472)

LINESTRING (586.678015 721.979491, 609.779024 755.270140)

LINESTRING (645.395229 691.889752, 665.365051 757.476426)

LINESTRING (699.782728 705.029924, 712.871898 786.132440)

LINESTRING (787.986559 701.834493, 751.449603 761.073205)

LINESTRING (119.875081 47.108937, 177.504761 90.825536)

LINESTRING (354.331935 39.207021, 397.010004 115.439086)

LINESTRING (600.672693 41.847647, 669.404951 95.151515)

LINESTRING (177.504761 90.825536, 241.156636 164.334655)

LINESTRING (542.196649 119.901885, 581.593625 172.448359)

LINESTRING (581.593625 172.448359, 656.577026 235.719248)

LINESTRING (116.045273 237.126631, 188.384937 275.029410)

LINESTRING (396.869907 237.198090, 483.992577 278.353108)

LINESTRING (467.174111 248.693323, 532.405974 278.771425)

LINESTRING (63.998409 308.919910, 128.366273 364.409047)

LINESTRING (188.384937 275.029410, 235.142891 336.550450)

LINESTRING (42.726710 331.993642, 107.861423 411.130389)

LINESTRING (369.037219 351.008662, 406.645897 427.537336)

LINESTRING (37.510201 390.968771, 127.670159 459.087002)

LINESTRING (270.295057 416.344124, 346.142144 469.758026)

LINESTRING (485.362474 487.747801, 525.351141 521.006635)

LINESTRING (174.551373 531.123257, 235.598190 579.798726)

LINESTRING (288.612268 518.623309, 344.723430 587.310280)

LINESTRING (468.931314 539.095092, 523.427090 596.460606)

LINESTRING (642.998540 533.812853, 725.098788 609.138473)

LINESTRING (455.184986 600.791932, 528.314294 657.208772)

LINESTRING (216.809727 651.688700, 300.283425 710.393416)

LINESTRING (486.123501 631.750837, 547.229993 691.542457)

LINESTRING (395.074149 709.757554, 452.321931 775.483227)

LINESTRING (455.330936 712.793434, 519.639402 761.632472)

