LINESTRING (80.000000 80.000000, 779.175037 113.974510)

LINESTRING (80.000000 80.000000, 464.546270 98.685981)

LINESTRING (464.546270 98.685981, 779.175037 113.974510)

LINESTRING (80.000000 80.000000, 659.598712 472.511570)

LINESTRING (80.000000 80.000000, 398.779292 295.881364)

LINESTRING (398.779292 295.881364, 659.598712 472.511570)

LINESTRING (80.000000 80.000000, 320.003291 737.570088)

LINESTRING (80.000000 80.000000, 212.001810 441.663548)

LINESTRING (212.001810 441.663548, 320.003291 737.570088)

LINESTRING (80.000000 80.000000, -113.967006 752.589623)

LINESTRING (80.000000 80.000000, -26.681853 449.924292)

LINESTRING (-26.681853 449.924292, -113.967006 752.589623)

LINESTRING (80.000000 80.000000, -492.717534 482.485560)

LINESTRING (80.000000 80.000000, -234.994644 301.367058)

LINESTRING (-234.994644 301.367058, -492.717534 482.485560)

LINESTRING (80.000000 80.000000, -618.991001 117.571014)

LINESTRING (80.000000 80.000000, -304.445050 100.664058)

LINESTRING (-304.445050 100.664058, -618.991001 117.571014)

LINESTRING (80.000000 80.000000, -508.477021 -299.070965)

LINESTRING (80.000000 80.000000, -243.662361 -128.489030)

LINESTRING (-243.662361 -128.489030, -508.477021 -299.070965)

LINESTRING (80.000000 80.000000, -128.460636 -588.239600)

LINESTRING (80.000000 80.000000, -34.653350 -287.531780)

LINESTRING (-34.653350 -287.531780, -128.460636 -588.239600)

LINESTRING (80.000000 80.000000, 305.797354 -582.582489)

LINESTRING (80.000000 80.000000, 204.188545 -284.420369)

LINESTRING (204.188545 -284.420369, 305.797354 -582.582489)

LINESTRING (80.000000 80.000000, 656.736356 -316.705402)

LINESTRING (80.000000 80.000000, 397.204996 -138.187971)

LINESTRING (397.204996 -138.187971, 656.736356 -316.705402)

LINESTRING (779.175037 113.974510, 659.598712 472.511570)

LINESTRING (659.598712 472.511570, 320.003291 737.570088)

LINESTRING (320.003291 737.570088, -113.967006 752.589623)

LINESTRING (-113.967006 752.589623, -492.717534 482.485560)

LINESTRING (-492.717534 482.485560, -618.991001 117.571014)

LINESTRING (-618.991001 117.571014, -508.477021 -299.070965)

LINESTRING (-508.477021 -299.070965, -128.460636 -588.239600)

LINESTRING (-128.460636 -588.239600, 305.797354 -582.582489)

LINESTRING (305.797354 -582.582489, 656.736356 -316.705402)

LINESTRING (656.736356 -316.705402, 779.175037 113.974510)

