LINESTRING (550.000000 400.000000, 521.352549 488.167788)

LINESTRING (521.352549 488.167788, 446.352549 542.658477)

LINESTRING (446.352549 542.658477, 353.647451 542.658477)

LINESTRING (353.647451 542.658477, 278.647451 488.167788)

LINESTRING (278.647451 488.167788, 250.000000 400.000000)

LINESTRING (250.000000 400.000000, 278.647451 311.832212)

LINESTRING (278.647451 311.832212, 353.647451 257.341523)

LINESTRING (353.647451 257.341523, 446.352549 257.341523)

LINESTRING (446.352549 257.341523, 521.352549 311.832212)

LINESTRING (521.352549 311.832212, 550.000000 400.000000)

LINESTRING (700.000000 400.000000, 642.705098 576.335576)

LINESTRING (642.705098 576.335576, 492.705098 685.316955)

LINESTRING (492.705098 685.316955, 307.294902 685.316955)

LINESTRING (307.294902 685.316955, 157.294902 576.335576)

LINESTRING (157.294902 576.335576, 100.000000 400.000000)

LINESTRING (100.000000 400.000000, 157.294902 223.664424)

LINESTRING (157.294902 223.664424, 307.294902 114.683045)

LINESTRING (307.294902 114.683045, 492.705098 114.683045)

LINESTRING (492.705098 114.683045, 642.705098 223.664424)

LINESTRING (642.705098 223.664424, 700.000000 400.000000)

LINESTRING (850.000000 400.000000, 764.057647 664.503364)

LINESTRING (764.057647 664.503364, 539.057647 827.975432)

LINESTRING (539.057647 827.975432, 260.942353 827.975432)

LINESTRING (260.942353 827.975432, 35.942353 664.503364)

LINESTRING (35.942353 664.503364, -50.000000 400.000000)

LINESTRING (-50.000000 400.000000, 35.942353 135.496636)

LINESTRING (35.942353 135.496636, 260.942353 -27.975432)

LINESTRING (260.942353 -27.975432, 539.057647 -27.975432)

LINESTRING (539.057647 -27.975432, 764.057647 135.496636)

LINESTRING (764.057647 135.496636, 850.000000 400.000000)

LINESTRING (1000.000000 400.000000, 885.410197 752.671151)

LINESTRING (885.410197 752.671151, 585.410197 970.633910)

LINESTRING (585.410197 970.633910, 214.589803 970.633910)

LINESTRING (214.589803 970.633910, -85.410197 752.671151)

LINESTRING (-85.410197 752.671151, -200.000000 400.000000)

LINESTRING (-200.000000 400.000000, -85.410197 47.328849)

LINESTRING (-85.410197 47.328849, 214.589803 -170.633910)

LINESTRING (214.589803 -170.633910, 585.410197 -170.633910)

LINESTRING (585.410197 -170.633910, 885.410197 47.328849)

LINESTRING (885.410197 47.328849, 1000.000000 400.000000)

LINESTRING (1150.000000 400.000000, 1006.762746 840.838939)

LINESTRING (1006.762746 840.838939, 631.762746 1113.292387)

LINESTRING (631.762746 1113.292387, 168.237254 1113.292387)

LINESTRING (168.237254 1113.292387, -206.762746 840.838939)

LINESTRING (-206.762746 840.838939, -350.000000 400.000000)

LINESTRING (-350.000000 400.000000, -206.762746 -40.838939)

LINESTRING (-206.762746 -40.838939, 168.237254 -313.292387)

LINESTRING (168.237254 -313.292387, 631.762746 -313.292387)

LINESTRING (631.762746 -313.292387, 1006.762746 -40.838939)

LINESTRING (1006.762746 -40.838939, 1150.000000 400.000000)

LINESTRING (550.000000 400.000000, 700.000000 400.000000)

LINESTRING (700.000000 400.000000, 850.000000 400.000000)

LINESTRING (850.000000 400.000000, 1000.000000 400.000000)

LINESTRING (1000.000000 400.000000, 1150.000000 400.000000)

LINESTRING (521.352549 488.167788, 642.705098 576.335576)

LINESTRING (642.705098 576.335576, 764.057647 664.503364)

LINESTRING (764.057647 664.503364, 885.410197 752.671151)

LINESTRING (885.410197 752.671151, 1006.762746 840.838939)

LINESTRING (446.352549 542.658477, 492.705098 685.316955)

LINESTRING (492.705098 685.316955, 539.057647 827.975432)

LINESTRING (539.057647 827.975432, 585.410197 970.633910)

LINESTRING (585.410197 970.633910, 631.762746 1113.292387)

LINESTRING (353.647451 542.658477, 307.294902 685.316955)

LINESTRING (307.294902 685.316955, 260.942353 827.975432)

LINESTRING (260.942353 827.975432, 214.589803 970.633910)

LINESTRING (214.589803 970.633910, 168.237254 1113.292387)

LINESTRING (278.647451 488.167788, 157.294902 576.335576)

LINESTRING (157.294902 576.335576, 35.942353 664.503364)

LINESTRING (35.942353 664.503364, -85.410197 752.671151)

LINESTRING (-85.410197 752.671151, -206.762746 840.838939)

LINESTRING (250.000000 400.000000, 100.000000 400.000000)

LINESTRING (100.000000 400.000000, -50.000000 400.000000)

LINESTRING (-50.000000 400.000000, -200.000000 400.000000)

LINESTRING (-200.000000 400.000000, -350.000000 400.000000)

LINESTRING (278.647451 311.832212, 157.294902 223.664424)

LINESTRING (157.294902 223.664424, 35.942353 135.496636)

LINESTRING (35.942353 135.496636, -85.410197 47.328849)

LINESTRING (-85.410197 47.328849, -206.762746 -40.838939)

LINESTRING (353.647451 257.341523, 307.294902 114.683045)

LINESTRING (307.294902 114.683045, 260.942353 -27.975432)

LINESTRING (260.942353 -27.975432, 214.589803 -170.633910)

LINESTRING (214.589803 -170.633910, 168.237254 -313.292387)

LINESTRING (446.352549 257.341523, 492.705098 114.683045)

LINESTRING (492.705098 114.683045, 539.057647 -27.975432)

LINESTRING (539.057647 -27.975432, 585.410197 -170.633910)

LINESTRING (585.410197 -170.633910, 631.762746 -313.292387)

LINESTRING (521.352549 311.832212, 642.705098 223.664424)

LINESTRING (642.705098 223.664424, 764.057647 135.496636)

LINESTRING (764.057647 135.496636, 885.410197 47.328849)

LINESTRING (885.410197 47.328849, 1006.762746 -40.838939)

LINESTRING (400.000000 400.000000, 550.000000 400.000000)

