LINESTRING (4338.090283 6769.372416, 4614.937966 7342.640452)

LINESTRING (4338.090283 6769.372416, 3620.273501 6609.112334)

LINESTRING (986.281107 7752.655308, 2319.647432 6837.459874)

LINESTRING (986.281107 7752.655308, 855.230328 5987.479761)

LINESTRING (3230.299288 3867.623125, 2574.029568 4767.089364)

LINESTRING (3230.299288 3867.623125, 2521.040703 4070.948721)

LINESTRING (3230.299288 3867.623125, 1383.315912 4060.253306)

LINESTRING (3230.299288 3867.623125, 4964.316057 5064.896431)

LINESTRING (3230.299288 3867.623125, 4610.735370 5208.747461)

LINESTRING (7347.924891 3890.196054, 7126.093648 3533.540754)

LINESTRING (7347.924891 3890.196054, 6864.053353 4301.496306)

LINESTRING (6662.561737 6844.719122, 6026.651289 6944.226884)

LINESTRING (5501.638624 3021.397140, 4964.316057 5064.896431)

LINESTRING (5501.638624 3021.397140, 6225.431142 3013.395085)

LINESTRING (6026.651289 6944.226884, 4614.937966 7342.640452)

LINESTRING (3209.825212 4879.406121, 2574.029568 4767.089364)

LINESTRING (3209.825212 4879.406121, 2635.517697 6168.591436)

LINESTRING (3209.825212 4879.406121, 2319.647432 6837.459874)

LINESTRING (641.392464 956.160072, 397.435218 1035.678521)

LINESTRING (2574.029568 4767.089364, 2521.040703 4070.948721)

LINESTRING (2574.029568 4767.089364, 3964.155594 4291.889885)

LINESTRING (2574.029568 4767.089364, 1962.353413 3601.378643)

LINESTRING (7294.032174 6118.925434, 6864.053353 4301.496306)

LINESTRING (2635.517697 6168.591436, 2319.647432 6837.459874)

LINESTRING (2635.517697 6168.591436, 855.230328 5987.479761)

LINESTRING (2635.517697 6168.591436, 1292.132501 6936.384922)

LINESTRING (2521.040703 4070.948721, 1962.353413 3601.378643)

LINESTRING (2521.040703 4070.948721, 4096.328621 2979.993076)

LINESTRING (4462.976096 4281.765680, 3964.155594 4291.889885)

LINESTRING (4462.976096 4281.765680, 4096.328621 2979.993076)

LINESTRING (1383.315912 4060.253306, 1962.353413 3601.378643)

LINESTRING (1383.315912 4060.253306, 2006.664292 2613.459470)

LINESTRING (2621.003186 2402.154640, 1962.353413 3601.378643)

LINESTRING (2621.003186 2402.154640, 2006.664292 2613.459470)

LINESTRING (2621.003186 2402.154640, 1108.663488 2355.951803)

LINESTRING (5615.705946 1651.463842, 6225.431142 3013.395085)

LINESTRING (5615.705946 1651.463842, 5121.582935 931.716853)

LINESTRING (5337.106665 4105.735166, 4610.735370 5208.747461)

LINESTRING (5337.106665 4105.735166, 4096.328621 2979.993076)

LINESTRING (4964.316057 5064.896431, 4610.735370 5208.747461)

LINESTRING (4964.316057 5064.896431, 6864.053353 4301.496306)

LINESTRING (1962.353413 3601.378643, 2006.664292 2613.459470)

LINESTRING (4610.735370 5208.747461, 4096.328621 2979.993076)

LINESTRING (2006.664292 2613.459470, 3913.128737 1933.751266)

LINESTRING (6225.431142 3013.395085, 6864.053353 4301.496306)

LINESTRING (3913.128737 1933.751266, 4096.328621 2979.993076)

LINESTRING (3913.128737 1933.751266, 5121.582935 931.716853)

LINESTRING (1108.663488 2355.951803, 1200.340190 3010.510446)

LINESTRING (1795.271596 820.515084, 1200.340190 3010.510446)

LINESTRING (936.623212 6666.411426, 855.230328 5987.479761)

LINESTRING (936.623212 6666.411426, 1292.132501 6936.384922)

LINESTRING (7126.093648 3533.540754, 6864.053353 4301.496306)

