LINESTRING (1955.286648 6222.344939, 1193.034922 4320.832442)

LINESTRING (1955.286648 6222.344939, 2077.307916 6243.240804)

LINESTRING (1955.286648 6222.344939, 1843.152803 4191.981283)

LINESTRING (1955.286648 6222.344939, 1466.770699 5799.016914)

LINESTRING (1955.286648 6222.344939, 1172.926736 6334.177776)

LINESTRING (3331.993907 3582.773203, 4895.381401 2810.106062)

LINESTRING (3331.993907 3582.773203, 1110.654151 2818.712002)

LINESTRING (3331.993907 3582.773203, 1303.796459 2767.874361)

LINESTRING (3331.993907 3582.773203, 1843.152803 4191.981283)

LINESTRING (3331.993907 3582.773203, 2088.248941 1960.167265)

LINESTRING (3331.993907 3582.773203, 2419.121894 4340.471937)

LINESTRING (3331.993907 3582.773203, 1447.630794 3684.959808)

LINESTRING (3572.752609 850.506884, 5449.768505 967.874071)

LINESTRING (3572.752609 850.506884, 4280.289299 2503.130774)

LINESTRING (3572.752609 850.506884, 2088.248941 1960.167265)

LINESTRING (3572.752609 850.506884, 3640.932278 2188.500089)

LINESTRING (6704.827319 5477.793799, 6766.447747 5749.139622)

LINESTRING (6704.827319 5477.793799, 6753.285697 5000.194654)

LINESTRING (283.369108 3475.521398, 1917.959449 4213.616539)

LINESTRING (283.369108 3475.521398, 817.475595 3093.950464)

LINESTRING (283.369108 3475.521398, 1843.152803 4191.981283)

LINESTRING (283.369108 3475.521398, 776.122332 4011.407550)

LINESTRING (6251.069185 2943.047920, 6753.285697 5000.194654)

LINESTRING (5449.768505 967.874071, 4895.381401 2810.106062)

LINESTRING (5449.768505 967.874071, 4280.289299 2503.130774)

LINESTRING (6766.447747 5749.139622, 6753.285697 5000.194654)

LINESTRING (4895.381401 2810.106062, 4280.289299 2503.130774)

LINESTRING (1110.654151 2818.712002, 1917.959449 4213.616539)

LINESTRING (1110.654151 2818.712002, 1193.034922 4320.832442)

LINESTRING (1110.654151 2818.712002, 817.475595 3093.950464)

LINESTRING (1110.654151 2818.712002, 1303.796459 2767.874361)

LINESTRING (1110.654151 2818.712002, 2419.121894 4340.471937)

LINESTRING (1917.959449 4213.616539, 1193.034922 4320.832442)

LINESTRING (1917.959449 4213.616539, 2077.307916 6243.240804)

LINESTRING (1917.959449 4213.616539, 1843.152803 4191.981283)

LINESTRING (1917.959449 4213.616539, 776.122332 4011.407550)

LINESTRING (1917.959449 4213.616539, 2088.248941 1960.167265)

LINESTRING (1917.959449 4213.616539, 2419.121894 4340.471937)

LINESTRING (1917.959449 4213.616539, 1466.770699 5799.016914)

LINESTRING (1917.959449 4213.616539, 1447.630794 3684.959808)

LINESTRING (3184.015596 5880.537407, 1843.152803 4191.981283)

LINESTRING (3184.015596 5880.537407, 3422.580146 5823.434521)

LINESTRING (1193.034922 4320.832442, 817.475595 3093.950464)

LINESTRING (1193.034922 4320.832442, 2077.307916 6243.240804)

LINESTRING (1193.034922 4320.832442, 1843.152803 4191.981283)

LINESTRING (1193.034922 4320.832442, 776.122332 4011.407550)

LINESTRING (1193.034922 4320.832442, 2419.121894 4340.471937)

LINESTRING (1193.034922 4320.832442, 820.189056 4202.956053)

LINESTRING (1193.034922 4320.832442, 1447.630794 3684.959808)

LINESTRING (817.475595 3093.950464, 1303.796459 2767.874361)

LINESTRING (817.475595 3093.950464, 2419.121894 4340.471937)

LINESTRING (817.475595 3093.950464, 820.189056 4202.956053)

LINESTRING (817.475595 3093.950464, 1447.630794 3684.959808)

LINESTRING (4280.289299 2503.130774, 2088.248941 1960.167265)

LINESTRING (4280.289299 2503.130774, 3640.932278 2188.500089)

LINESTRING (1303.796459 2767.874361, 1843.152803 4191.981283)

LINESTRING (1303.796459 2767.874361, 776.122332 4011.407550)

LINESTRING (1303.796459 2767.874361, 820.189056 4202.956053)

LINESTRING (1303.796459 2767.874361, 1447.630794 3684.959808)

LINESTRING (2077.307916 6243.240804, 1843.152803 4191.981283)

LINESTRING (2077.307916 6243.240804, 1466.770699 5799.016914)

LINESTRING (2077.307916 6243.240804, 225.659765 6541.527351)

LINESTRING (2077.307916 6243.240804, 3422.580146 5823.434521)

LINESTRING (2077.307916 6243.240804, 1172.926736 6334.177776)

LINESTRING (2077.307916 6243.240804, 820.189056 4202.956053)

LINESTRING (1843.152803 4191.981283, 2419.121894 4340.471937)

LINESTRING (1843.152803 4191.981283, 1172.926736 6334.177776)

LINESTRING (1843.152803 4191.981283, 1447.630794 3684.959808)

LINESTRING (776.122332 4011.407550, 1466.770699 5799.016914)

LINESTRING (776.122332 4011.407550, 820.189056 4202.956053)

LINESTRING (776.122332 4011.407550, 1447.630794 3684.959808)

LINESTRING (2419.121894 4340.471937, 1466.770699 5799.016914)

LINESTRING (1466.770699 5799.016914, 1172.926736 6334.177776)

LINESTRING (1172.926736 6334.177776, 820.189056 4202.956053)

