LINESTRING (545088.698497 258462.151466, 545083.980610 258468.903227, 545082.677355 258480.017978, 545077.779688 258521.881648, 545075.946450 258553.672746)

LINESTRING (545088.698497 258462.151466, 545081.278846 258465.184422, 545075.518246 258467.375499)

LINESTRING (545075.946450 258553.672746, 545066.489713 258591.729865)

LINESTRING (545075.946450 258553.672746, 545081.658451 258552.904974, 545084.982319 258552.423480, 545087.410814 258551.225677, 545098.403887 258541.752531)

LINESTRING (545075.518246 258467.375499, 545072.122334 258449.522733)

LINESTRING (545075.518246 258467.375499, 545061.230807 258473.045778)

LINESTRING (545075.518246 258467.375499, 545081.278846 258465.184422, 545088.698497 258462.151466)

LINESTRING (545061.230807 258473.045778, 544990.330475 258445.893894)

LINESTRING (545061.230807 258473.045778, 545075.518246 258467.375499)

LINESTRING (545061.230807 258473.045778, 545047.756783 258481.767434, 545036.365738 258496.193309, 545023.383041 258522.716157)

LINESTRING (544990.330475 258445.893894, 545061.230807 258473.045778)

LINESTRING (544990.330475 258445.893894, 544936.949939 258432.300434)

LINESTRING (544990.330475 258445.893894, 544991.805020 258443.176633, 545013.209205 258397.376963, 545021.106882 258390.161641)

LINESTRING (545023.383041 258522.716157, 545012.777875 258545.346091)

LINESTRING (545023.383041 258522.716157, 544974.646946 258504.906071)

LINESTRING (545023.383041 258522.716157, 545036.365738 258496.193309, 545047.756783 258481.767434, 545061.230807 258473.045778)

LINESTRING (545003.961300 258556.396861, 545005.206115 258559.427421, 545003.108525 258569.650756)

LINESTRING (545003.108525 258569.650756, 544994.318047 258594.070193)

LINESTRING (545003.108525 258569.650756, 545027.234663 258578.982911, 545052.574293 258588.206004, 545066.489713 258591.729865)

LINESTRING (544962.970081 258647.648761, 544898.389283 258606.502523)

LINESTRING (544962.970081 258647.648761, 544926.413336 258705.393863)

LINESTRING (544898.389283 258606.502523, 544887.144562 258599.339584)

LINESTRING (544898.389283 258606.502523, 544896.966244 258609.566363, 544891.273403 258619.272793)

LINESTRING (544926.413336 258705.393863, 544914.015361 258731.132648)

LINESTRING (544926.413336 258705.393863, 544898.590531 258684.990431, 544900.954130 258681.564520)

LINESTRING (544854.194877 258802.512017, 544848.382764 258794.316960, 544844.654833 258788.275382)

LINESTRING (544854.194877 258802.512017, 544852.588396 258804.602140, 544851.415636 258808.229837)

LINESTRING (544844.654833 258788.275382, 544832.719498 258793.759008)

LINESTRING (544844.654833 258788.275382, 544848.382764 258794.316960, 544854.194877 258802.512017)

LINESTRING (544844.654833 258788.275382, 544842.215955 258784.219340, 544838.617149 258777.502573, 544830.597669 258763.410586, 544825.492546 258748.335239, 544820.984357 258732.019583, 544819.910846 258726.166901)

LINESTRING (544851.415636 258808.229837, 544854.760540 258811.232697, 544861.171805 258815.538427, 544869.037372 258821.790015)

LINESTRING (544851.415636 258808.229837, 544850.123756 258810.084283, 544839.640003 258822.522433, 544827.387184 258837.468947)

LINESTRING (544851.415636 258808.229837, 544852.588396 258804.602140, 544854.194877 258802.512017)

LINESTRING (544818.926492 258720.773179, 544818.929124 258702.430001)

LINESTRING (544818.926492 258720.773179, 544820.528480 258720.241199, 544847.789993 258711.421039, 544860.095692 258702.397597)

LINESTRING (544818.929124 258702.430001, 544819.568935 258698.085495)

LINESTRING (544818.929124 258702.430001, 544810.962970 258701.952356, 544799.356170 258701.334962, 544758.180767 258721.102183)

LINESTRING (544860.095692 258702.397597, 544877.081550 258721.582424, 544900.391003 258740.351145, 544901.670931 258741.479369)

LINESTRING (544860.095692 258702.397597, 544847.789993 258711.421039, 544820.528480 258720.241199, 544818.926492 258720.773179)

LINESTRING (544860.095692 258702.397597, 544852.996682 258693.307870, 544847.496219 258688.950864, 544824.058831 258681.331552, 544822.751564 258680.903780)

LINESTRING (544840.301166 258584.168437, 544836.711268 258566.376979)

LINESTRING (544836.711268 258566.376979, 544835.492958 258561.032073)

LINESTRING (544836.711268 258566.376979, 544857.002717 258563.964735, 544863.757770 258563.772600, 544871.519466 258563.064497, 544876.132658 258561.284878, 544879.933038 258556.431712, 544884.437374 258546.211908, 544901.984672 258501.768314)

LINESTRING (544818.661896 258481.056547, 544818.046030 258490.900274)

LINESTRING (544818.661896 258481.056547, 544828.031866 258477.267661)

LINESTRING (544818.661896 258481.056547, 544816.582873 258473.571683, 544816.437692 258471.753152, 544816.582633 258467.260620, 544817.278389 258445.086511)

LINESTRING (544818.661896 258481.056547, 544823.567985 258488.679670, 544825.063776 258491.550553)

LINESTRING (544818.046030 258490.900274, 544818.661896 258481.056547)

LINESTRING (544818.046030 258490.900274, 544825.063776 258491.550553)

LINESTRING (544818.046030 258490.900274, 544817.830390 258492.897483, 544816.552739 258494.028866)

LINESTRING (544818.046030 258490.900274, 544809.921113 258491.163759, 544772.814807 258488.154165)

LINESTRING (544828.031866 258477.267661, 544858.096401 258479.515322)

LINESTRING (544828.031866 258477.267661, 544818.661896 258481.056547)

LINESTRING (544817.278389 258445.086511, 544815.555753 258432.658940)

LINESTRING (544817.278389 258445.086511, 544816.582633 258467.260620, 544816.437692 258471.753152, 544816.582873 258473.571683, 544818.661896 258481.056547)

LINESTRING (544817.278389 258445.086511, 544811.322238 258444.378217, 544808.734924 258443.990968)

LINESTRING (544825.063776 258491.550553, 544818.046030 258490.900274)

LINESTRING (544825.063776 258491.550553, 544825.169590 258493.546024)

LINESTRING (544825.063776 258491.550553, 544823.567985 258488.679670, 544818.661896 258481.056547)

LINESTRING (545199.271244 258695.538025, 545186.372175 258694.214025)

LINESTRING (545199.271244 258695.538025, 545199.429491 258700.173014, 545201.277097 258716.466772)

LINESTRING (545186.372175 258694.214025, 545199.271244 258695.538025)

LINESTRING (545186.372175 258694.214025, 545179.110081 258693.511538)

LINESTRING (545186.372175 258694.214025, 545186.272491 258705.553241)

LINESTRING (545201.277097 258716.466772, 545203.781023 258730.197449)

LINESTRING (545201.277097 258716.466772, 545199.429491 258700.173014, 545199.271244 258695.538025)

LINESTRING (545201.277097 258716.466772, 545190.345632 258718.940307, 545131.992358 258726.758968, 545126.413960 258726.706918)

LINESTRING (544809.814787 258860.596877, 544818.460258 258849.051054)

LINESTRING (544818.460258 258849.051054, 544827.387184 258837.468947)

LINESTRING (544818.460258 258849.051054, 544809.814787 258860.596877)

LINESTRING (545103.880888 258693.356422, 545105.744182 258692.542786, 545125.860534 258692.130049)

LINESTRING (545103.880888 258693.356422, 545101.712382 258695.719413, 545100.278487 258699.383936, 545099.156485 258708.277864, 545099.396525 258725.537393)

LINESTRING (545103.880888 258693.356422, 545100.656424 258690.212219, 545098.087804 258689.658399, 545095.231528 258691.222111)

LINESTRING (545125.860534 258692.130049, 545153.007988 258692.602287, 545159.248185 258692.707140, 545171.667412 258692.903949, 545176.265235 258693.283505, 545179.110081 258693.511538)

LINESTRING (545125.860534 258692.130049, 545105.744182 258692.542786, 545103.880888 258693.356422)

LINESTRING (545125.860534 258692.130049, 545125.868211 258685.095704, 545125.677519 258674.560528, 545124.684606 258672.505675)

LINESTRING (545099.396525 258725.537393, 545099.314175 258727.182317)

LINESTRING (545099.396525 258725.537393, 545096.331818 258722.776311, 545096.265489 258706.122924, 545096.115011 258698.883599, 545091.920784 258690.791266)

LINESTRING (545095.231528 258691.222111, 545103.880888 258693.356422)

LINESTRING (545095.231528 258691.222111, 545098.087804 258689.658399, 545100.656424 258690.212219, 545103.880888 258693.356422)

LINESTRING (545090.554246 258829.728500, 545110.389683 258826.046222, 545113.567625 258825.404653, 545133.521534 258821.414277)

LINESTRING (545090.554246 258829.728500, 545076.394763 258831.295229, 545054.944754 258832.670862, 545043.567309 258831.703414, 545030.930812 258829.129725, 545017.683667 258823.121093, 545005.725825 258815.580804, 544986.120160 258799.958568)

LINESTRING (545133.521534 258821.414277, 545130.697197 258801.808404)

LINESTRING (545133.521534 258821.414277, 545167.495883 258813.371258, 545172.977287 258812.062578)

LINESTRING (545133.521534 258821.414277, 545113.567625 258825.404653, 545110.389683 258826.046222, 545090.554246 258829.728500)

LINESTRING (544986.120160 258799.958568, 544963.181731 258835.851675, 544950.454234 258854.857827, 544945.929807 258862.962163, 544941.732361 258871.576944)

LINESTRING (544986.120160 258799.958568, 544973.104846 258788.358136, 544956.802182 258772.721343, 544934.508122 258749.641088, 544927.440243 258742.065919, 544920.687936 258735.156696, 544917.278926 258732.474707, 544914.015361 258731.132648)

LINESTRING (544986.120160 258799.958568, 545005.725825 258815.580804, 545017.683667 258823.121093, 545030.930812 258829.129725, 545043.567309 258831.703414, 545054.944754 258832.670862, 545076.394763 258831.295229, 545090.554246 258829.728500)

LINESTRING (544941.732361 258871.576944, 544945.929807 258862.962163, 544950.454234 258854.857827, 544963.181731 258835.851675, 544986.120160 258799.958568)

LINESTRING (544914.015361 258731.132648, 544917.278926 258732.474707, 544920.687936 258735.156696, 544927.440243 258742.065919, 544934.508122 258749.641088, 544956.802182 258772.721343, 544973.104846 258788.358136, 544986.120160 258799.958568)

LINESTRING (544914.015361 258731.132648, 544910.832502 258731.239932, 544908.113942 258733.241870, 544901.670931 258741.479369)

LINESTRING (544901.670931 258741.479369, 544869.745137 258784.712337)

LINESTRING (544901.670931 258741.479369, 544900.391003 258740.351145, 544877.081550 258721.582424, 544860.095692 258702.397597)

LINESTRING (544713.568817 258573.331707, 544732.901533 258574.708763)

LINESTRING (544732.901533 258574.708763, 544713.568817 258573.331707)

LINESTRING (544732.901533 258574.708763, 544749.535051 258575.316965, 544775.478536 258573.948784, 544786.759201 258572.163499, 544835.492958 258561.032073)

LINESTRING (544732.901533 258574.708763, 544733.015561 258577.594920, 544733.143252 258586.569916, 544733.164736 258586.770894, 544733.469748 258589.673758)

LINESTRING (545124.693233 258420.218731, 545118.109211 258430.210493)

LINESTRING (545124.693233 258420.218731, 545132.050596 258426.789757, 545165.498793 258462.252028, 545197.530779 258499.587532)

LINESTRING (545124.693233 258420.218731, 545115.213066 258417.715033, 545110.323500 258415.145399, 545089.734746 258404.792226)

LINESTRING (545118.109211 258430.210493, 545096.017338 258456.722482)

LINESTRING (545118.109211 258430.210493, 545102.862030 258422.874233, 545070.983366 258412.969776)

LINESTRING (545197.530779 258499.587532, 545203.498870 258508.288453)

LINESTRING (545197.530779 258499.587532, 545208.017366 258503.445430)

LINESTRING (545197.530779 258499.587532, 545165.498793 258462.252028, 545132.050596 258426.789757, 545124.693233 258420.218731)

LINESTRING (545089.734746 258404.792226, 545066.446342 258392.979930)

LINESTRING (545089.734746 258404.792226, 545100.506465 258381.866781)

LINESTRING (545089.734746 258404.792226, 545110.323500 258415.145399, 545115.213066 258417.715033, 545124.693233 258420.218731)

LINESTRING (545208.017366 258503.445430, 545197.530779 258499.587532)

LINESTRING (545203.498870 258508.288453, 545197.530779 258499.587532)

LINESTRING (545203.498870 258508.288453, 545201.465310 258509.542294, 545197.352944 258512.660838)

LINESTRING (545197.352944 258512.660838, 545193.164122 258515.821668)

LINESTRING (545197.352944 258512.660838, 545201.465310 258509.542294, 545203.498870 258508.288453)

LINESTRING (545197.352944 258512.660838, 545201.246991 258517.694666, 545203.902400 258522.291505, 545203.157653 258530.205842)

LINESTRING (544869.745137 258784.712337, 544862.984104 258794.476611)

LINESTRING (544869.745137 258784.712337, 544892.398685 258800.412071, 544900.334812 258804.951655, 544911.419701 258818.732700, 544893.586865 258821.049598, 544887.183536 258821.853013, 544879.699213 258828.056579, 544877.124196 258830.296471)

LINESTRING (544923.019950 258870.773688, 544927.357362 258872.803868, 544931.796261 258873.234210, 544941.732361 258871.576944)

LINESTRING (545050.910576 258659.771842, 545035.172219 258639.331753, 545011.699784 258607.668357, 545007.767889 258602.288526, 544999.320057 258596.297959, 544994.318047 258594.070193)

LINESTRING (545050.910576 258659.771842, 545048.676238 258672.796081, 545051.655745 258676.834661, 545062.276062 258682.655171, 545068.911843 258685.832415)

LINESTRING (544994.318047 258594.070193, 544993.725901 258595.377415)

LINESTRING (544994.318047 258594.070193, 544999.320057 258596.297959, 545007.767889 258602.288526, 545011.699784 258607.668357, 545035.172219 258639.331753, 545050.910576 258659.771842)

LINESTRING (545068.911843 258685.832415, 545066.373689 258692.414245)

LINESTRING (545068.911843 258685.832415, 545077.413502 258688.574540, 545091.920784 258690.791266)

LINESTRING (544822.751564 258680.903780, 544825.113238 258670.053657, 544826.021801 258665.872835)

LINESTRING (544822.751564 258680.903780, 544824.058831 258681.331552, 544847.496219 258688.950864, 544852.996682 258693.307870, 544860.095692 258702.397597)

LINESTRING (544825.169590 258493.546024, 544825.063776 258491.550553)

LINESTRING (544901.984672 258501.768314, 544911.077005 258508.178247)

LINESTRING (544901.984672 258501.768314, 544884.437374 258546.211908, 544879.933038 258556.431712, 544876.132658 258561.284878, 544871.519466 258563.064497, 544863.757770 258563.772600, 544857.002717 258563.964735, 544836.711268 258566.376979)

LINESTRING (544911.077005 258508.178247, 544915.025630 258510.887132)

LINESTRING (544911.077005 258508.178247, 544918.967510 258499.793851, 544927.621233 258443.325233, 544926.608288 258438.208920)

LINESTRING (544915.025630 258510.887132, 544936.150179 258525.362454, 544964.098350 258539.169261)

LINESTRING (544915.025630 258510.887132, 544917.795364 258507.372924, 544919.706801 258503.978320, 544920.823710 258500.627269, 544929.678198 258443.841736, 544929.940372 258439.319238, 544930.203868 258436.154716)

LINESTRING (544926.608288 258438.208920, 544930.203868 258436.154716)

LINESTRING (544926.608288 258438.208920, 544922.697044 258436.558531, 544892.273025 258433.031090, 544885.662589 258433.650386)

LINESTRING (544876.558592 258485.419903, 544889.038001 258491.761840, 544901.984672 258501.768314)

LINESTRING (544854.097138 258493.278315, 544858.096401 258479.515322)

LINESTRING (544858.096401 258479.515322, 544854.097138 258493.278315)

LINESTRING (544858.096401 258479.515322, 544867.820571 258481.858701, 544872.348361 258483.705159)

LINESTRING (544993.725901 258595.377415, 544986.533955 258612.608718, 544962.970081 258647.648761)

LINESTRING (544993.725901 258595.377415, 544988.535833 258593.967820, 544948.061447 258573.806225, 544959.263599 258548.989765, 544961.263218 258544.918786, 544964.098350 258539.169261)

LINESTRING (544964.098350 258539.169261, 544981.702897 258547.965390, 544993.225790 258551.229830)

LINESTRING (544964.098350 258539.169261, 544961.263218 258544.918786, 544959.263599 258548.989765, 544948.061447 258573.806225, 544988.535833 258593.967820, 544993.725901 258595.377415)

LINESTRING (544993.225790 258551.229830, 545006.000329 258548.175326, 545009.532095 258547.132202, 545012.777875 258545.346091)

LINESTRING (544993.225790 258551.229830, 545000.103859 258553.612654, 545003.961300 258556.396861)

LINESTRING (545012.777875 258545.346091, 545003.961300 258556.396861)

LINESTRING (545012.777875 258545.346091, 545023.383041 258522.716157)

LINESTRING (544930.203868 258436.154716, 544936.949939 258432.300434)

LINESTRING (544930.203868 258436.154716, 544926.608288 258438.208920)

LINESTRING (544930.203868 258436.154716, 544930.183344 258434.517914, 544929.674451 258433.211882, 544928.834338 258432.007470, 544927.583292 258431.058178)

LINESTRING (544930.203868 258436.154716, 544929.940372 258439.319238, 544929.678198 258443.841736, 544920.823710 258500.627269, 544919.706801 258503.978320, 544917.795364 258507.372924, 544915.025630 258510.887132)

LINESTRING (544885.662589 258433.650386, 544884.467646 258425.634803)

LINESTRING (544885.662589 258433.650386, 544882.828711 258435.849324, 544880.320589 258440.473129)

LINESTRING (544884.467646 258425.634803, 544885.662589 258433.650386)

LINESTRING (544884.467646 258425.634803, 544883.995405 258420.267172, 544885.192648 258403.172149)

LINESTRING (544884.467646 258425.634803, 544887.664364 258425.527898, 544908.059669 258428.472699)

LINESTRING (544884.467646 258425.634803, 544883.360786 258427.004905, 544882.224344 258429.387030, 544880.486036 258434.111252, 544878.493335 258440.286150)

LINESTRING (544880.320589 258440.473129, 544878.493335 258440.286150)

LINESTRING (544880.320589 258440.473129, 544875.352987 258480.108750, 544876.558592 258485.419903)

LINESTRING (544878.493335 258440.286150, 544880.320589 258440.473129)

LINESTRING (544878.493335 258440.286150, 544840.019423 258435.622155)

LINESTRING (544878.493335 258440.286150, 544880.486036 258434.111252, 544882.224344 258429.387030, 544883.360786 258427.004905, 544884.467646 258425.634803)

LINESTRING (544878.493335 258440.286150, 544873.666319 258480.493542, 544872.348361 258483.705159)

LINESTRING (544815.555753 258432.658940, 544808.093361 258373.493208)

LINESTRING (544815.555753 258432.658940, 544817.278389 258445.086511)

LINESTRING (544815.555753 258432.658940, 544840.019423 258435.622155)

LINESTRING (544808.093361 258373.493208, 544815.555753 258432.658940)

LINESTRING (544808.093361 258373.493208, 544826.329656 258373.569671, 544847.890940 258374.767384)

LINESTRING (544840.019423 258435.622155, 544878.493335 258440.286150)

LINESTRING (544840.019423 258435.622155, 544815.555753 258432.658940)

LINESTRING (544840.019423 258435.622155, 544839.883245 258440.048160, 544839.570456 258446.305554)

LINESTRING (544847.890940 258374.767384, 544888.065971 258377.165975)

LINESTRING (544847.890940 258374.767384, 544826.329656 258373.569671, 544808.093361 258373.493208)

LINESTRING (544847.890940 258374.767384, 544849.469558 258392.355363, 544850.329674 258397.556234, 544885.192648 258403.172149)

LINESTRING (544885.192648 258403.172149, 544887.862980 258378.729459)

LINESTRING (544885.192648 258403.172149, 544850.329674 258397.556234, 544849.469558 258392.355363, 544847.890940 258374.767384)

LINESTRING (544885.192648 258403.172149, 544883.995405 258420.267172, 544884.467646 258425.634803)

LINESTRING (544887.862980 258378.729459, 544888.065971 258377.165975)

LINESTRING (544887.862980 258378.729459, 544885.192648 258403.172149)

LINESTRING (544887.862980 258378.729459, 544897.041662 258379.621090)

LINESTRING (544888.065971 258377.165975, 544847.890940 258374.767384)

LINESTRING (544888.065971 258377.165975, 544887.862980 258378.729459)

LINESTRING (544936.949939 258432.300434, 544930.203868 258436.154716)

LINESTRING (544936.949939 258432.300434, 544990.330475 258445.893894)

LINESTRING (544936.949939 258432.300434, 544927.583292 258431.058178)

LINESTRING (544936.949939 258432.300434, 544941.695508 258416.411110, 544943.545501 258413.248460)

LINESTRING (544927.583292 258431.058178, 544936.949939 258432.300434)

LINESTRING (544927.583292 258431.058178, 544908.059669 258428.472699)

LINESTRING (544927.583292 258431.058178, 544928.834338 258432.007470, 544929.674451 258433.211882, 544930.183344 258434.517914, 544930.203868 258436.154716)

LINESTRING (544943.545501 258413.248460, 544955.179036 258387.721106)

LINESTRING (544943.545501 258413.248460, 544940.734314 258412.097712)

LINESTRING (544943.545501 258413.248460, 544941.695508 258416.411110, 544936.949939 258432.300434)

LINESTRING (545070.983366 258412.969776, 545069.269284 258416.859853, 545067.848365 258420.313284, 545068.057878 258422.267278)

LINESTRING (545070.983366 258412.969776, 545068.550277 258412.219594, 545053.138012 258404.912053, 545024.500148 258391.752430)

LINESTRING (545070.983366 258412.969776, 545102.862030 258422.874233, 545118.109211 258430.210493)

LINESTRING (545068.057878 258422.267278, 545069.545933 258436.379956)

LINESTRING (545068.057878 258422.267278, 545075.187605 258424.935830)

LINESTRING (545068.057878 258422.267278, 545067.848365 258420.313284, 545069.269284 258416.859853, 545070.983366 258412.969776)

LINESTRING (545024.500148 258391.752430, 545021.106882 258390.161641)

LINESTRING (545024.500148 258391.752430, 545023.768710 258395.482051, 545019.632287 258404.098569)

LINESTRING (545024.500148 258391.752430, 545053.138012 258404.912053, 545068.550277 258412.219594, 545070.983366 258412.969776)

LINESTRING (545024.500148 258391.752430, 545021.823335 258394.423374, 545017.468267 258403.033497)

LINESTRING (545021.106882 258390.161641, 545024.500148 258391.752430)

LINESTRING (545021.106882 258390.161641, 545013.209205 258397.376963, 544991.805020 258443.176633, 544990.330475 258445.893894)

LINESTRING (544955.179036 258387.721106, 544943.545501 258413.248460)

LINESTRING (544835.492958 258561.032073, 544786.759201 258572.163499, 544775.478536 258573.948784, 544749.535051 258575.316965, 544732.901533 258574.708763)

LINESTRING (544835.492958 258561.032073, 544833.598038 258550.057565, 544829.263287 258521.481047)

LINESTRING (544829.263287 258521.481047, 544825.169590 258493.546024)

LINESTRING (544829.263287 258521.481047, 544825.602670 258521.552170)

LINESTRING (544829.263287 258521.481047, 544835.004562 258520.880805)

LINESTRING (544819.568935 258698.085495, 544820.835918 258690.765181, 544822.751564 258680.903780)

LINESTRING (544819.568935 258698.085495, 544823.757801 258698.419382, 544827.140128 258698.740833)

LINESTRING (544758.180767 258721.102183, 544799.356170 258701.334962, 544810.962970 258701.952356, 544818.929124 258702.430001)

LINESTRING (544837.303545 258631.519520, 544840.196311 258622.855394, 544842.210215 258611.271625, 544842.210873 258600.953563, 544841.924076 258595.791706, 544841.154780 258590.760446, 544840.301166 258584.168437)

LINESTRING (544837.303545 258631.519520, 544842.036177 258633.371944, 544850.425798 258636.444314, 544872.833355 258646.081672)

LINESTRING (544872.833355 258646.081672, 544850.425798 258636.444314, 544842.036177 258633.371944, 544837.303545 258631.519520)

LINESTRING (545099.314175 258727.182317, 545099.028714 258732.961896, 545090.554246 258829.728500)

LINESTRING (545099.314175 258727.182317, 545094.024017 258728.029194, 545078.734935 258731.265848)

LINESTRING (545091.920784 258690.791266, 545095.231528 258691.222111)

LINESTRING (544738.649099 258659.825393, 544736.053174 258616.651875)

LINESTRING (544738.649099 258659.825393, 544739.970814 258682.002770)

LINESTRING (544738.649099 258659.825393, 544711.590444 258660.994224)

LINESTRING (544738.649099 258659.825393, 544784.600210 258658.473967)

LINESTRING (544736.053174 258616.651875, 544783.316823 258615.093876)

LINESTRING (544736.053174 258616.651875, 544733.469748 258589.673758)

LINESTRING (544736.053174 258616.651875, 544738.649099 258659.825393)

LINESTRING (544739.970814 258682.002770, 544738.649099 258659.825393)

LINESTRING (544739.970814 258682.002770, 544714.701297 258687.709465, 544711.590444 258660.994224)

LINESTRING (544739.970814 258682.002770, 544747.730675 258681.350083, 544755.973047 258681.034289)

LINESTRING (544711.590444 258660.994224, 544711.185587 258653.079674)

LINESTRING (544711.590444 258660.994224, 544738.649099 258659.825393)

LINESTRING (544711.590444 258660.994224, 544714.701297 258687.709465, 544739.970814 258682.002770)

LINESTRING (544784.600210 258658.473967, 544788.157265 258658.433185)

LINESTRING (544784.600210 258658.473967, 544783.316823 258615.093876)

LINESTRING (544784.600210 258658.473967, 544738.649099 258659.825393)

LINESTRING (544784.600210 258658.473967, 544784.601922 258660.522050, 544785.367012 258680.913420, 544755.973047 258681.034289)

LINESTRING (544783.316823 258615.093876, 544736.053174 258616.651875)

LINESTRING (544783.316823 258615.093876, 544784.600210 258658.473967)

LINESTRING (544783.316823 258615.093876, 544782.841282 258602.814052)

LINESTRING (544733.469748 258589.673758, 544736.053174 258616.651875)

LINESTRING (544733.469748 258589.673758, 544733.164736 258586.770894, 544733.143252 258586.569916, 544733.015561 258577.594920, 544732.901533 258574.708763)

LINESTRING (544733.469748 258589.673758, 544782.313271 258588.584838, 544782.841282 258602.814052)

LINESTRING (544775.398706 258520.964757, 544777.249029 258521.063328)

LINESTRING (544775.398706 258520.964757, 544757.862109 258519.896007)

LINESTRING (544775.398706 258520.964757, 544775.345702 258521.608784, 544777.237670 258521.686310)

LINESTRING (544775.398706 258520.964757, 544775.961124 258496.794375, 544759.764615 258495.965118)

LINESTRING (544777.249029 258521.063328, 544775.398706 258520.964757)

LINESTRING (544757.862109 258519.896007, 544759.764615 258495.965118)

LINESTRING (544757.862109 258519.896007, 544757.314214 258526.714196)

LINESTRING (544757.862109 258519.896007, 544775.398706 258520.964757)

LINESTRING (544777.237670 258521.686310, 544775.345702 258521.608784, 544775.398706 258520.964757)

LINESTRING (544759.764615 258495.965118, 544750.387691 258495.546557)

LINESTRING (544759.764615 258495.965118, 544757.862109 258519.896007)

LINESTRING (544759.764615 258495.965118, 544775.961124 258496.794375, 544775.398706 258520.964757)

LINESTRING (544759.764615 258495.965118, 544760.341931 258491.885916, 544759.794952 258490.946101, 544759.287020 258490.074209, 544761.214314 258487.069583)

LINESTRING (544757.314214 258526.714196, 544757.862109 258519.896007)

LINESTRING (544825.602670 258521.552170, 544829.263287 258521.481047)

LINESTRING (544835.004562 258520.880805, 544829.263287 258521.481047)

LINESTRING (544835.004562 258520.880805, 544836.794993 258520.220767, 544839.391366 258520.296641, 544841.307468 258522.122404)

LINESTRING (544835.004562 258520.880805, 544836.037006 258523.226143, 544837.915974 258523.748538, 544839.289317 258523.788672)

LINESTRING (544816.552739 258494.028866, 544817.830390 258492.897483, 544818.046030 258490.900274)

LINESTRING (545066.489713 258591.729865, 545052.574293 258588.206004, 545027.234663 258578.982911, 545003.108525 258569.650756)

LINESTRING (545066.489713 258591.729865, 545064.856341 258598.004260, 545060.828568 258613.191000)

LINESTRING (545060.828568 258613.191000, 545050.910576 258659.771842)

LINESTRING (545060.828568 258613.191000, 545070.308734 258613.579789, 545084.124887 258614.418313)

LINESTRING (544750.387691 258495.546557, 544759.764615 258495.965118)

LINESTRING (544761.214314 258487.069583, 544767.904429 258487.699081)

LINESTRING (544761.214314 258487.069583, 544759.287020 258490.074209, 544759.794952 258490.946101, 544760.341931 258491.885916, 544759.764615 258495.965118)

LINESTRING (544761.214314 258487.069583, 544761.700289 258484.712958, 544761.900338 258483.717046)

LINESTRING (544788.157265 258658.433185, 544784.600210 258658.473967)

LINESTRING (544788.157265 258658.433185, 544788.140265 258656.440309)

LINESTRING (544788.157265 258658.433185, 544788.173290 258660.459424, 544794.550485 258660.556689, 544820.138314 258660.580828, 544826.734904 258663.934685)

LINESTRING (544755.973047 258681.034289, 544756.188620 258685.125519)

LINESTRING (544755.973047 258681.034289, 544747.730675 258681.350083, 544739.970814 258682.002770)

LINESTRING (544755.973047 258681.034289, 544785.367012 258680.913420, 544784.601922 258660.522050, 544784.600210 258658.473967)

LINESTRING (544782.841282 258602.814052, 544783.316823 258615.093876)

LINESTRING (544782.841282 258602.814052, 544782.313271 258588.584838, 544733.469748 258589.673758)

LINESTRING (544782.841282 258602.814052, 544787.959748 258602.696444, 544794.583300 258602.556028, 544794.503462 258599.437125, 544794.478359 258598.189763, 544794.600122 258592.149398, 544803.756898 258591.904913, 544808.152435 258591.721681)

LINESTRING (544711.185587 258653.079674, 544711.590444 258660.994224)

LINESTRING (544767.904429 258487.699081, 544772.814807 258488.154165)

LINESTRING (544767.904429 258487.699081, 544761.214314 258487.069583)

LINESTRING (544767.904429 258487.699081, 544768.044598 258486.412024, 544770.192971 258486.608343)

LINESTRING (544761.900338 258483.717046, 544761.700289 258484.712958, 544761.214314 258487.069583)

LINESTRING (545172.977287 258812.062578, 545181.137602 258809.641401)

LINESTRING (545172.977287 258812.062578, 545167.495883 258813.371258, 545133.521534 258821.414277)

LINESTRING (545172.977287 258812.062578, 545174.403043 258817.547234, 545185.470535 258878.578059)

LINESTRING (545181.137602 258809.641401, 545172.977287 258812.062578)

LINESTRING (545181.137602 258809.641401, 545182.391243 258815.165540, 545195.083345 258876.989740)

LINESTRING (545185.470535 258878.578059, 545174.403043 258817.547234, 545172.977287 258812.062578)

LINESTRING (545185.470535 258878.578059, 545189.091238 258877.994034, 545192.669647 258877.453295, 545195.083345 258876.989740)

LINESTRING (545072.122334 258449.522733, 545069.545933 258436.379956)

LINESTRING (545072.122334 258449.522733, 545075.518246 258467.375499)

LINESTRING (545072.122334 258449.522733, 545052.133607 258441.802974)

LINESTRING (545160.954794 258502.289449, 545167.015691 258510.391986)

LINESTRING (545160.954794 258502.289449, 545150.607388 258488.774327)

LINESTRING (545160.954794 258502.289449, 545162.979371 258516.985547, 545159.638351 258533.928717, 545157.555808 258541.525610)

LINESTRING (545167.015691 258510.391986, 545178.666295 258526.805897)

LINESTRING (545167.015691 258510.391986, 545160.954794 258502.289449)

LINESTRING (545167.015691 258510.391986, 545180.614866 258499.971324)

LINESTRING (545150.607388 258488.774327, 545160.954794 258502.289449)

LINESTRING (545150.607388 258488.774327, 545149.021924 258487.804052)

LINESTRING (545150.607388 258488.774327, 545162.079007 258479.081583)

LINESTRING (545157.555808 258541.525610, 545178.666295 258526.805897)

LINESTRING (545157.555808 258541.525610, 545155.182202 258545.051292, 545148.091992 258555.517935, 545145.103431 258560.428074)

LINESTRING (545157.555808 258541.525610, 545159.638351 258533.928717, 545162.979371 258516.985547, 545160.954794 258502.289449)

LINESTRING (545145.103431 258560.428074, 545148.091992 258555.517935, 545155.182202 258545.051292, 545157.555808 258541.525610)

LINESTRING (545145.103431 258560.428074, 545149.709732 258564.258348, 545151.957082 258581.854936, 545152.166086 258588.261180, 545151.564726 258591.515979, 545150.749346 258592.738732)

LINESTRING (545145.103431 258560.428074, 545142.843845 258559.593887, 545137.707111 258558.931451, 545125.673066 258560.048307, 545115.608700 258563.026027, 545112.149412 258566.731423)

LINESTRING (545150.749346 258592.738732, 545149.683431 258594.343720, 545147.036293 258595.768832, 545143.438149 258596.976875, 545116.976874 258601.544726)

LINESTRING (545150.749346 258592.738732, 545151.564726 258591.515979, 545152.166086 258588.261180, 545151.957082 258581.854936, 545149.709732 258564.258348, 545145.103431 258560.428074)

LINESTRING (545150.749346 258592.738732, 545154.939861 258594.887239, 545157.117665 258608.786419, 545154.963801 258609.246477, 545155.622170 258613.851587)

LINESTRING (545112.149412 258566.731423, 545115.608700 258563.026027, 545125.673066 258560.048307, 545137.707111 258558.931451, 545142.843845 258559.593887, 545145.103431 258560.428074)

LINESTRING (545112.149412 258566.731423, 545111.938838 258569.719401, 545112.135939 258572.563486, 545112.935763 258582.381871, 545114.589697 258589.887829, 545116.976874 258601.544726)

LINESTRING (545112.149412 258566.731423, 545106.558386 258555.659697, 545101.176010 258554.511490, 545090.368799 258560.673138, 545090.174333 258572.922282, 545093.966688 258573.255915)

LINESTRING (545116.976874 258601.544726, 545100.929389 258601.241840)

LINESTRING (545116.976874 258601.544726, 545114.589697 258589.887829, 545112.935763 258582.381871, 545112.135939 258572.563486, 545111.938838 258569.719401, 545112.149412 258566.731423)

LINESTRING (545116.976874 258601.544726, 545143.438149 258596.976875, 545147.036293 258595.768832, 545149.683431 258594.343720, 545150.749346 258592.738732)

LINESTRING (545100.929389 258601.241840, 545116.976874 258601.544726)

LINESTRING (545134.836721 258476.903585, 545134.306491 258472.591629, 545132.604616 258468.590416, 545129.858955 258465.204217, 545126.293675 258462.717864, 545122.170366 258461.305978, 545117.814068 258461.078253, 545113.572596 258462.067133, 545109.763513 258464.170609, 545106.684855 258467.252708)

LINESTRING (545134.836721 258476.903585, 545133.991628 258481.709538, 545131.690875 258486.016510, 545128.172317 258489.408503, 545123.774015 258491.550368, 545118.932932 258492.232289, 545114.116287 258491.378902, 545109.792921 258489.092978, 545106.387423 258485.587298, 545104.238490 258481.205695, 545103.552396 258476.377172, 545104.397786 258471.560093, 545106.684855 258467.252708)

LINESTRING (545134.836721 258476.903585, 545141.775355 258479.321769, 545142.858133 258480.410888)

LINESTRING (545106.684855 258467.252708, 545104.045884 258464.426180)

LINESTRING (545106.684855 258467.252708, 545104.397786 258471.560093, 545103.552396 258476.377172, 545104.238490 258481.205695, 545106.387423 258485.587298, 545109.792921 258489.092978, 545114.116287 258491.378902, 545118.932932 258492.232289, 545123.774015 258491.550368, 545128.172317 258489.408503, 545131.690875 258486.016510, 545133.991628 258481.709538, 545134.836721 258476.903585)

LINESTRING (545106.684855 258467.252708, 545109.763513 258464.170609, 545113.572596 258462.067133, 545117.814068 258461.078253, 545122.170366 258461.305978, 545126.293675 258462.717864, 545129.858955 258465.204217, 545132.604616 258468.590416, 545134.306491 258472.591629, 545134.836721 258476.903585)

LINESTRING (545142.858133 258480.410888, 545141.983213 258481.097628, 545143.978272 258483.493487, 545146.112255 258486.049245, 545148.166850 258488.513634, 545149.021924 258487.804052)

LINESTRING (545142.858133 258480.410888, 545143.586312 258479.831157, 545146.871719 258483.700658, 545149.799559 258487.170117, 545149.021924 258487.804052)

LINESTRING (545142.858133 258480.410888, 545141.775355 258479.321769, 545134.836721 258476.903585)

LINESTRING (544862.984104 258794.476611, 544857.967785 258799.527983, 544854.194877 258802.512017)

LINESTRING (544862.984104 258794.476611, 544866.758459 258797.291680, 544871.652980 258801.085601, 544871.167988 258805.278799, 544871.238668 258808.942841, 544872.441509 258811.538046, 544873.581219 258813.485830, 544870.655244 258819.778144, 544869.037372 258821.790015)

LINESTRING (544869.037372 258821.790015, 544877.124196 258830.296471)

LINESTRING (544869.037372 258821.790015, 544870.655244 258819.778144, 544873.581219 258813.485830, 544872.441509 258811.538046, 544871.238668 258808.942841, 544871.167988 258805.278799, 544871.652980 258801.085601, 544866.758459 258797.291680, 544862.984104 258794.476611)

LINESTRING (545149.021924 258487.804052, 545150.607388 258488.774327)

LINESTRING (545149.021924 258487.804052, 545149.799559 258487.170117, 545146.871719 258483.700658, 545143.586312 258479.831157, 545142.858133 258480.410888)

LINESTRING (545149.021924 258487.804052, 545148.166850 258488.513634, 545146.112255 258486.049245, 545143.978272 258483.493487, 545141.983213 258481.097628, 545142.858133 258480.410888)

LINESTRING (544763.254395 258461.706865, 544765.181485 258440.915527, 544765.392881 258439.062890, 544808.734924 258443.990968)

LINESTRING (544808.734924 258443.990968, 544806.692650 258469.186654)

LINESTRING (544808.734924 258443.990968, 544765.392881 258439.062890, 544765.181485 258440.915527, 544763.254395 258461.706865)

LINESTRING (544808.734924 258443.990968, 544811.322238 258444.378217, 544817.278389 258445.086511)

LINESTRING (544806.692650 258469.186654, 544808.734924 258443.990968)

LINESTRING (544865.853872 258521.303776, 544870.608162 258526.395865)

LINESTRING (544865.853872 258521.303776, 544858.019867 258521.442115)

LINESTRING (544865.853872 258521.303776, 544875.124010 258520.929163, 544875.861548 258518.858165)

LINESTRING (544870.608162 258526.395865, 544869.428697 258537.269395)

LINESTRING (544870.608162 258526.395865, 544865.853872 258521.303776)

LINESTRING (544870.608162 258526.395865, 544874.577260 258527.936601)

LINESTRING (544858.019867 258521.442115, 544865.853872 258521.303776)

LINESTRING (544858.019867 258521.442115, 544854.671270 258521.600251)

LINESTRING (544858.019867 258521.442115, 544859.219913 258514.309072, 544859.859480 258511.144409)

LINESTRING (544875.861548 258518.858165, 544877.859605 258519.751366)

LINESTRING (544875.861548 258518.858165, 544878.323382 258512.307409, 544875.233399 258510.870281, 544873.804374 258509.225702, 544874.644744 258507.847808, 544875.322500 258508.991811)

LINESTRING (544875.861548 258518.858165, 544875.124010 258520.929163, 544865.853872 258521.303776)

LINESTRING (544854.671270 258521.600251, 544854.578795 258519.148813)

LINESTRING (544854.671270 258521.600251, 544858.019867 258521.442115)

LINESTRING (544854.671270 258521.600251, 544852.623460 258521.707361, 544848.747132 258521.905730, 544841.307468 258522.122404)

LINESTRING (544859.859480 258511.144409, 544859.219913 258514.309072, 544858.019867 258521.442115)

LINESTRING (544874.577260 258527.936601, 544870.608162 258526.395865)

LINESTRING (544869.428697 258537.269395, 544870.635786 258537.616335)

LINESTRING (544869.428697 258537.269395, 544870.608162 258526.395865)

LINESTRING (544869.428697 258537.269395, 544866.673773 258545.191785)

LINESTRING (544870.635786 258537.616335, 544869.428697 258537.269395)

LINESTRING (544866.673773 258545.191785, 544867.648555 258545.531934)

LINESTRING (544866.673773 258545.191785, 544869.428697 258537.269395)

LINESTRING (544866.673773 258545.191785, 544865.666217 258548.078557, 544864.123081 258549.402519, 544862.854514 258549.521269)

LINESTRING (544877.859605 258519.751366, 544875.861548 258518.858165)

LINESTRING (545165.924719 258754.488599, 545162.982928 258755.003486)

LINESTRING (545165.924719 258754.488599, 545168.113429 258768.944645)

LINESTRING (545165.924719 258754.488599, 545163.998458 258742.511247, 545176.105321 258740.294702)

LINESTRING (545162.982928 258755.003486, 545165.924719 258754.488599)

LINESTRING (545168.113429 258768.944645, 545180.976338 258766.594432)

LINESTRING (545168.113429 258768.944645, 545154.604396 258771.409534)

LINESTRING (545168.113429 258768.944645, 545165.924719 258754.488599)

LINESTRING (545176.105321 258740.294702, 545204.576304 258734.561706)

LINESTRING (545176.105321 258740.294702, 545176.549310 258743.112633, 545177.221957 258747.462161)

LINESTRING (545176.105321 258740.294702, 545163.998458 258742.511247, 545165.924719 258754.488599)

LINESTRING (545130.697197 258801.808404, 545128.852821 258802.210749)

LINESTRING (545130.697197 258801.808404, 545133.521534 258821.414277)

LINESTRING (545130.697197 258801.808404, 545136.218640 258799.833016)

LINESTRING (545128.852821 258802.210749, 545130.697197 258801.808404)

LINESTRING (545128.852821 258802.210749, 545126.159627 258802.643891)

LINESTRING (545128.852821 258802.210749, 545128.554887 258799.541799, 545128.348675 258797.710333, 545126.991382 258785.449132)

LINESTRING (545136.218640 258799.833016, 545130.697197 258801.808404)

LINESTRING (545136.218640 258799.833016, 545143.018372 258797.405323)

LINESTRING (545136.218640 258799.833016, 545137.069946 258803.453148)

LINESTRING (545188.103712 258765.356245, 545180.976338 258766.594432)

LINESTRING (545180.976338 258766.594432, 545168.113429 258768.944645)

LINESTRING (545180.976338 258766.594432, 545188.103712 258765.356245)

LINESTRING (545180.976338 258766.594432, 545177.959694 258751.223672, 545177.221957 258747.462161)

LINESTRING (545151.870754 258755.245676, 545153.217085 258763.210133)

LINESTRING (545151.870754 258755.245676, 545143.407174 258756.812093)

LINESTRING (545151.870754 258755.245676, 545151.284284 258751.455209, 545153.490464 258751.074599)

LINESTRING (545153.217085 258763.210133, 545153.712158 258766.151995)

LINESTRING (545153.217085 258763.210133, 545151.870754 258755.245676)

LINESTRING (545153.217085 258763.210133, 545155.527047 258762.788041)

LINESTRING (545143.407174 258756.812093, 545151.870754 258755.245676)

LINESTRING (545143.407174 258756.812093, 545124.211391 258760.357155)

LINESTRING (545143.407174 258756.812093, 545142.774212 258751.807024)

LINESTRING (545153.490464 258751.074599, 545151.284284 258751.455209, 545151.870754 258755.245676)

LINESTRING (545126.159627 258802.643891, 545128.852821 258802.210749)

LINESTRING (545126.991382 258785.449132, 545126.134752 258785.513092)

LINESTRING (545126.991382 258785.449132, 545124.541531 258763.327575, 545124.211391 258760.357155)

LINESTRING (545126.991382 258785.449132, 545128.348675 258797.710333, 545128.554887 258799.541799, 545128.852821 258802.210749)

LINESTRING (545177.221957 258747.462161, 545182.705697 258746.543130)

LINESTRING (545177.221957 258747.462161, 545177.959694 258751.223672, 545180.976338 258766.594432)

LINESTRING (545177.221957 258747.462161, 545176.549310 258743.112633, 545176.105321 258740.294702)

LINESTRING (545182.705697 258746.543130, 545177.221957 258747.462161)

LINESTRING (545154.604396 258771.409534, 545168.113429 258768.944645)

LINESTRING (545154.604396 258771.409534, 545153.712158 258766.151995)

LINESTRING (545154.604396 258771.409534, 545146.934675 258773.188417)

LINESTRING (545154.604396 258771.409534, 545155.414914 258778.289756, 545155.516322 258781.131043, 545154.809925 258783.303091, 545153.694526 258786.832231, 545152.969239 258789.649304, 545153.309082 258793.688554, 545148.576909 258795.564603, 545143.951139 258797.076460, 545143.018372 258797.405323)

LINESTRING (545153.712158 258766.151995, 545154.604396 258771.409534)

LINESTRING (545153.712158 258766.151995, 545153.217085 258763.210133)

LINESTRING (545153.712158 258766.151995, 545150.780116 258767.268229, 545149.078512 258768.865729, 545148.188942 258771.221634, 545146.934675 258773.188417)

LINESTRING (545146.934675 258773.188417, 545154.604396 258771.409534)

LINESTRING (545146.934675 258773.188417, 545144.873572 258774.686343, 545142.825823 258775.728305, 545140.601749 258776.486837)

LINESTRING (545146.934675 258773.188417, 545148.188942 258771.221634, 545149.078512 258768.865729, 545150.780116 258767.268229, 545153.712158 258766.151995)

LINESTRING (545143.018372 258797.405323, 545136.218640 258799.833016)

LINESTRING (545143.018372 258797.405323, 545143.951139 258797.076460, 545148.576909 258795.564603, 545153.309082 258793.688554, 545152.969239 258789.649304, 545153.694526 258786.832231, 545154.809925 258783.303091, 545155.516322 258781.131043, 545155.414914 258778.289756, 545154.604396 258771.409534)

LINESTRING (545143.018372 258797.405323, 545143.810092 258802.359389, 545145.309930 258802.047135)

LINESTRING (545137.069946 258803.453148, 545136.218640 258799.833016)

LINESTRING (545124.211391 258760.357155, 545143.407174 258756.812093)

LINESTRING (545124.211391 258760.357155, 545123.900763 258757.654442)

LINESTRING (545124.211391 258760.357155, 545124.541531 258763.327575, 545126.991382 258785.449132)

LINESTRING (545123.900763 258757.654442, 545124.211391 258760.357155)

LINESTRING (545069.545933 258436.379956, 545068.057878 258422.267278)

LINESTRING (545069.545933 258436.379956, 545072.122334 258449.522733)

LINESTRING (545069.545933 258436.379956, 545065.026303 258434.021546, 545054.483832 258429.961976, 545044.657478 258425.734164)

LINESTRING (545044.657478 258425.734164, 545054.483832 258429.961976, 545065.026303 258434.021546, 545069.545933 258436.379956)

LINESTRING (545104.045884 258464.426180, 545106.684855 258467.252708)

LINESTRING (545104.045884 258464.426180, 545102.793204 258465.869882, 545101.512267 258464.774970, 545099.017741 258462.620512, 545097.917051 258461.675577, 545099.085785 258460.296201)

LINESTRING (545104.045884 258464.426180, 545105.249434 258463.025563, 545100.268511 258458.906103, 545099.085785 258460.296201)

LINESTRING (545096.017338 258456.722482, 545099.085785 258460.296201)

LINESTRING (545096.017338 258456.722482, 545088.698497 258462.151466)

LINESTRING (545099.085785 258460.296201, 545096.017338 258456.722482)

LINESTRING (545099.085785 258460.296201, 545100.268511 258458.906103, 545105.249434 258463.025563, 545104.045884 258464.426180)

LINESTRING (545099.085785 258460.296201, 545097.917051 258461.675577, 545099.017741 258462.620512, 545101.512267 258464.774970, 545102.793204 258465.869882, 545104.045884 258464.426180)

LINESTRING (544827.387184 258837.468947, 544818.460258 258849.051054)

LINESTRING (544827.387184 258837.468947, 544839.640003 258822.522433, 544850.123756 258810.084283, 544851.415636 258808.229837)

LINESTRING (544827.387184 258837.468947, 544832.599890 258841.839790, 544839.076540 258846.715065, 544839.571715 258847.085718)

LINESTRING (544974.646946 258504.906071, 545023.383041 258522.716157)

LINESTRING (545178.666295 258526.805897, 545157.555808 258541.525610)

LINESTRING (545178.666295 258526.805897, 545167.015691 258510.391986)

LINESTRING (545178.666295 258526.805897, 545179.659572 258528.148409, 545184.682544 258535.263332, 545187.223785 258539.088803)

LINESTRING (545178.666295 258526.805897, 545184.764693 258522.187223, 545193.164122 258515.821668)

LINESTRING (545093.966688 258573.255915, 545093.494016 258569.546704, 545093.142994 258567.521782)

LINESTRING (545093.966688 258573.255915, 545095.160420 258573.357646, 545094.175052 258582.956804)

LINESTRING (545093.966688 258573.255915, 545090.174333 258572.922282, 545090.368799 258560.673138, 545101.176010 258554.511490, 545106.558386 258555.659697, 545112.149412 258566.731423)

LINESTRING (545084.124887 258614.418313, 545089.600905 258615.402287, 545096.616163 258616.832032, 545095.553961 258596.821431, 545093.219305 258592.011429, 545086.493207 258593.083419, 545085.931139 258602.939844, 545084.124887 258614.418313)

LINESTRING (545084.124887 258614.418313, 545085.931139 258602.939844, 545086.493207 258593.083419, 545093.219305 258592.011429, 545095.553961 258596.821431, 545096.616163 258616.832032, 545089.600905 258615.402287, 545084.124887 258614.418313)

LINESTRING (545084.124887 258614.418313, 545070.308734 258613.579789, 545060.828568 258613.191000)

LINESTRING (545155.622170 258613.851587, 545155.918184 258615.652291)

LINESTRING (545155.622170 258613.851587, 545165.272901 258611.919248)

LINESTRING (545155.622170 258613.851587, 545154.963801 258609.246477, 545157.117665 258608.786419, 545154.939861 258594.887239, 545150.749346 258592.738732)

LINESTRING (545155.918184 258615.652291, 545152.199363 258616.311390)

LINESTRING (545155.918184 258615.652291, 545155.622170 258613.851587)

LINESTRING (545155.918184 258615.652291, 545156.334242 258617.790431, 545156.480942 258618.852139)

LINESTRING (545152.199363 258616.311390, 545155.918184 258615.652291)

LINESTRING (545152.199363 258616.311390, 545153.174199 258624.120265)

LINESTRING (545152.199363 258616.311390, 545145.991576 258617.198127, 545141.002604 258616.862801, 545124.037642 258617.534727)

LINESTRING (545156.480942 258618.852139, 545157.873789 258618.692582)

LINESTRING (545156.480942 258618.852139, 545156.605524 258619.735109, 545158.533229 258639.837870)

LINESTRING (545156.480942 258618.852139, 545156.334242 258617.790431, 545155.918184 258615.652291)

LINESTRING (545124.037642 258617.534727, 545113.566775 258617.350571)

LINESTRING (545124.037642 258617.534727, 545141.002604 258616.862801, 545145.991576 258617.198127, 545152.199363 258616.311390)

LINESTRING (545124.037642 258617.534727, 545123.574200 258635.230015, 545123.274760 258639.617852)

LINESTRING (545113.566775 258617.350571, 545103.786309 258617.175519)

LINESTRING (545113.566775 258617.350571, 545124.037642 258617.534727)

LINESTRING (545113.566775 258617.350571, 545111.937729 258644.495040)

LINESTRING (545123.274760 258639.617852, 545122.938866 258644.550024)

LINESTRING (545123.274760 258639.617852, 545123.574200 258635.230015, 545124.037642 258617.534727)

LINESTRING (545123.274760 258639.617852, 545128.688952 258639.676216, 545132.868760 258639.620524, 545150.780096 258639.087655)

LINESTRING (545103.786309 258617.175519, 545113.566775 258617.350571)

LINESTRING (545122.938866 258644.550024, 545123.274760 258639.617852)

LINESTRING (545122.938866 258644.550024, 545111.937729 258644.495040)

LINESTRING (545122.938866 258644.550024, 545122.484374 258668.244993, 545124.684606 258672.505675)

LINESTRING (545111.937729 258644.495040, 545122.938866 258644.550024)

LINESTRING (545111.937729 258644.495040, 545106.287990 258644.307360)

LINESTRING (545111.937729 258644.495040, 545113.566775 258617.350571)

LINESTRING (545124.684606 258672.505675, 545125.677519 258674.560528, 545125.868211 258685.095704, 545125.860534 258692.130049)

LINESTRING (545124.684606 258672.505675, 545122.484374 258668.244993, 545122.938866 258644.550024)

LINESTRING (545124.684606 258672.505675, 545104.675897 258671.574764, 545106.287990 258644.307360)

LINESTRING (545179.110081 258693.511538, 545186.372175 258694.214025)

LINESTRING (545179.110081 258693.511538, 545176.265235 258693.283505, 545171.667412 258692.903949, 545159.248185 258692.707140, 545153.007988 258692.602287, 545125.860534 258692.130049)

LINESTRING (545179.110081 258693.511538, 545181.944576 258683.821857, 545183.900456 258678.681138)

LINESTRING (544808.742201 258632.387912, 544806.945604 258632.324288)

LINESTRING (544808.742201 258632.387912, 544808.492180 258645.859780)

LINESTRING (544808.742201 258632.387912, 544808.823418 258629.140146)

LINESTRING (544806.945604 258632.324288, 544808.742201 258632.387912)

LINESTRING (544808.492180 258645.859780, 544808.742201 258632.387912)

LINESTRING (544808.823418 258629.140146, 544808.742201 258632.387912)

LINESTRING (544808.823418 258629.140146, 544809.758808 258629.189738, 544812.212301 258629.472907)

LINESTRING (544808.823418 258629.140146, 544808.823554 258615.327059, 544808.848337 258608.159668)

LINESTRING (544770.352675 258485.588992, 544770.192971 258486.608343)

LINESTRING (544770.192971 258486.608343, 544770.352675 258485.588992)

LINESTRING (544770.192971 258486.608343, 544768.044598 258486.412024, 544767.904429 258487.699081)

LINESTRING (544770.192971 258486.608343, 544772.921464 258486.843869, 544772.814807 258488.154165)

LINESTRING (544772.814807 258488.154165, 544767.904429 258487.699081)

LINESTRING (544772.814807 258488.154165, 544809.921113 258491.163759, 544818.046030 258490.900274)

LINESTRING (544772.814807 258488.154165, 544772.921464 258486.843869, 544770.192971 258486.608343)

LINESTRING (545203.781023 258730.197449, 545204.576304 258734.561706)

LINESTRING (545203.781023 258730.197449, 545201.277097 258716.466772)

LINESTRING (545203.781023 258730.197449, 545195.350890 258731.787022)

LINESTRING (545126.413960 258726.706918, 545131.992358 258726.758968, 545190.345632 258718.940307, 545201.277097 258716.466772)

LINESTRING (545186.272491 258705.553241, 545186.372175 258694.214025)

LINESTRING (544850.806557 258550.883258, 544850.778230 258550.214593, 544862.854514 258549.521269)

LINESTRING (544862.854514 258549.521269, 544862.869180 258550.423278)

LINESTRING (544862.854514 258549.521269, 544850.778230 258550.214593, 544850.806557 258550.883258)

LINESTRING (544862.854514 258549.521269, 544864.123081 258549.402519, 544865.666217 258548.078557, 544866.673773 258545.191785)

LINESTRING (544862.869180 258550.423278, 544862.854514 258549.521269)

LINESTRING (544867.648555 258545.531934, 544866.673773 258545.191785)

LINESTRING (544875.322500 258508.991811, 544874.644744 258507.847808, 544873.804374 258509.225702, 544875.233399 258510.870281, 544878.323382 258512.307409, 544875.861548 258518.858165)

LINESTRING (544854.578795 258519.148813, 544854.671270 258521.600251)

LINESTRING (544841.307468 258522.122404, 544839.289317 258523.788672)

LINESTRING (544841.307468 258522.122404, 544839.391366 258520.296641, 544836.794993 258520.220767, 544835.004562 258520.880805)

LINESTRING (544841.307468 258522.122404, 544848.747132 258521.905730, 544852.623460 258521.707361, 544854.671270 258521.600251)

LINESTRING (544839.289317 258523.788672, 544841.307468 258522.122404)

LINESTRING (544839.289317 258523.788672, 544839.456277 258525.329575)

LINESTRING (544839.289317 258523.788672, 544837.915974 258523.748538, 544836.037006 258523.226143, 544835.004562 258520.880805)

LINESTRING (544839.456277 258525.329575, 544839.289317 258523.788672)

LINESTRING (545187.223785 258539.088803, 545178.234532 258545.281260)

LINESTRING (545187.223785 258539.088803, 545184.682544 258535.263332, 545179.659572 258528.148409, 545178.666295 258526.805897)

LINESTRING (545187.223785 258539.088803, 545199.831139 258531.009969, 545203.157653 258530.205842)

LINESTRING (545178.234532 258545.281260, 545169.720010 258551.142587)

LINESTRING (545178.234532 258545.281260, 545187.223785 258539.088803)

LINESTRING (545178.234532 258545.281260, 545178.943025 258549.108695, 545178.956504 258554.251451, 545173.778345 258565.742434, 545171.568969 258571.365482, 545171.596527 258574.160082, 545173.747594 258579.632585, 545176.162250 258583.576781, 545173.750844 258588.859990, 545168.019411 258597.062361, 545168.158765 258603.511089, 545169.996431 258611.044713)

LINESTRING (545203.157653 258530.205842, 545203.902400 258522.291505, 545201.246991 258517.694666, 545197.352944 258512.660838)

LINESTRING (545203.157653 258530.205842, 545199.831139 258531.009969, 545187.223785 258539.088803)

LINESTRING (545169.720010 258551.142587, 545178.234532 258545.281260)

LINESTRING (545193.164122 258515.821668, 545197.352944 258512.660838)

LINESTRING (545193.164122 258515.821668, 545185.745587 258506.443825)

LINESTRING (545193.164122 258515.821668, 545184.764693 258522.187223, 545178.666295 258526.805897)

LINESTRING (545066.373689 258692.414245, 545068.911843 258685.832415)

LINESTRING (545078.734935 258731.265848, 545094.024017 258728.029194, 545099.314175 258727.182317)

LINESTRING (545181.391527 258499.370757, 545180.614866 258499.971324)

LINESTRING (545180.614866 258499.971324, 545181.391527 258499.370757)

LINESTRING (545180.614866 258499.971324, 545167.015691 258510.391986)

LINESTRING (545180.614866 258499.971324, 545185.745587 258506.443825)

LINESTRING (545180.614866 258499.971324, 545162.079007 258479.081583)

LINESTRING (545154.876246 258650.293749, 545154.026730 258630.968321)

LINESTRING (545154.026730 258630.968321, 545154.876246 258650.293749)

LINESTRING (545154.026730 258630.968321, 545153.174199 258624.120265)

LINESTRING (545154.026730 258630.968321, 545150.102956 258631.387675, 545150.780096 258639.087655)

LINESTRING (545162.695913 258478.565380, 545162.079007 258479.081583)

LINESTRING (545162.079007 258479.081583, 545162.695913 258478.565380)

LINESTRING (545162.079007 258479.081583, 545150.607388 258488.774327)

LINESTRING (545162.079007 258479.081583, 545180.614866 258499.971324)

LINESTRING (545194.083902 258499.364118, 545189.272944 258503.452832, 545185.745587 258506.443825)

LINESTRING (545185.745587 258506.443825, 545193.164122 258515.821668)

LINESTRING (545185.745587 258506.443825, 545180.614866 258499.971324)

LINESTRING (545185.745587 258506.443825, 545189.272944 258503.452832, 545194.083902 258499.364118)

LINESTRING (545098.403887 258541.752531, 545087.410814 258551.225677, 545084.982319 258552.423480, 545081.658451 258552.904974, 545075.946450 258553.672746)

LINESTRING (545093.142994 258567.521782, 545093.494016 258569.546704, 545093.966688 258573.255915)

LINESTRING (545094.175052 258582.956804, 545095.160420 258573.357646, 545093.966688 258573.255915)

LINESTRING (545165.272901 258611.919248, 545167.970851 258618.097868)

LINESTRING (545165.272901 258611.919248, 545155.622170 258613.851587)

LINESTRING (545165.272901 258611.919248, 545166.421736 258611.685762, 545169.996431 258611.044713)

LINESTRING (545167.970851 258618.097868, 545165.272901 258611.919248)

LINESTRING (545169.996431 258611.044713, 545166.421736 258611.685762, 545165.272901 258611.919248)

LINESTRING (545169.996431 258611.044713, 545175.702644 258624.947080, 545182.494894 258637.723682)

LINESTRING (545169.996431 258611.044713, 545168.158765 258603.511089, 545168.019411 258597.062361, 545173.750844 258588.859990, 545176.162250 258583.576781, 545173.747594 258579.632585, 545171.596527 258574.160082, 545171.568969 258571.365482, 545173.778345 258565.742434, 545178.956504 258554.251451, 545178.943025 258549.108695, 545178.234532 258545.281260)

LINESTRING (545153.174199 258624.120265, 545154.026730 258630.968321)

LINESTRING (545153.174199 258624.120265, 545152.199363 258616.311390)

LINESTRING (545153.174199 258624.120265, 545150.781867 258624.317335, 545145.880704 258625.420429, 545143.963300 258628.547641, 545140.258391 258632.234693, 545137.796090 258633.186604, 545131.611475 258632.348786)

LINESTRING (545157.873789 258618.692582, 545156.480942 258618.852139)

LINESTRING (545158.533229 258639.837870, 545156.605524 258619.735109, 545156.480942 258618.852139)

LINESTRING (545131.611475 258632.348786, 545137.796090 258633.186604, 545140.258391 258632.234693, 545143.963300 258628.547641, 545145.880704 258625.420429, 545150.781867 258624.317335, 545153.174199 258624.120265)

LINESTRING (545150.780096 258639.087655, 545132.868760 258639.620524, 545128.688952 258639.676216, 545123.274760 258639.617852)

LINESTRING (545150.780096 258639.087655, 545150.102956 258631.387675, 545154.026730 258630.968321)

LINESTRING (545150.780096 258639.087655, 545151.553135 258639.076903, 545152.128126 258646.295273)

LINESTRING (545182.494894 258637.723682, 545175.702644 258624.947080, 545169.996431 258611.044713)

LINESTRING (545152.128126 258646.295273, 545151.553135 258639.076903, 545150.780096 258639.087655)

LINESTRING (545183.900456 258678.681138, 545181.944576 258683.821857, 545179.110081 258693.511538)

LINESTRING (544872.348361 258483.705159, 544876.558592 258485.419903)

LINESTRING (544872.348361 258483.705159, 544873.666319 258480.493542, 544878.493335 258440.286150)

LINESTRING (544839.571715 258847.085718, 544839.076540 258846.715065, 544832.599890 258841.839790, 544827.387184 258837.468947)

LINESTRING (544839.571715 258847.085718, 544839.422390 258847.281704, 544839.293887 258847.467169, 544842.265585 258849.668840, 544841.980925 258850.050092, 544838.473709 258847.454329)

LINESTRING (544896.730136 258850.826881, 544903.657646 258856.650399, 544923.019950 258870.773688)

LINESTRING (544811.249612 258729.820662, 544819.910846 258726.166901)

LINESTRING (544819.910846 258726.166901, 544818.926492 258720.773179)

LINESTRING (544819.910846 258726.166901, 544811.249612 258729.820662)

LINESTRING (544832.719498 258793.759008, 544844.654833 258788.275382)

LINESTRING (545195.083345 258876.989740, 545197.479659 258879.686785)

LINESTRING (545195.083345 258876.989740, 545192.669647 258877.453295, 545189.091238 258877.994034, 545185.470535 258878.578059)

LINESTRING (545195.083345 258876.989740, 545182.391243 258815.165540, 545181.137602 258809.641401)

LINESTRING (545197.479659 258879.686785, 545195.083345 258876.989740)

LINESTRING (544887.144562 258599.339584, 544899.293455 258573.938496)

LINESTRING (544887.144562 258599.339584, 544876.430145 258592.514961, 544868.542801 258589.101052, 544858.768086 258586.622616, 544840.301166 258584.168437)

LINESTRING (544891.273403 258619.272793, 544886.816218 258626.477570)

LINESTRING (544891.273403 258619.272793, 544891.992768 258619.694526, 544885.864303 258629.566316)

LINESTRING (544891.273403 258619.272793, 544896.966244 258609.566363, 544898.389283 258606.502523)

LINESTRING (544886.816218 258626.477570, 544891.273403 258619.272793)

LINESTRING (544885.864303 258629.566316, 544891.992768 258619.694526, 544891.273403 258619.272793)

LINESTRING (544826.021801 258665.872835, 544826.734904 258663.934685)

LINESTRING (544826.021801 258665.872835, 544832.026521 258667.717901)

LINESTRING (544826.734904 258663.934685, 544828.772072 258658.573605, 544837.303545 258631.519520)

LINESTRING (544826.734904 258663.934685, 544820.138314 258660.580828, 544794.550485 258660.556689, 544788.173290 258660.459424, 544788.157265 258658.433185)

LINESTRING (544832.026521 258667.717901, 544826.021801 258665.872835)

LINESTRING (544900.954130 258681.564520, 544898.590531 258684.990431, 544926.413336 258705.393863)

LINESTRING (544815.140121 258628.734790, 544814.953405 258629.742220)

LINESTRING (544814.953405 258629.742220, 544823.081711 258630.525131)

LINESTRING (544814.953405 258629.742220, 544815.140121 258628.734790)

LINESTRING (544814.953405 258629.742220, 544812.600774 258629.517649, 544812.212301 258629.472907)

LINESTRING (544822.489513 258610.072018, 544821.230062 258609.879387)

LINESTRING (544821.230062 258609.879387, 544822.489513 258610.072018)

LINESTRING (544821.230062 258609.879387, 544820.964263 258591.828895)

LINESTRING (544821.230062 258609.879387, 544813.071450 258608.728285, 544808.848337 258608.159668)

LINESTRING (544822.604703 258591.854568, 544820.964263 258591.828895)

LINESTRING (544820.964263 258591.828895, 544822.604703 258591.854568)

LINESTRING (544820.964263 258591.828895, 544821.230062 258609.879387)

LINESTRING (544820.964263 258591.828895, 544817.100564 258588.788647)

LINESTRING (544816.575484 258581.015267, 544816.913601 258583.017526, 544817.100564 258588.788647)

LINESTRING (544817.100564 258588.788647, 544820.964263 258591.828895)

LINESTRING (544817.100564 258588.788647, 544816.913601 258583.017526, 544816.575484 258581.015267)

LINESTRING (544817.100564 258588.788647, 544808.132815 258589.116545, 544808.152435 258591.721681)

LINESTRING (544756.188620 258685.125519, 544755.973047 258681.034289)

LINESTRING (544821.749765 258631.877537, 544823.081711 258630.525131)

LINESTRING (544823.081711 258630.525131, 544821.749765 258631.877537)

LINESTRING (544823.081711 258630.525131, 544814.953405 258629.742220)

LINESTRING (544823.081711 258630.525131, 544824.694214 258632.208451, 544832.690145 258634.479012)

LINESTRING (544808.152435 258591.721681, 544808.848337 258608.159668)

LINESTRING (544808.152435 258591.721681, 544803.756898 258591.904913, 544794.600122 258592.149398, 544794.478359 258598.189763, 544794.503462 258599.437125, 544794.583300 258602.556028, 544787.959748 258602.696444, 544782.841282 258602.814052)

LINESTRING (544808.152435 258591.721681, 544808.132815 258589.116545, 544817.100564 258588.788647)

LINESTRING (544808.848337 258608.159668, 544808.152435 258591.721681)

LINESTRING (544808.848337 258608.159668, 544808.823554 258615.327059, 544808.823418 258629.140146)

LINESTRING (544808.848337 258608.159668, 544813.071450 258608.728285, 544821.230062 258609.879387)

LINESTRING (544812.212301 258629.472907, 544812.914475 258622.291916)

LINESTRING (544812.212301 258629.472907, 544812.600774 258629.517649, 544814.953405 258629.742220)

LINESTRING (544812.212301 258629.472907, 544809.758808 258629.189738, 544808.823418 258629.140146)

LINESTRING (544832.690145 258634.479012, 544824.694214 258632.208451, 544823.081711 258630.525131)

LINESTRING (544877.124196 258830.296471, 544880.514307 258834.090945, 544896.730136 258850.826881)

LINESTRING (544877.124196 258830.296471, 544879.699213 258828.056579, 544887.183536 258821.853013, 544893.586865 258821.049598, 544911.419701 258818.732700, 544900.334812 258804.951655, 544892.398685 258800.412071, 544869.745137 258784.712337)

LINESTRING (544897.041662 258379.621090, 544887.862980 258378.729459)

LINESTRING (545066.446342 258392.979930, 545089.734746 258404.792226)

LINESTRING (545100.506465 258381.866781, 545089.734746 258404.792226)

LINESTRING (545204.576304 258734.561706, 545203.781023 258730.197449)

LINESTRING (545204.576304 258734.561706, 545176.105321 258740.294702)

LINESTRING (545204.576304 258734.561706, 545205.136090 258737.627908, 545207.271112 258749.945316)

LINESTRING (545207.271112 258749.945316, 545205.136090 258737.627908, 545204.576304 258734.561706)

LINESTRING (545195.350890 258731.787022, 545203.781023 258730.197449)

LINESTRING (545142.774212 258751.807024, 545143.407174 258756.812093)

LINESTRING (545155.527047 258762.788041, 545153.217085 258763.210133)

LINESTRING (545126.134752 258785.513092, 545126.991382 258785.449132)

LINESTRING (545145.309930 258802.047135, 545143.810092 258802.359389, 545143.018372 258797.405323)

LINESTRING (545140.601749 258776.486837, 545142.825823 258775.728305, 545144.873572 258774.686343, 545146.934675 258773.188417)

LINESTRING (544827.140128 258698.740833, 544823.757801 258698.419382, 544819.568935 258698.085495)

LINESTRING (544812.914475 258622.291916, 544812.212301 258629.472907)

LINESTRING (544788.140265 258656.440309, 544788.157265 258658.433185)

LINESTRING (544908.059669 258428.472699, 544927.583292 258431.058178)

LINESTRING (544908.059669 258428.472699, 544913.629235 258426.030970)

LINESTRING (544908.059669 258428.472699, 544887.664364 258425.527898, 544884.467646 258425.634803)

LINESTRING (544913.629235 258426.030970, 544908.059669 258428.472699)

LINESTRING (544940.734314 258412.097712, 544943.545501 258413.248460)

LINESTRING (544839.570456 258446.305554, 544839.883245 258440.048160, 544840.019423 258435.622155)

LINESTRING (545075.187605 258424.935830, 545068.057878 258422.267278)

LINESTRING (544899.293455 258573.938496, 544887.144562 258599.339584)

LINESTRING (544838.473709 258847.454329, 544841.980925 258850.050092, 544842.265585 258849.668840, 544839.293887 258847.467169, 544839.422390 258847.281704, 544839.571715 258847.085718)

LINESTRING (545017.468267 258403.033497, 545021.823335 258394.423374, 545024.500148 258391.752430)

LINESTRING (545019.632287 258404.098569, 545023.768710 258395.482051, 545024.500148 258391.752430)

LINESTRING (545052.133607 258441.802974, 545072.122334 258449.522733)

LINESTRING (545106.287990 258644.307360, 545105.762872 258644.258594)

LINESTRING (545106.287990 258644.307360, 545111.937729 258644.495040)

LINESTRING (545106.287990 258644.307360, 545104.675897 258671.574764, 545124.684606 258672.505675)

LINESTRING (545105.762872 258644.258594, 545106.287990 258644.307360)

