LINESTRING (4890.758218 4783.172733, 4185.360135 3616.698069)

LINESTRING (5102.289892 543.692592, 3744.311809 1106.050842)

LINESTRING (5102.289892 543.692592, 4532.633040 1123.053111)

LINESTRING (2754.664186 5265.311304, 3852.186068 4066.995423)

LINESTRING (2754.664186 5265.311304, 1863.579042 6601.996211)

LINESTRING (2754.664186 5265.311304, 3001.778859 5652.356833)

LINESTRING (2754.664186 5265.311304, 2481.347014 4069.361342)

LINESTRING (3298.650386 1908.033541, 5007.965179 1790.441920)

LINESTRING (3298.650386 1908.033541, 3321.781168 1900.725487)

LINESTRING (3298.650386 1908.033541, 3703.470464 1934.166310)

LINESTRING (3298.650386 1908.033541, 3034.419924 2608.097372)

LINESTRING (3298.650386 1908.033541, 3122.110781 1279.675286)

LINESTRING (7764.336149 1152.385152, 8060.416744 1404.585755)

LINESTRING (7764.336149 1152.385152, 7553.148428 426.119305)

LINESTRING (7764.336149 1152.385152, 7080.283178 255.246500)

LINESTRING (7944.545435 6195.961422, 7457.995265 5957.120961)

LINESTRING (7944.545435 6195.961422, 7993.916639 5723.431782)

LINESTRING (7944.545435 6195.961422, 8171.342590 5591.339900)

LINESTRING (7944.545435 6195.961422, 8219.462532 6139.336904)

LINESTRING (521.236457 1293.874130, 866.056633 1103.706685)

LINESTRING (521.236457 1293.874130, 836.454257 2178.854052)

LINESTRING (1070.056781 3942.985872, 198.625238 3415.344327)

LINESTRING (1070.056781 3942.985872, 612.079286 5660.671132)

LINESTRING (1070.056781 3942.985872, 1211.121943 3612.045447)

LINESTRING (1070.056781 3942.985872, 557.002674 4128.339206)

LINESTRING (1070.056781 3942.985872, 868.975474 4577.280191)

LINESTRING (3852.186068 4066.995423, 4185.360135 3616.698069)

LINESTRING (3852.186068 4066.995423, 4703.745956 4101.104263)

LINESTRING (3852.186068 4066.995423, 3034.419924 2608.097372)

LINESTRING (7246.532904 5527.891765, 7058.613109 3758.980115)

LINESTRING (7246.532904 5527.891765, 7457.995265 5957.120961)

LINESTRING (7246.532904 5527.891765, 7993.916639 5723.431782)

LINESTRING (7246.532904 5527.891765, 7166.655041 6080.802503)

LINESTRING (3948.704297 5121.287195, 4073.955098 4909.693451)

LINESTRING (3948.704297 5121.287195, 4020.298496 5642.790698)

LINESTRING (7347.386739 4300.496946, 7276.478981 4208.386621)

LINESTRING (7347.386739 4300.496946, 7499.898513 4015.647805)

LINESTRING (7347.386739 4300.496946, 7058.613109 3758.980115)

LINESTRING (7347.386739 4300.496946, 7145.409179 3938.111230)

LINESTRING (7347.386739 4300.496946, 7993.916639 5723.431782)

LINESTRING (7347.386739 4300.496946, 8171.342590 5591.339900)

LINESTRING (8060.416744 1404.585755, 7261.554167 240.434210)

LINESTRING (8060.416744 1404.585755, 7553.148428 426.119305)

LINESTRING (7261.554167 240.434210, 7553.148428 426.119305)

LINESTRING (7261.554167 240.434210, 7080.283178 255.246500)

LINESTRING (866.056633 1103.706685, 1439.709546 2700.875178)

LINESTRING (866.056633 1103.706685, 2275.033608 456.801825)

LINESTRING (1357.200870 400.613925, 2275.033608 456.801825)

LINESTRING (1357.200870 400.613925, 2731.097756 497.991697)

LINESTRING (836.454257 2178.854052, 315.641709 2275.719102)

LINESTRING (1863.579042 6601.996211, 1371.523207 7404.551138)

LINESTRING (1863.579042 6601.996211, 612.079286 5660.671132)

LINESTRING (1863.579042 6601.996211, 1709.091339 6868.831677)

LINESTRING (1863.579042 6601.996211, 1763.723566 5959.458502)

LINESTRING (3744.311809 1106.050842, 3034.419924 2608.097372)

LINESTRING (3744.311809 1106.050842, 2731.097756 497.991697)

LINESTRING (2704.938485 2895.080485, 1211.121943 3612.045447)

LINESTRING (2704.938485 2895.080485, 2308.917991 3227.966009)

LINESTRING (2704.938485 2895.080485, 3034.419924 2608.097372)

LINESTRING (5219.978693 7872.747565, 5600.856835 7159.071096)

LINESTRING (5219.978693 7872.747565, 3874.442765 7658.065528)

LINESTRING (5061.736968 5632.648913, 4605.074677 5522.358700)

LINESTRING (5061.736968 5632.648913, 5480.680605 5296.694718)

LINESTRING (5061.736968 5632.648913, 4939.897940 5533.670664)

LINESTRING (5061.736968 5632.648913, 4020.298496 5642.790698)

LINESTRING (4185.360135 3616.698069, 3034.419924 2608.097372)

LINESTRING (1518.467803 7211.463026, 1371.523207 7404.551138)

LINESTRING (1518.467803 7211.463026, 1709.091339 6868.831677)

LINESTRING (1518.467803 7211.463026, 2988.299766 7918.805204)

LINESTRING (1518.467803 7211.463026, 1183.843901 6955.730233)

LINESTRING (1371.523207 7404.551138, 1709.091339 6868.831677)

LINESTRING (1371.523207 7404.551138, 1183.843901 6955.730233)

LINESTRING (3001.778859 5652.356833, 4073.955098 4909.693451)

LINESTRING (3001.778859 5652.356833, 1709.091339 6868.831677)

LINESTRING (3001.778859 5652.356833, 1763.723566 5959.458502)

LINESTRING (612.079286 5660.671132, 1709.091339 6868.831677)

LINESTRING (5007.965179 1790.441920, 3321.781168 1900.725487)

LINESTRING (5007.965179 1790.441920, 3703.470464 1934.166310)

LINESTRING (5007.965179 1790.441920, 5411.902189 2509.082037)

LINESTRING (1211.121943 3612.045447, 2308.917991 3227.966009)

LINESTRING (4073.955098 4909.693451, 4939.897940 5533.670664)

LINESTRING (4073.955098 4909.693451, 4020.298496 5642.790698)

LINESTRING (1709.091339 6868.831677, 1183.843901 6955.730233)

LINESTRING (7276.478981 4208.386621, 7499.898513 4015.647805)

LINESTRING (7276.478981 4208.386621, 7058.613109 3758.980115)

LINESTRING (7276.478981 4208.386621, 7145.409179 3938.111230)

LINESTRING (7276.478981 4208.386621, 7457.995265 5957.120961)

LINESTRING (1763.723566 5959.458502, 2105.346358 4731.939074)

LINESTRING (1763.723566 5959.458502, 868.975474 4577.280191)

LINESTRING (7553.148428 426.119305, 7080.283178 255.246500)

LINESTRING (3996.903411 7037.988902, 5600.856835 7159.071096)

LINESTRING (3996.903411 7037.988902, 2988.299766 7918.805204)

LINESTRING (3996.903411 7037.988902, 3801.725410 7328.140381)

LINESTRING (3996.903411 7037.988902, 4588.916467 7111.833499)

LINESTRING (7499.898513 4015.647805, 7058.613109 3758.980115)

LINESTRING (7499.898513 4015.647805, 7145.409179 3938.111230)

LINESTRING (7499.898513 4015.647805, 8171.342590 5591.339900)

LINESTRING (5600.856835 7159.071096, 3874.442765 7658.065528)

LINESTRING (5600.856835 7159.071096, 6976.236673 7960.285088)

LINESTRING (7058.613109 3758.980115, 7145.409179 3938.111230)

LINESTRING (7058.613109 3758.980115, 5984.608759 4317.221094)

LINESTRING (2988.299766 7918.805204, 3638.672660 8065.740625)

LINESTRING (4605.074677 5522.358700, 5480.680605 5296.694718)

LINESTRING (4605.074677 5522.358700, 4939.897940 5533.670664)

LINESTRING (4605.074677 5522.358700, 4020.298496 5642.790698)

LINESTRING (5480.680605 5296.694718, 4939.897940 5533.670664)

LINESTRING (5480.680605 5296.694718, 4020.298496 5642.790698)

LINESTRING (5480.680605 5296.694718, 5984.608759 4317.221094)

LINESTRING (2481.347014 4069.361342, 2308.917991 3227.966009)

LINESTRING (2481.347014 4069.361342, 2105.346358 4731.939074)

LINESTRING (7308.381551 8244.920483, 6641.644577 7278.697782)

LINESTRING (7308.381551 8244.920483, 6976.236673 7960.285088)

LINESTRING (557.002674 4128.339206, 1439.709546 2700.875178)

LINESTRING (557.002674 4128.339206, 1818.793444 3788.416513)

LINESTRING (557.002674 4128.339206, 2105.346358 4731.939074)

LINESTRING (557.002674 4128.339206, 868.975474 4577.280191)

LINESTRING (1439.709546 2700.875178, 315.641709 2275.719102)

LINESTRING (7457.995265 5957.120961, 7993.916639 5723.431782)

LINESTRING (7457.995265 5957.120961, 6641.644577 7278.697782)

LINESTRING (7457.995265 5957.120961, 7166.655041 6080.802503)

LINESTRING (4939.897940 5533.670664, 4588.916467 7111.833499)

LINESTRING (4939.897940 5533.670664, 5984.608759 4317.221094)

LINESTRING (7993.916639 5723.431782, 8171.342590 5591.339900)

LINESTRING (7993.916639 5723.431782, 8219.462532 6139.336904)

LINESTRING (3874.442765 7658.065528, 3801.725410 7328.140381)

LINESTRING (3874.442765 7658.065528, 3638.672660 8065.740625)

LINESTRING (8171.342590 5591.339900, 8219.462532 6139.336904)

LINESTRING (3801.725410 7328.140381, 3638.672660 8065.740625)

LINESTRING (3801.725410 7328.140381, 4020.298496 5642.790698)

LINESTRING (3638.672660 8065.740625, 4588.916467 7111.833499)

LINESTRING (2308.917991 3227.966009, 3034.419924 2608.097372)

LINESTRING (1818.793444 3788.416513, 2105.346358 4731.939074)

LINESTRING (4532.633040 1123.053111, 5411.902189 2509.082037)

LINESTRING (868.975474 4577.280191, 894.300178 4914.685372)

LINESTRING (3321.781168 1900.725487, 2275.033608 456.801825)

LINESTRING (3321.781168 1900.725487, 3703.470464 1934.166310)

LINESTRING (3321.781168 1900.725487, 2731.097756 497.991697)

LINESTRING (2275.033608 456.801825, 3122.110781 1279.675286)

LINESTRING (2275.033608 456.801825, 2731.097756 497.991697)

