LINESTRING (1518.787742 2190.089689, 1586.810650 2085.338399)

LINESTRING (1717.142136 2321.043586, 1782.439431 2568.143001)

LINESTRING (1717.142136 2321.043586, 1727.620971 2267.604016)

LINESTRING (2134.337991 585.667507, 1583.398835 498.672893)

LINESTRING (877.852331 1745.958812, 806.501164 1766.258041)

LINESTRING (1583.398835 498.672893, 1661.990425 901.063804)

LINESTRING (1583.398835 498.672893, 1388.179145 474.859633)

LINESTRING (931.551664 672.168839, 933.670530 494.648243)

LINESTRING (931.551664 672.168839, 827.292365 161.071055)

LINESTRING (931.551664 672.168839, 868.122633 651.093549)

LINESTRING (931.551664 672.168839, 492.851096 378.481104)

LINESTRING (2862.083474 242.556816, 2721.370183 187.200736)

LINESTRING (1756.381364 2751.872652, 1782.439431 2568.143001)

LINESTRING (1756.381364 2751.872652, 1867.107956 2621.119415)

LINESTRING (2573.623989 2373.544904, 2472.330711 2325.599495)

LINESTRING (933.670530 494.648243, 1063.597905 407.995228)

LINESTRING (933.670530 494.648243, 827.292365 161.071055)

LINESTRING (933.670530 494.648243, 813.317779 388.490051)

LINESTRING (933.670530 494.648243, 919.986083 969.425360)

LINESTRING (933.670530 494.648243, 885.352032 368.767715)

LINESTRING (933.670530 494.648243, 868.122633 651.093549)

LINESTRING (1885.567147 1381.727260, 1973.145429 1537.490914)

LINESTRING (1885.567147 1381.727260, 1644.632745 1502.637815)

LINESTRING (1885.567147 1381.727260, 2208.052738 1311.920269)

LINESTRING (1885.567147 1381.727260, 1825.173212 1203.274769)

LINESTRING (1514.878398 1203.609579, 1661.990425 901.063804)

LINESTRING (1514.878398 1203.609579, 1706.213978 1146.337026)

LINESTRING (2427.645223 1088.787467, 2753.185192 1471.446193)

LINESTRING (2427.645223 1088.787467, 2789.575703 1211.114242)

LINESTRING (2427.645223 1088.787467, 2562.377522 884.245455)

LINESTRING (2427.645223 1088.787467, 2071.166888 1020.908177)

LINESTRING (2242.764480 2727.814969, 2141.935852 2559.600838)

LINESTRING (2242.764480 2727.814969, 2112.710052 2720.522402)

LINESTRING (2242.764480 2727.814969, 2029.311023 2533.979545)

LINESTRING (1063.597905 407.995228, 827.292365 161.071055)

LINESTRING (1063.597905 407.995228, 1151.255396 277.444529)

LINESTRING (1063.597905 407.995228, 885.352032 368.767715)

LINESTRING (2753.185192 1471.446193, 2208.052738 1311.920269)

LINESTRING (1973.145429 1537.490914, 2393.754480 1912.407169)

LINESTRING (1661.990425 901.063804, 1773.768976 767.053645)

LINESTRING (1661.990425 901.063804, 1751.803291 992.907189)

LINESTRING (1644.632745 1502.637815, 1770.000676 1621.679640)

LINESTRING (1644.632745 1502.637815, 2208.052738 1311.920269)

LINESTRING (827.292365 161.071055, 825.126981 257.820064)

LINESTRING (1443.839162 1396.739095, 1167.888521 1186.200850)

LINESTRING (1770.000676 1621.679640, 2208.052738 1311.920269)

LINESTRING (478.099986 1138.418912, 566.234516 610.132988)

LINESTRING (1782.439431 2568.143001, 1679.457403 2566.045090)

LINESTRING (1782.439431 2568.143001, 1867.107956 2621.119415)

LINESTRING (566.234516 610.132988, 813.317779 388.490051)

LINESTRING (641.837924 910.775275, 1002.758150 861.028573)

LINESTRING (1706.213978 1146.337026, 1751.803291 992.907189)

LINESTRING (1706.213978 1146.337026, 2208.052738 1311.920269)

LINESTRING (1706.213978 1146.337026, 1825.173212 1203.274769)

LINESTRING (1167.888521 1186.200850, 1049.065426 1593.593479)

LINESTRING (1167.888521 1186.200850, 1115.202392 1593.556996)

LINESTRING (1167.888521 1186.200850, 1002.758150 861.028573)

LINESTRING (1998.655355 2318.060126, 1867.107956 2621.119415)

LINESTRING (1998.655355 2318.060126, 2112.710052 2720.522402)

LINESTRING (120.425662 1630.600697, 164.526395 1363.860728)

LINESTRING (1049.065426 1593.593479, 1115.202392 1593.556996)

LINESTRING (813.317779 388.490051, 825.126981 257.820064)

LINESTRING (813.317779 388.490051, 919.986083 969.425360)

LINESTRING (813.317779 388.490051, 885.352032 368.767715)

LINESTRING (813.317779 388.490051, 868.122633 651.093549)

LINESTRING (813.317779 388.490051, 1002.758150 861.028573)

LINESTRING (825.126981 257.820064, 885.352032 368.767715)

LINESTRING (580.955771 1380.629393, 919.986083 969.425360)

LINESTRING (1151.255396 277.444529, 868.122633 651.093549)

LINESTRING (919.986083 969.425360, 1002.758150 861.028573)

LINESTRING (2562.377522 884.245455, 2630.623887 867.567561)

LINESTRING (2562.377522 884.245455, 2396.178956 1446.505991)

LINESTRING (2141.935852 2559.600838, 2112.710052 2720.522402)

LINESTRING (2141.935852 2559.600838, 2029.311023 2533.979545)

LINESTRING (1679.457403 2566.045090, 1867.107956 2621.119415)

LINESTRING (1679.457403 2566.045090, 2112.710052 2720.522402)

LINESTRING (1773.768976 767.053645, 1751.803291 992.907189)

LINESTRING (1773.768976 767.053645, 1825.173212 1203.274769)

LINESTRING (2472.330711 2325.599495, 2029.311023 2533.979545)

LINESTRING (1329.363281 2837.213520, 1167.729000 2785.595518)

LINESTRING (1329.363281 2837.213520, 1162.097290 2749.466776)

LINESTRING (1388.179145 474.859633, 1484.969743 318.409797)

LINESTRING (1388.179145 474.859633, 1002.758150 861.028573)

LINESTRING (1727.620971 2267.604016, 1272.921668 2082.248078)

LINESTRING (1055.578042 2451.548712, 958.796387 2334.884768)

LINESTRING (1167.729000 2785.595518, 1162.097290 2749.466776)

LINESTRING (2071.166888 1020.908177, 2208.052738 1311.920269)

LINESTRING (1867.107956 2621.119415, 2029.311023 2533.979545)

LINESTRING (164.526395 1363.860728, 71.701829 1244.616262)

LINESTRING (492.851096 378.481104, 384.679190 248.295687)

LINESTRING (2198.350613 1316.786405, 2208.052738 1311.920269)

