LINESTRING (7584.021354 5156.748734, 7749.467739 4424.750902)

LINESTRING (7584.021354 5156.748734, 7858.824048 5362.606723)

LINESTRING (7584.021354 5156.748734, 5670.344263 6476.723722)

LINESTRING (7584.021354 5156.748734, 6929.252678 5098.917338)

LINESTRING (809.394212 6318.428744, 1198.115445 6699.999597)

LINESTRING (809.394212 6318.428744, 408.255229 6837.820367)

LINESTRING (2489.689110 555.881325, 3220.699943 530.830006)

LINESTRING (2489.689110 555.881325, 2238.086689 2183.235636)

LINESTRING (2371.845905 2471.421594, 1996.027002 2854.767146)

LINESTRING (2371.845905 2471.421594, 2238.086689 2183.235636)

LINESTRING (2371.845905 2471.421594, 2387.215163 2872.457393)

LINESTRING (1645.237438 7994.434601, 1850.950154 7347.547643)

LINESTRING (8684.459489 144.931952, 8676.902781 919.704742)

LINESTRING (6806.108639 5661.826200, 6420.051964 3761.941190)

LINESTRING (6806.108639 5661.826200, 7749.467739 4424.750902)

LINESTRING (6806.108639 5661.826200, 6929.252678 5098.917338)

LINESTRING (3220.699943 530.830006, 2238.086689 2183.235636)

LINESTRING (1198.115445 6699.999597, 362.961554 7576.313719)

LINESTRING (4135.245090 2118.976011, 4632.857495 1985.799616)

LINESTRING (4135.245090 2118.976011, 4070.696609 4034.627315)

LINESTRING (2601.784213 7067.001555, 3045.408795 6415.440135)

LINESTRING (2601.784213 7067.001555, 2209.288881 6191.751463)

LINESTRING (2601.784213 7067.001555, 2379.494966 6310.080325)

LINESTRING (2601.784213 7067.001555, 408.255229 6837.820367)

LINESTRING (2601.784213 7067.001555, 2494.933440 6467.074729)

LINESTRING (1996.027002 2854.767146, 2238.086689 2183.235636)

LINESTRING (1996.027002 2854.767146, 2387.215163 2872.457393)

LINESTRING (6185.685057 6339.169426, 5670.344263 6476.723722)

LINESTRING (6420.051964 3761.941190, 5873.125950 3966.092360)

LINESTRING (5531.314391 2887.540564, 6213.303061 2658.132807)

LINESTRING (4632.857495 1985.799616, 6327.113307 733.101944)

LINESTRING (4632.857495 1985.799616, 5873.125950 3966.092360)

LINESTRING (4803.249102 7061.931517, 3045.408795 6415.440135)

LINESTRING (4803.249102 7061.931517, 4961.745023 6671.485138)

LINESTRING (4803.249102 7061.931517, 5110.229233 6504.784043)

LINESTRING (6327.113307 733.101944, 6297.914079 215.086765)

LINESTRING (6327.113307 733.101944, 5906.902299 255.248603)

LINESTRING (643.563809 2985.204189, 566.191067 2244.395233)

LINESTRING (814.953977 4392.273134, 2209.288881 6191.751463)

LINESTRING (814.953977 4392.273134, 2387.215163 2872.457393)

LINESTRING (6297.914079 215.086765, 5906.902299 255.248603)

LINESTRING (5670.344263 6476.723722, 4961.745023 6671.485138)

LINESTRING (5670.344263 6476.723722, 5110.229233 6504.784043)

LINESTRING (7312.881144 1264.949167, 7541.120929 1464.330667)

LINESTRING (422.134786 8208.550462, 362.961554 7576.313719)

LINESTRING (3045.408795 6415.440135, 2379.494966 6310.080325)

LINESTRING (3045.408795 6415.440135, 2494.933440 6467.074729)

LINESTRING (2209.288881 6191.751463, 2379.494966 6310.080325)

LINESTRING (2209.288881 6191.751463, 2494.933440 6467.074729)

LINESTRING (2379.494966 6310.080325, 2494.933440 6467.074729)

LINESTRING (408.255229 6837.820367, 362.961554 7576.313719)

LINESTRING (4961.745023 6671.485138, 5110.229233 6504.784043)

LINESTRING (349.296756 1734.834650, 566.191067 2244.395233)

LINESTRING (349.296756 1734.834650, 279.634641 1479.973256)

LINESTRING (2238.086689 2183.235636, 2387.215163 2872.457393)

