LINESTRING (60.000000 60.000000, 43.833606 41.886215)

LINESTRING (60.000000 60.000000, 85.061743 63.414143)

LINESTRING (60.000000 60.000000, 71.758211 31.598268)

LINESTRING (60.000000 60.000000, 53.151425 81.049600)

LINESTRING (60.000000 60.000000, 35.381195 56.700577)

LINESTRING (60.000000 60.000000, 46.849790 91.135757)

LINESTRING (60.000000 60.000000, 34.457485 40.891341)

LINESTRING (60.000000 60.000000, 44.528047 86.152760)

LINESTRING (43.833606 41.886215, 71.758211 31.598268)

LINESTRING (43.833606 41.886215, 53.151425 81.049600)

LINESTRING (43.833606 41.886215, 35.381195 56.700577)

LINESTRING (43.833606 41.886215, 46.849790 91.135757)

LINESTRING (85.061743 63.414143, 53.151425 81.049600)

LINESTRING (85.061743 63.414143, 46.849790 91.135757)

LINESTRING (71.758211 31.598268, 46.849790 91.135757)

LINESTRING (53.151425 81.049600, 35.381195 56.700577)

LINESTRING (53.151425 81.049600, 34.457485 40.891341)

LINESTRING (35.381195 56.700577, 44.528047 86.152760)

LINESTRING (360.000000 60.000000, 361.280247 90.712275)

LINESTRING (360.000000 60.000000, 327.105954 34.178442)

LINESTRING (360.000000 60.000000, 367.451936 73.048287)

LINESTRING (360.000000 60.000000, 334.295258 52.547796)

LINESTRING (360.000000 60.000000, 367.733758 47.436761)

LINESTRING (360.000000 60.000000, 343.475154 45.299652)

LINESTRING (360.000000 60.000000, 385.767766 32.451754)

LINESTRING (360.000000 60.000000, 382.522396 85.809256)

LINESTRING (361.280247 90.712275, 327.105954 34.178442)

LINESTRING (361.280247 90.712275, 367.451936 73.048287)

LINESTRING (361.280247 90.712275, 334.295258 52.547796)

LINESTRING (361.280247 90.712275, 367.733758 47.436761)

LINESTRING (361.280247 90.712275, 343.475154 45.299652)

LINESTRING (361.280247 90.712275, 385.767766 32.451754)

LINESTRING (361.280247 90.712275, 382.522396 85.809256)

LINESTRING (327.105954 34.178442, 334.295258 52.547796)

LINESTRING (327.105954 34.178442, 367.733758 47.436761)

LINESTRING (327.105954 34.178442, 343.475154 45.299652)

LINESTRING (367.451936 73.048287, 382.522396 85.809256)

LINESTRING (334.295258 52.547796, 367.733758 47.436761)

LINESTRING (334.295258 52.547796, 343.475154 45.299652)

LINESTRING (334.295258 52.547796, 385.767766 32.451754)

LINESTRING (367.733758 47.436761, 385.767766 32.451754)

LINESTRING (343.475154 45.299652, 385.767766 32.451754)

LINESTRING (343.475154 45.299652, 382.522396 85.809256)

LINESTRING (60.000000 360.000000, 83.943225 359.756191)

LINESTRING (60.000000 360.000000, 84.382236 364.162789)

LINESTRING (60.000000 360.000000, 30.081098 368.075484)

LINESTRING (60.000000 360.000000, 52.827458 330.121156)

LINESTRING (60.000000 360.000000, 66.881813 388.124747)

LINESTRING (60.000000 360.000000, 35.892761 380.728239)

LINESTRING (60.000000 360.000000, 32.673242 357.339833)

LINESTRING (60.000000 360.000000, 40.174196 363.585671)

LINESTRING (83.943225 359.756191, 84.382236 364.162789)

LINESTRING (83.943225 359.756191, 30.081098 368.075484)

LINESTRING (83.943225 359.756191, 52.827458 330.121156)

LINESTRING (83.943225 359.756191, 35.892761 380.728239)

LINESTRING (83.943225 359.756191, 40.174196 363.585671)

LINESTRING (84.382236 364.162789, 30.081098 368.075484)

LINESTRING (84.382236 364.162789, 40.174196 363.585671)

LINESTRING (30.081098 368.075484, 66.881813 388.124747)

LINESTRING (30.081098 368.075484, 35.892761 380.728239)

LINESTRING (52.827458 330.121156, 32.673242 357.339833)

LINESTRING (66.881813 388.124747, 32.673242 357.339833)

LINESTRING (66.881813 388.124747, 40.174196 363.585671)

LINESTRING (35.892761 380.728239, 32.673242 357.339833)

LINESTRING (35.892761 380.728239, 40.174196 363.585671)

LINESTRING (360.000000 360.000000, 376.293745 372.406936)

LINESTRING (360.000000 360.000000, 376.288250 393.036100)

LINESTRING (360.000000 360.000000, 365.093957 351.378699)

LINESTRING (360.000000 360.000000, 334.461920 359.192685)

LINESTRING (360.000000 360.000000, 370.581954 338.528781)

LINESTRING (360.000000 360.000000, 375.159086 367.618882)

LINESTRING (360.000000 360.000000, 335.260553 343.799676)

LINESTRING (360.000000 360.000000, 355.725335 388.301316)

LINESTRING (376.293745 372.406936, 376.288250 393.036100)

LINESTRING (376.293745 372.406936, 365.093957 351.378699)

LINESTRING (376.293745 372.406936, 334.461920 359.192685)

LINESTRING (376.293745 372.406936, 355.725335 388.301316)

LINESTRING (376.288250 393.036100, 365.093957 351.378699)

LINESTRING (376.288250 393.036100, 334.461920 359.192685)

LINESTRING (376.288250 393.036100, 375.159086 367.618882)

LINESTRING (376.288250 393.036100, 335.260553 343.799676)

LINESTRING (365.093957 351.378699, 334.461920 359.192685)

LINESTRING (365.093957 351.378699, 355.725335 388.301316)

LINESTRING (334.461920 359.192685, 375.159086 367.618882)

LINESTRING (334.461920 359.192685, 335.260553 343.799676)

LINESTRING (375.159086 367.618882, 355.725335 388.301316)

LINESTRING (85.061743 63.414143, 334.295258 52.547796)

LINESTRING (43.833606 41.886215, 334.295258 52.547796)

LINESTRING (60.000000 60.000000, 360.000000 60.000000)

LINESTRING (382.522396 85.809256, 32.673242 357.339833)

LINESTRING (343.475154 45.299652, 52.827458 330.121156)

LINESTRING (360.000000 60.000000, 60.000000 360.000000)

LINESTRING (40.174196 363.585671, 376.288250 393.036100)

LINESTRING (35.892761 380.728239, 375.159086 367.618882)

LINESTRING (60.000000 360.000000, 360.000000 360.000000)

