LINESTRING (80.000000 80.000000, 778.887119 119.456235)

LINESTRING (80.000000 80.000000, 464.387916 101.700929)

LINESTRING (464.387916 101.700929, 778.887119 119.456235)

LINESTRING (80.000000 80.000000, 676.148375 446.888422)

LINESTRING (80.000000 80.000000, 407.881606 281.788632)

LINESTRING (407.881606 281.788632, 676.148375 446.888422)

LINESTRING (80.000000 80.000000, 329.941334 733.857270)

LINESTRING (80.000000 80.000000, 217.467734 439.621498)

LINESTRING (217.467734 439.621498, 329.941334 733.857270)

LINESTRING (80.000000 80.000000, -115.481482 752.151017)

LINESTRING (80.000000 80.000000, -27.514815 449.683060)

LINESTRING (-27.514815 449.683060, -115.481482 752.151017)

LINESTRING (80.000000 80.000000, -490.242330 485.984834)

LINESTRING (80.000000 80.000000, -233.633281 303.291659)

LINESTRING (-233.633281 303.291659, -490.242330 485.984834)

LINESTRING (80.000000 80.000000, -618.232269 30.283818)

LINESTRING (80.000000 80.000000, -304.027748 52.656100)

LINESTRING (-304.027748 52.656100, -618.232269 30.283818)

LINESTRING (80.000000 80.000000, -499.418996 -312.776816)

LINESTRING (80.000000 80.000000, -238.680448 -136.027249)

LINESTRING (-238.680448 -136.027249, -499.418996 -312.776816)

LINESTRING (80.000000 80.000000, -128.667150 -588.175142)

LINESTRING (80.000000 80.000000, -34.766933 -287.496328)

LINESTRING (-34.766933 -287.496328, -128.667150 -588.175142)

LINESTRING (80.000000 80.000000, 347.452559 -566.891899)

LINESTRING (80.000000 80.000000, 227.098907 -275.790544)

LINESTRING (227.098907 -275.790544, 347.452559 -566.891899)

LINESTRING (80.000000 80.000000, 667.995191 -299.817924)

LINESTRING (80.000000 80.000000, 403.397355 -128.899858)

LINESTRING (403.397355 -128.899858, 667.995191 -299.817924)

LINESTRING (778.887119 119.456235, 676.148375 446.888422)

LINESTRING (676.148375 446.888422, 329.941334 733.857270)

LINESTRING (329.941334 733.857270, -115.481482 752.151017)

LINESTRING (-115.481482 752.151017, -490.242330 485.984834)

LINESTRING (-490.242330 485.984834, -618.232269 30.283818)

LINESTRING (-618.232269 30.283818, -499.418996 -312.776816)

LINESTRING (-499.418996 -312.776816, -128.667150 -588.175142)

LINESTRING (-128.667150 -588.175142, 347.452559 -566.891899)

LINESTRING (347.452559 -566.891899, 667.995191 -299.817924)

LINESTRING (667.995191 -299.817924, 778.887119 119.456235)

