LINESTRING (50.000000 250.000000, 175.000000 250.000000)

LINESTRING (175.000000 250.000000, 300.000000 250.000000)

LINESTRING (300.000000 250.000000, 425.000000 250.000000)

LINESTRING (425.000000 250.000000, 550.000000 250.000000)

LINESTRING (550.000000 250.000000, 675.000000 250.000000)

LINESTRING (675.000000 250.000000, 800.000000 250.000000)

LINESTRING (800.000000 250.000000, 925.000000 250.000000)

LINESTRING (925.000000 250.000000, 1050.000000 250.000000)

LINESTRING (1050.000000 250.000000, 1175.000000 250.000000)

LINESTRING (1175.000000 250.000000, 1300.000000 250.000000)

LINESTRING (1300.000000 250.000000, 1425.000000 250.000000)

LINESTRING (1425.000000 250.000000, 1550.000000 250.000000)

LINESTRING (1550.000000 250.000000, 1675.000000 250.000000)

LINESTRING (1675.000000 250.000000, 1800.000000 250.000000)

LINESTRING (1800.000000 250.000000, 1925.000000 250.000000)

LINESTRING (1925.000000 250.000000, 2050.000000 250.000000)

LINESTRING (2050.000000 250.000000, 2175.000000 250.000000)

LINESTRING (2175.000000 250.000000, 2300.000000 250.000000)

LINESTRING (2300.000000 250.000000, 2425.000000 250.000000)

LINESTRING (2425.000000 250.000000, 2550.000000 250.000000)

LINESTRING (2550.000000 250.000000, 2675.000000 250.000000)

LINESTRING (2675.000000 250.000000, 2800.000000 250.000000)

LINESTRING (2800.000000 250.000000, 2925.000000 250.000000)

LINESTRING (2925.000000 250.000000, 3050.000000 250.000000)

LINESTRING (3050.000000 250.000000, 3175.000000 250.000000)

LINESTRING (3175.000000 250.000000, 3300.000000 250.000000)

LINESTRING (3300.000000 250.000000, 3425.000000 250.000000)

LINESTRING (3425.000000 250.000000, 3550.000000 250.000000)

LINESTRING (3550.000000 250.000000, 3675.000000 250.000000)

LINESTRING (3675.000000 250.000000, 3800.000000 250.000000)

LINESTRING (3800.000000 250.000000, 3925.000000 250.000000)

LINESTRING (3925.000000 250.000000, 4050.000000 250.000000)

LINESTRING (175.000000 250.000000, 175.000000 350.000000)

LINESTRING (300.000000 250.000000, 300.000000 350.000000)

