LINESTRING (551092.692492 4180498.200632, 551093.622264 4180501.657051, 551096.893490 4180512.428728, 551100.967873 4180525.768414)

LINESTRING (551100.967873 4180525.768414, 551106.192998 4180546.693362, 551109.421733 4180558.629793, 551111.778772 4180567.687124)

LINESTRING (551458.060340 4180416.771376, 551418.588854 4180424.580152, 551398.861048 4180428.628900, 551379.192905 4180432.999832, 551360.026035 4180437.495985, 551340.461479 4180442.211610, 551321.305741 4180446.341775, 551296.650805 4180451.003604, 551223.377269 4180464.328108, 551167.659942 4180474.400393, 551130.109137 4180480.780078)

LINESTRING (551130.109137 4180480.780078, 551112.322024 4180481.546235, 551104.919738 4180480.768020, 551101.276391 4180480.290511, 551097.641852 4180479.813058, 551088.206688 4180477.346852)

LINESTRING (551130.109137 4180480.780078, 551121.472386 4180484.487801, 551115.912990 4180487.626573, 551111.934345 4180491.507449, 551105.933554 4180501.910940, 551104.344887 4180506.705369, 551103.361990 4180510.394022, 551102.793720 4180512.554089, 551100.967873 4180525.768414)

LINESTRING (551579.285968 4180525.409585, 551575.135327 4180517.339467, 551572.246364 4180511.729322, 551566.415109 4180499.177259, 551560.929885 4180486.216839, 551556.006359 4180473.570607, 551551.836209 4180461.572625, 551548.400159 4180450.489056, 551544.968751 4180438.662130, 551542.469311 4180425.687120, 551540.589686 4180415.001631)

LINESTRING (551579.285968 4180525.409585, 551598.093481 4180514.997868, 551618.954241 4180503.012422, 551630.532425 4180496.572003)

LINESTRING (551579.285968 4180525.409585, 551529.965032 4180552.018264, 551520.747935 4180556.964621)

LINESTRING (551540.589686 4180415.001631, 551542.469311 4180425.687120, 551544.968751 4180438.662130, 551548.400159 4180450.489056, 551551.836209 4180461.572625, 551556.006359 4180473.570607, 551560.929885 4180486.216839, 551566.415109 4180499.177259, 551572.246364 4180511.729322, 551575.135327 4180517.339467, 551579.285968 4180525.409585)

LINESTRING (551540.589686 4180415.001631, 551520.637878 4180415.420508, 551482.152514 4180416.222886, 551471.740551 4180416.446307)

LINESTRING (551630.532425 4180496.572003, 551627.456200 4180489.928797, 551620.634690 4180475.184704, 551615.168191 4180462.057934, 551609.886575 4180447.534312, 551604.854532 4180432.535156, 551603.152486 4180424.447077, 551600.842913 4180413.514782)

LINESTRING (551630.532425 4180496.572003, 551634.457268 4180494.288767, 551636.985434 4180492.817836, 551649.537027 4180485.651250, 551655.568672 4180483.081659, 551658.109104 4180482.465153, 551660.796753 4180482.249004, 551664.593758 4180482.095289, 551667.307829 4180481.879308, 551669.018647 4180481.534986, 551671.280451 4180480.406351, 551679.200077 4180475.929121, 551681.108762 4180474.931417, 551691.006291 4180469.656646)

LINESTRING (551630.532425 4180496.572003, 551618.954241 4180503.012422, 551598.093481 4180514.997868, 551579.285968 4180525.409585)

LINESTRING (551520.747935 4180556.964621, 551510.532111 4180562.470605, 551415.921378 4180613.484058)

LINESTRING (551520.747935 4180556.964621, 551526.027227 4180566.240069, 551528.937147 4180571.317752, 551538.348013 4180586.077969, 551549.722042 4180602.381640, 551560.090173 4180616.160387)

LINESTRING (551520.747935 4180556.964621, 551516.116540 4180548.303471, 551514.958725 4180546.132637, 551507.944344 4180532.630113, 551501.549145 4180518.698747, 551498.430940 4180511.711372, 551491.171427 4180492.326794, 551486.533441 4180479.072147, 551485.428866 4180475.425968, 551483.866730 4180470.301248, 551482.088850 4180464.465078, 551481.341552 4180461.431377, 551478.437653 4180449.740920, 551475.294628 4180435.441564, 551473.769849 4180427.154904, 551471.740551 4180416.446307)

LINESTRING (551520.747935 4180556.964621, 551529.965032 4180552.018264, 551579.285968 4180525.409585)

LINESTRING (551885.363721 4180396.694845, 551885.704106 4180386.001062)

LINESTRING (551885.363721 4180396.694845, 551893.736091 4180408.464278, 551894.450808 4180409.655984, 551913.033880 4180429.378564, 551921.576807 4180437.831589, 551934.522468 4180450.639568, 551942.093767 4180458.132289, 551975.923960 4180491.576268, 551984.291524 4180499.884015)

LINESTRING (551885.363721 4180396.694845, 551878.618266 4180397.906141, 551862.455480 4180400.833412, 551856.354638 4180401.782496, 551848.252525 4180403.040754, 551832.130364 4180405.113997, 551822.479717 4180406.118440)

LINESTRING (551885.363721 4180396.694845, 551871.172311 4180405.459578, 551865.269029 4180411.402811, 551858.128342 4180418.037267, 551850.373332 4180425.721921, 551849.062180 4180426.934159, 551831.495603 4180444.409766)

LINESTRING (551885.704106 4180386.001062, 551885.363721 4180396.694845)

LINESTRING (551885.704106 4180386.001062, 551886.491992 4180378.372416, 551886.969743 4180373.837423, 551889.349838 4180351.140212)

LINESTRING (551822.479717 4180406.118440, 551801.948623 4180407.609242, 551786.282837 4180408.542622, 551755.434118 4180409.258587, 551705.611105 4180410.410328)

LINESTRING (551831.495603 4180444.409766, 551833.891235 4180436.014556, 551834.287049 4180433.298683, 551834.444718 4180430.636789, 551834.302453 4180428.050675, 551833.854028 4180425.129774, 551833.167110 4180422.318326, 551831.072696 4180417.833720, 551830.551241 4180416.720903, 551828.869997 4180412.360945, 551826.888409 4180409.541353, 551824.919201 4180407.553992, 551822.479717 4180406.118440)

LINESTRING (551831.495603 4180444.409766, 551825.840445 4180450.121586, 551795.942664 4180480.323748, 551786.475433 4180489.994861, 551781.520915 4180494.945535, 551769.390447 4180507.961822, 551752.642133 4180524.222246, 551743.310611 4180530.532367)

LINESTRING (551831.495603 4180444.409766, 551849.062180 4180426.934159, 551850.373332 4180425.721921, 551858.128342 4180418.037267, 551865.269029 4180411.402811, 551871.172311 4180405.459578, 551885.363721 4180396.694845)

LINESTRING (551919.779831 4179973.834596, 551918.868852 4179985.612122, 551913.486213 4180052.860435, 551912.585037 4180063.084675, 551908.829783 4180109.705889, 551908.277493 4180116.281956, 551907.587709 4180125.109514, 551905.521230 4180149.739281, 551899.989049 4180216.986675, 551897.684540 4180251.445435, 551897.188397 4180258.898390)

LINESTRING (551919.779831 4179973.834596, 551920.623145 4179963.010845, 551921.517486 4179955.271924, 551922.120686 4179946.210821, 551931.130595 4179838.720349, 551931.793018 4179830.047959)

LINESTRING (551919.779831 4179973.834596, 551909.057340 4179972.923791, 551859.001079 4179968.725220, 551845.611091 4179967.597994, 551833.972652 4179966.670428)

LINESTRING (551897.188397 4180258.898390, 551897.684540 4180251.445435, 551899.989049 4180216.986675, 551905.521230 4180149.739281, 551907.587709 4180125.109514, 551908.277493 4180116.281956, 551908.829783 4180109.705889, 551912.585037 4180063.084675, 551913.486213 4180052.860435, 551918.868852 4179985.612122, 551919.779831 4179973.834596)

LINESTRING (551897.188397 4180258.898390, 551897.006799 4180261.160699, 551895.336563 4180281.621115, 551891.977240 4180322.741545, 551891.661930 4180326.656221, 551890.726484 4180338.134026, 551889.349838 4180351.140212)

LINESTRING (551931.793018 4179830.047959, 551931.130595 4179838.720349, 551922.120686 4179946.210821, 551921.517486 4179955.271924, 551920.623145 4179963.010845, 551919.779831 4179973.834596)

LINESTRING (551931.793018 4179830.047959, 551932.445027 4179821.630696, 551932.714793 4179817.959835, 551934.114233 4179801.358915, 551942.681615 4179701.232997, 551943.101967 4179696.031928, 551943.770142 4179687.847772)

LINESTRING (551931.793018 4179830.047959, 551920.859302 4179829.080334, 551857.401117 4179824.076155, 551847.541528 4179823.181960)

LINESTRING (551833.972652 4179966.670428, 551824.517550 4179965.911946, 551759.753737 4179959.990471, 551749.506762 4179959.093957)

LINESTRING (551833.972652 4179966.670428, 551845.611091 4179967.597994, 551859.001079 4179968.725220, 551909.057340 4179972.923791, 551919.779831 4179973.834596)

LINESTRING (551833.972652 4179966.670428, 551832.096786 4179977.831647, 551833.104711 4179999.629259, 551832.068122 4180013.192354, 551831.528662 4180017.738055, 551830.121289 4180035.637101, 551824.566358 4180099.589061, 551823.692975 4180109.613768, 551822.429817 4180125.594228, 551819.644566 4180160.915413, 551817.212846 4180191.845064, 551815.767853 4180210.132217, 551814.649990 4180221.220542, 551813.072096 4180236.832880, 551811.616658 4180251.181118, 551810.929218 4180259.653647, 551809.816718 4180274.092805, 551807.327313 4180304.400760, 551806.316361 4180316.699154)

LINESTRING (551833.972652 4179966.670428, 551835.802460 4179955.830686, 551840.698968 4179897.155988, 551840.907748 4179894.771801, 551846.576711 4179830.931539, 551847.541528 4179823.181960)

LINESTRING (551943.770142 4179687.847772, 551943.101967 4179696.031928, 551942.681615 4179701.232997, 551934.114233 4179801.358915, 551932.714793 4179817.959835, 551932.445027 4179821.630696, 551931.793018 4179830.047959)

LINESTRING (551943.770142 4179687.847772, 551933.284678 4179687.005008, 551867.181318 4179682.250392, 551857.628933 4179681.502361)

LINESTRING (551847.541528 4179823.181960, 551836.625758 4179822.159084, 551771.237298 4179817.343143, 551761.245784 4179816.414937)

LINESTRING (551847.541528 4179823.181960, 551857.401117 4179824.076155, 551920.859302 4179829.080334, 551931.793018 4179830.047959)

LINESTRING (551847.541528 4179823.181960, 551848.543323 4179815.155231, 551857.564687 4179690.311662, 551857.628933 4179681.502361)

LINESTRING (551847.541528 4179823.181960, 551846.576711 4179830.931539, 551840.907748 4179894.771801, 551840.698968 4179897.155988, 551835.802460 4179955.830686, 551833.972652 4179966.670428)

LINESTRING (551857.628933 4179681.502361, 551857.564687 4179690.311662, 551848.543323 4179815.155231, 551847.541528 4179823.181960)

LINESTRING (551857.628933 4179681.502361, 551848.596010 4179680.790895, 551783.431793 4179675.155233, 551773.650942 4179674.317101)

LINESTRING (551857.628933 4179681.502361, 551867.181318 4179682.250392, 551933.284678 4179687.005008, 551943.770142 4179687.847772)

LINESTRING (551773.650942 4179674.317101, 551772.952887 4179683.078038, 551770.158586 4179718.454635, 551762.619204 4179802.498903, 551762.026462 4179808.519954, 551761.245784 4179816.414937)

LINESTRING (551773.650942 4179674.317101, 551763.007877 4179673.318230, 551723.991956 4179669.678066, 551721.799937 4179669.475686, 551710.768959 4179668.529925)

LINESTRING (551773.650942 4179674.317101, 551783.431793 4179675.155233, 551848.596010 4179680.790895, 551857.628933 4179681.502361)

LINESTRING (551761.245784 4179816.414937, 551762.026462 4179808.519954, 551762.619204 4179802.498903, 551770.158586 4179718.454635, 551772.952887 4179683.078038, 551773.650942 4179674.317101)

LINESTRING (551761.245784 4179816.414937, 551751.676907 4179815.511588, 551713.628227 4179812.243681, 551709.775070 4179810.067003, 551699.662069 4179804.633399)

LINESTRING (551761.245784 4179816.414937, 551771.237298 4179817.343143, 551836.625758 4179822.159084, 551847.541528 4179823.181960)

LINESTRING (551761.245784 4179816.414937, 551760.492995 4179824.077093, 551750.596149 4179949.725229, 551749.506762 4179959.093957)

LINESTRING (551710.768959 4179668.529925, 551702.556172 4179770.145033, 551700.588242 4179794.597922, 551699.662069 4179804.633399)

LINESTRING (551710.768959 4179668.529925, 551721.799937 4179669.475686, 551723.991956 4179669.678066, 551763.007877 4179673.318230, 551773.650942 4179674.317101)

LINESTRING (551600.842913 4180413.514782, 551540.589686 4180415.001631)

LINESTRING (551600.842913 4180413.514782, 551603.152486 4180424.447077, 551604.854532 4180432.535156, 551609.886575 4180447.534312, 551615.168191 4180462.057934, 551620.634690 4180475.184704, 551627.456200 4180489.928797, 551630.532425 4180496.572003)

LINESTRING (551691.006291 4180469.656646, 551685.981622 4180460.526928, 551683.718966 4180456.174449, 551682.207115 4180452.880738)

LINESTRING (551691.006291 4180469.656646, 551698.847364 4180481.910742, 551701.115993 4180485.309063, 551715.391434 4180503.794767, 551723.957210 4180512.835784, 551734.627733 4180521.912218, 551743.310611 4180530.532367)

LINESTRING (551691.006291 4180469.656646, 551681.108762 4180474.931417, 551679.200077 4180475.929121, 551671.280451 4180480.406351, 551669.018647 4180481.534986, 551667.307829 4180481.879308, 551664.593758 4180482.095289, 551660.796753 4180482.249004, 551658.109104 4180482.465153, 551655.568672 4180483.081659, 551649.537027 4180485.651250, 551636.985434 4180492.817836, 551634.457268 4180494.288767, 551630.532425 4180496.572003)

LINESTRING (551806.316361 4180316.699154, 551796.481107 4180309.225616, 551792.591214 4180305.928031, 551780.913736 4180294.470794, 551771.190629 4180283.158999, 551762.642573 4180271.266545, 551755.768389 4180259.306948, 551749.805949 4180246.620790)

LINESTRING (551806.316361 4180316.699154, 551820.366352 4180326.229663, 551832.573669 4180333.252149, 551847.265819 4180340.101669, 551862.803929 4180345.480858, 551876.434530 4180348.861997, 551878.985928 4180349.310781, 551889.349838 4180351.140212)

LINESTRING (551806.316361 4180316.699154, 551807.327313 4180304.400760, 551809.816718 4180274.092805, 551810.929218 4180259.653647, 551811.616658 4180251.181118, 551813.072096 4180236.832880, 551814.649990 4180221.220542, 551815.767853 4180210.132217, 551817.212846 4180191.845064, 551819.644566 4180160.915413, 551822.429817 4180125.594228, 551823.692975 4180109.613768, 551824.566358 4180099.589061, 551830.121289 4180035.637101, 551831.528662 4180017.738055, 551832.068122 4180013.192354, 551833.104711 4179999.629259, 551832.096786 4179977.831647, 551833.972652 4179966.670428)

LINESTRING (551749.805949 4180246.620790, 551745.589717 4180236.375487, 551741.495009 4180225.010319, 551738.471386 4180214.195552, 551733.886645 4180192.497537, 551732.630141 4180180.795145, 551732.322366 4180170.896158, 551733.025783 4180161.269808, 551738.776224 4180102.533835)

LINESTRING (551749.805949 4180246.620790, 551755.768389 4180259.306948, 551762.642573 4180271.266545, 551771.190629 4180283.158999, 551780.913736 4180294.470794, 551792.591214 4180305.928031, 551796.481107 4180309.225616, 551806.316361 4180316.699154)

LINESTRING (551749.805949 4180246.620790, 551676.862825 4180240.548698, 551675.885687 4180240.464902, 551671.114355 4180240.068830, 551665.392307 4180239.589132)

LINESTRING (551889.349838 4180351.140212, 551878.985928 4180349.310781, 551876.434530 4180348.861997, 551862.803929 4180345.480858, 551847.265819 4180340.101669, 551832.573669 4180333.252149, 551820.366352 4180326.229663, 551806.316361 4180316.699154)

LINESTRING (551889.349838 4180351.140212, 551886.969743 4180373.837423, 551886.491992 4180378.372416, 551885.704106 4180386.001062)

LINESTRING (551889.349838 4180351.140212, 551890.726484 4180338.134026, 551891.661930 4180326.656221, 551891.977240 4180322.741545, 551895.336563 4180281.621115, 551897.006799 4180261.160699, 551897.188397 4180258.898390)

LINESTRING (551738.776224 4180102.533835, 551720.410088 4180101.386658, 551716.582796 4180099.321089)

LINESTRING (551738.776224 4180102.533835, 551740.323823 4180084.713323, 551741.861576 4180067.059181, 551743.361037 4180049.892994, 551748.320729 4179969.826807, 551749.506762 4179959.093957)

LINESTRING (551738.776224 4180102.533835, 551733.025783 4180161.269808, 551732.322366 4180170.896158, 551732.630141 4180180.795145, 551733.886645 4180192.497537, 551738.471386 4180214.195552, 551741.495009 4180225.010319, 551745.589717 4180236.375487, 551749.805949 4180246.620790)

LINESTRING (551665.392307 4180239.589132, 551667.222279 4180217.443189, 551668.260985 4180204.900859, 551673.455807 4180141.989509, 551674.170648 4180133.339618)

LINESTRING (551665.392307 4180239.589132, 551661.729395 4180284.358102, 551660.520751 4180295.911881, 551659.668982 4180303.928481, 551658.789123 4180312.211193)

LINESTRING (551665.392307 4180239.589132, 551671.114355 4180240.068830, 551675.885687 4180240.464902, 551676.862825 4180240.548698, 551749.805949 4180246.620790)

LINESTRING (551688.725868 4179954.296497, 551689.576751 4179945.026124, 551693.490791 4179902.389066)

LINESTRING (551688.725868 4179954.296497, 551683.487699 4179953.875302, 551676.488748 4179953.321018, 551670.766431 4179952.852413, 551512.915868 4179940.313798, 551506.753494 4179939.787079, 551495.669665 4179938.896746)

LINESTRING (551688.725868 4179954.296497, 551687.956383 4179964.632534, 551683.978705 4180014.614320)

LINESTRING (551688.725868 4179954.296497, 551699.114335 4179955.105060, 551703.164224 4179955.396760, 551739.399524 4179958.386954, 551749.506762 4179959.093957)

LINESTRING (551693.490791 4179902.389066, 551689.576751 4179945.026124, 551688.725868 4179954.296497)

LINESTRING (551693.490791 4179902.389066, 551698.688587 4179815.190061, 551699.662069 4179804.633399)

LINESTRING (551495.669665 4179938.896746, 551496.517695 4179928.638853, 551498.089484 4179911.095844, 551498.335614 4179908.356832, 551501.449872 4179870.918419)

LINESTRING (551495.669665 4179938.896746, 551506.753494 4179939.787079, 551512.915868 4179940.313798, 551670.766431 4179952.852413, 551676.488748 4179953.321018, 551683.487699 4179953.875302, 551688.725868 4179954.296497)

LINESTRING (551495.669665 4179938.896746, 551488.837969 4179938.354763, 551484.480142 4179938.005767, 551452.312683 4179935.230718, 551425.902641 4179932.946635, 551407.362570 4179931.377454, 551400.645294 4179930.847353)

LINESTRING (551495.669665 4179938.896746, 551494.891891 4179949.188364, 551493.604528 4179966.322625, 551488.815321 4180029.369729, 551481.887852 4180111.831432, 551481.394919 4180117.420406)

LINESTRING (551683.978705 4180014.614320, 551677.220512 4180096.455611)

LINESTRING (551683.978705 4180014.614320, 551693.111507 4180020.407907, 551700.979304 4180032.684348, 551716.582796 4180099.321089)

LINESTRING (551683.978705 4180014.614320, 551687.956383 4179964.632534, 551688.725868 4179954.296497)

LINESTRING (551749.506762 4179959.093957, 551748.320729 4179969.826807, 551743.361037 4180049.892994, 551741.861576 4180067.059181, 551740.323823 4180084.713323, 551738.776224 4180102.533835)

LINESTRING (551749.506762 4179959.093957, 551759.753737 4179959.990471, 551824.517550 4179965.911946, 551833.972652 4179966.670428)

LINESTRING (551749.506762 4179959.093957, 551750.596149 4179949.725229, 551760.492995 4179824.077093, 551761.245784 4179816.414937)

LINESTRING (551749.506762 4179959.093957, 551739.399524 4179958.386954, 551703.164224 4179955.396760, 551699.114335 4179955.105060, 551688.725868 4179954.296497)

LINESTRING (551648.225695 4179774.519840, 551656.044627 4179779.184515, 551690.270259 4179799.370762, 551699.662069 4179804.633399)

LINESTRING (551648.225695 4179774.519840, 551639.520977 4179769.239377, 551604.570426 4179766.313160, 551543.859337 4179761.384088, 551521.532868 4179759.569066, 551510.721290 4179758.769182)

LINESTRING (551648.225695 4179774.519840, 551650.430867 4179786.671968, 551655.629937 4179811.613608, 551672.793216 4179896.522949, 551677.349614 4179900.323942, 551681.044713 4179901.012838, 551683.235418 4179901.414916, 551693.490791 4179902.389066)

LINESTRING (551699.662069 4179804.633399, 551690.270259 4179799.370762, 551656.044627 4179779.184515, 551648.225695 4179774.519840)

LINESTRING (551699.662069 4179804.633399, 551700.588242 4179794.597922, 551702.556172 4179770.145033, 551710.768959 4179668.529925)

LINESTRING (551699.662069 4179804.633399, 551709.775070 4179810.067003, 551713.628227 4179812.243681, 551751.676907 4179815.511588, 551761.245784 4179816.414937)

LINESTRING (551699.662069 4179804.633399, 551698.688587 4179815.190061, 551693.490791 4179902.389066)

LINESTRING (551510.721290 4179758.769182, 551504.435052 4179758.308265, 551499.698388 4179757.956896, 551481.863262 4179756.281006, 551434.438394 4179752.212434, 551422.491750 4179751.216960, 551416.047583 4179750.655268)

LINESTRING (551510.721290 4179758.769182, 551510.030316 4179767.851947, 551508.511398 4179783.975078, 551504.672346 4179833.081253, 551501.449872 4179870.918419)

LINESTRING (551510.721290 4179758.769182, 551521.532868 4179759.569066, 551543.859337 4179761.384088, 551604.570426 4179766.313160, 551639.520977 4179769.239377, 551648.225695 4179774.519840)

LINESTRING (551275.506407 4180368.522311, 551279.881835 4180368.838023, 551396.768340 4180377.244377, 551453.258575 4180386.007264, 551467.380721 4180384.031740)

LINESTRING (551275.506407 4180368.522311, 551276.143694 4180377.924036, 551277.456840 4180394.774944, 551278.955272 4180408.742217, 551279.386693 4180411.596406)

LINESTRING (551467.380721 4180384.031740, 551453.258575 4180386.007264, 551396.768340 4180377.244377, 551279.881835 4180368.838023, 551275.506407 4180368.522311)

LINESTRING (551467.380721 4180384.031740, 551466.540114 4180374.784062, 551465.365777 4180359.742526, 551465.010655 4180344.683918, 551465.168991 4180329.206894, 551466.051117 4180312.070089, 551466.467671 4180304.605522, 551466.887547 4180295.199288)

LINESTRING (551467.380721 4180384.031740, 551468.789089 4180395.446559, 551469.839054 4180405.017311)

LINESTRING (551279.386693 4180411.596406, 551285.830867 4180410.660129, 551297.626016 4180408.958309, 551344.074165 4180403.799838, 551365.446283 4180401.603038, 551366.800867 4180406.127291, 551368.067053 4180412.115578)

LINESTRING (551279.386693 4180411.596406, 551280.222975 4180417.326811, 551281.491021 4180425.855930)

LINESTRING (551274.661350 4180279.288285, 551285.718317 4180280.178162, 551318.387390 4180282.811468, 551370.925503 4180287.044450)

LINESTRING (551274.661350 4180279.288285, 551275.188222 4180272.467927, 551275.252084 4180272.113274, 551280.216677 4180211.741121, 551285.075818 4180152.755236, 551287.076991 4180128.413416, 551288.521338 4180111.457629, 551288.597393 4180110.559380, 551289.287481 4180101.576449)

LINESTRING (551274.661350 4180279.288285, 551273.988351 4180288.360089, 551273.940447 4180288.981130, 551273.306615 4180297.420742, 551273.220651 4180298.496456, 551272.964800 4180302.810953, 551272.235170 4180315.321961)

LINESTRING (551370.925503 4180287.044450, 551379.015679 4180287.705143, 551389.077807 4180288.522382, 551407.045288 4180289.977010, 551416.508787 4180290.746166, 551428.313937 4180291.707476, 551446.862416 4180293.210199, 551451.792258 4180293.607131, 551454.952858 4180293.826586, 551466.887547 4180295.199288)

LINESTRING (551370.925503 4180287.044450, 551371.478669 4180280.257547, 551371.735700 4180277.174644, 551384.876331 4180117.672235, 551385.535188 4180109.476885)

LINESTRING (551289.287481 4180101.576449, 551278.643816 4180100.755716, 551261.741344 4180099.352383, 551223.067516 4180096.238167)

LINESTRING (551289.287481 4180101.576449, 551289.848291 4180094.967116, 551291.121887 4180079.974143, 551292.413861 4180064.859235, 551295.484173 4180028.663156, 551299.076371 4179986.456655)

LINESTRING (551289.287481 4180101.576449, 551299.701940 4180102.429054, 551323.744026 4180104.409512, 551378.510069 4180108.900498, 551385.535188 4180109.476885)

LINESTRING (551289.287481 4180101.576449, 551288.597393 4180110.559380, 551288.521338 4180111.457629, 551287.076991 4180128.413416, 551285.075818 4180152.755236, 551280.216677 4180211.741121, 551275.252084 4180272.113274, 551275.188222 4180272.467927, 551274.661350 4180279.288285)

LINESTRING (551272.235170 4180315.321961, 551274.076479 4180323.732597, 551274.577613 4180329.538581, 551274.545380 4180340.378533, 551274.702450 4180350.520656, 551275.275992 4180364.504362, 551275.506407 4180368.522311)

LINESTRING (551272.235170 4180315.321961, 551272.964800 4180302.810953, 551273.220651 4180298.496456, 551273.306615 4180297.420742, 551273.940447 4180288.981130, 551273.988351 4180288.360089, 551274.661350 4180279.288285)

LINESTRING (551032.151503 4179899.265203, 551041.694474 4179900.078794)

LINESTRING (551032.151503 4179899.265203, 551032.855091 4179890.903680, 551032.978457 4179889.473146, 551034.939484 4179862.967448, 551046.430546 4179731.314856, 551046.650725 4179728.475816, 551047.254770 4179720.546397)

LINESTRING (551041.694474 4179900.078794, 551032.151503 4179899.265203)

LINESTRING (551041.694474 4179900.078794, 551040.674713 4179911.134524, 551030.414289 4180031.854777, 551026.638936 4180073.993669, 551026.041045 4180080.935646)

LINESTRING (551041.694474 4179900.078794, 551045.708902 4179900.414332, 551070.340992 4179902.519743, 551090.544889 4179904.253815, 551100.775063 4179905.038450, 551112.069325 4179906.095985)

LINESTRING (551047.254770 4179720.546397, 551046.650725 4179728.475816, 551046.430546 4179731.314856, 551034.939484 4179862.967448, 551032.978457 4179889.473146, 551032.855091 4179890.903680, 551032.151503 4179899.265203)

LINESTRING (551047.254770 4179720.546397, 551049.843079 4179720.762147, 551095.684497 4179724.552393, 551114.444662 4179726.222087, 551127.264119 4179727.100480)

LINESTRING (551127.264119 4179727.100480, 551126.356324 4179737.125027, 551123.585191 4179769.217725, 551118.098235 4179834.435337, 551115.568895 4179864.476905, 551114.738056 4179874.879174, 551113.059386 4179897.003953, 551112.069325 4179906.095985)

LINESTRING (551127.264119 4179727.100480, 551114.444662 4179726.222087, 551095.684497 4179724.552393, 551049.843079 4179720.762147, 551047.254770 4179720.546397)

LINESTRING (551127.264119 4179727.100480, 551127.794958 4179718.205317, 551128.895101 4179702.734156, 551130.341108 4179684.047495, 551133.427605 4179646.564429)

LINESTRING (551127.264119 4179727.100480, 551137.949977 4179728.298511, 551157.998157 4179729.643438, 551164.671569 4179730.173066, 551208.912807 4179733.476908, 551217.583140 4179734.418421)

LINESTRING (551674.170648 4180133.339618, 551677.220512 4180096.455611)

LINESTRING (551674.170648 4180133.339618, 551668.712891 4180132.839386, 551662.559755 4180132.268225, 551632.909700 4180129.885483, 551576.576996 4180125.249850, 551562.086635 4180124.060715, 551492.381555 4180118.321212, 551481.394919 4180117.420406)

LINESTRING (551674.170648 4180133.339618, 551673.455807 4180141.989509, 551668.260985 4180204.900859, 551667.222279 4180217.443189, 551665.392307 4180239.589132)

LINESTRING (551658.789123 4180312.211193, 551651.060369 4180311.508110, 551646.324515 4180311.078988, 551620.726139 4180308.777156, 551562.372780 4180303.518693)

LINESTRING (551658.789123 4180312.211193, 551659.668982 4180303.928481, 551660.520751 4180295.911881, 551661.729395 4180284.358102, 551665.392307 4180239.589132)

LINESTRING (551658.789123 4180312.211193, 551657.019070 4180321.997292, 551656.614699 4180328.896067, 551656.385362 4180335.973465, 551656.295204 4180343.329119, 551656.397972 4180350.819127, 551656.802136 4180358.000356, 551657.418718 4180365.016486, 551658.108122 4180371.655831)

LINESTRING (551305.758819 4180551.251322, 551298.028961 4180542.271429, 551296.565085 4180538.323464, 551295.764434 4180536.776225, 551290.902563 4180533.972116, 551288.352299 4180533.345995, 551285.332357 4180533.182954, 551282.830998 4180533.189574, 551280.289231 4180534.028093, 551278.092254 4180534.657948, 551272.964825 4180536.312527)

LINESTRING (551272.964825 4180536.312527, 551268.796980 4180546.527595, 551265.957497 4180556.995029)

LINESTRING (551562.372780 4180303.518693, 551561.955781 4180312.447842, 551561.660789 4180318.770346, 551561.212914 4180329.818513, 551561.124335 4180341.157408, 551561.155933 4180352.996347, 551561.877961 4180365.693948, 551563.046670 4180377.384669, 551564.478678 4180390.630388, 551565.810966 4180402.921282)

LINESTRING (551562.372780 4180303.518693, 551620.726139 4180308.777156, 551646.324515 4180311.078988, 551651.060369 4180311.508110, 551658.789123 4180312.211193)

LINESTRING (551562.372780 4180303.518693, 551550.197889 4180302.532687, 551478.037682 4180296.678059, 551476.990645 4180296.505087, 551466.887547 4180295.199288)

LINESTRING (551565.810966 4180402.921282, 551629.023528 4180401.453161)

LINESTRING (551565.810966 4180402.921282, 551564.478678 4180390.630388, 551563.046670 4180377.384669, 551561.877961 4180365.693948, 551561.155933 4180352.996347, 551561.124335 4180341.157408, 551561.212914 4180329.818513, 551561.660789 4180318.770346, 551561.955781 4180312.447842, 551562.372780 4180303.518693)

LINESTRING (551466.887547 4180295.199288, 551476.990645 4180296.505087, 551478.037682 4180296.678059, 551550.197889 4180302.532687, 551562.372780 4180303.518693)

LINESTRING (551466.887547 4180295.199288, 551466.467671 4180304.605522, 551466.051117 4180312.070089, 551465.168991 4180329.206894, 551465.010655 4180344.683918, 551465.365777 4180359.742526, 551466.540114 4180374.784062, 551467.380721 4180384.031740)

LINESTRING (551466.887547 4180295.199288, 551467.382051 4180287.946019, 551467.725039 4180283.798501, 551468.515936 4180274.217061, 551470.556464 4180249.298560, 551473.854412 4180209.209481, 551480.668213 4180126.591717, 551481.394919 4180117.420406)

LINESTRING (551481.394919 4180117.420406, 551481.887852 4180111.831432, 551488.815321 4180029.369729, 551493.604528 4179966.322625, 551494.891891 4179949.188364, 551495.669665 4179938.896746)

LINESTRING (551481.394919 4180117.420406, 551480.668213 4180126.591717, 551473.854412 4180209.209481, 551470.556464 4180249.298560, 551468.515936 4180274.217061, 551467.725039 4180283.798501, 551467.382051 4180287.946019, 551466.887547 4180295.199288)

LINESTRING (551481.394919 4180117.420406, 551474.229029 4180116.820867, 551470.584431 4180116.520715, 551457.634674 4180115.452343, 551391.081327 4180109.933099, 551385.535188 4180109.476885)

LINESTRING (551481.394919 4180117.420406, 551492.381555 4180118.321212, 551562.086635 4180124.060715, 551576.576996 4180125.249850, 551632.909700 4180129.885483, 551662.559755 4180132.268225, 551668.712891 4180132.839386, 551674.170648 4180133.339618)

LINESTRING (551208.469576 4180273.894795, 551209.025436 4180266.652991, 551209.188540 4180264.501508, 551216.931411 4180170.849474, 551222.076552 4180108.292641, 551222.333946 4180105.143165, 551223.067516 4180096.238167)

LINESTRING (551208.469576 4180273.894795, 551240.231809 4180276.477773, 551262.812200 4180278.315827, 551274.661350 4180279.288285)

LINESTRING (551223.067516 4180096.238167, 551222.333946 4180105.143165, 551222.076552 4180108.292641, 551216.931411 4180170.849474, 551209.188540 4180264.501508, 551209.025436 4180266.652991, 551208.469576 4180273.894795)

LINESTRING (551223.067516 4180096.238167, 551202.291828 4180094.466922, 551193.928692 4180093.760330)

LINESTRING (551082.027075 4180263.745395, 551093.216465 4180264.591452, 551148.748129 4180269.030199)

LINESTRING (551082.027075 4180263.745395, 551082.736127 4180255.927577, 551084.373179 4180237.652607, 551087.625419 4180198.950039, 551091.426981 4180155.468789, 551093.033241 4180137.903734, 551096.594915 4180094.764958, 551097.308190 4180086.270353)

LINESTRING (551082.027075 4180263.745395, 551081.132451 4180273.082125, 551080.814570 4180278.894112, 551080.254211 4180285.459079, 551079.441824 4180298.579830, 551077.650357 4180336.082070, 551076.785961 4180350.489560)

LINESTRING (551148.748129 4180269.030199, 551149.330841 4180261.710892, 551153.793631 4180205.407553, 551155.026580 4180189.826255, 551156.918572 4180165.983021, 551160.081731 4180126.081630, 551162.117298 4180100.397464, 551162.852802 4180091.170709)

LINESTRING (551148.748129 4180269.030199, 551161.275197 4180270.051084, 551208.469576 4180273.894795)

LINESTRING (551097.308190 4180086.270353, 551086.285420 4180085.502995, 551026.041045 4180080.935646)

LINESTRING (551097.308190 4180086.270353, 551096.594915 4180094.764958, 551093.033241 4180137.903734, 551091.426981 4180155.468789, 551087.625419 4180198.950039, 551084.373179 4180237.652607, 551082.736127 4180255.927577, 551082.027075 4180263.745395)

LINESTRING (551097.308190 4180086.270353, 551097.930225 4180079.705771, 551108.144533 4179953.792676, 551108.489139 4179949.356679, 551109.087520 4179942.348139, 551109.802125 4179933.642733, 551111.026280 4179918.050286, 551112.069325 4179906.095985)

LINESTRING (551076.785961 4180350.489560, 551088.299660 4180351.570625, 551119.435271 4180354.315686, 551154.945820 4180357.454176)

LINESTRING (551076.785961 4180350.489560, 551076.051611 4180363.810512, 551074.462234 4180392.870454)

LINESTRING (551076.785961 4180350.489560, 551077.650357 4180336.082070, 551079.441824 4180298.579830, 551080.254211 4180285.459079, 551080.814570 4180278.894112, 551081.132451 4180273.082125, 551082.027075 4180263.745395)

LINESTRING (551415.921378 4180613.484058, 551510.532111 4180562.470605, 551520.747935 4180556.964621)

LINESTRING (551629.023528 4180401.453161, 551639.032037 4180393.937761, 551642.537937 4180391.052754, 551645.673655 4180388.209809, 551650.502347 4180383.657699, 551652.649638 4180381.130325, 551654.666351 4180378.358035, 551656.186728 4180376.081925, 551657.364664 4180373.637237, 551658.108122 4180371.655831)

LINESTRING (551629.023528 4180401.453161, 551650.376708 4180400.887997, 551662.693781 4180400.244029)

LINESTRING (551469.839054 4180405.017311, 551471.740551 4180416.446307)

LINESTRING (551469.839054 4180405.017311, 551480.920313 4180404.809164, 551531.288107 4180403.859188, 551548.112535 4180403.553913, 551565.810966 4180402.921282)

LINESTRING (551469.839054 4180405.017311, 551468.789089 4180395.446559, 551467.380721 4180384.031740)

LINESTRING (551154.945820 4180357.454176, 551119.435271 4180354.315686, 551088.299660 4180351.570625, 551076.785961 4180350.489560)

LINESTRING (551074.462234 4180392.870454, 551079.798971 4180404.342838, 551080.013174 4180409.570073, 551080.335543 4180417.238953, 551081.304564 4180431.413714, 551082.390893 4180443.714089, 551082.580456 4180445.812285, 551084.186816 4180455.208905)

LINESTRING (551074.462234 4180392.870454, 551076.051611 4180363.810512, 551076.785961 4180350.489560)

LINESTRING (551065.671996 4180468.219911, 551066.419675 4180455.586950)

LINESTRING (551066.419675 4180455.586950, 551084.186816 4180455.208905)

LINESTRING (551066.419675 4180455.586950, 551067.072273 4180445.505328, 551070.431426 4180403.741092, 551074.462234 4180392.870454)

LINESTRING (551063.247584 4180501.280102, 551064.603832 4180484.246061, 551064.871477 4180480.852544, 551065.671996 4180468.219911)

LINESTRING (551063.247584 4180501.280102, 551068.139528 4180496.406283, 551070.629470 4180493.980743, 551073.231016 4180492.021899, 551075.563328 4180490.871348, 551077.971672 4180490.242750, 551080.780124 4180490.426593, 551083.988408 4180491.467258, 551086.849634 4180493.082730, 551089.726133 4180495.075539, 551092.692492 4180498.200632)

LINESTRING (551416.047583 4179750.655268, 551415.574558 4179760.116640, 551412.884807 4179795.926707, 551410.802964 4179820.423323, 551402.319683 4179920.827610, 551400.645294 4179930.847353)

LINESTRING (551416.047583 4179750.655268, 551422.491750 4179751.216960, 551434.438394 4179752.212434, 551481.863262 4179756.281006, 551499.698388 4179757.956896, 551504.435052 4179758.308265, 551510.721290 4179758.769182)

LINESTRING (551416.047583 4179750.655268, 551408.634470 4179750.098630, 551350.809552 4179745.610614, 551329.873558 4179743.982303, 551319.211887 4179743.150318)

LINESTRING (551501.449872 4179870.918419, 551498.335614 4179908.356832, 551498.089484 4179911.095844, 551496.517695 4179928.638853, 551495.669665 4179938.896746)

LINESTRING (551501.449872 4179870.918419, 551504.672346 4179833.081253, 551508.511398 4179783.975078, 551510.030316 4179767.851947, 551510.721290 4179758.769182)

LINESTRING (551501.449872 4179870.918419, 551512.323167 4179871.685394, 551555.540440 4179875.206618)

LINESTRING (551400.645294 4179930.847353, 551399.185566 4179941.756063, 551397.350231 4179963.458198, 551394.477305 4179999.000849, 551392.482385 4180023.697734, 551391.365941 4180037.471186, 551386.001218 4180103.954310, 551385.535188 4180109.476885)

LINESTRING (551400.645294 4179930.847353, 551392.396367 4179930.163465, 551386.902884 4179929.718676, 551381.136499 4179929.249998, 551372.544205 4179928.541797, 551365.149004 4179927.963117, 551361.979869 4179927.677074, 551334.759122 4179925.443707, 551315.012701 4179923.811742, 551304.474502 4179922.991637)

LINESTRING (551400.645294 4179930.847353, 551407.362570 4179931.377454, 551425.902641 4179932.946635, 551452.312683 4179935.230718, 551484.480142 4179938.005767, 551488.837969 4179938.354763, 551495.669665 4179938.896746)

LINESTRING (551400.645294 4179930.847353, 551402.319683 4179920.827610, 551410.802964 4179820.423323, 551412.884807 4179795.926707, 551415.574558 4179760.116640, 551416.047583 4179750.655268)

LINESTRING (551319.211887 4179743.150318, 551308.330499 4179742.239312, 551225.728166 4179734.846292, 551217.583140 4179734.418421)

LINESTRING (551319.211887 4179743.150318, 551329.873558 4179743.982303, 551350.809552 4179745.610614, 551408.634470 4179750.098630, 551416.047583 4179750.655268)

LINESTRING (551319.211887 4179743.150318, 551318.585820 4179751.745305, 551316.189611 4179780.090062, 551311.376132 4179838.754422, 551310.127445 4179853.980545, 551308.011412 4179879.775125, 551307.420353 4179886.994510, 551306.743462 4179895.267418, 551305.923333 4179905.325783, 551305.396142 4179912.190515, 551304.474502 4179922.991637)

LINESTRING (551217.583140 4179734.418421, 551212.112042 4179743.105350, 551198.073023 4179904.488520, 551201.881246 4179913.909934)

LINESTRING (551217.583140 4179734.418421, 551208.912807 4179733.476908, 551164.671569 4179730.173066, 551157.998157 4179729.643438, 551137.949977 4179728.298511, 551127.264119 4179727.100480)

LINESTRING (551217.583140 4179734.418421, 551225.728166 4179734.846292, 551308.330499 4179742.239312, 551319.211887 4179743.150318)

LINESTRING (551304.474502 4179922.991637, 551292.387860 4179921.884523, 551262.985099 4179919.260569, 551215.358021 4179915.269653, 551201.881246 4179913.909934)

LINESTRING (551304.474502 4179922.991637, 551303.542813 4179933.992412, 551301.518588 4179957.779312, 551300.273731 4179972.395219, 551299.076371 4179986.456655)

LINESTRING (551304.474502 4179922.991637, 551315.012701 4179923.811742, 551334.759122 4179925.443707, 551361.979869 4179927.677074, 551365.149004 4179927.963117, 551372.544205 4179928.541797, 551381.136499 4179929.249998, 551386.902884 4179929.718676, 551392.396367 4179930.163465, 551400.645294 4179930.847353)

LINESTRING (551304.474502 4179922.991637, 551305.396142 4179912.190515, 551305.923333 4179905.325783, 551306.743462 4179895.267418, 551307.420353 4179886.994510, 551308.011412 4179879.775125, 551310.127445 4179853.980545, 551311.376132 4179838.754422, 551316.189611 4179780.090062, 551318.585820 4179751.745305, 551319.211887 4179743.150318)

LINESTRING (551201.881246 4179913.909934, 551198.073023 4179904.488520, 551212.112042 4179743.105350, 551217.583140 4179734.418421)

LINESTRING (551201.881246 4179913.909934, 551215.358021 4179915.269653, 551262.985099 4179919.260569, 551292.387860 4179921.884523, 551304.474502 4179922.991637)

LINESTRING (551201.881246 4179913.909934, 551189.125258 4179912.787716, 551149.730290 4179909.347616, 551142.088855 4179908.701036, 551130.168972 4179907.683958, 551122.447989 4179907.081284, 551112.069325 4179906.095985)

LINESTRING (551201.881246 4179913.909934, 551206.487916 4179925.244709, 551202.817954 4179977.203557)

LINESTRING (551112.069325 4179906.095985, 551100.775063 4179905.038450, 551090.544889 4179904.253815, 551070.340992 4179902.519743, 551045.708902 4179900.414332, 551041.694474 4179900.078794)

LINESTRING (551112.069325 4179906.095985, 551122.447989 4179907.081284, 551130.168972 4179907.683958, 551142.088855 4179908.701036, 551149.730290 4179909.347616, 551189.125258 4179912.787716, 551201.881246 4179913.909934)

LINESTRING (551112.069325 4179906.095985, 551113.059386 4179897.003953, 551114.738056 4179874.879174, 551115.568895 4179864.476905, 551118.098235 4179834.435337, 551123.585191 4179769.217725, 551126.356324 4179737.125027, 551127.264119 4179727.100480)

LINESTRING (551112.069325 4179906.095985, 551111.026280 4179918.050286, 551109.802125 4179933.642733, 551109.087520 4179942.348139, 551108.489139 4179949.356679, 551108.144533 4179953.792676, 551097.930225 4180079.705771, 551097.308190 4180086.270353)

LINESTRING (551133.427605 4179646.564429, 551130.341108 4179684.047495, 551128.895101 4179702.734156, 551127.794958 4179718.205317, 551127.264119 4179727.100480)

LINESTRING (551133.427605 4179646.564429, 551122.651700 4179645.665420, 551067.495457 4179641.085010)

LINESTRING (551560.090173 4180616.160387, 551549.722042 4180602.381640, 551538.348013 4180586.077969, 551528.937147 4180571.317752, 551526.027227 4180566.240069, 551520.747935 4180556.964621)

LINESTRING (551471.740551 4180416.446307, 551469.839054 4180405.017311)

LINESTRING (551471.740551 4180416.446307, 551473.769849 4180427.154904, 551475.294628 4180435.441564, 551478.437653 4180449.740920, 551481.341552 4180461.431377, 551482.088850 4180464.465078, 551483.866730 4180470.301248, 551485.428866 4180475.425968, 551486.533441 4180479.072147, 551491.171427 4180492.326794, 551498.430940 4180511.711372, 551501.549145 4180518.698747, 551507.944344 4180532.630113, 551514.958725 4180546.132637, 551516.116540 4180548.303471, 551520.747935 4180556.964621)

LINESTRING (551471.740551 4180416.446307, 551458.595364 4180417.129769, 551448.780494 4180417.645428, 551427.526557 4180419.254695, 551377.424056 4180424.290047, 551358.179954 4180427.043753, 551337.285802 4180430.286512, 551316.699852 4180433.542338, 551294.048608 4180437.495459, 551289.613121 4180438.344376, 551283.308295 4180439.536710)

LINESTRING (551385.535188 4180109.476885, 551386.001218 4180103.954310, 551391.365941 4180037.471186, 551392.482385 4180023.697734, 551394.477305 4179999.000849, 551397.350231 4179963.458198, 551399.185566 4179941.756063, 551400.645294 4179930.847353)

LINESTRING (551385.535188 4180109.476885, 551391.081327 4180109.933099, 551457.634674 4180115.452343, 551470.584431 4180116.520715, 551474.229029 4180116.820867, 551481.394919 4180117.420406)

LINESTRING (551385.535188 4180109.476885, 551384.876331 4180117.672235, 551371.735700 4180277.174644, 551371.478669 4180280.257547, 551370.925503 4180287.044450)

LINESTRING (551385.535188 4180109.476885, 551378.510069 4180108.900498, 551323.744026 4180104.409512, 551299.701940 4180102.429054, 551289.287481 4180101.576449)

LINESTRING (551555.540440 4179875.206618, 551512.323167 4179871.685394, 551501.449872 4179870.918419)

LINESTRING (551743.310611 4180530.532367, 551734.627733 4180521.912218, 551723.957210 4180512.835784, 551715.391434 4180503.794767, 551701.115993 4180485.309063, 551698.847364 4180481.910742, 551691.006291 4180469.656646)

LINESTRING (551743.310611 4180530.532367, 551752.642133 4180524.222246, 551769.390447 4180507.961822, 551781.520915 4180494.945535, 551786.475433 4180489.994861, 551795.942664 4180480.323748, 551825.840445 4180450.121586, 551831.495603 4180444.409766)

LINESTRING (551682.207115 4180452.880738, 551683.718966 4180456.174449, 551685.981622 4180460.526928, 551691.006291 4180469.656646)

LINESTRING (551682.207115 4180452.880738, 551677.434108 4180442.942644, 551675.508553 4180438.203944, 551673.599914 4180433.576304, 551671.814226 4180429.004912, 551669.830354 4180423.733271, 551669.474267 4180422.932172, 551668.167615 4180419.218128, 551666.880107 4180415.260107, 551665.775392 4180411.647189)

LINESTRING (551662.693781 4180400.244029, 551661.674381 4180395.666350, 551660.687872 4180390.057010, 551659.776523 4180385.102767, 551659.012002 4180379.206339, 551658.108122 4180371.655831)

LINESTRING (551662.693781 4180400.244029, 551676.788740 4180399.799852, 551767.499011 4180396.885398, 551787.011569 4180396.297927, 551802.254769 4180395.339700, 551816.907886 4180394.377790, 551820.432747 4180394.089291, 551831.324745 4180393.170322, 551846.933524 4180391.504375, 551855.156995 4180390.557549, 551860.454916 4180389.836412, 551864.175287 4180389.271778, 551867.886783 4180388.718186, 551885.704106 4180386.001062)

LINESTRING (551662.693781 4180400.244029, 551664.121555 4180405.711897, 551665.775392 4180411.647189)

LINESTRING (551658.108122 4180371.655831, 551659.012002 4180379.206339, 551659.776523 4180385.102767, 551660.687872 4180390.057010, 551661.674381 4180395.666350, 551662.693781 4180400.244029)

LINESTRING (551658.108122 4180371.655831, 551657.418718 4180365.016486, 551656.802136 4180358.000356, 551656.397972 4180350.819127, 551656.295204 4180343.329119, 551656.385362 4180335.973465, 551656.614699 4180328.896067, 551657.019070 4180321.997292, 551658.789123 4180312.211193)

LINESTRING (551665.775392 4180411.647189, 551664.121555 4180405.711897, 551662.693781 4180400.244029)

LINESTRING (551665.775392 4180411.647189, 551653.299597 4180412.323443, 551600.842913 4180413.514782)

LINESTRING (551665.775392 4180411.647189, 551666.880107 4180415.260107, 551668.167615 4180419.218128, 551669.474267 4180422.932172, 551669.830354 4180423.733271, 551671.814226 4180429.004912, 551673.599914 4180433.576304, 551675.508553 4180438.203944, 551677.434108 4180442.942644, 551682.207115 4180452.880738)

LINESTRING (551677.220512 4180096.455611, 551683.978705 4180014.614320)

LINESTRING (551677.220512 4180096.455611, 551674.170648 4180133.339618)

LINESTRING (551677.220512 4180096.455611, 551682.890232 4180096.868415, 551686.887275 4180097.148682, 551688.075742 4180097.244900, 551716.582796 4180099.321089)

LINESTRING (551716.582796 4180099.321089, 551688.075742 4180097.244900, 551686.887275 4180097.148682, 551682.890232 4180096.868415, 551677.220512 4180096.455611)

LINESTRING (551716.582796 4180099.321089, 551700.979304 4180032.684348, 551693.111507 4180020.407907, 551683.978705 4180014.614320)

LINESTRING (551716.582796 4180099.321089, 551720.410088 4180101.386658, 551738.776224 4180102.533835)

LINESTRING (551193.928692 4180093.760330, 551194.531343 4180086.075004, 551194.693550 4180084.067756, 551199.637157 4180021.321046, 551201.641479 4179996.435562, 551202.817954 4179977.203557)

LINESTRING (551193.928692 4180093.760330, 551185.442247 4180093.052980, 551162.852802 4180091.170709)

LINESTRING (551111.778772 4180567.687124, 551119.967982 4180566.539639, 551122.937895 4180566.247399, 551168.498743 4180561.981170, 551174.526510 4180561.419463, 551204.947390 4180558.579463, 551238.301812 4180555.635771, 551242.998200 4180555.309931, 551253.924280 4180555.943764)

LINESTRING (551253.924280 4180555.943764, 551261.503657 4180533.911179, 551267.615625 4180522.654148, 551274.484440 4180512.910799, 551279.071635 4180504.662221, 551281.080003 4180498.960618, 551281.811886 4180490.332993, 551280.822053 4180480.973453, 551280.447867 4180478.829722)

LINESTRING (551253.924280 4180555.943764, 551242.998200 4180555.309931, 551238.301812 4180555.635771, 551204.947390 4180558.579463, 551174.526510 4180561.419463, 551168.498743 4180561.981170, 551122.937895 4180566.247399, 551119.967982 4180566.539639, 551111.778772 4180567.687124)

LINESTRING (551299.076371 4179986.456655, 551300.273731 4179972.395219, 551301.518588 4179957.779312, 551303.542813 4179933.992412, 551304.474502 4179922.991637)

LINESTRING (551299.076371 4179986.456655, 551295.484173 4180028.663156, 551292.413861 4180064.859235, 551291.121887 4180079.974143, 551289.848291 4180094.967116, 551289.287481 4180101.576449)

LINESTRING (551088.206688 4180477.346852, 551065.671996 4180468.219911)

LINESTRING (551088.206688 4180477.346852, 551090.186032 4180486.246498, 551092.692492 4180498.200632)

LINESTRING (551084.186816 4180455.208905, 551086.364815 4180467.582624)

LINESTRING (551084.186816 4180455.208905, 551095.673327 4180454.969469, 551104.086608 4180454.633317, 551117.767972 4180454.107953, 551132.069078 4180453.064976, 551146.471475 4180451.312551, 551161.395365 4180449.263816, 551177.249188 4180446.388733, 551188.333565 4180444.249623, 551191.164264 4180443.690254, 551203.095590 4180441.323425, 551231.429386 4180435.674517)

LINESTRING (551086.364815 4180467.582624, 551065.671996 4180468.219911)

LINESTRING (551086.364815 4180467.582624, 551088.206688 4180477.346852)

LINESTRING (551231.429386 4180435.674517, 551245.465380 4180426.286387, 551251.857385 4180418.159975, 551253.367868 4180416.039065, 551258.264935 4180407.537211, 551261.771333 4180400.302671, 551264.903788 4180392.300228, 551269.232365 4180378.912890)

LINESTRING (551231.429386 4180435.674517, 551263.395872 4180429.393683, 551273.369412 4180427.436396)

LINESTRING (551202.817954 4179977.203557, 551201.641479 4179996.435562, 551199.637157 4180021.321046, 551194.693550 4180084.067756, 551194.531343 4180086.075004, 551193.928692 4180093.760330)

LINESTRING (551202.817954 4179977.203557, 551209.983430 4179977.891618, 551288.205284 4179985.357113, 551299.076371 4179986.456655)

LINESTRING (551202.817954 4179977.203557, 551206.487916 4179925.244709, 551201.881246 4179913.909934)

LINESTRING (551280.447867 4180478.829722, 551271.522100 4180468.111538, 551266.010886 4180460.665548, 551263.012220 4180458.494391, 551253.429649 4180451.411415, 551244.376408 4180447.016816)

LINESTRING (551280.447867 4180478.829722, 551277.313447 4180458.849681, 551276.032277 4180449.599282, 551275.011038 4180441.038414)

LINESTRING (551244.376408 4180447.016816, 551179.367743 4180458.384867, 551163.417683 4180461.159489, 551148.078568 4180463.416455, 551132.954622 4180465.064540, 551118.239667 4180466.093851, 551099.844347 4180466.933929, 551096.787635 4180467.014828, 551086.364815 4180467.582624)

LINESTRING (551275.011038 4180441.038414, 551273.369412 4180427.436396)

LINESTRING (551275.011038 4180441.038414, 551265.822392 4180442.834152, 551244.376408 4180447.016816)

LINESTRING (551290.199480 4180484.216195, 551291.512576 4180495.408482, 551290.037118 4180503.221516, 551285.454196 4180513.611517, 551279.496682 4180524.103918, 551275.497880 4180531.213337, 551272.964825 4180536.312527)

LINESTRING (551290.199480 4180484.216195, 551305.744172 4180535.218450, 551306.841148 4180540.096141, 551305.758819 4180551.251322)

LINESTRING (551261.873893 4180573.490593, 551257.228366 4180576.967817, 551253.814354 4180582.105913, 551250.650903 4180592.271762, 551248.589542 4180593.756811, 551246.747558 4180593.956163, 551243.765902 4180593.305181)

LINESTRING (551243.765902 4180593.305181, 551249.727092 4180569.465073)

LINESTRING (551265.957497 4180556.995029, 551261.873893 4180573.490593)

LINESTRING (551269.232365 4180378.912890, 551260.664402 4180361.628503, 551255.729584 4180353.542580, 551249.997059 4180346.261657, 551243.067393 4180340.282543, 551235.440327 4180335.974495, 551226.008348 4180332.975578, 551215.999726 4180332.059012, 551206.789240 4180333.100198, 551197.946164 4180335.963315, 551190.293100 4180340.087609, 551183.785462 4180345.561563, 551177.991830 4180352.360303, 551173.974112 4180359.680463, 551171.354073 4180367.442025, 551169.887862 4180375.199659, 551169.724247 4180381.689419, 551170.841463 4180388.997094, 551172.965944 4180395.789545, 551176.059632 4180402.521445, 551180.101274 4180408.360513, 551184.947540 4180413.694196, 551190.733364 4180418.068425, 551196.938637 4180421.557637, 551204.224043 4180424.143748, 551211.120360 4180425.562437, 551218.391958 4180426.118027, 551227.438707 4180425.896892, 551236.826479 4180424.657116, 551249.021718 4180422.347471, 551261.606485 4180419.718502, 551275.592232 4180416.998414, 551289.840479 4180414.557367, 551302.244705 4180412.637438, 551314.974252 4180410.808317, 551335.272688 4180408.471608, 551355.767272 4180407.168039, 551376.233800 4180407.539743, 551397.474776 4180410.834406)

LINESTRING (551269.232365 4180378.912890, 551268.615053 4180364.884531, 551268.401357 4180351.102782, 551268.375176 4180339.740985, 551268.639085 4180328.469757, 551269.465714 4180323.015991, 551272.235170 4180315.321961)

LINESTRING (551397.474776 4180410.834406, 551417.660419 4180409.640017, 551437.971311 4180408.135789, 551457.762167 4180406.694935, 551472.326239 4180405.876096, 551548.212668 4180404.442168, 551757.087174 4180398.484284, 551772.204066 4180398.002309, 551787.268953 4180397.386890, 551802.106388 4180396.525971, 551817.095086 4180395.421931, 551832.579578 4180393.910510, 551847.201732 4180392.271643, 551861.138461 4180390.384388, 551875.200035 4180388.253845, 551894.623852 4180384.980993, 551923.742273 4180379.328301, 552014.818130 4180360.419356)

LINESTRING (551273.369412 4180427.436396, 551281.491021 4180425.855930)

LINESTRING (551273.369412 4180427.436396, 551272.339913 4180418.786714, 551271.164140 4180409.581354, 551270.146880 4180394.718354, 551269.232365 4180378.912890)

LINESTRING (551281.491021 4180425.855930, 551283.308295 4180439.536710)

LINESTRING (551281.491021 4180425.855930, 551287.734691 4180424.585547, 551298.211291 4180422.464991, 551313.660085 4180419.587647, 551334.873249 4180416.036146, 551355.967512 4180413.194061, 551368.067053 4180412.115578)

LINESTRING (551283.308295 4180439.536710, 551275.011038 4180441.038414)

LINESTRING (551283.308295 4180439.536710, 551284.470095 4180448.153932, 551285.687879 4180457.681322, 551287.679555 4180471.640573, 551290.199480 4180484.216195)

LINESTRING (551368.067053 4180412.115578, 551376.236282 4180411.378749, 551397.012698 4180410.077040, 551403.180679 4180409.649517, 551417.003892 4180408.992389, 551428.028479 4180407.984953)

LINESTRING (551902.791766 4180397.048722, 551844.938701 4180404.784062, 551804.497355 4180408.479611, 551787.397243 4180409.204253, 551757.462948 4180410.170056, 551487.855722 4180415.470757, 551458.060340 4180416.771376)

LINESTRING (551249.727092 4180569.465073, 551253.924280 4180555.943764)

LINESTRING (551249.727092 4180569.465073, 551253.644475 4180568.357719, 551257.220689 4180565.461892, 551259.608384 4180558.242581, 551260.787183 4180557.051619, 551262.667166 4180556.408691, 551265.957497 4180556.995029)

LINESTRING (551162.852802 4180091.170709, 551106.758871 4180087.726981, 551097.308190 4180086.270353)

LINESTRING (551428.028479 4180407.984953, 551445.075741 4180401.611702, 551453.604734 4180394.042460, 551454.648911 4180393.261211, 551467.380721 4180384.031740)

LINESTRING (551428.028479 4180407.984953, 551457.370760 4180405.904720, 551469.839054 4180405.017311)

LINESTRING (551705.611105 4180410.410328, 551696.607868 4180416.323129, 551693.502532 4180418.533810, 551690.528888 4180420.811891, 551687.992685 4180423.558722, 551685.257467 4180425.738442, 551683.766297 4180427.570917, 551682.634763 4180429.638650, 551682.030480 4180431.898311, 551681.722719 4180434.625838, 551681.899078 4180437.400784, 551682.207115 4180452.880738)

LINESTRING (551705.611105 4180410.410328, 551679.508957 4180411.245131, 551665.775392 4180411.647189)

LINESTRING (551680.948101 4180528.620844, 551649.910526 4180551.105103, 551646.884656 4180553.294108, 551568.256427 4180610.242201, 551560.090173 4180616.160387)

