LINESTRING (50.000000 250.000000, 280.769231 250.000000)

LINESTRING (280.769231 250.000000, 511.538462 250.000000)

LINESTRING (511.538462 250.000000, 742.307692 250.000000)

LINESTRING (742.307692 250.000000, 973.076923 250.000000)

LINESTRING (973.076923 250.000000, 1203.846154 250.000000)

LINESTRING (1203.846154 250.000000, 1434.615385 250.000000)

LINESTRING (1434.615385 250.000000, 1665.384615 250.000000)

LINESTRING (1665.384615 250.000000, 1896.153846 250.000000)

LINESTRING (1896.153846 250.000000, 2126.923077 250.000000)

LINESTRING (2126.923077 250.000000, 2357.692308 250.000000)

LINESTRING (2357.692308 250.000000, 2588.461538 250.000000)

LINESTRING (2588.461538 250.000000, 2819.230769 250.000000)

LINESTRING (2819.230769 250.000000, 3050.000000 250.000000)

LINESTRING (50.000000 450.000000, 280.769231 450.000000)

LINESTRING (280.769231 450.000000, 511.538462 450.000000)

LINESTRING (511.538462 450.000000, 742.307692 450.000000)

LINESTRING (742.307692 450.000000, 973.076923 450.000000)

LINESTRING (973.076923 450.000000, 1203.846154 450.000000)

LINESTRING (1203.846154 450.000000, 1434.615385 450.000000)

LINESTRING (1434.615385 450.000000, 1665.384615 450.000000)

LINESTRING (1665.384615 450.000000, 1896.153846 450.000000)

LINESTRING (1896.153846 450.000000, 2126.923077 450.000000)

LINESTRING (2126.923077 450.000000, 2357.692308 450.000000)

LINESTRING (2357.692308 450.000000, 2588.461538 450.000000)

LINESTRING (2588.461538 450.000000, 2819.230769 450.000000)

LINESTRING (2819.230769 450.000000, 3050.000000 450.000000)

LINESTRING (50.000000 250.000000, 50.000000 450.000000)

LINESTRING (280.769231 250.000000, 280.769231 450.000000)

LINESTRING (511.538462 250.000000, 511.538462 450.000000)

LINESTRING (742.307692 250.000000, 742.307692 450.000000)

LINESTRING (973.076923 250.000000, 973.076923 450.000000)

LINESTRING (1203.846154 250.000000, 1203.846154 450.000000)

LINESTRING (1434.615385 250.000000, 1434.615385 450.000000)

LINESTRING (1665.384615 250.000000, 1665.384615 450.000000)

LINESTRING (1896.153846 250.000000, 1896.153846 450.000000)

LINESTRING (2126.923077 250.000000, 2126.923077 450.000000)

LINESTRING (2357.692308 250.000000, 2357.692308 450.000000)

LINESTRING (2588.461538 250.000000, 2588.461538 450.000000)

LINESTRING (2819.230769 250.000000, 2819.230769 450.000000)

LINESTRING (3050.000000 250.000000, 3050.000000 450.000000)

LINESTRING (1434.615385 250.000000, 1434.615385 -70.000000)

LINESTRING (1896.153846 250.000000, 1896.153846 570.000000)

LINESTRING (2588.461538 250.000000, 2588.461538 570.000000)

