LINESTRING (80.000000 80.000000, 229.832421 87.088422)

LINESTRING (80.000000 80.000000, 162.407831 83.898632)

LINESTRING (162.407831 83.898632, 229.832421 87.088422)

LINESTRING (80.000000 80.000000, 198.781325 171.602385)

LINESTRING (80.000000 80.000000, 145.329729 130.381312)

LINESTRING (145.329729 130.381312, 198.781325 171.602385)

LINESTRING (80.000000 80.000000, 125.776642 222.844318)

LINESTRING (80.000000 80.000000, 105.177153 158.564375)

LINESTRING (105.177153 158.564375, 125.776642 222.844318)

LINESTRING (80.000000 80.000000, 29.447969 221.224970)

LINESTRING (80.000000 80.000000, 52.196383 157.673733)

LINESTRING (52.196383 157.673733, 29.447969 221.224970)

LINESTRING (80.000000 80.000000, -47.052888 159.734331)

LINESTRING (80.000000 80.000000, 10.120912 123.853882)

LINESTRING (10.120912 123.853882, -47.052888 159.734331)

LINESTRING (80.000000 80.000000, -69.972664 77.136448)

LINESTRING (80.000000 80.000000, -2.484965 78.425046)

LINESTRING (-2.484965 78.425046, -69.972664 77.136448)

LINESTRING (80.000000 80.000000, -45.739284 -1.790174)

LINESTRING (80.000000 80.000000, 10.843394 35.015404)

LINESTRING (10.843394 35.015404, -45.739284 -1.790174)

LINESTRING (80.000000 80.000000, 39.866580 -64.531341)

LINESTRING (80.000000 80.000000, 57.926619 0.507762)

LINESTRING (57.926619 0.507762, 39.866580 -64.531341)

LINESTRING (80.000000 80.000000, 123.857721 -63.445113)

LINESTRING (80.000000 80.000000, 104.121747 1.105188)

LINESTRING (104.121747 1.105188, 123.857721 -63.445113)

LINESTRING (80.000000 80.000000, 195.857159 -15.273914)

LINESTRING (80.000000 80.000000, 143.721438 27.599347)

LINESTRING (143.721438 27.599347, 195.857159 -15.273914)

LINESTRING (229.832421 87.088422, 198.781325 171.602385)

LINESTRING (198.781325 171.602385, 125.776642 222.844318)

LINESTRING (125.776642 222.844318, 29.447969 221.224970)

LINESTRING (29.447969 221.224970, -47.052888 159.734331)

LINESTRING (-47.052888 159.734331, -69.972664 77.136448)

LINESTRING (-69.972664 77.136448, -45.739284 -1.790174)

LINESTRING (-45.739284 -1.790174, 39.866580 -64.531341)

LINESTRING (39.866580 -64.531341, 123.857721 -63.445113)

LINESTRING (123.857721 -63.445113, 195.857159 -15.273914)

LINESTRING (195.857159 -15.273914, 229.832421 87.088422)

LINESTRING (280.000000 80.000000, 429.986700 78.002554)

LINESTRING (280.000000 80.000000, 362.492685 78.901405)

LINESTRING (362.492685 78.901405, 429.986700 78.002554)

LINESTRING (280.000000 80.000000, 400.893626 168.796008)

LINESTRING (280.000000 80.000000, 346.491495 128.837805)

LINESTRING (346.491495 128.837805, 400.893626 168.796008)

LINESTRING (280.000000 80.000000, 330.450940 221.261115)

LINESTRING (280.000000 80.000000, 307.748017 157.693613)

LINESTRING (307.748017 157.693613, 330.450940 221.261115)

LINESTRING (280.000000 80.000000, 243.231407 225.423762)

LINESTRING (280.000000 80.000000, 259.777274 159.983069)

LINESTRING (259.777274 159.983069, 243.231407 225.423762)

LINESTRING (280.000000 80.000000, 165.937256 177.415042)

LINESTRING (280.000000 80.000000, 217.265491 133.578273)

LINESTRING (217.265491 133.578273, 165.937256 177.415042)

LINESTRING (280.000000 80.000000, 130.034188 76.797638)

LINESTRING (280.000000 80.000000, 197.518803 78.238701)

LINESTRING (197.518803 78.238701, 130.034188 76.797638)

LINESTRING (280.000000 80.000000, 157.504621 -6.572987)

LINESTRING (280.000000 80.000000, 212.627542 32.384857)

LINESTRING (212.627542 32.384857, 157.504621 -6.572987)

LINESTRING (280.000000 80.000000, 237.196494 -63.763208)

LINESTRING (280.000000 80.000000, 256.458072 0.930236)

LINESTRING (256.458072 0.930236, 237.196494 -63.763208)

LINESTRING (280.000000 80.000000, 323.484005 -63.558843)

LINESTRING (280.000000 80.000000, 303.916203 1.042636)

LINESTRING (303.916203 1.042636, 323.484005 -63.558843)

LINESTRING (280.000000 80.000000, 394.164252 -17.296061)

LINESTRING (280.000000 80.000000, 342.790339 26.487167)

LINESTRING (342.790339 26.487167, 394.164252 -17.296061)

LINESTRING (429.986700 78.002554, 400.893626 168.796008)

LINESTRING (400.893626 168.796008, 330.450940 221.261115)

LINESTRING (330.450940 221.261115, 243.231407 225.423762)

LINESTRING (243.231407 225.423762, 165.937256 177.415042)

LINESTRING (165.937256 177.415042, 130.034188 76.797638)

LINESTRING (130.034188 76.797638, 157.504621 -6.572987)

LINESTRING (157.504621 -6.572987, 237.196494 -63.763208)

LINESTRING (237.196494 -63.763208, 323.484005 -63.558843)

LINESTRING (323.484005 -63.558843, 394.164252 -17.296061)

LINESTRING (394.164252 -17.296061, 429.986700 78.002554)

LINESTRING (80.000000 80.000000, 280.000000 80.000000)

