LINESTRING (4164.330290 4035.384985, 4155.771801 2352.300587)

LINESTRING (4164.330290 4035.384985, 3644.565268 2693.194125)

LINESTRING (4164.330290 4035.384985, 2726.672451 4160.852661)

LINESTRING (4164.330290 4035.384985, 5405.287167 3823.074987)

LINESTRING (4164.330290 4035.384985, 4179.312769 4481.656159)

LINESTRING (4164.330290 4035.384985, 3946.871067 3480.103629)

LINESTRING (448.947915 3943.361794, 451.988309 4268.231429)

LINESTRING (967.399083 4733.025550, 451.988309 4268.231429)

LINESTRING (4155.771801 2352.300587, 4471.759025 2209.844061)

LINESTRING (4155.771801 2352.300587, 3966.246128 2251.463859)

LINESTRING (4155.771801 2352.300587, 4027.332474 1112.690613)

LINESTRING (4155.771801 2352.300587, 3064.025098 1614.345974)

LINESTRING (4155.771801 2352.300587, 4865.320985 2887.154872)

LINESTRING (4155.771801 2352.300587, 3946.871067 3480.103629)

LINESTRING (3644.565268 2693.194125, 4471.759025 2209.844061)

LINESTRING (3644.565268 2693.194125, 2726.672451 4160.852661)

LINESTRING (3644.565268 2693.194125, 4915.485502 1460.885341)

LINESTRING (3644.565268 2693.194125, 3966.246128 2251.463859)

LINESTRING (611.705154 2639.742307, 1550.614267 2166.468111)

LINESTRING (611.705154 2639.742307, 467.137222 2535.601849)

LINESTRING (4471.759025 2209.844061, 4915.485502 1460.885341)

LINESTRING (4471.759025 2209.844061, 3966.246128 2251.463859)

LINESTRING (4471.759025 2209.844061, 5822.231552 3210.294954)

LINESTRING (4471.759025 2209.844061, 3064.025098 1614.345974)

LINESTRING (4471.759025 2209.844061, 4519.992183 1465.386606)

LINESTRING (4471.759025 2209.844061, 3946.871067 3480.103629)

LINESTRING (2109.552571 2536.147322, 1550.614267 2166.468111)

LINESTRING (2728.485302 5095.529313, 3977.811891 5219.326912)

LINESTRING (3734.551144 4527.783368, 2726.672451 4160.852661)

LINESTRING (3734.551144 4527.783368, 3696.966797 4558.435978)

LINESTRING (3734.551144 4527.783368, 4891.840041 5134.609882)

LINESTRING (3734.551144 4527.783368, 3735.267897 4564.652014)

LINESTRING (3734.551144 4527.783368, 4179.312769 4481.656159)

LINESTRING (3734.551144 4527.783368, 5405.148029 4078.090337)

LINESTRING (5506.159218 5537.596698, 5681.960760 5832.887469)

LINESTRING (5506.159218 5537.596698, 3977.811891 5219.326912)

LINESTRING (1550.614267 2166.468111, 467.137222 2535.601849)

LINESTRING (2257.256298 1136.552030, 4027.332474 1112.690613)

LINESTRING (2257.256298 1136.552030, 3128.342323 744.803089)

LINESTRING (5341.624155 2455.397677, 3966.246128 2251.463859)

LINESTRING (5341.624155 2455.397677, 5822.231552 3210.294954)

LINESTRING (5341.624155 2455.397677, 5405.287167 3823.074987)

LINESTRING (2726.672451 4160.852661, 2786.716367 5830.773632)

LINESTRING (2726.672451 4160.852661, 3946.871067 3480.103629)

LINESTRING (4915.485502 1460.885341, 4416.917615 744.553751)

LINESTRING (4915.485502 1460.885341, 4027.332474 1112.690613)

LINESTRING (4915.485502 1460.885341, 4865.320985 2887.154872)

LINESTRING (4915.485502 1460.885341, 4519.992183 1465.386606)

LINESTRING (3357.491574 3904.278345, 2394.568241 3192.800635)

LINESTRING (3357.491574 3904.278345, 3966.246128 2251.463859)

LINESTRING (3357.491574 3904.278345, 4179.312769 4481.656159)

LINESTRING (3357.491574 3904.278345, 3977.811891 5219.326912)

LINESTRING (4416.917615 744.553751, 4027.332474 1112.690613)

LINESTRING (4416.917615 744.553751, 3128.342323 744.803089)

LINESTRING (2786.716367 5830.773632, 3977.811891 5219.326912)

LINESTRING (3966.246128 2251.463859, 3946.871067 3480.103629)

LINESTRING (3696.966797 4558.435978, 3735.267897 4564.652014)

LINESTRING (3696.966797 4558.435978, 4179.312769 4481.656159)

LINESTRING (3696.966797 4558.435978, 3977.811891 5219.326912)

LINESTRING (4891.840041 5134.609882, 5681.960760 5832.887469)

LINESTRING (4891.840041 5134.609882, 5405.287167 3823.074987)

LINESTRING (4891.840041 5134.609882, 4179.312769 4481.656159)

LINESTRING (5822.231552 3210.294954, 4865.320985 2887.154872)

LINESTRING (3064.025098 1614.345974, 3128.342323 744.803089)

LINESTRING (3064.025098 1614.345974, 4519.992183 1465.386606)

LINESTRING (5405.287167 3823.074987, 5405.148029 4078.090337)

LINESTRING (5405.287167 3823.074987, 4865.320985 2887.154872)

LINESTRING (3735.267897 4564.652014, 4179.312769 4481.656159)

LINESTRING (3735.267897 4564.652014, 5405.148029 4078.090337)

LINESTRING (3128.342323 744.803089, 1717.070383 148.549597)

LINESTRING (3128.342323 744.803089, 4519.992183 1465.386606)

LINESTRING (4179.312769 4481.656159, 5405.148029 4078.090337)

LINESTRING (5405.148029 4078.090337, 4865.320985 2887.154872)

LINESTRING (5405.148029 4078.090337, 3946.871067 3480.103629)

LINESTRING (4865.320985 2887.154872, 4519.992183 1465.386606)

LINESTRING (3946.871067 3480.103629, 3977.811891 5219.326912)

