LINESTRING (703523.895443 4695367.770359, 703557.855838 4695240.492216)

LINESTRING (703523.895443 4695367.770359, 703534.092626 4695362.788014, 703559.547710 4695350.503376, 703570.632766 4695345.591384, 703576.706027 4695343.867698, 703583.455930 4695343.241776, 703591.636458 4695344.135675, 703602.010668 4695346.093716, 703610.810670 4695348.350470)

LINESTRING (703557.855838 4695240.492216, 703479.172464 4695219.930832)

LINESTRING (703557.855838 4695240.492216, 703523.895443 4695367.770359)

LINESTRING (703557.855838 4695240.492216, 703562.986042 4695219.369362, 703567.550201 4695201.275269, 703575.493453 4695171.832128, 703583.766073 4695142.398582, 703590.292183 4695119.182493, 703592.038750 4695112.965045)

LINESTRING (703610.810670 4695348.350470, 703611.839765 4695344.134885, 703615.761934 4695328.000415, 703634.581011 4695258.396812, 703656.742528 4695176.454011, 703664.535817 4695148.495857, 703666.061279 4695142.516492)

LINESTRING (703610.810670 4695348.350470, 703602.010668 4695346.093716, 703591.636458 4695344.135675, 703583.455930 4695343.241776, 703576.706027 4695343.867698, 703570.632766 4695345.591384, 703559.547710 4695350.503376, 703534.092626 4695362.788014, 703523.895443 4695367.770359)

LINESTRING (703874.599605 4694939.927230, 703855.902350 4695034.929451)

LINESTRING (703874.599605 4694939.927230, 703932.451350 4694948.171237, 703961.014793 4694952.005002)

LINESTRING (703874.599605 4694939.927230, 703842.591164 4694935.548849, 703832.262865 4694933.691852, 703822.023365 4694931.615178, 703815.963287 4694930.327162, 703803.931928 4694927.531453, 703782.180906 4694921.785178, 703733.270362 4694903.322391, 703729.203149 4694901.792429)

LINESTRING (703855.902350 4695034.929451, 703849.159597 4695069.219718)

LINESTRING (703855.902350 4695034.929451, 703874.599605 4694939.927230)

LINESTRING (703855.902350 4695034.929451, 703804.146525 4695024.785362, 703796.192955 4695023.442176, 703787.077067 4695022.398550, 703777.062027 4695021.106456, 703771.647713 4695020.281851, 703762.133115 4695018.782080, 703754.027817 4695016.989962, 703744.485881 4695013.600037, 703709.575179 4695001.091151, 703703.874047 4694999.080160)

LINESTRING (703961.014793 4694952.005002, 703923.266406 4695093.608350)

LINESTRING (703961.014793 4694952.005002, 704105.595297 4694963.825109, 704113.504750 4694964.422715, 704148.488519 4694967.077615, 704156.818823 4694967.654214)

LINESTRING (703961.014793 4694952.005002, 703932.451350 4694948.171237, 703874.599605 4694939.927230)

LINESTRING (703729.203149 4694901.792429, 703703.874047 4694999.080160)

LINESTRING (703729.203149 4694901.792429, 703733.270362 4694903.322391, 703782.180906 4694921.785178, 703803.931928 4694927.531453, 703815.963287 4694930.327162, 703822.023365 4694931.615178, 703832.262865 4694933.691852, 703842.591164 4694935.548849, 703874.599605 4694939.927230)

LINESTRING (703729.203149 4694901.792429, 703754.106780 4694802.158425, 703754.432793 4694800.867584, 703766.138172 4694754.051868)

LINESTRING (704193.041317 4694485.317151, 704194.340317 4694465.660982)

LINESTRING (704193.041317 4694485.317151, 704191.990832 4694497.589734, 704188.745949 4694542.406872, 704186.197602 4694593.568240, 704185.307659 4694601.188725, 704183.827926 4694621.673176, 704183.672066 4694625.036182, 704182.797774 4694647.927829, 704182.317946 4694656.460525, 704182.299073 4694659.082890, 704181.747926 4694670.058595, 704181.663950 4694677.169135)

LINESTRING (704193.041317 4694485.317151, 704177.356239 4694484.581419, 704147.541252 4694483.188793, 704144.224744 4694483.036426, 704135.831041 4694482.635854, 704123.190760 4694482.044677, 704111.579026 4694481.505766, 704106.410936 4694481.266043, 704065.230563 4694479.364302)

LINESTRING (704194.340317 4694465.660982, 704193.041317 4694485.317151)

LINESTRING (704194.340317 4694465.660982, 704207.824543 4694465.854590, 704242.092615 4694467.988770, 704247.470701 4694468.657059, 704254.438249 4694470.205322, 704262.081004 4694472.617977)

LINESTRING (704181.663950 4694677.169135, 704195.974600 4694677.831436, 704250.621419 4694680.482922, 704254.488820 4694680.673663, 704285.395735 4694682.176490)

LINESTRING (704181.663950 4694677.169135, 704181.747926 4694670.058595, 704182.299073 4694659.082890, 704182.317946 4694656.460525, 704182.797774 4694647.927829, 704183.672066 4694625.036182, 704183.827926 4694621.673176, 704185.307659 4694601.188725, 704186.197602 4694593.568240, 704188.745949 4694542.406872, 704191.990832 4694497.589734, 704193.041317 4694485.317151)

LINESTRING (704181.663950 4694677.169135, 704181.492521 4694683.888131, 704180.377368 4694712.207518, 704180.081413 4694715.288584, 704179.955053 4694717.641074, 704179.829981 4694722.772114, 704179.242858 4694732.157461)

LINESTRING (704065.230563 4694479.364302, 704106.410936 4694481.266043, 704111.579026 4694481.505766, 704123.190760 4694482.044677, 704135.831041 4694482.635854, 704144.224744 4694483.036426, 704147.541252 4694483.188793, 704177.356239 4694484.581419, 704193.041317 4694485.317151)

LINESTRING (704065.230563 4694479.364302, 704057.056113 4694478.792397, 704051.924520 4694478.431525)

LINESTRING (704048.219711 4695423.561602, 704041.823659 4695421.096580, 704013.083307 4695409.555160, 703987.534042 4695399.340614, 703984.865858 4695398.162487, 703931.976491 4695377.259148)

LINESTRING (704048.219711 4695423.561602, 704059.742388 4695400.558346, 704065.923178 4695386.401592, 704072.103990 4695372.244843, 704078.284825 4695358.088099, 704081.258506 4695351.339743, 704085.873639 4695340.860517, 704093.380160 4695323.630540, 704095.316110 4695319.408133, 704097.607293 4695314.306971)

LINESTRING (703931.976491 4695377.259148, 703846.958238 4695344.294397)

LINESTRING (703931.976491 4695377.259148, 703978.496181 4695273.332685, 703980.919256 4695267.379556)

LINESTRING (703931.976491 4695377.259148, 703984.865858 4695398.162487, 703987.534042 4695399.340614, 704013.083307 4695409.555160, 704041.823659 4695421.096580, 704048.219711 4695423.561602)

LINESTRING (704097.607293 4695314.306971, 704087.932310 4695310.412524, 704043.747784 4695292.752109, 703980.919256 4695267.379556)

LINESTRING (704097.607293 4695314.306971, 704101.048126 4695306.516421, 704107.127293 4695293.023573, 704113.120914 4695279.639372, 704119.443862 4695266.264788, 704125.132198 4695254.872214, 704130.902878 4695243.482047, 704135.764146 4695234.454859, 704136.914073 4695232.321187, 704142.576527 4695221.816993, 704148.393925 4695211.650748, 704157.662244 4695196.739526)

LINESTRING (704097.607293 4695314.306971, 704095.316110 4695319.408133, 704093.380160 4695323.630540, 704085.873639 4695340.860517, 704081.258506 4695351.339743, 704078.284825 4695358.088099, 704072.103990 4695372.244843, 704065.923178 4695386.401592, 704059.742388 4695400.558346, 704048.219711 4695423.561602)

LINESTRING (703479.172464 4695219.930832, 703557.855838 4695240.492216)

LINESTRING (703479.172464 4695219.930832, 703508.862909 4695091.850299, 703509.739728 4695088.052603, 703512.250481 4695079.923544)

LINESTRING (703592.038750 4695112.965045, 703637.647712 4695131.297440, 703666.061279 4695142.516492)

LINESTRING (703592.038750 4695112.965045, 703567.443977 4695103.024440, 703563.138274 4695101.198663, 703546.314000 4695094.073893, 703518.315605 4695082.167253, 703512.250481 4695079.923544)

LINESTRING (703592.038750 4695112.965045, 703590.292183 4695119.182493, 703583.766073 4695142.398582, 703575.493453 4695171.832128, 703567.550201 4695201.275269, 703562.986042 4695219.369362, 703557.855838 4695240.492216)

LINESTRING (704262.081004 4694472.617977, 704254.438249 4694470.205322, 704247.470701 4694468.657059, 704242.092615 4694467.988770, 704207.824543 4694465.854590, 704194.340317 4694465.660982)

LINESTRING (704262.081004 4694472.617977, 704268.985578 4694475.475874, 704270.672616 4694475.836336, 704296.410949 4694479.122057, 704319.804717 4694481.705885)

LINESTRING (704315.776660 4695450.479457, 704304.653432 4695423.969681)

LINESTRING (704304.653432 4695423.969681, 704315.776660 4695450.479457)

LINESTRING (704304.653432 4695423.969681, 704292.396500 4695394.803885, 704283.458849 4695375.548816)

LINESTRING (704015.353586 4694676.728224, 704021.199553 4694678.865935, 704107.786816 4694709.721958, 704131.000214 4694717.612452, 704166.991161 4694729.843728, 704179.242858 4694732.157461)

LINESTRING (704015.353586 4694676.728224, 704018.412835 4694664.792077, 704025.135526 4694638.570124, 704035.989251 4694596.442247, 704037.789514 4694589.248414, 704043.414246 4694567.617881, 704044.444135 4694563.669101, 704062.380450 4694490.906431, 704065.230563 4694479.364302)

LINESTRING (704179.242858 4694732.157461, 704166.991161 4694729.843728, 704131.000214 4694717.612452, 704107.786816 4694709.721958, 704021.199553 4694678.865935, 704015.353586 4694676.728224)

LINESTRING (704179.242858 4694732.157461, 704179.829981 4694722.772114, 704179.955053 4694717.641074, 704180.081413 4694715.288584, 704180.377368 4694712.207518, 704181.492521 4694683.888131, 704181.663950 4694677.169135)

LINESTRING (704179.242858 4694732.157461, 704178.881605 4694740.015663, 704178.579862 4694748.375734, 704177.430385 4694766.580335, 704177.123990 4694770.583563, 704176.368479 4694788.277305, 704176.307964 4694796.277655, 704176.363830 4694800.291459, 704176.371466 4694803.981547, 704176.582851 4694808.877901, 704177.216392 4694815.120266, 704178.203884 4694823.351266, 704179.711216 4694834.098104, 704180.986935 4694840.359218, 704181.996349 4694844.734283, 704186.106856 4694861.714310)

LINESTRING (703666.061279 4695142.516492, 703664.535817 4695148.495857, 703656.742528 4695176.454011, 703634.581011 4695258.396812, 703615.761934 4695328.000415, 703611.839765 4695344.134885, 703610.810670 4695348.350470)

LINESTRING (703666.061279 4695142.516492, 703683.495807 4695079.174300, 703703.874047 4694999.080160)

LINESTRING (703666.061279 4695142.516492, 703672.018928 4695145.335139, 703795.938555 4695193.901595, 703819.829102 4695203.389072, 703896.273245 4695233.758300)

LINESTRING (703666.061279 4695142.516492, 703637.647712 4695131.297440, 703592.038750 4695112.965045)

LINESTRING (703703.874047 4694999.080160, 703729.203149 4694901.792429)

LINESTRING (703703.874047 4694999.080160, 703683.495807 4695079.174300, 703666.061279 4695142.516492)

LINESTRING (703703.874047 4694999.080160, 703709.575179 4695001.091151, 703744.485881 4695013.600037, 703754.027817 4695016.989962, 703762.133115 4695018.782080, 703771.647713 4695020.281851, 703777.062027 4695021.106456, 703787.077067 4695022.398550, 703796.192955 4695023.442176, 703804.146525 4695024.785362, 703855.902350 4695034.929451)

LINESTRING (703896.273245 4695233.758300, 703980.919256 4695267.379556)

LINESTRING (703896.273245 4695233.758300, 703819.829102 4695203.389072, 703795.938555 4695193.901595, 703672.018928 4695145.335139, 703666.061279 4695142.516492)

LINESTRING (703896.273245 4695233.758300, 703893.454558 4695239.999998, 703846.958238 4695344.294397)

LINESTRING (704356.135073 4695365.002331, 704355.009695 4695359.245690, 704350.747128 4695339.037976, 704344.425965 4695313.991055, 704342.550029 4695306.567601, 704342.803139 4695297.906016, 704344.985449 4695288.078257, 704348.734010 4695275.406609, 704348.789176 4695273.518828, 704348.169505 4695272.167030, 704347.138202 4695270.803203, 704344.315184 4695268.720174, 704342.191244 4695268.091290, 704340.557368 4695267.610096, 704338.255470 4695267.431691, 704333.549878 4695267.738753, 704311.792147 4695273.549178, 704250.854001 4695289.262530, 704244.564047 4695290.779263)

LINESTRING (704356.135073 4695365.002331, 704334.824742 4695367.636001, 704315.557600 4695369.996013, 704301.367431 4695372.026503, 704283.458849 4695375.548816)

LINESTRING (704244.564047 4695290.779263, 704250.854001 4695289.262530, 704311.792147 4695273.549178, 704333.549878 4695267.738753, 704338.255470 4695267.431691, 704340.557368 4695267.610096, 704342.191244 4695268.091290, 704344.315184 4695268.720174, 704347.138202 4695270.803203, 704348.169505 4695272.167030, 704348.789176 4695273.518828, 704348.734010 4695275.406609, 704344.985449 4695288.078257, 704342.803139 4695297.906016, 704342.550029 4695306.567601, 704344.425965 4695313.991055, 704350.747128 4695339.037976, 704355.009695 4695359.245690, 704356.135073 4695365.002331)

LINESTRING (704244.564047 4695290.779263, 704233.428300 4695293.454817, 704218.992308 4695296.845333, 704205.614572 4695300.678001, 704200.715428 4695302.535467, 704190.182952 4695306.562392)

LINESTRING (704244.564047 4695290.779263, 704255.610913 4695312.585427, 704267.817320 4695342.927750)

LINESTRING (704244.564047 4695290.779263, 704239.417612 4695274.302382, 704235.557614 4695259.763584, 704232.441682 4695239.778399, 704230.829072 4695227.283548, 704230.029099 4695218.280019, 704227.904576 4695184.942460)

LINESTRING (704283.458849 4695375.548816, 704301.367431 4695372.026503, 704315.557600 4695369.996013, 704334.824742 4695367.636001, 704356.135073 4695365.002331)

LINESTRING (704283.458849 4695375.548816, 704292.396500 4695394.803885, 704304.653432 4695423.969681)

LINESTRING (704283.458849 4695375.548816, 704277.411090 4695369.059344, 704271.864023 4695356.994125, 704267.817320 4695342.927750)

LINESTRING (703846.958238 4695344.294397, 703931.976491 4695377.259148)

LINESTRING (703846.958238 4695344.294397, 703846.085595 4695346.247256, 703821.982723 4695400.314589, 703813.986987 4695418.241849, 703810.055084 4695427.062923)

LINESTRING (703846.958238 4695344.294397, 703893.454558 4695239.999998, 703896.273245 4695233.758300)

LINESTRING (703980.919256 4695267.379556, 703896.273245 4695233.758300)

LINESTRING (703980.919256 4695267.379556, 704043.747784 4695292.752109, 704087.932310 4695310.412524, 704097.607293 4695314.306971)

LINESTRING (703980.919256 4695267.379556, 703978.496181 4695273.332685, 703931.976491 4695377.259148)

LINESTRING (703848.763663 4694449.801737, 703845.034815 4694461.818451, 703843.615749 4694466.400524, 703834.094228 4694497.631263, 703817.237770 4694552.932381, 703804.416804 4694604.361186, 703797.540512 4694631.923619, 703796.243673 4694637.120530, 703771.734891 4694731.653490, 703766.138172 4694754.051868)

LINESTRING (703848.763663 4694449.801737, 703859.186154 4694454.106539, 703875.029024 4694459.325100, 703903.403298 4694466.042628, 703928.952431 4694470.732952, 703939.011920 4694473.071227, 703949.601682 4694474.180209, 703959.287878 4694474.907210, 703961.029509 4694475.091364, 703974.124539 4694476.195639, 703992.879591 4694477.342755, 704002.871906 4694477.745324, 704051.924520 4694478.431525)

LINESTRING (703766.138172 4694754.051868, 703754.432793 4694800.867584, 703754.106780 4694802.158425, 703729.203149 4694901.792429)

LINESTRING (703766.138172 4694754.051868, 703771.734891 4694731.653490, 703796.243673 4694637.120530, 703797.540512 4694631.923619, 703804.416804 4694604.361186, 703817.237770 4694552.932381, 703834.094228 4694497.631263, 703843.615749 4694466.400524, 703845.034815 4694461.818451, 703848.763663 4694449.801737)

LINESTRING (703766.138172 4694754.051868, 703622.448332 4694717.436347, 703616.943548 4694716.031317)

LINESTRING (704051.924520 4694478.431525, 704057.056113 4694478.792397, 704065.230563 4694479.364302)

LINESTRING (704051.924520 4694478.431525, 704002.871906 4694477.745324, 703992.879591 4694477.342755, 703974.124539 4694476.195639, 703961.029509 4694475.091364, 703959.287878 4694474.907210, 703949.601682 4694474.180209, 703939.011920 4694473.071227, 703928.952431 4694470.732952, 703903.403298 4694466.042628, 703875.029024 4694459.325100, 703859.186154 4694454.106539, 703848.763663 4694449.801737)

LINESTRING (704319.804717 4694481.705885, 704319.125598 4694491.977666, 704317.621970 4694514.395259, 704312.168511 4694521.104448, 704304.243481 4694529.486353, 704303.326366 4694530.415374, 704298.872355 4694533.941802, 704287.173901 4694532.988840, 704265.045127 4694532.242531, 704258.737445 4694534.625671, 704256.367044 4694539.324378, 704254.177396 4694593.141373, 704271.383600 4694594.266254, 704281.372963 4694595.047023, 704281.014424 4694604.783581, 704280.271747 4694623.722474, 704282.755101 4694632.930762, 704284.747588 4694640.324237, 704285.662668 4694643.696297, 704287.179133 4694649.330962, 704285.860845 4694673.587793, 704285.659677 4694677.371811, 704285.395735 4694682.176490)

LINESTRING (704319.804717 4694481.705885, 704334.703848 4694482.830196, 704367.961055 4694484.868783, 704377.034051 4694485.711818, 704430.049861 4694490.650908, 704438.548120 4694491.421654)

LINESTRING (704319.804717 4694481.705885, 704296.410949 4694479.122057, 704270.672616 4694475.836336, 704268.985578 4694475.475874, 704262.081004 4694472.617977)

LINESTRING (704285.395735 4694682.176490, 704285.659677 4694677.371811, 704285.860845 4694673.587793, 704287.179133 4694649.330962, 704285.662668 4694643.696297, 704284.747588 4694640.324237, 704282.755101 4694632.930762, 704280.271747 4694623.722474, 704281.014424 4694604.783581, 704281.372963 4694595.047023, 704271.383600 4694594.266254, 704254.177396 4694593.141373, 704256.367044 4694539.324378, 704258.737445 4694534.625671, 704265.045127 4694532.242531, 704287.173901 4694532.988840, 704298.872355 4694533.941802, 704303.326366 4694530.415374, 704304.243481 4694529.486353, 704312.168511 4694521.104448, 704317.621970 4694514.395259, 704319.125598 4694491.977666, 704319.804717 4694481.705885)

LINESTRING (704285.395735 4694682.176490, 704316.778882 4694683.737824, 704330.174649 4694684.407015, 704338.197289 4694684.808110, 704366.083206 4694686.200807, 704378.508085 4694686.819494, 704384.281074 4694687.221588, 704388.583819 4694688.869954, 704392.815781 4694692.094452, 704395.963813 4694696.598736, 704397.708509 4694704.007240, 704399.065573 4694713.682801, 704403.913445 4694720.926373, 704437.026681 4694736.309162)

LINESTRING (704285.395735 4694682.176490, 704254.488820 4694680.673663, 704250.621419 4694680.482922, 704195.974600 4694677.831436, 704181.663950 4694677.169135)

LINESTRING (704437.026681 4694736.309162, 704403.913445 4694720.926373, 704399.065573 4694713.682801, 704397.708509 4694704.007240, 704395.963813 4694696.598736, 704392.815781 4694692.094452, 704388.583819 4694688.869954, 704384.281074 4694687.221588, 704378.508085 4694686.819494, 704366.083206 4694686.200807, 704338.197289 4694684.808110, 704330.174649 4694684.407015, 704316.778882 4694683.737824, 704285.395735 4694682.176490)

LINESTRING (704437.026681 4694736.309162, 704438.530423 4694799.036516, 704442.897837 4694853.156381)

LINESTRING (703512.250481 4695079.923544, 703518.315605 4695082.167253, 703546.314000 4695094.073893, 703563.138274 4695101.198663, 703567.443977 4695103.024440, 703592.038750 4695112.965045)

LINESTRING (703512.250481 4695079.923544, 703509.739728 4695088.052603, 703508.862909 4695091.850299, 703479.172464 4695219.930832)

LINESTRING (703512.250481 4695079.923544, 703514.036856 4695073.751696, 703520.403732 4695051.753460, 703541.252077 4694990.266353, 703562.659050 4694916.392337, 703573.015578 4694877.650338, 703577.625403 4694860.257757, 703594.471945 4694797.287257)

LINESTRING (703594.471945 4694797.287257, 703616.943548 4694716.031317)

LINESTRING (703594.471945 4694797.287257, 703577.625403 4694860.257757, 703573.015578 4694877.650338, 703562.659050 4694916.392337, 703541.252077 4694990.266353, 703520.403732 4695051.753460, 703514.036856 4695073.751696, 703512.250481 4695079.923544)

LINESTRING (704442.897837 4694853.156381, 704448.344576 4694914.887615)

LINESTRING (704442.897837 4694853.156381, 704438.530423 4694799.036516, 704437.026681 4694736.309162)

LINESTRING (704448.344576 4694914.887615, 704442.897837 4694853.156381)

LINESTRING (704448.344576 4694914.887615, 704422.539082 4694937.917403, 704409.017211 4694950.036621, 704381.584506 4694974.619411, 704379.579089 4694976.416855, 704370.669928 4694984.369797, 704358.444224 4694995.282205, 704349.771798 4695003.030921)

LINESTRING (704438.548120 4694491.421654, 704439.275074 4694500.100765, 704439.578192 4694502.699203, 704439.286907 4694542.267903, 704438.389955 4694549.554747)

LINESTRING (704438.548120 4694491.421654, 704430.049861 4694490.650908, 704377.034051 4694485.711818, 704367.961055 4694484.868783, 704334.703848 4694482.830196, 704319.804717 4694481.705885)

LINESTRING (704438.389955 4694549.554747, 704439.286907 4694542.267903, 704439.578192 4694502.699203, 704439.275074 4694500.100765, 704438.548120 4694491.421654)

LINESTRING (704438.389955 4694549.554747, 704442.498298 4694559.266276, 704442.871997 4694560.577546, 704449.313122 4694573.647033, 704457.121507 4694586.456416)

LINESTRING (704438.389955 4694549.554747, 704433.186792 4694548.824734, 704425.036818 4694546.008066, 704380.431503 4694527.088734)

LINESTRING (704238.715341 4695099.168644, 704247.273912 4695093.617064, 704256.311500 4695087.746062)

LINESTRING (704256.311500 4695087.746062, 704249.157861 4695097.951003, 704240.916036 4695107.046104, 704239.633885 4695108.909163, 704235.506347 4695114.812439, 704232.323246 4695121.387916)

LINESTRING (704256.311500 4695087.746062, 704289.029627 4695057.649056, 704307.595779 4695040.953516, 704332.119587 4695018.897281, 704344.669095 4695007.616415, 704349.771798 4695003.030921)

LINESTRING (704178.985177 4695166.031541, 704170.453150 4695177.452194, 704157.662244 4695196.739526)

LINESTRING (704178.985177 4695166.031541, 704187.212802 4695149.233917, 704191.192667 4695143.870892, 704196.791750 4695137.799394, 704201.435227 4695133.978379, 704206.808437 4695125.766392)

LINESTRING (704157.662244 4695196.739526, 704148.393925 4695211.650748, 704142.576527 4695221.816993, 704136.914073 4695232.321187, 704135.764146 4695234.454859, 704130.902878 4695243.482047, 704125.132198 4695254.872214, 704119.443862 4695266.264788, 704113.120914 4695279.639372, 704107.127293 4695293.023573, 704101.048126 4695306.516421, 704097.607293 4695314.306971)

LINESTRING (704157.662244 4695196.739526, 704170.453150 4695177.452194, 704178.985177 4695166.031541)

LINESTRING (704206.808437 4695125.766392, 704206.501660 4695122.445444, 704207.059330 4695119.149738, 704208.449938 4695116.111750, 704210.568855 4695113.528479)

LINESTRING (704186.106856 4694861.714310, 704188.242816 4694869.556509, 704191.521855 4694880.299510, 704196.986208 4694900.297642, 704200.138579 4694914.248913, 704206.580489 4694938.298890, 704209.410715 4694950.017951)

LINESTRING (704186.106856 4694861.714310, 704177.639563 4694863.567662, 704175.323070 4694864.166877, 704170.382024 4694865.756421, 704169.146469 4694866.587247)

LINESTRING (704186.106856 4694861.714310, 704181.996349 4694844.734283, 704180.986935 4694840.359218, 704179.711216 4694834.098104, 704178.203884 4694823.351266, 704177.216392 4694815.120266, 704176.582851 4694808.877901, 704176.371466 4694803.981547, 704176.363830 4694800.291459, 704176.307964 4694796.277655, 704176.368479 4694788.277305, 704177.123990 4694770.583563, 704177.430385 4694766.580335, 704178.579862 4694748.375734, 704178.881605 4694740.015663, 704179.242858 4694732.157461)

LINESTRING (704209.410715 4694950.017951, 704223.190488 4694948.241976, 704245.514730 4694946.482168, 704250.237967 4694946.142207, 704260.900213 4694945.308865, 704268.543260 4694945.154223, 704281.264990 4694944.903426, 704283.529522 4694945.236311, 704296.608856 4694947.129890, 704304.618474 4694950.787006, 704306.683709 4694951.736465, 704317.431564 4694962.075349, 704334.054788 4694983.122055, 704345.846509 4694998.059374, 704349.771798 4695003.030921)

LINESTRING (704209.410715 4694950.017951, 704211.593948 4694962.729500, 704214.279625 4694982.502036, 704216.756219 4695017.616987, 704217.166192 4695026.998112, 704218.590065 4695054.424738)

LINESTRING (704209.410715 4694950.017951, 704206.580489 4694938.298890, 704200.138579 4694914.248913, 704196.986208 4694900.297642, 704191.521855 4694880.299510, 704188.242816 4694869.556509, 704186.106856 4694861.714310)

LINESTRING (704169.146469 4694866.587247, 704157.736276 4694865.376145, 704124.116164 4694862.283128, 704092.284768 4694860.298308, 704088.685141 4694859.970983, 704020.886919 4694853.702820, 704014.945381 4694853.151619, 703995.945371 4694851.397076)

LINESTRING (704169.146469 4694866.587247, 704170.382024 4694865.756421, 704175.323070 4694864.166877, 704177.639563 4694863.567662, 704186.106856 4694861.714310)

LINESTRING (704169.146469 4694866.587247, 704167.733800 4694868.968870, 704166.088068 4694873.688755, 704165.746287 4694876.646229, 704162.870974 4694901.468882, 704159.473204 4694935.156413, 704156.818823 4694967.654214)

LINESTRING (703810.055084 4695427.062923, 703813.986987 4695418.241849, 703821.982723 4695400.314589, 703846.085595 4695346.247256, 703846.958238 4695344.294397)

LINESTRING (704359.045037 4694518.139411, 704363.053557 4694519.990324)

LINESTRING (704363.053557 4694519.990324, 704380.431503 4694527.088734)

LINESTRING (704363.053557 4694519.990324, 704361.754168 4694524.131247, 704348.360322 4694566.540184, 704348.278038 4694569.638604, 704349.503255 4694572.830795, 704351.297264 4694574.605890, 704355.899050 4694577.585541, 704359.214542 4694577.771324, 704362.430050 4694573.764185, 704365.409182 4694567.694037, 704368.198663 4694560.217977, 704378.720023 4694531.795545, 704380.431503 4694527.088734)

LINESTRING (704363.053557 4694519.990324, 704359.045037 4694518.139411)

LINESTRING (704380.431503 4694527.088734, 704363.053557 4694519.990324)

LINESTRING (704380.431503 4694527.088734, 704378.720023 4694531.795545, 704368.198663 4694560.217977, 704365.409182 4694567.694037, 704362.430050 4694573.764185, 704359.214542 4694577.771324, 704355.899050 4694577.585541, 704351.297264 4694574.605890, 704349.503255 4694572.830795, 704348.278038 4694569.638604, 704348.360322 4694566.540184, 704361.754168 4694524.131247, 704363.053557 4694519.990324)

LINESTRING (704380.431503 4694527.088734, 704425.036818 4694546.008066, 704433.186792 4694548.824734, 704438.389955 4694549.554747)

LINESTRING (703923.266406 4695093.608350, 703961.014793 4694952.005002)

LINESTRING (704156.818823 4694967.654214, 704148.488519 4694967.077615, 704113.504750 4694964.422715, 704105.595297 4694963.825109, 703961.014793 4694952.005002)

LINESTRING (704156.818823 4694967.654214, 704155.858132 4694974.594681, 704152.712867 4694997.375585, 704150.389466 4695025.593027, 704148.431069 4695045.541154, 704147.906086 4695052.516569, 704144.264520 4695085.807998, 704142.478978 4695102.093535, 704138.597754 4695144.724891, 704136.524289 4695177.084063, 704137.620398 4695181.028208, 704140.897468 4695185.625065, 704144.697740 4695188.670115, 704149.900620 4695191.933940, 704157.662244 4695196.739526)

LINESTRING (704156.818823 4694967.654214, 704159.473204 4694935.156413, 704162.870974 4694901.468882, 704165.746287 4694876.646229, 704166.088068 4694873.688755, 704167.733800 4694868.968870, 704169.146469 4694866.587247)

LINESTRING (703616.943548 4694716.031317, 703594.471945 4694797.287257)

LINESTRING (703616.943548 4694716.031317, 703622.448332 4694717.436347, 703766.138172 4694754.051868)

LINESTRING (704190.182952 4695306.562392, 704200.715428 4695302.535467, 704205.614572 4695300.678001, 704218.992308 4695296.845333, 704233.428300 4695293.454817, 704244.564047 4695290.779263)

LINESTRING (704267.817320 4695342.927750, 704255.610913 4695312.585427, 704244.564047 4695290.779263)

LINESTRING (704267.817320 4695342.927750, 704276.099393 4695353.883656, 704282.950037 4695366.453753, 704283.458849 4695375.548816)

LINESTRING (704227.904576 4695184.942460, 704222.109507 4695167.535306, 704220.376213 4695159.171368, 704220.214267 4695155.687936, 704220.679111 4695152.467319, 704220.541884 4695147.573123, 704219.459256 4695142.040046, 704216.199744 4695135.432018)

LINESTRING (704227.904576 4695184.942460, 704230.029099 4695218.280019, 704230.829072 4695227.283548, 704232.441682 4695239.778399, 704235.557614 4695259.763584, 704239.417612 4695274.302382, 704244.564047 4695290.779263)

LINESTRING (703849.159597 4695069.219718, 703855.902350 4695034.929451)

LINESTRING (704457.121507 4694586.456416, 704449.313122 4694573.647033, 704442.871997 4694560.577546, 704442.498298 4694559.266276, 704438.389955 4694549.554747)

LINESTRING (703995.945371 4694851.397076, 703987.479874 4694850.083208, 703984.381918 4694848.659166, 703984.181272 4694848.475490, 703982.777396 4694847.167543, 703981.423106 4694845.572079, 703980.433768 4694842.764716, 703980.116036 4694839.532379, 703980.042059 4694836.418292, 703980.481503 4694832.652338, 704015.353586 4694676.728224)

LINESTRING (703995.945371 4694851.397076, 703994.504746 4694856.434169, 703986.257384 4694886.345987, 703931.014730 4694876.210461)

LINESTRING (703931.014730 4694876.210461, 703986.257384 4694886.345987, 703994.504746 4694856.434169, 703995.945371 4694851.397076)

LINESTRING (704349.771798 4695003.030921, 704345.846509 4694998.059374, 704334.054788 4694983.122055, 704317.431564 4694962.075349, 704306.683709 4694951.736465, 704304.618474 4694950.787006, 704296.608856 4694947.129890, 704283.529522 4694945.236311, 704281.264990 4694944.903426, 704268.543260 4694945.154223, 704260.900213 4694945.308865, 704250.237967 4694946.142207, 704245.514730 4694946.482168, 704223.190488 4694948.241976, 704209.410715 4694950.017951)

LINESTRING (704349.771798 4695003.030921, 704344.669095 4695007.616415, 704332.119587 4695018.897281, 704307.595779 4695040.953516, 704289.029627 4695057.649056, 704256.311500 4695087.746062)

LINESTRING (704349.771798 4695003.030921, 704358.444224 4694995.282205, 704370.669928 4694984.369797, 704379.579089 4694976.416855, 704381.584506 4694974.619411, 704409.017211 4694950.036621, 704422.539082 4694937.917403, 704448.344576 4694914.887615)

LINESTRING (704218.590065 4695054.424738, 704217.166192 4695026.998112, 704216.756219 4695017.616987, 704214.279625 4694982.502036, 704211.593948 4694962.729500, 704209.410715 4694950.017951)

LINESTRING (704218.590065 4695054.424738, 704222.410509 4695069.195752, 704223.163254 4695079.253732, 704222.722940 4695085.020186)

LINESTRING (704222.722940 4695085.020186, 704225.483858 4695090.079914, 704227.846970 4695092.960783, 704230.049063 4695095.147879, 704233.311447 4695097.143660, 704238.715341 4695099.168644)

LINESTRING (704222.722940 4695085.020186, 704221.012245 4695090.271637, 704219.870466 4695095.228508, 704220.125101 4695099.770481, 704222.061234 4695105.139544, 704223.081898 4695110.537443)

LINESTRING (704223.081898 4695110.537443, 704224.655269 4695111.116866)

LINESTRING (704224.655269 4695111.116866, 704233.388223 4695103.825455, 704238.715341 4695099.168644)

LINESTRING (704224.655269 4695111.116866, 704227.530253 4695112.834593, 704229.857904 4695115.236524, 704231.486661 4695118.151519, 704232.323246 4695121.387916)

LINESTRING (704232.323246 4695121.387916, 704232.335774 4695124.344623, 704231.683390 4695127.215227, 704230.386128 4695129.878058)

LINESTRING (704230.386128 4695129.878058, 704227.825119 4695139.416931, 704227.708997 4695144.803861, 704228.990628 4695150.576147, 704229.563412 4695155.227440, 704229.876411 4695157.770588, 704229.605865 4695167.598634, 704227.904576 4695184.942460)

LINESTRING (704230.386128 4695129.878058, 704228.701349 4695131.984984, 704226.607725 4695133.702092, 704224.198086 4695134.954294, 704221.589636 4695135.678331, 704218.882466 4695135.832669, 704216.199744 4695135.432018)

LINESTRING (704214.518703 4695134.871681, 704210.997099 4695132.723855, 704208.336840 4695129.578690, 704206.808437 4695125.766392)

LINESTRING (704214.518703 4695134.871681, 704204.551301 4695140.137648, 704200.647426 4695143.180045, 704196.747698 4695146.644901, 704192.011316 4695152.519307, 704178.985177 4695166.031541)

LINESTRING (704210.568855 4695113.528479, 704212.377901 4695106.601675, 704213.087567 4695100.076216, 704212.944314 4695094.259378, 704212.682485 4695089.117036, 704214.026514 4695084.288325, 704214.936221 4695078.813430, 704216.143935 4695068.212540, 704218.590065 4695054.424738)

LINESTRING (704210.568855 4695113.528479, 704214.298491 4695111.092271, 704218.638312 4695110.052027, 704223.081898 4695110.537443)

LINESTRING (704216.199744 4695135.432018, 704214.518703 4695134.871681)

