LINESTRING (475.760324 398.169548, 464.341249 446.267075)

LINESTRING (464.341249 446.267075, 427.167019 477.903929)

LINESTRING (427.167019 477.903929, 373.702231 474.998503)

LINESTRING (373.702231 474.998503, 334.482430 451.719147)

LINESTRING (334.482430 451.719147, 320.974810 397.943895)

LINESTRING (320.974810 397.943895, 335.007636 351.087369)

LINESTRING (335.007636 351.087369, 375.809369 319.566843)

LINESTRING (375.809369 319.566843, 429.100959 321.577254)

LINESTRING (429.100959 321.577254, 464.217440 348.034979)

LINESTRING (464.217440 348.034979, 475.760324 398.169548)

LINESTRING (557.362594 397.830324, 532.035339 491.711342)

LINESTRING (532.035339 491.711342, 453.216820 548.372925)

LINESTRING (453.216820 548.372925, 349.833757 549.129352)

LINESTRING (349.833757 549.129352, 272.899049 494.396044)

LINESTRING (272.899049 494.396044, 239.057276 403.678880)

LINESTRING (239.057276 403.678880, 268.193388 301.504479)

LINESTRING (268.193388 301.504479, 354.568702 250.447479)

LINESTRING (354.568702 250.447479, 444.731032 245.329161)

LINESTRING (444.731032 245.329161, 525.833157 304.373496)

LINESTRING (525.833157 304.373496, 557.362594 397.830324)

LINESTRING (644.705690 404.366930, 594.258363 544.326487)

LINESTRING (594.258363 544.326487, 471.135383 631.794550)

LINESTRING (471.135383 631.794550, 328.926984 626.473101)

LINESTRING (328.926984 626.473101, 204.958895 545.399524)

LINESTRING (204.958895 545.399524, 158.280552 396.849143)

LINESTRING (158.280552 396.849143, 203.373912 255.550261)

LINESTRING (203.373912 255.550261, 321.118774 172.634647)

LINESTRING (321.118774 172.634647, 471.074844 167.978805)

LINESTRING (471.074844 167.978805, 589.491682 255.948996)

LINESTRING (589.491682 255.948996, 644.705690 404.366930)

LINESTRING (720.394609 402.540667, 657.386084 591.100954)

LINESTRING (657.386084 591.100954, 503.389935 703.476278)

LINESTRING (503.389935 703.476278, 303.971412 700.920830)

LINESTRING (303.971412 700.920830, 136.463492 583.840104)

LINESTRING (136.463492 583.840104, 79.615684 396.424990)

LINESTRING (79.615684 396.424990, 139.498856 214.504271)

LINESTRING (139.498856 214.504271, 302.300410 97.720805)

LINESTRING (302.300410 97.720805, 499.401103 91.032593)

LINESTRING (499.401103 91.032593, 659.168318 210.939638)

LINESTRING (659.168318 210.939638, 720.394609 402.540667)

LINESTRING (475.760324 398.169548, 557.362594 397.830324)

LINESTRING (557.362594 397.830324, 644.705690 404.366930)

LINESTRING (644.705690 404.366930, 720.394609 402.540667)

LINESTRING (464.341249 446.267075, 532.035339 491.711342)

LINESTRING (532.035339 491.711342, 594.258363 544.326487)

LINESTRING (594.258363 544.326487, 657.386084 591.100954)

LINESTRING (427.167019 477.903929, 453.216820 548.372925)

LINESTRING (453.216820 548.372925, 471.135383 631.794550)

LINESTRING (471.135383 631.794550, 503.389935 703.476278)

LINESTRING (373.702231 474.998503, 349.833757 549.129352)

LINESTRING (349.833757 549.129352, 328.926984 626.473101)

LINESTRING (328.926984 626.473101, 303.971412 700.920830)

LINESTRING (334.482430 451.719147, 272.899049 494.396044)

LINESTRING (272.899049 494.396044, 204.958895 545.399524)

LINESTRING (204.958895 545.399524, 136.463492 583.840104)

LINESTRING (320.974810 397.943895, 239.057276 403.678880)

LINESTRING (239.057276 403.678880, 158.280552 396.849143)

LINESTRING (158.280552 396.849143, 79.615684 396.424990)

LINESTRING (335.007636 351.087369, 268.193388 301.504479)

LINESTRING (268.193388 301.504479, 203.373912 255.550261)

LINESTRING (203.373912 255.550261, 139.498856 214.504271)

LINESTRING (375.809369 319.566843, 354.568702 250.447479)

LINESTRING (354.568702 250.447479, 321.118774 172.634647)

LINESTRING (321.118774 172.634647, 302.300410 97.720805)

LINESTRING (429.100959 321.577254, 444.731032 245.329161)

LINESTRING (444.731032 245.329161, 471.074844 167.978805)

LINESTRING (471.074844 167.978805, 499.401103 91.032593)

LINESTRING (464.217440 348.034979, 525.833157 304.373496)

LINESTRING (525.833157 304.373496, 589.491682 255.948996)

LINESTRING (589.491682 255.948996, 659.168318 210.939638)

LINESTRING (400.000000 400.000000, 475.760324 398.169548)

