LINESTRING (480.000000 400.000000, 440.000000 469.282032)

LINESTRING (440.000000 469.282032, 360.000000 469.282032)

LINESTRING (360.000000 469.282032, 320.000000 400.000000)

LINESTRING (320.000000 400.000000, 360.000000 330.717968)

LINESTRING (360.000000 330.717968, 440.000000 330.717968)

LINESTRING (440.000000 330.717968, 480.000000 400.000000)

LINESTRING (560.000000 400.000000, 480.000000 538.564065)

LINESTRING (480.000000 538.564065, 320.000000 538.564065)

LINESTRING (320.000000 538.564065, 240.000000 400.000000)

LINESTRING (240.000000 400.000000, 320.000000 261.435935)

LINESTRING (320.000000 261.435935, 480.000000 261.435935)

LINESTRING (480.000000 261.435935, 560.000000 400.000000)

LINESTRING (640.000000 400.000000, 520.000000 607.846097)

LINESTRING (520.000000 607.846097, 280.000000 607.846097)

LINESTRING (280.000000 607.846097, 160.000000 400.000000)

LINESTRING (160.000000 400.000000, 280.000000 192.153903)

LINESTRING (280.000000 192.153903, 520.000000 192.153903)

LINESTRING (520.000000 192.153903, 640.000000 400.000000)

LINESTRING (720.000000 400.000000, 560.000000 677.128129)

LINESTRING (560.000000 677.128129, 240.000000 677.128129)

LINESTRING (240.000000 677.128129, 80.000000 400.000000)

LINESTRING (80.000000 400.000000, 240.000000 122.871871)

LINESTRING (240.000000 122.871871, 560.000000 122.871871)

LINESTRING (560.000000 122.871871, 720.000000 400.000000)

LINESTRING (800.000000 400.000000, 600.000000 746.410162)

LINESTRING (600.000000 746.410162, 200.000000 746.410162)

LINESTRING (200.000000 746.410162, 0.000000 400.000000)

LINESTRING (0.000000 400.000000, 200.000000 53.589838)

LINESTRING (200.000000 53.589838, 600.000000 53.589838)

LINESTRING (600.000000 53.589838, 800.000000 400.000000)

LINESTRING (480.000000 400.000000, 560.000000 400.000000)

LINESTRING (560.000000 400.000000, 640.000000 400.000000)

LINESTRING (640.000000 400.000000, 720.000000 400.000000)

LINESTRING (720.000000 400.000000, 800.000000 400.000000)

LINESTRING (440.000000 469.282032, 480.000000 538.564065)

LINESTRING (480.000000 538.564065, 520.000000 607.846097)

LINESTRING (520.000000 607.846097, 560.000000 677.128129)

LINESTRING (560.000000 677.128129, 600.000000 746.410162)

LINESTRING (360.000000 469.282032, 320.000000 538.564065)

LINESTRING (320.000000 538.564065, 280.000000 607.846097)

LINESTRING (280.000000 607.846097, 240.000000 677.128129)

LINESTRING (240.000000 677.128129, 200.000000 746.410162)

LINESTRING (320.000000 400.000000, 240.000000 400.000000)

LINESTRING (240.000000 400.000000, 160.000000 400.000000)

LINESTRING (160.000000 400.000000, 80.000000 400.000000)

LINESTRING (80.000000 400.000000, 0.000000 400.000000)

LINESTRING (360.000000 330.717968, 320.000000 261.435935)

LINESTRING (320.000000 261.435935, 280.000000 192.153903)

LINESTRING (280.000000 192.153903, 240.000000 122.871871)

LINESTRING (240.000000 122.871871, 200.000000 53.589838)

LINESTRING (440.000000 330.717968, 480.000000 261.435935)

LINESTRING (480.000000 261.435935, 520.000000 192.153903)

LINESTRING (520.000000 192.153903, 560.000000 122.871871)

LINESTRING (560.000000 122.871871, 600.000000 53.589838)

LINESTRING (400.000000 400.000000, 480.000000 400.000000)

