LINESTRING (126.654889 134.106766, 127.692422 129.034793)

LINESTRING (126.654889 134.106766, 136.749967 112.645299)

LINESTRING (126.654889 134.106766, 108.786233 103.353607)

LINESTRING (126.654889 134.106766, 169.752453 117.801881)

LINESTRING (126.654889 134.106766, 118.349707 179.072489)

LINESTRING (126.654889 134.106766, 117.140879 155.138287)

LINESTRING (126.654889 134.106766, 144.467043 128.170580)

LINESTRING (126.654889 134.106766, 105.539646 151.593332)

LINESTRING (126.654889 134.106766, 178.453891 128.660338)

LINESTRING (126.654889 134.106766, 154.361877 142.007606)

LINESTRING (126.654889 134.106766, 171.785995 133.662653)

LINESTRING (126.654889 134.106766, 117.473890 100.572390)

LINESTRING (126.654889 134.106766, 159.374850 120.883905)

LINESTRING (127.692422 129.034793, 136.749967 112.645299)

LINESTRING (127.692422 129.034793, 110.192338 133.987418)

LINESTRING (127.692422 129.034793, 108.146156 179.870142)

LINESTRING (127.692422 129.034793, 169.752453 117.801881)

LINESTRING (127.692422 129.034793, 118.349707 179.072489)

LINESTRING (127.692422 129.034793, 117.140879 155.138287)

LINESTRING (127.692422 129.034793, 144.467043 128.170580)

LINESTRING (127.692422 129.034793, 121.569799 135.115905)

LINESTRING (127.692422 129.034793, 137.770279 156.968915)

LINESTRING (127.692422 129.034793, 144.628845 111.807743)

LINESTRING (127.692422 129.034793, 154.361877 142.007606)

LINESTRING (127.692422 129.034793, 159.374850 120.883905)

LINESTRING (136.749967 112.645299, 110.192338 133.987418)

LINESTRING (136.749967 112.645299, 108.786233 103.353607)

LINESTRING (136.749967 112.645299, 169.752453 117.801881)

LINESTRING (136.749967 112.645299, 118.349707 179.072489)

LINESTRING (136.749967 112.645299, 142.642100 147.174875)

LINESTRING (136.749967 112.645299, 117.140879 155.138287)

LINESTRING (136.749967 112.645299, 121.569799 135.115905)

LINESTRING (136.749967 112.645299, 137.770279 156.968915)

LINESTRING (136.749967 112.645299, 105.539646 151.593332)

LINESTRING (136.749967 112.645299, 154.361877 142.007606)

LINESTRING (136.749967 112.645299, 159.374850 120.883905)

LINESTRING (136.749967 112.645299, 136.258637 176.478389)

LINESTRING (136.749967 112.645299, 118.078437 113.091412)

LINESTRING (110.192338 133.987418, 117.140879 155.138287)

LINESTRING (110.192338 133.987418, 146.085888 165.477810)

LINESTRING (110.192338 133.987418, 137.984175 129.734127)

LINESTRING (110.192338 133.987418, 137.770279 156.968915)

LINESTRING (110.192338 133.987418, 105.539646 151.593332)

LINESTRING (110.192338 133.987418, 144.628845 111.807743)

LINESTRING (110.192338 133.987418, 176.223381 130.843848)

LINESTRING (110.192338 133.987418, 178.453891 128.660338)

LINESTRING (110.192338 133.987418, 154.361877 142.007606)

LINESTRING (110.192338 133.987418, 159.374850 120.883905)

LINESTRING (110.192338 133.987418, 136.258637 176.478389)

LINESTRING (110.192338 133.987418, 118.078437 113.091412)

LINESTRING (108.786233 103.353607, 108.146156 179.870142)

LINESTRING (108.786233 103.353607, 169.752453 117.801881)

LINESTRING (108.786233 103.353607, 146.085888 165.477810)

LINESTRING (108.786233 103.353607, 144.467043 128.170580)

LINESTRING (108.786233 103.353607, 121.569799 135.115905)

LINESTRING (108.786233 103.353607, 137.770279 156.968915)

LINESTRING (108.786233 103.353607, 105.539646 151.593332)

LINESTRING (108.786233 103.353607, 144.628845 111.807743)

LINESTRING (108.786233 103.353607, 178.453891 128.660338)

LINESTRING (108.786233 103.353607, 154.361877 142.007606)

LINESTRING (108.786233 103.353607, 171.785995 133.662653)

LINESTRING (108.786233 103.353607, 159.374850 120.883905)

LINESTRING (108.786233 103.353607, 136.258637 176.478389)

LINESTRING (108.786233 103.353607, 118.078437 113.091412)

LINESTRING (108.146156 179.870142, 169.752453 117.801881)

LINESTRING (108.146156 179.870142, 118.349707 179.072489)

LINESTRING (108.146156 179.870142, 142.642100 147.174875)

LINESTRING (108.146156 179.870142, 117.140879 155.138287)

LINESTRING (108.146156 179.870142, 146.085888 165.477810)

LINESTRING (108.146156 179.870142, 144.467043 128.170580)

LINESTRING (108.146156 179.870142, 121.569799 135.115905)

LINESTRING (108.146156 179.870142, 105.539646 151.593332)

LINESTRING (108.146156 179.870142, 144.628845 111.807743)

LINESTRING (108.146156 179.870142, 176.223381 130.843848)

LINESTRING (108.146156 179.870142, 178.453891 128.660338)

LINESTRING (108.146156 179.870142, 154.361877 142.007606)

LINESTRING (108.146156 179.870142, 171.785995 133.662653)

LINESTRING (108.146156 179.870142, 117.473890 100.572390)

LINESTRING (108.146156 179.870142, 159.374850 120.883905)

LINESTRING (108.146156 179.870142, 136.258637 176.478389)

LINESTRING (108.146156 179.870142, 118.078437 113.091412)

LINESTRING (169.752453 117.801881, 118.349707 179.072489)

LINESTRING (169.752453 117.801881, 117.140879 155.138287)

LINESTRING (169.752453 117.801881, 146.085888 165.477810)

LINESTRING (169.752453 117.801881, 144.467043 128.170580)

LINESTRING (169.752453 117.801881, 137.984175 129.734127)

LINESTRING (169.752453 117.801881, 137.770279 156.968915)

LINESTRING (169.752453 117.801881, 144.628845 111.807743)

LINESTRING (169.752453 117.801881, 176.223381 130.843848)

LINESTRING (169.752453 117.801881, 154.361877 142.007606)

LINESTRING (169.752453 117.801881, 159.374850 120.883905)

LINESTRING (169.752453 117.801881, 136.258637 176.478389)

LINESTRING (169.752453 117.801881, 118.078437 113.091412)

LINESTRING (118.349707 179.072489, 117.140879 155.138287)

LINESTRING (118.349707 179.072489, 146.085888 165.477810)

LINESTRING (118.349707 179.072489, 144.467043 128.170580)

LINESTRING (118.349707 179.072489, 176.223381 130.843848)

LINESTRING (118.349707 179.072489, 171.785995 133.662653)

LINESTRING (118.349707 179.072489, 117.473890 100.572390)

LINESTRING (118.349707 179.072489, 159.374850 120.883905)

LINESTRING (118.349707 179.072489, 136.258637 176.478389)

LINESTRING (118.349707 179.072489, 118.078437 113.091412)

LINESTRING (142.642100 147.174875, 117.140879 155.138287)

LINESTRING (142.642100 147.174875, 144.467043 128.170580)

LINESTRING (142.642100 147.174875, 137.984175 129.734127)

LINESTRING (142.642100 147.174875, 137.770279 156.968915)

LINESTRING (142.642100 147.174875, 105.539646 151.593332)

LINESTRING (142.642100 147.174875, 144.628845 111.807743)

LINESTRING (142.642100 147.174875, 176.223381 130.843848)

LINESTRING (142.642100 147.174875, 178.453891 128.660338)

LINESTRING (142.642100 147.174875, 171.785995 133.662653)

LINESTRING (142.642100 147.174875, 117.473890 100.572390)

LINESTRING (142.642100 147.174875, 159.374850 120.883905)

LINESTRING (142.642100 147.174875, 136.258637 176.478389)

LINESTRING (142.642100 147.174875, 118.078437 113.091412)

LINESTRING (117.140879 155.138287, 144.467043 128.170580)

LINESTRING (117.140879 155.138287, 137.984175 129.734127)

LINESTRING (117.140879 155.138287, 121.569799 135.115905)

LINESTRING (117.140879 155.138287, 176.223381 130.843848)

LINESTRING (117.140879 155.138287, 178.453891 128.660338)

LINESTRING (117.140879 155.138287, 154.361877 142.007606)

LINESTRING (117.140879 155.138287, 171.785995 133.662653)

LINESTRING (117.140879 155.138287, 117.473890 100.572390)

LINESTRING (117.140879 155.138287, 159.374850 120.883905)

LINESTRING (146.085888 165.477810, 137.984175 129.734127)

LINESTRING (146.085888 165.477810, 121.569799 135.115905)

LINESTRING (146.085888 165.477810, 137.770279 156.968915)

LINESTRING (146.085888 165.477810, 105.539646 151.593332)

LINESTRING (146.085888 165.477810, 176.223381 130.843848)

LINESTRING (146.085888 165.477810, 178.453891 128.660338)

LINESTRING (146.085888 165.477810, 154.361877 142.007606)

LINESTRING (146.085888 165.477810, 171.785995 133.662653)

LINESTRING (146.085888 165.477810, 117.473890 100.572390)

LINESTRING (146.085888 165.477810, 136.258637 176.478389)

LINESTRING (146.085888 165.477810, 118.078437 113.091412)

LINESTRING (144.467043 128.170580, 137.984175 129.734127)

LINESTRING (144.467043 128.170580, 121.569799 135.115905)

LINESTRING (144.467043 128.170580, 137.770279 156.968915)

LINESTRING (144.467043 128.170580, 144.628845 111.807743)

LINESTRING (144.467043 128.170580, 176.223381 130.843848)

LINESTRING (144.467043 128.170580, 178.453891 128.660338)

LINESTRING (144.467043 128.170580, 154.361877 142.007606)

LINESTRING (144.467043 128.170580, 117.473890 100.572390)

LINESTRING (144.467043 128.170580, 159.374850 120.883905)

LINESTRING (137.984175 129.734127, 137.770279 156.968915)

LINESTRING (137.984175 129.734127, 105.539646 151.593332)

LINESTRING (137.984175 129.734127, 176.223381 130.843848)

LINESTRING (137.984175 129.734127, 117.473890 100.572390)

LINESTRING (137.984175 129.734127, 159.374850 120.883905)

LINESTRING (137.984175 129.734127, 136.258637 176.478389)

LINESTRING (137.984175 129.734127, 118.078437 113.091412)

LINESTRING (121.569799 135.115905, 137.770279 156.968915)

LINESTRING (121.569799 135.115905, 105.539646 151.593332)

LINESTRING (121.569799 135.115905, 178.453891 128.660338)

LINESTRING (121.569799 135.115905, 154.361877 142.007606)

LINESTRING (121.569799 135.115905, 117.473890 100.572390)

LINESTRING (121.569799 135.115905, 159.374850 120.883905)

LINESTRING (121.569799 135.115905, 136.258637 176.478389)

LINESTRING (121.569799 135.115905, 118.078437 113.091412)

LINESTRING (137.770279 156.968915, 105.539646 151.593332)

LINESTRING (137.770279 156.968915, 176.223381 130.843848)

LINESTRING (137.770279 156.968915, 178.453891 128.660338)

LINESTRING (137.770279 156.968915, 154.361877 142.007606)

LINESTRING (137.770279 156.968915, 117.473890 100.572390)

LINESTRING (137.770279 156.968915, 159.374850 120.883905)

LINESTRING (137.770279 156.968915, 136.258637 176.478389)

LINESTRING (105.539646 151.593332, 144.628845 111.807743)

LINESTRING (105.539646 151.593332, 178.453891 128.660338)

LINESTRING (105.539646 151.593332, 171.785995 133.662653)

LINESTRING (105.539646 151.593332, 117.473890 100.572390)

LINESTRING (105.539646 151.593332, 159.374850 120.883905)

LINESTRING (105.539646 151.593332, 136.258637 176.478389)

LINESTRING (144.628845 111.807743, 176.223381 130.843848)

LINESTRING (144.628845 111.807743, 178.453891 128.660338)

LINESTRING (144.628845 111.807743, 171.785995 133.662653)

LINESTRING (144.628845 111.807743, 159.374850 120.883905)

LINESTRING (144.628845 111.807743, 136.258637 176.478389)

LINESTRING (144.628845 111.807743, 118.078437 113.091412)

LINESTRING (176.223381 130.843848, 178.453891 128.660338)

LINESTRING (176.223381 130.843848, 154.361877 142.007606)

LINESTRING (176.223381 130.843848, 171.785995 133.662653)

LINESTRING (178.453891 128.660338, 154.361877 142.007606)

LINESTRING (154.361877 142.007606, 171.785995 133.662653)

LINESTRING (154.361877 142.007606, 136.258637 176.478389)

LINESTRING (171.785995 133.662653, 159.374850 120.883905)

LINESTRING (117.473890 100.572390, 159.374850 120.883905)

LINESTRING (117.473890 100.572390, 136.258637 176.478389)

LINESTRING (117.473890 100.572390, 118.078437 113.091412)

LINESTRING (159.374850 120.883905, 136.258637 176.478389)

LINESTRING (159.374850 120.883905, 118.078437 113.091412)

LINESTRING (136.258637 176.478389, 118.078437 113.091412)

LINESTRING (495.766488 168.867192, 481.581294 141.895346)

LINESTRING (495.766488 168.867192, 457.439772 157.377723)

LINESTRING (495.766488 168.867192, 524.859856 142.307575)

LINESTRING (495.766488 168.867192, 511.331185 123.001036)

LINESTRING (495.766488 168.867192, 479.439407 128.117430)

LINESTRING (495.766488 168.867192, 475.554238 172.270401)

LINESTRING (495.766488 168.867192, 492.682429 176.465953)

LINESTRING (495.766488 168.867192, 523.935631 126.143068)

LINESTRING (495.766488 168.867192, 500.522935 132.988719)

LINESTRING (495.766488 168.867192, 458.951944 135.325920)

LINESTRING (495.766488 168.867192, 465.225076 103.276531)

LINESTRING (462.721615 175.572576, 481.581294 141.895346)

LINESTRING (462.721615 175.572576, 490.770733 149.801790)

LINESTRING (462.721615 175.572576, 511.358564 101.437897)

LINESTRING (462.721615 175.572576, 457.439772 157.377723)

LINESTRING (462.721615 175.572576, 524.859856 142.307575)

LINESTRING (462.721615 175.572576, 458.555180 115.417395)

LINESTRING (462.721615 175.572576, 460.456208 171.060910)

LINESTRING (462.721615 175.572576, 473.408433 119.990971)

LINESTRING (462.721615 175.572576, 511.331185 123.001036)

LINESTRING (462.721615 175.572576, 479.439407 128.117430)

LINESTRING (462.721615 175.572576, 492.682429 176.465953)

LINESTRING (462.721615 175.572576, 465.225076 103.276531)

LINESTRING (481.581294 141.895346, 490.770733 149.801790)

LINESTRING (481.581294 141.895346, 511.358564 101.437897)

LINESTRING (481.581294 141.895346, 524.859856 142.307575)

LINESTRING (481.581294 141.895346, 460.456208 171.060910)

LINESTRING (481.581294 141.895346, 473.408433 119.990971)

LINESTRING (481.581294 141.895346, 511.331185 123.001036)

LINESTRING (481.581294 141.895346, 466.443406 113.011521)

LINESTRING (481.581294 141.895346, 479.439407 128.117430)

LINESTRING (481.581294 141.895346, 475.554238 172.270401)

LINESTRING (481.581294 141.895346, 492.682429 176.465953)

LINESTRING (481.581294 141.895346, 500.522935 132.988719)

LINESTRING (481.581294 141.895346, 458.951944 135.325920)

LINESTRING (481.581294 141.895346, 465.225076 103.276531)

LINESTRING (481.581294 141.895346, 508.569563 158.083338)

LINESTRING (481.581294 141.895346, 519.251149 111.352631)

LINESTRING (452.818658 134.884804, 511.358564 101.437897)

LINESTRING (452.818658 134.884804, 457.439772 157.377723)

LINESTRING (452.818658 134.884804, 524.859856 142.307575)

LINESTRING (452.818658 134.884804, 460.456208 171.060910)

LINESTRING (452.818658 134.884804, 511.331185 123.001036)

LINESTRING (452.818658 134.884804, 466.443406 113.011521)

LINESTRING (452.818658 134.884804, 475.554238 172.270401)

LINESTRING (452.818658 134.884804, 492.682429 176.465953)

LINESTRING (452.818658 134.884804, 523.935631 126.143068)

LINESTRING (452.818658 134.884804, 458.951944 135.325920)

LINESTRING (452.818658 134.884804, 519.251149 111.352631)

LINESTRING (452.818658 134.884804, 519.843505 110.281632)

LINESTRING (490.770733 149.801790, 511.358564 101.437897)

LINESTRING (490.770733 149.801790, 457.439772 157.377723)

LINESTRING (490.770733 149.801790, 524.859856 142.307575)

LINESTRING (490.770733 149.801790, 460.456208 171.060910)

LINESTRING (490.770733 149.801790, 511.331185 123.001036)

LINESTRING (490.770733 149.801790, 519.127163 113.083264)

LINESTRING (490.770733 149.801790, 492.682429 176.465953)

LINESTRING (490.770733 149.801790, 523.935631 126.143068)

LINESTRING (490.770733 149.801790, 485.024460 120.345126)

LINESTRING (490.770733 149.801790, 458.951944 135.325920)

LINESTRING (490.770733 149.801790, 508.569563 158.083338)

LINESTRING (490.770733 149.801790, 519.251149 111.352631)

LINESTRING (490.770733 149.801790, 519.843505 110.281632)

LINESTRING (511.358564 101.437897, 457.439772 157.377723)

LINESTRING (511.358564 101.437897, 524.859856 142.307575)

LINESTRING (511.358564 101.437897, 458.555180 115.417395)

LINESTRING (511.358564 101.437897, 479.439407 128.117430)

LINESTRING (511.358564 101.437897, 475.554238 172.270401)

LINESTRING (511.358564 101.437897, 492.682429 176.465953)

LINESTRING (511.358564 101.437897, 523.935631 126.143068)

LINESTRING (511.358564 101.437897, 500.522935 132.988719)

LINESTRING (511.358564 101.437897, 508.569563 158.083338)

LINESTRING (511.358564 101.437897, 519.251149 111.352631)

LINESTRING (511.358564 101.437897, 519.843505 110.281632)

LINESTRING (457.439772 157.377723, 458.555180 115.417395)

LINESTRING (457.439772 157.377723, 511.331185 123.001036)

LINESTRING (457.439772 157.377723, 466.443406 113.011521)

LINESTRING (457.439772 157.377723, 475.554238 172.270401)

LINESTRING (457.439772 157.377723, 519.127163 113.083264)

LINESTRING (457.439772 157.377723, 492.682429 176.465953)

LINESTRING (457.439772 157.377723, 523.935631 126.143068)

LINESTRING (457.439772 157.377723, 485.024460 120.345126)

LINESTRING (457.439772 157.377723, 458.951944 135.325920)

LINESTRING (457.439772 157.377723, 465.225076 103.276531)

LINESTRING (457.439772 157.377723, 508.569563 158.083338)

LINESTRING (457.439772 157.377723, 519.843505 110.281632)

LINESTRING (524.859856 142.307575, 460.456208 171.060910)

LINESTRING (524.859856 142.307575, 511.331185 123.001036)

LINESTRING (524.859856 142.307575, 479.439407 128.117430)

LINESTRING (524.859856 142.307575, 475.554238 172.270401)

LINESTRING (524.859856 142.307575, 492.682429 176.465953)

LINESTRING (524.859856 142.307575, 523.935631 126.143068)

LINESTRING (524.859856 142.307575, 500.522935 132.988719)

LINESTRING (524.859856 142.307575, 458.951944 135.325920)

LINESTRING (524.859856 142.307575, 465.225076 103.276531)

LINESTRING (524.859856 142.307575, 519.843505 110.281632)

LINESTRING (458.555180 115.417395, 460.456208 171.060910)

LINESTRING (458.555180 115.417395, 511.331185 123.001036)

LINESTRING (458.555180 115.417395, 466.443406 113.011521)

LINESTRING (458.555180 115.417395, 479.439407 128.117430)

LINESTRING (458.555180 115.417395, 475.554238 172.270401)

LINESTRING (458.555180 115.417395, 500.522935 132.988719)

LINESTRING (458.555180 115.417395, 465.225076 103.276531)

LINESTRING (458.555180 115.417395, 519.843505 110.281632)

LINESTRING (460.456208 171.060910, 511.331185 123.001036)

LINESTRING (460.456208 171.060910, 519.127163 113.083264)

LINESTRING (460.456208 171.060910, 492.682429 176.465953)

LINESTRING (460.456208 171.060910, 523.935631 126.143068)

LINESTRING (460.456208 171.060910, 485.024460 120.345126)

LINESTRING (460.456208 171.060910, 458.951944 135.325920)

LINESTRING (460.456208 171.060910, 508.569563 158.083338)

LINESTRING (460.456208 171.060910, 519.251149 111.352631)

LINESTRING (460.456208 171.060910, 519.843505 110.281632)

LINESTRING (473.408433 119.990971, 466.443406 113.011521)

LINESTRING (473.408433 119.990971, 479.439407 128.117430)

LINESTRING (473.408433 119.990971, 519.127163 113.083264)

LINESTRING (473.408433 119.990971, 523.935631 126.143068)

LINESTRING (473.408433 119.990971, 458.951944 135.325920)

LINESTRING (473.408433 119.990971, 465.225076 103.276531)

LINESTRING (473.408433 119.990971, 519.843505 110.281632)

LINESTRING (511.331185 123.001036, 466.443406 113.011521)

LINESTRING (511.331185 123.001036, 475.554238 172.270401)

LINESTRING (511.331185 123.001036, 523.935631 126.143068)

LINESTRING (511.331185 123.001036, 458.951944 135.325920)

LINESTRING (511.331185 123.001036, 508.569563 158.083338)

LINESTRING (511.331185 123.001036, 519.251149 111.352631)

LINESTRING (466.443406 113.011521, 479.439407 128.117430)

LINESTRING (466.443406 113.011521, 519.127163 113.083264)

LINESTRING (466.443406 113.011521, 523.935631 126.143068)

LINESTRING (466.443406 113.011521, 500.522935 132.988719)

LINESTRING (466.443406 113.011521, 485.024460 120.345126)

LINESTRING (466.443406 113.011521, 465.225076 103.276531)

LINESTRING (466.443406 113.011521, 519.251149 111.352631)

LINESTRING (479.439407 128.117430, 475.554238 172.270401)

LINESTRING (479.439407 128.117430, 519.127163 113.083264)

LINESTRING (479.439407 128.117430, 500.522935 132.988719)

LINESTRING (479.439407 128.117430, 485.024460 120.345126)

LINESTRING (479.439407 128.117430, 458.951944 135.325920)

LINESTRING (479.439407 128.117430, 465.225076 103.276531)

LINESTRING (479.439407 128.117430, 519.251149 111.352631)

LINESTRING (479.439407 128.117430, 519.843505 110.281632)

LINESTRING (475.554238 172.270401, 519.127163 113.083264)

LINESTRING (475.554238 172.270401, 500.522935 132.988719)

LINESTRING (475.554238 172.270401, 485.024460 120.345126)

LINESTRING (475.554238 172.270401, 465.225076 103.276531)

LINESTRING (475.554238 172.270401, 519.251149 111.352631)

LINESTRING (519.127163 113.083264, 500.522935 132.988719)

LINESTRING (519.127163 113.083264, 458.951944 135.325920)

LINESTRING (519.127163 113.083264, 519.251149 111.352631)

LINESTRING (519.127163 113.083264, 519.843505 110.281632)

LINESTRING (492.682429 176.465953, 523.935631 126.143068)

LINESTRING (492.682429 176.465953, 500.522935 132.988719)

LINESTRING (492.682429 176.465953, 508.569563 158.083338)

LINESTRING (492.682429 176.465953, 519.843505 110.281632)

LINESTRING (523.935631 126.143068, 508.569563 158.083338)

LINESTRING (500.522935 132.988719, 458.951944 135.325920)

LINESTRING (500.522935 132.988719, 508.569563 158.083338)

LINESTRING (500.522935 132.988719, 519.843505 110.281632)

LINESTRING (485.024460 120.345126, 458.951944 135.325920)

LINESTRING (485.024460 120.345126, 519.843505 110.281632)

LINESTRING (458.951944 135.325920, 508.569563 158.083338)

LINESTRING (458.951944 135.325920, 519.251149 111.352631)

LINESTRING (458.951944 135.325920, 519.843505 110.281632)

LINESTRING (465.225076 103.276531, 519.843505 110.281632)

LINESTRING (508.569563 158.083338, 519.251149 111.352631)

LINESTRING (519.251149 111.352631, 519.843505 110.281632)

LINESTRING (861.851086 108.738166, 821.925223 100.647943)

LINESTRING (861.851086 108.738166, 843.629533 165.944922)

LINESTRING (861.851086 108.738166, 803.397853 178.003099)

LINESTRING (861.851086 108.738166, 815.525089 157.590116)

LINESTRING (861.851086 108.738166, 855.570315 135.325908)

LINESTRING (861.851086 108.738166, 812.124752 118.389885)

LINESTRING (861.851086 108.738166, 836.254393 159.369426)

LINESTRING (861.851086 108.738166, 801.044964 147.934057)

LINESTRING (861.851086 108.738166, 848.391274 126.457511)

LINESTRING (861.851086 108.738166, 879.377879 173.522768)

LINESTRING (821.925223 100.647943, 843.629533 165.944922)

LINESTRING (821.925223 100.647943, 844.482419 167.021530)

LINESTRING (821.925223 100.647943, 803.397853 178.003099)

LINESTRING (821.925223 100.647943, 871.560330 174.668805)

LINESTRING (821.925223 100.647943, 879.814446 167.617940)

LINESTRING (821.925223 100.647943, 812.124752 118.389885)

LINESTRING (821.925223 100.647943, 858.772697 123.754215)

LINESTRING (821.925223 100.647943, 832.555028 164.519360)

LINESTRING (821.925223 100.647943, 801.044964 147.934057)

LINESTRING (821.925223 100.647943, 848.391274 126.457511)

LINESTRING (821.925223 100.647943, 873.483691 113.274653)

LINESTRING (830.456374 144.955217, 843.629533 165.944922)

LINESTRING (830.456374 144.955217, 830.889322 109.770511)

LINESTRING (830.456374 144.955217, 815.525089 157.590116)

LINESTRING (830.456374 144.955217, 855.570315 135.325908)

LINESTRING (830.456374 144.955217, 879.814446 167.617940)

LINESTRING (830.456374 144.955217, 812.124752 118.389885)

LINESTRING (830.456374 144.955217, 858.772697 123.754215)

LINESTRING (830.456374 144.955217, 836.254393 159.369426)

LINESTRING (830.456374 144.955217, 801.044964 147.934057)

LINESTRING (830.456374 144.955217, 828.173090 140.289760)

LINESTRING (830.456374 144.955217, 866.737908 162.738978)

LINESTRING (830.456374 144.955217, 879.377879 173.522768)

LINESTRING (873.911330 141.446434, 810.812433 165.836985)

LINESTRING (873.911330 141.446434, 843.629533 165.944922)

LINESTRING (873.911330 141.446434, 830.889322 109.770511)

LINESTRING (873.911330 141.446434, 844.482419 167.021530)

LINESTRING (873.911330 141.446434, 803.397853 178.003099)

LINESTRING (873.911330 141.446434, 815.525089 157.590116)

LINESTRING (873.911330 141.446434, 855.570315 135.325908)

LINESTRING (873.911330 141.446434, 871.560330 174.668805)

LINESTRING (873.911330 141.446434, 812.124752 118.389885)

LINESTRING (873.911330 141.446434, 836.254393 159.369426)

LINESTRING (873.911330 141.446434, 801.044964 147.934057)

LINESTRING (873.911330 141.446434, 848.391274 126.457511)

LINESTRING (873.911330 141.446434, 844.156982 138.684516)

LINESTRING (873.911330 141.446434, 873.483691 113.274653)

LINESTRING (873.911330 141.446434, 866.737908 162.738978)

LINESTRING (873.911330 141.446434, 879.377879 173.522768)

LINESTRING (810.812433 165.836985, 830.889322 109.770511)

LINESTRING (810.812433 165.836985, 803.397853 178.003099)

LINESTRING (810.812433 165.836985, 855.570315 135.325908)

LINESTRING (810.812433 165.836985, 832.555028 164.519360)

LINESTRING (810.812433 165.836985, 801.044964 147.934057)

LINESTRING (810.812433 165.836985, 848.391274 126.457511)

LINESTRING (810.812433 165.836985, 844.156982 138.684516)

LINESTRING (810.812433 165.836985, 873.483691 113.274653)

LINESTRING (810.812433 165.836985, 866.737908 162.738978)

LINESTRING (810.812433 165.836985, 879.377879 173.522768)

LINESTRING (843.629533 165.944922, 830.889322 109.770511)

LINESTRING (843.629533 165.944922, 831.049569 166.326898)

LINESTRING (843.629533 165.944922, 871.560330 174.668805)

LINESTRING (843.629533 165.944922, 879.814446 167.617940)

LINESTRING (843.629533 165.944922, 812.124752 118.389885)

LINESTRING (843.629533 165.944922, 836.254393 159.369426)

LINESTRING (843.629533 165.944922, 832.555028 164.519360)

LINESTRING (843.629533 165.944922, 848.391274 126.457511)

LINESTRING (843.629533 165.944922, 828.173090 140.289760)

LINESTRING (830.889322 109.770511, 844.482419 167.021530)

LINESTRING (830.889322 109.770511, 803.397853 178.003099)

LINESTRING (830.889322 109.770511, 831.049569 166.326898)

LINESTRING (830.889322 109.770511, 812.124752 118.389885)

LINESTRING (830.889322 109.770511, 836.254393 159.369426)

LINESTRING (830.889322 109.770511, 832.555028 164.519360)

LINESTRING (830.889322 109.770511, 873.483691 113.274653)

LINESTRING (830.889322 109.770511, 879.377879 173.522768)

LINESTRING (844.482419 167.021530, 815.525089 157.590116)

LINESTRING (844.482419 167.021530, 855.570315 135.325908)

LINESTRING (844.482419 167.021530, 831.049569 166.326898)

LINESTRING (844.482419 167.021530, 871.560330 174.668805)

LINESTRING (844.482419 167.021530, 812.124752 118.389885)

LINESTRING (844.482419 167.021530, 858.772697 123.754215)

LINESTRING (844.482419 167.021530, 836.254393 159.369426)

LINESTRING (844.482419 167.021530, 832.555028 164.519360)

LINESTRING (844.482419 167.021530, 801.044964 147.934057)

LINESTRING (844.482419 167.021530, 848.391274 126.457511)

LINESTRING (844.482419 167.021530, 828.173090 140.289760)

LINESTRING (844.482419 167.021530, 873.483691 113.274653)

LINESTRING (844.482419 167.021530, 879.377879 173.522768)

LINESTRING (803.397853 178.003099, 815.525089 157.590116)

LINESTRING (803.397853 178.003099, 831.049569 166.326898)

LINESTRING (803.397853 178.003099, 871.560330 174.668805)

LINESTRING (803.397853 178.003099, 879.814446 167.617940)

LINESTRING (803.397853 178.003099, 812.124752 118.389885)

LINESTRING (803.397853 178.003099, 858.772697 123.754215)

LINESTRING (803.397853 178.003099, 836.254393 159.369426)

LINESTRING (803.397853 178.003099, 832.555028 164.519360)

LINESTRING (803.397853 178.003099, 848.391274 126.457511)

LINESTRING (803.397853 178.003099, 828.173090 140.289760)

LINESTRING (803.397853 178.003099, 866.737908 162.738978)

LINESTRING (803.397853 178.003099, 879.377879 173.522768)

LINESTRING (815.525089 157.590116, 855.570315 135.325908)

LINESTRING (815.525089 157.590116, 831.049569 166.326898)

LINESTRING (815.525089 157.590116, 812.124752 118.389885)

LINESTRING (815.525089 157.590116, 858.772697 123.754215)

LINESTRING (815.525089 157.590116, 832.555028 164.519360)

LINESTRING (815.525089 157.590116, 801.044964 147.934057)

LINESTRING (815.525089 157.590116, 844.156982 138.684516)

LINESTRING (815.525089 157.590116, 879.377879 173.522768)

LINESTRING (855.570315 135.325908, 871.560330 174.668805)

LINESTRING (855.570315 135.325908, 812.124752 118.389885)

LINESTRING (855.570315 135.325908, 848.391274 126.457511)

LINESTRING (855.570315 135.325908, 828.173090 140.289760)

LINESTRING (855.570315 135.325908, 844.156982 138.684516)

LINESTRING (855.570315 135.325908, 873.483691 113.274653)

LINESTRING (831.049569 166.326898, 871.560330 174.668805)

LINESTRING (831.049569 166.326898, 836.254393 159.369426)

LINESTRING (831.049569 166.326898, 832.555028 164.519360)

LINESTRING (831.049569 166.326898, 801.044964 147.934057)

LINESTRING (831.049569 166.326898, 848.391274 126.457511)

LINESTRING (831.049569 166.326898, 828.173090 140.289760)

LINESTRING (831.049569 166.326898, 866.737908 162.738978)

LINESTRING (871.560330 174.668805, 879.814446 167.617940)

LINESTRING (871.560330 174.668805, 858.772697 123.754215)

LINESTRING (871.560330 174.668805, 832.555028 164.519360)

LINESTRING (871.560330 174.668805, 848.391274 126.457511)

LINESTRING (871.560330 174.668805, 844.156982 138.684516)

LINESTRING (871.560330 174.668805, 873.483691 113.274653)

LINESTRING (871.560330 174.668805, 879.377879 173.522768)

LINESTRING (879.814446 167.617940, 812.124752 118.389885)

LINESTRING (879.814446 167.617940, 858.772697 123.754215)

LINESTRING (879.814446 167.617940, 832.555028 164.519360)

LINESTRING (879.814446 167.617940, 801.044964 147.934057)

LINESTRING (879.814446 167.617940, 848.391274 126.457511)

LINESTRING (879.814446 167.617940, 844.156982 138.684516)

LINESTRING (812.124752 118.389885, 836.254393 159.369426)

LINESTRING (812.124752 118.389885, 801.044964 147.934057)

LINESTRING (812.124752 118.389885, 848.391274 126.457511)

LINESTRING (812.124752 118.389885, 828.173090 140.289760)

LINESTRING (812.124752 118.389885, 873.483691 113.274653)

LINESTRING (812.124752 118.389885, 879.377879 173.522768)

LINESTRING (858.772697 123.754215, 801.044964 147.934057)

LINESTRING (858.772697 123.754215, 848.391274 126.457511)

LINESTRING (858.772697 123.754215, 828.173090 140.289760)

LINESTRING (858.772697 123.754215, 866.737908 162.738978)

LINESTRING (836.254393 159.369426, 801.044964 147.934057)

LINESTRING (836.254393 159.369426, 848.391274 126.457511)

LINESTRING (836.254393 159.369426, 828.173090 140.289760)

LINESTRING (836.254393 159.369426, 844.156982 138.684516)

LINESTRING (836.254393 159.369426, 866.737908 162.738978)

LINESTRING (836.254393 159.369426, 879.377879 173.522768)

LINESTRING (832.555028 164.519360, 828.173090 140.289760)

LINESTRING (832.555028 164.519360, 844.156982 138.684516)

LINESTRING (832.555028 164.519360, 866.737908 162.738978)

LINESTRING (832.555028 164.519360, 879.377879 173.522768)

LINESTRING (801.044964 147.934057, 873.483691 113.274653)

LINESTRING (801.044964 147.934057, 879.377879 173.522768)

LINESTRING (848.391274 126.457511, 828.173090 140.289760)

LINESTRING (848.391274 126.457511, 873.483691 113.274653)

LINESTRING (848.391274 126.457511, 879.377879 173.522768)

LINESTRING (828.173090 140.289760, 844.156982 138.684516)

LINESTRING (828.173090 140.289760, 873.483691 113.274653)

LINESTRING (828.173090 140.289760, 866.737908 162.738978)

LINESTRING (844.156982 138.684516, 873.483691 113.274653)

LINESTRING (844.156982 138.684516, 866.737908 162.738978)

LINESTRING (844.156982 138.684516, 879.377879 173.522768)

LINESTRING (873.483691 113.274653, 866.737908 162.738978)

LINESTRING (866.737908 162.738978, 879.377879 173.522768)

LINESTRING (1197.632280 134.053878, 1202.067504 167.739310)

LINESTRING (1197.632280 134.053878, 1157.860369 170.275942)

LINESTRING (1197.632280 134.053878, 1207.394475 131.365333)

LINESTRING (1197.632280 134.053878, 1208.604011 149.601273)

LINESTRING (1197.632280 134.053878, 1181.307282 106.088728)

LINESTRING (1197.632280 134.053878, 1206.356096 102.899664)

LINESTRING (1197.632280 134.053878, 1159.800661 159.040022)

LINESTRING (1197.632280 134.053878, 1187.177534 103.231497)

LINESTRING (1197.632280 134.053878, 1228.468429 121.117646)

LINESTRING (1197.632280 134.053878, 1161.106559 171.567019)

LINESTRING (1197.632280 134.053878, 1192.215314 141.429550)

LINESTRING (1197.632280 134.053878, 1213.929154 144.014820)

LINESTRING (1202.067504 167.739310, 1181.307282 106.088728)

LINESTRING (1202.067504 167.739310, 1225.491144 166.072963)

LINESTRING (1202.067504 167.739310, 1159.800661 159.040022)

LINESTRING (1202.067504 167.739310, 1166.127944 177.008763)

LINESTRING (1202.067504 167.739310, 1184.636025 165.423061)

LINESTRING (1202.067504 167.739310, 1182.725979 118.128908)

LINESTRING (1202.067504 167.739310, 1187.177534 103.231497)

LINESTRING (1202.067504 167.739310, 1161.106559 171.567019)

LINESTRING (1202.067504 167.739310, 1192.215314 141.429550)

LINESTRING (1202.067504 167.739310, 1169.949509 152.314701)

LINESTRING (1202.067504 167.739310, 1213.929154 144.014820)

LINESTRING (1223.261518 142.652852, 1157.860369 170.275942)

LINESTRING (1223.261518 142.652852, 1207.394475 131.365333)

LINESTRING (1223.261518 142.652852, 1208.604011 149.601273)

LINESTRING (1223.261518 142.652852, 1181.307282 106.088728)

LINESTRING (1223.261518 142.652852, 1206.356096 102.899664)

LINESTRING (1223.261518 142.652852, 1225.491144 166.072963)

LINESTRING (1223.261518 142.652852, 1152.107665 118.588781)

LINESTRING (1223.261518 142.652852, 1212.512656 153.247618)

LINESTRING (1223.261518 142.652852, 1182.725979 118.128908)

LINESTRING (1223.261518 142.652852, 1161.106559 171.567019)

LINESTRING (1223.261518 142.652852, 1206.234088 179.089743)

LINESTRING (1157.860369 170.275942, 1208.604011 149.601273)

LINESTRING (1157.860369 170.275942, 1181.307282 106.088728)

LINESTRING (1157.860369 170.275942, 1206.356096 102.899664)

LINESTRING (1157.860369 170.275942, 1225.491144 166.072963)

LINESTRING (1157.860369 170.275942, 1166.127944 177.008763)

LINESTRING (1157.860369 170.275942, 1184.636025 165.423061)

LINESTRING (1157.860369 170.275942, 1182.725979 118.128908)

LINESTRING (1157.860369 170.275942, 1161.106559 171.567019)

LINESTRING (1157.860369 170.275942, 1206.234088 179.089743)

LINESTRING (1157.860369 170.275942, 1192.215314 141.429550)

LINESTRING (1157.860369 170.275942, 1169.949509 152.314701)

LINESTRING (1207.394475 131.365333, 1206.356096 102.899664)

LINESTRING (1207.394475 131.365333, 1159.800661 159.040022)

LINESTRING (1207.394475 131.365333, 1189.777582 162.658910)

LINESTRING (1207.394475 131.365333, 1182.725979 118.128908)

LINESTRING (1207.394475 131.365333, 1185.932269 135.103166)

LINESTRING (1207.394475 131.365333, 1206.234088 179.089743)

LINESTRING (1207.394475 131.365333, 1169.949509 152.314701)

LINESTRING (1208.604011 149.601273, 1152.107665 118.588781)

LINESTRING (1208.604011 149.601273, 1184.636025 165.423061)

LINESTRING (1208.604011 149.601273, 1189.777582 162.658910)

LINESTRING (1208.604011 149.601273, 1187.177534 103.231497)

LINESTRING (1208.604011 149.601273, 1228.468429 121.117646)

LINESTRING (1208.604011 149.601273, 1192.215314 141.429550)

LINESTRING (1208.604011 149.601273, 1169.949509 152.314701)

LINESTRING (1181.307282 106.088728, 1225.491144 166.072963)

LINESTRING (1181.307282 106.088728, 1152.107665 118.588781)

LINESTRING (1181.307282 106.088728, 1159.800661 159.040022)

LINESTRING (1181.307282 106.088728, 1212.512656 153.247618)

LINESTRING (1181.307282 106.088728, 1166.127944 177.008763)

LINESTRING (1181.307282 106.088728, 1184.636025 165.423061)

LINESTRING (1181.307282 106.088728, 1189.777582 162.658910)

LINESTRING (1181.307282 106.088728, 1182.725979 118.128908)

LINESTRING (1181.307282 106.088728, 1185.932269 135.103166)

LINESTRING (1181.307282 106.088728, 1228.468429 121.117646)

LINESTRING (1181.307282 106.088728, 1161.106559 171.567019)

LINESTRING (1181.307282 106.088728, 1206.234088 179.089743)

LINESTRING (1181.307282 106.088728, 1213.929154 144.014820)

LINESTRING (1206.356096 102.899664, 1152.107665 118.588781)

LINESTRING (1206.356096 102.899664, 1159.800661 159.040022)

LINESTRING (1206.356096 102.899664, 1166.127944 177.008763)

LINESTRING (1206.356096 102.899664, 1189.777582 162.658910)

LINESTRING (1206.356096 102.899664, 1182.725979 118.128908)

LINESTRING (1206.356096 102.899664, 1187.177534 103.231497)

LINESTRING (1206.356096 102.899664, 1199.435148 107.899898)

LINESTRING (1206.356096 102.899664, 1185.932269 135.103166)

LINESTRING (1206.356096 102.899664, 1161.106559 171.567019)

LINESTRING (1206.356096 102.899664, 1206.234088 179.089743)

LINESTRING (1206.356096 102.899664, 1169.949509 152.314701)

LINESTRING (1206.356096 102.899664, 1213.929154 144.014820)

LINESTRING (1225.491144 166.072963, 1152.107665 118.588781)

LINESTRING (1225.491144 166.072963, 1159.800661 159.040022)

LINESTRING (1225.491144 166.072963, 1212.512656 153.247618)

LINESTRING (1225.491144 166.072963, 1166.127944 177.008763)

LINESTRING (1225.491144 166.072963, 1184.636025 165.423061)

LINESTRING (1225.491144 166.072963, 1182.725979 118.128908)

LINESTRING (1225.491144 166.072963, 1199.435148 107.899898)

LINESTRING (1225.491144 166.072963, 1185.932269 135.103166)

LINESTRING (1225.491144 166.072963, 1206.234088 179.089743)

LINESTRING (1152.107665 118.588781, 1166.127944 177.008763)

LINESTRING (1152.107665 118.588781, 1182.725979 118.128908)

LINESTRING (1152.107665 118.588781, 1199.435148 107.899898)

LINESTRING (1152.107665 118.588781, 1185.932269 135.103166)

LINESTRING (1152.107665 118.588781, 1228.468429 121.117646)

LINESTRING (1152.107665 118.588781, 1161.106559 171.567019)

LINESTRING (1152.107665 118.588781, 1206.234088 179.089743)

LINESTRING (1152.107665 118.588781, 1192.215314 141.429550)

LINESTRING (1159.800661 159.040022, 1212.512656 153.247618)

LINESTRING (1159.800661 159.040022, 1166.127944 177.008763)

LINESTRING (1159.800661 159.040022, 1184.636025 165.423061)

LINESTRING (1159.800661 159.040022, 1189.777582 162.658910)

LINESTRING (1159.800661 159.040022, 1182.725979 118.128908)

LINESTRING (1159.800661 159.040022, 1187.177534 103.231497)

LINESTRING (1159.800661 159.040022, 1199.435148 107.899898)

LINESTRING (1159.800661 159.040022, 1185.932269 135.103166)

LINESTRING (1159.800661 159.040022, 1228.468429 121.117646)

LINESTRING (1159.800661 159.040022, 1206.234088 179.089743)

LINESTRING (1159.800661 159.040022, 1192.215314 141.429550)

LINESTRING (1159.800661 159.040022, 1169.949509 152.314701)

LINESTRING (1159.800661 159.040022, 1213.929154 144.014820)

LINESTRING (1212.512656 153.247618, 1166.127944 177.008763)

LINESTRING (1212.512656 153.247618, 1184.636025 165.423061)

LINESTRING (1212.512656 153.247618, 1187.177534 103.231497)

LINESTRING (1212.512656 153.247618, 1228.468429 121.117646)

LINESTRING (1212.512656 153.247618, 1161.106559 171.567019)

LINESTRING (1212.512656 153.247618, 1206.234088 179.089743)

LINESTRING (1212.512656 153.247618, 1192.215314 141.429550)

LINESTRING (1212.512656 153.247618, 1169.949509 152.314701)

LINESTRING (1212.512656 153.247618, 1213.929154 144.014820)

LINESTRING (1166.127944 177.008763, 1187.177534 103.231497)

LINESTRING (1166.127944 177.008763, 1199.435148 107.899898)

LINESTRING (1166.127944 177.008763, 1185.932269 135.103166)

LINESTRING (1166.127944 177.008763, 1228.468429 121.117646)

LINESTRING (1166.127944 177.008763, 1169.949509 152.314701)

LINESTRING (1184.636025 165.423061, 1189.777582 162.658910)

LINESTRING (1184.636025 165.423061, 1182.725979 118.128908)

LINESTRING (1184.636025 165.423061, 1187.177534 103.231497)

LINESTRING (1184.636025 165.423061, 1228.468429 121.117646)

LINESTRING (1184.636025 165.423061, 1161.106559 171.567019)

LINESTRING (1184.636025 165.423061, 1206.234088 179.089743)

LINESTRING (1184.636025 165.423061, 1192.215314 141.429550)

LINESTRING (1184.636025 165.423061, 1213.929154 144.014820)

LINESTRING (1189.777582 162.658910, 1182.725979 118.128908)

LINESTRING (1189.777582 162.658910, 1187.177534 103.231497)

LINESTRING (1189.777582 162.658910, 1228.468429 121.117646)

LINESTRING (1189.777582 162.658910, 1161.106559 171.567019)

LINESTRING (1189.777582 162.658910, 1206.234088 179.089743)

LINESTRING (1189.777582 162.658910, 1169.949509 152.314701)

LINESTRING (1189.777582 162.658910, 1213.929154 144.014820)

LINESTRING (1182.725979 118.128908, 1187.177534 103.231497)

LINESTRING (1182.725979 118.128908, 1199.435148 107.899898)

LINESTRING (1182.725979 118.128908, 1185.932269 135.103166)

LINESTRING (1182.725979 118.128908, 1228.468429 121.117646)

LINESTRING (1182.725979 118.128908, 1161.106559 171.567019)

LINESTRING (1182.725979 118.128908, 1206.234088 179.089743)

LINESTRING (1182.725979 118.128908, 1192.215314 141.429550)

LINESTRING (1182.725979 118.128908, 1169.949509 152.314701)

LINESTRING (1187.177534 103.231497, 1199.435148 107.899898)

LINESTRING (1187.177534 103.231497, 1185.932269 135.103166)

LINESTRING (1187.177534 103.231497, 1206.234088 179.089743)

LINESTRING (1187.177534 103.231497, 1192.215314 141.429550)

LINESTRING (1187.177534 103.231497, 1213.929154 144.014820)

LINESTRING (1199.435148 107.899898, 1185.932269 135.103166)

LINESTRING (1199.435148 107.899898, 1192.215314 141.429550)

LINESTRING (1199.435148 107.899898, 1213.929154 144.014820)

LINESTRING (1185.932269 135.103166, 1161.106559 171.567019)

LINESTRING (1185.932269 135.103166, 1192.215314 141.429550)

LINESTRING (1185.932269 135.103166, 1169.949509 152.314701)

LINESTRING (1228.468429 121.117646, 1161.106559 171.567019)

LINESTRING (1228.468429 121.117646, 1206.234088 179.089743)

LINESTRING (1228.468429 121.117646, 1192.215314 141.429550)

LINESTRING (1161.106559 171.567019, 1206.234088 179.089743)

LINESTRING (1161.106559 171.567019, 1169.949509 152.314701)

LINESTRING (1161.106559 171.567019, 1213.929154 144.014820)

LINESTRING (1206.234088 179.089743, 1192.215314 141.429550)

LINESTRING (1206.234088 179.089743, 1169.949509 152.314701)

LINESTRING (1192.215314 141.429550, 1169.949509 152.314701)

LINESTRING (1192.215314 141.429550, 1213.929154 144.014820)

LINESTRING (1169.949509 152.314701, 1213.929154 144.014820)

LINESTRING (176.223381 130.843848, 495.766488 168.867192)

LINESTRING (126.654889 134.106766, 495.766488 168.867192)

LINESTRING (458.555180 115.417395, 821.925223 100.647943)

LINESTRING (495.766488 168.867192, 861.851086 108.738166)

LINESTRING (830.456374 144.955217, 1189.777582 162.658910)

LINESTRING (861.851086 108.738166, 1197.632280 134.053878)

