LINESTRING (145.344109 131.261389, 114.231126 162.424147)

LINESTRING (145.344109 131.261389, 146.701979 102.516759)

LINESTRING (145.344109 131.261389, 118.321315 133.444056)

LINESTRING (145.344109 131.261389, 177.227524 166.941133)

LINESTRING (145.344109 131.261389, 126.917087 168.691507)

LINESTRING (145.344109 131.261389, 170.581363 166.455456)

LINESTRING (145.344109 131.261389, 131.553918 115.733937)

LINESTRING (145.344109 131.261389, 153.339872 133.290233)

LINESTRING (145.344109 131.261389, 105.340818 174.103613)

LINESTRING (145.344109 131.261389, 113.671882 127.471583)

LINESTRING (145.344109 131.261389, 158.835595 176.182464)

LINESTRING (145.344109 131.261389, 102.548607 159.110513)

LINESTRING (145.344109 131.261389, 110.276327 167.557700)

LINESTRING (145.344109 131.261389, 145.459176 125.426827)

LINESTRING (145.344109 131.261389, 132.522065 125.221500)

LINESTRING (145.344109 131.261389, 175.842365 109.876129)

LINESTRING (145.344109 131.261389, 177.971823 136.869737)

LINESTRING (145.344109 131.261389, 134.378358 123.018910)

LINESTRING (145.344109 131.261389, 179.264558 111.079688)

LINESTRING (145.344109 131.261389, 164.856479 118.408318)

LINESTRING (145.344109 131.261389, 164.872868 124.750666)

LINESTRING (145.344109 131.261389, 107.083492 112.789060)

LINESTRING (145.344109 131.261389, 142.402866 157.098717)

LINESTRING (145.344109 131.261389, 162.147558 143.817842)

LINESTRING (145.344109 131.261389, 101.817434 138.255608)

LINESTRING (145.344109 131.261389, 146.324755 137.299400)

LINESTRING (145.344109 131.261389, 110.217392 140.613686)

LINESTRING (145.344109 131.261389, 173.732389 111.347733)

LINESTRING (114.231126 162.424147, 146.701979 102.516759)

LINESTRING (114.231126 162.424147, 111.773650 172.498679)

LINESTRING (114.231126 162.424147, 126.917087 168.691507)

LINESTRING (114.231126 162.424147, 164.086923 108.233328)

LINESTRING (114.231126 162.424147, 170.581363 166.455456)

LINESTRING (114.231126 162.424147, 153.339872 133.290233)

LINESTRING (114.231126 162.424147, 132.522065 125.221500)

LINESTRING (114.231126 162.424147, 168.964494 161.337302)

LINESTRING (114.231126 162.424147, 177.853091 140.416755)

LINESTRING (114.231126 162.424147, 179.264558 111.079688)

LINESTRING (114.231126 162.424147, 177.512027 120.819376)

LINESTRING (114.231126 162.424147, 164.856479 118.408318)

LINESTRING (114.231126 162.424147, 164.872868 124.750666)

LINESTRING (114.231126 162.424147, 107.083492 112.789060)

LINESTRING (114.231126 162.424147, 142.402866 157.098717)

LINESTRING (114.231126 162.424147, 162.147558 143.817842)

LINESTRING (114.231126 162.424147, 136.904307 165.331527)

LINESTRING (114.231126 162.424147, 101.817434 138.255608)

LINESTRING (114.231126 162.424147, 146.324755 137.299400)

LINESTRING (114.231126 162.424147, 110.217392 140.613686)

LINESTRING (146.701979 102.516759, 177.227524 166.941133)

LINESTRING (146.701979 102.516759, 126.917087 168.691507)

LINESTRING (146.701979 102.516759, 170.581363 166.455456)

LINESTRING (146.701979 102.516759, 153.339872 133.290233)

LINESTRING (146.701979 102.516759, 105.340818 174.103613)

LINESTRING (146.701979 102.516759, 113.671882 127.471583)

LINESTRING (146.701979 102.516759, 158.835595 176.182464)

LINESTRING (146.701979 102.516759, 102.548607 159.110513)

LINESTRING (146.701979 102.516759, 110.276327 167.557700)

LINESTRING (146.701979 102.516759, 112.066381 162.431262)

LINESTRING (146.701979 102.516759, 141.436866 179.676256)

LINESTRING (146.701979 102.516759, 175.842365 109.876129)

LINESTRING (146.701979 102.516759, 177.971823 136.869737)

LINESTRING (146.701979 102.516759, 179.264558 111.079688)

LINESTRING (146.701979 102.516759, 177.512027 120.819376)

LINESTRING (146.701979 102.516759, 164.872868 124.750666)

LINESTRING (146.701979 102.516759, 105.948571 129.492733)

LINESTRING (146.701979 102.516759, 107.083492 112.789060)

LINESTRING (146.701979 102.516759, 136.904307 165.331527)

LINESTRING (146.701979 102.516759, 146.324755 137.299400)

LINESTRING (146.701979 102.516759, 173.732389 111.347733)

LINESTRING (111.773650 172.498679, 118.321315 133.444056)

LINESTRING (111.773650 172.498679, 177.227524 166.941133)

LINESTRING (111.773650 172.498679, 126.917087 168.691507)

LINESTRING (111.773650 172.498679, 170.581363 166.455456)

LINESTRING (111.773650 172.498679, 153.339872 133.290233)

LINESTRING (111.773650 172.498679, 105.340818 174.103613)

LINESTRING (111.773650 172.498679, 113.671882 127.471583)

LINESTRING (111.773650 172.498679, 158.835595 176.182464)

LINESTRING (111.773650 172.498679, 145.459176 125.426827)

LINESTRING (111.773650 172.498679, 132.522065 125.221500)

LINESTRING (111.773650 172.498679, 168.964494 161.337302)

LINESTRING (111.773650 172.498679, 141.436866 179.676256)

LINESTRING (111.773650 172.498679, 177.853091 140.416755)

LINESTRING (111.773650 172.498679, 175.842365 109.876129)

LINESTRING (111.773650 172.498679, 134.378358 123.018910)

LINESTRING (111.773650 172.498679, 118.479636 107.532396)

LINESTRING (111.773650 172.498679, 179.264558 111.079688)

LINESTRING (111.773650 172.498679, 164.872868 124.750666)

LINESTRING (111.773650 172.498679, 105.948571 129.492733)

LINESTRING (111.773650 172.498679, 162.147558 143.817842)

LINESTRING (111.773650 172.498679, 136.904307 165.331527)

LINESTRING (111.773650 172.498679, 101.817434 138.255608)

LINESTRING (111.773650 172.498679, 110.217392 140.613686)

LINESTRING (111.773650 172.498679, 173.732389 111.347733)

LINESTRING (118.321315 133.444056, 158.835595 176.182464)

LINESTRING (118.321315 133.444056, 110.276327 167.557700)

LINESTRING (118.321315 133.444056, 112.066381 162.431262)

LINESTRING (118.321315 133.444056, 132.522065 125.221500)

LINESTRING (118.321315 133.444056, 177.971823 136.869737)

LINESTRING (118.321315 133.444056, 134.378358 123.018910)

LINESTRING (118.321315 133.444056, 179.264558 111.079688)

LINESTRING (118.321315 133.444056, 177.512027 120.819376)

LINESTRING (118.321315 133.444056, 164.872868 124.750666)

LINESTRING (118.321315 133.444056, 107.083492 112.789060)

LINESTRING (118.321315 133.444056, 142.402866 157.098717)

LINESTRING (118.321315 133.444056, 162.147558 143.817842)

LINESTRING (118.321315 133.444056, 101.817434 138.255608)

LINESTRING (118.321315 133.444056, 173.732389 111.347733)

LINESTRING (177.227524 166.941133, 126.917087 168.691507)

LINESTRING (177.227524 166.941133, 164.086923 108.233328)

LINESTRING (177.227524 166.941133, 170.581363 166.455456)

LINESTRING (177.227524 166.941133, 131.553918 115.733937)

LINESTRING (177.227524 166.941133, 153.339872 133.290233)

LINESTRING (177.227524 166.941133, 110.276327 167.557700)

LINESTRING (177.227524 166.941133, 145.459176 125.426827)

LINESTRING (177.227524 166.941133, 112.066381 162.431262)

LINESTRING (177.227524 166.941133, 132.522065 125.221500)

LINESTRING (177.227524 166.941133, 141.436866 179.676256)

LINESTRING (177.227524 166.941133, 177.971823 136.869737)

LINESTRING (177.227524 166.941133, 134.378358 123.018910)

LINESTRING (177.227524 166.941133, 118.479636 107.532396)

LINESTRING (177.227524 166.941133, 179.264558 111.079688)

LINESTRING (177.227524 166.941133, 157.867008 130.161366)

LINESTRING (177.227524 166.941133, 177.512027 120.819376)

LINESTRING (177.227524 166.941133, 164.856479 118.408318)

LINESTRING (177.227524 166.941133, 164.872868 124.750666)

LINESTRING (177.227524 166.941133, 105.948571 129.492733)

LINESTRING (177.227524 166.941133, 142.402866 157.098717)

LINESTRING (177.227524 166.941133, 162.147558 143.817842)

LINESTRING (177.227524 166.941133, 136.904307 165.331527)

LINESTRING (177.227524 166.941133, 101.817434 138.255608)

LINESTRING (177.227524 166.941133, 146.324755 137.299400)

LINESTRING (177.227524 166.941133, 173.732389 111.347733)

LINESTRING (126.917087 168.691507, 164.086923 108.233328)

LINESTRING (126.917087 168.691507, 170.581363 166.455456)

LINESTRING (126.917087 168.691507, 131.553918 115.733937)

LINESTRING (126.917087 168.691507, 153.339872 133.290233)

LINESTRING (126.917087 168.691507, 110.276327 167.557700)

LINESTRING (126.917087 168.691507, 145.459176 125.426827)

LINESTRING (126.917087 168.691507, 112.066381 162.431262)

LINESTRING (126.917087 168.691507, 132.522065 125.221500)

LINESTRING (126.917087 168.691507, 168.964494 161.337302)

LINESTRING (126.917087 168.691507, 177.853091 140.416755)

LINESTRING (126.917087 168.691507, 177.971823 136.869737)

LINESTRING (126.917087 168.691507, 134.378358 123.018910)

LINESTRING (126.917087 168.691507, 157.867008 130.161366)

LINESTRING (126.917087 168.691507, 177.512027 120.819376)

LINESTRING (126.917087 168.691507, 105.948571 129.492733)

LINESTRING (126.917087 168.691507, 107.083492 112.789060)

LINESTRING (126.917087 168.691507, 162.147558 143.817842)

LINESTRING (126.917087 168.691507, 136.904307 165.331527)

LINESTRING (126.917087 168.691507, 146.324755 137.299400)

LINESTRING (126.917087 168.691507, 110.217392 140.613686)

LINESTRING (164.086923 108.233328, 170.581363 166.455456)

LINESTRING (164.086923 108.233328, 153.339872 133.290233)

LINESTRING (164.086923 108.233328, 113.671882 127.471583)

LINESTRING (164.086923 108.233328, 102.548607 159.110513)

LINESTRING (164.086923 108.233328, 110.276327 167.557700)

LINESTRING (164.086923 108.233328, 112.066381 162.431262)

LINESTRING (164.086923 108.233328, 168.964494 161.337302)

LINESTRING (164.086923 108.233328, 141.436866 179.676256)

LINESTRING (164.086923 108.233328, 157.867008 130.161366)

LINESTRING (164.086923 108.233328, 164.856479 118.408318)

LINESTRING (164.086923 108.233328, 164.872868 124.750666)

LINESTRING (164.086923 108.233328, 107.083492 112.789060)

LINESTRING (164.086923 108.233328, 142.402866 157.098717)

LINESTRING (164.086923 108.233328, 162.147558 143.817842)

LINESTRING (164.086923 108.233328, 101.817434 138.255608)

LINESTRING (164.086923 108.233328, 146.324755 137.299400)

LINESTRING (170.581363 166.455456, 131.553918 115.733937)

LINESTRING (170.581363 166.455456, 105.340818 174.103613)

LINESTRING (170.581363 166.455456, 113.671882 127.471583)

LINESTRING (170.581363 166.455456, 158.835595 176.182464)

LINESTRING (170.581363 166.455456, 168.964494 161.337302)

LINESTRING (170.581363 166.455456, 175.842365 109.876129)

LINESTRING (170.581363 166.455456, 177.971823 136.869737)

LINESTRING (170.581363 166.455456, 134.378358 123.018910)

LINESTRING (170.581363 166.455456, 118.479636 107.532396)

LINESTRING (170.581363 166.455456, 164.872868 124.750666)

LINESTRING (170.581363 166.455456, 107.083492 112.789060)

LINESTRING (170.581363 166.455456, 142.402866 157.098717)

LINESTRING (170.581363 166.455456, 162.147558 143.817842)

LINESTRING (170.581363 166.455456, 136.904307 165.331527)

LINESTRING (170.581363 166.455456, 101.817434 138.255608)

LINESTRING (170.581363 166.455456, 146.324755 137.299400)

LINESTRING (170.581363 166.455456, 110.217392 140.613686)

LINESTRING (131.553918 115.733937, 153.339872 133.290233)

LINESTRING (131.553918 115.733937, 113.671882 127.471583)

LINESTRING (131.553918 115.733937, 102.548607 159.110513)

LINESTRING (131.553918 115.733937, 132.522065 125.221500)

LINESTRING (131.553918 115.733937, 168.964494 161.337302)

LINESTRING (131.553918 115.733937, 141.436866 179.676256)

LINESTRING (131.553918 115.733937, 177.853091 140.416755)

LINESTRING (131.553918 115.733937, 175.842365 109.876129)

LINESTRING (131.553918 115.733937, 177.971823 136.869737)

LINESTRING (131.553918 115.733937, 118.479636 107.532396)

LINESTRING (131.553918 115.733937, 179.264558 111.079688)

LINESTRING (131.553918 115.733937, 177.512027 120.819376)

LINESTRING (131.553918 115.733937, 164.856479 118.408318)

LINESTRING (131.553918 115.733937, 164.872868 124.750666)

LINESTRING (131.553918 115.733937, 142.402866 157.098717)

LINESTRING (131.553918 115.733937, 162.147558 143.817842)

LINESTRING (131.553918 115.733937, 173.732389 111.347733)

LINESTRING (153.339872 133.290233, 105.340818 174.103613)

LINESTRING (153.339872 133.290233, 113.671882 127.471583)

LINESTRING (153.339872 133.290233, 102.548607 159.110513)

LINESTRING (153.339872 133.290233, 132.522065 125.221500)

LINESTRING (153.339872 133.290233, 168.964494 161.337302)

LINESTRING (153.339872 133.290233, 141.436866 179.676256)

LINESTRING (153.339872 133.290233, 177.853091 140.416755)

LINESTRING (153.339872 133.290233, 175.842365 109.876129)

LINESTRING (153.339872 133.290233, 177.971823 136.869737)

LINESTRING (153.339872 133.290233, 179.264558 111.079688)

LINESTRING (153.339872 133.290233, 157.867008 130.161366)

LINESTRING (153.339872 133.290233, 177.512027 120.819376)

LINESTRING (153.339872 133.290233, 164.856479 118.408318)

LINESTRING (153.339872 133.290233, 164.872868 124.750666)

LINESTRING (153.339872 133.290233, 105.948571 129.492733)

LINESTRING (153.339872 133.290233, 162.147558 143.817842)

LINESTRING (153.339872 133.290233, 136.904307 165.331527)

LINESTRING (153.339872 133.290233, 101.817434 138.255608)

LINESTRING (153.339872 133.290233, 110.217392 140.613686)

LINESTRING (105.340818 174.103613, 113.671882 127.471583)

LINESTRING (105.340818 174.103613, 158.835595 176.182464)

LINESTRING (105.340818 174.103613, 102.548607 159.110513)

LINESTRING (105.340818 174.103613, 110.276327 167.557700)

LINESTRING (105.340818 174.103613, 145.459176 125.426827)

LINESTRING (105.340818 174.103613, 112.066381 162.431262)

LINESTRING (105.340818 174.103613, 177.853091 140.416755)

LINESTRING (105.340818 174.103613, 175.842365 109.876129)

LINESTRING (105.340818 174.103613, 134.378358 123.018910)

LINESTRING (105.340818 174.103613, 179.264558 111.079688)

LINESTRING (105.340818 174.103613, 107.083492 112.789060)

LINESTRING (105.340818 174.103613, 142.402866 157.098717)

LINESTRING (105.340818 174.103613, 162.147558 143.817842)

LINESTRING (105.340818 174.103613, 146.324755 137.299400)

LINESTRING (105.340818 174.103613, 110.217392 140.613686)

LINESTRING (105.340818 174.103613, 173.732389 111.347733)

LINESTRING (113.671882 127.471583, 158.835595 176.182464)

LINESTRING (113.671882 127.471583, 102.548607 159.110513)

LINESTRING (113.671882 127.471583, 145.459176 125.426827)

LINESTRING (113.671882 127.471583, 132.522065 125.221500)

LINESTRING (113.671882 127.471583, 134.378358 123.018910)

LINESTRING (113.671882 127.471583, 118.479636 107.532396)

LINESTRING (113.671882 127.471583, 179.264558 111.079688)

LINESTRING (113.671882 127.471583, 157.867008 130.161366)

LINESTRING (113.671882 127.471583, 164.856479 118.408318)

LINESTRING (113.671882 127.471583, 105.948571 129.492733)

LINESTRING (113.671882 127.471583, 107.083492 112.789060)

LINESTRING (113.671882 127.471583, 142.402866 157.098717)

LINESTRING (113.671882 127.471583, 136.904307 165.331527)

LINESTRING (113.671882 127.471583, 173.732389 111.347733)

LINESTRING (158.835595 176.182464, 110.276327 167.557700)

LINESTRING (158.835595 176.182464, 145.459176 125.426827)

LINESTRING (158.835595 176.182464, 132.522065 125.221500)

LINESTRING (158.835595 176.182464, 168.964494 161.337302)

LINESTRING (158.835595 176.182464, 177.853091 140.416755)

LINESTRING (158.835595 176.182464, 157.867008 130.161366)

LINESTRING (158.835595 176.182464, 164.856479 118.408318)

LINESTRING (158.835595 176.182464, 146.324755 137.299400)

LINESTRING (158.835595 176.182464, 173.732389 111.347733)

LINESTRING (102.548607 159.110513, 132.522065 125.221500)

LINESTRING (102.548607 159.110513, 141.436866 179.676256)

LINESTRING (102.548607 159.110513, 177.853091 140.416755)

LINESTRING (102.548607 159.110513, 177.971823 136.869737)

LINESTRING (102.548607 159.110513, 134.378358 123.018910)

LINESTRING (102.548607 159.110513, 118.479636 107.532396)

LINESTRING (102.548607 159.110513, 177.512027 120.819376)

LINESTRING (102.548607 159.110513, 164.856479 118.408318)

LINESTRING (102.548607 159.110513, 164.872868 124.750666)

LINESTRING (102.548607 159.110513, 105.948571 129.492733)

LINESTRING (102.548607 159.110513, 107.083492 112.789060)

LINESTRING (102.548607 159.110513, 142.402866 157.098717)

LINESTRING (102.548607 159.110513, 162.147558 143.817842)

LINESTRING (102.548607 159.110513, 136.904307 165.331527)

LINESTRING (102.548607 159.110513, 146.324755 137.299400)

LINESTRING (102.548607 159.110513, 110.217392 140.613686)

LINESTRING (102.548607 159.110513, 173.732389 111.347733)

LINESTRING (110.276327 167.557700, 112.066381 162.431262)

LINESTRING (110.276327 167.557700, 132.522065 125.221500)

LINESTRING (110.276327 167.557700, 177.853091 140.416755)

LINESTRING (110.276327 167.557700, 175.842365 109.876129)

LINESTRING (110.276327 167.557700, 177.971823 136.869737)

LINESTRING (110.276327 167.557700, 134.378358 123.018910)

LINESTRING (110.276327 167.557700, 179.264558 111.079688)

LINESTRING (110.276327 167.557700, 157.867008 130.161366)

LINESTRING (110.276327 167.557700, 177.512027 120.819376)

LINESTRING (110.276327 167.557700, 164.856479 118.408318)

LINESTRING (110.276327 167.557700, 164.872868 124.750666)

LINESTRING (110.276327 167.557700, 142.402866 157.098717)

LINESTRING (110.276327 167.557700, 162.147558 143.817842)

LINESTRING (110.276327 167.557700, 136.904307 165.331527)

LINESTRING (110.276327 167.557700, 101.817434 138.255608)

LINESTRING (110.276327 167.557700, 146.324755 137.299400)

LINESTRING (110.276327 167.557700, 110.217392 140.613686)

LINESTRING (145.459176 125.426827, 112.066381 162.431262)

LINESTRING (145.459176 125.426827, 132.522065 125.221500)

LINESTRING (145.459176 125.426827, 141.436866 179.676256)

LINESTRING (145.459176 125.426827, 177.853091 140.416755)

LINESTRING (145.459176 125.426827, 177.971823 136.869737)

LINESTRING (145.459176 125.426827, 134.378358 123.018910)

LINESTRING (145.459176 125.426827, 118.479636 107.532396)

LINESTRING (145.459176 125.426827, 179.264558 111.079688)

LINESTRING (145.459176 125.426827, 157.867008 130.161366)

LINESTRING (145.459176 125.426827, 177.512027 120.819376)

LINESTRING (145.459176 125.426827, 164.872868 124.750666)

LINESTRING (145.459176 125.426827, 105.948571 129.492733)

LINESTRING (145.459176 125.426827, 142.402866 157.098717)

LINESTRING (145.459176 125.426827, 136.904307 165.331527)

LINESTRING (145.459176 125.426827, 110.217392 140.613686)

LINESTRING (145.459176 125.426827, 173.732389 111.347733)

LINESTRING (112.066381 162.431262, 132.522065 125.221500)

LINESTRING (112.066381 162.431262, 168.964494 161.337302)

LINESTRING (112.066381 162.431262, 177.853091 140.416755)

LINESTRING (112.066381 162.431262, 134.378358 123.018910)

LINESTRING (112.066381 162.431262, 118.479636 107.532396)

LINESTRING (112.066381 162.431262, 179.264558 111.079688)

LINESTRING (112.066381 162.431262, 157.867008 130.161366)

LINESTRING (112.066381 162.431262, 164.856479 118.408318)

LINESTRING (112.066381 162.431262, 107.083492 112.789060)

LINESTRING (112.066381 162.431262, 136.904307 165.331527)

LINESTRING (112.066381 162.431262, 101.817434 138.255608)

LINESTRING (132.522065 125.221500, 141.436866 179.676256)

LINESTRING (132.522065 125.221500, 175.842365 109.876129)

LINESTRING (132.522065 125.221500, 177.971823 136.869737)

LINESTRING (132.522065 125.221500, 118.479636 107.532396)

LINESTRING (132.522065 125.221500, 179.264558 111.079688)

LINESTRING (132.522065 125.221500, 177.512027 120.819376)

LINESTRING (132.522065 125.221500, 164.856479 118.408318)

LINESTRING (132.522065 125.221500, 107.083492 112.789060)

LINESTRING (132.522065 125.221500, 142.402866 157.098717)

LINESTRING (132.522065 125.221500, 136.904307 165.331527)

LINESTRING (132.522065 125.221500, 146.324755 137.299400)

LINESTRING (132.522065 125.221500, 110.217392 140.613686)

LINESTRING (132.522065 125.221500, 173.732389 111.347733)

LINESTRING (168.964494 161.337302, 141.436866 179.676256)

LINESTRING (168.964494 161.337302, 175.842365 109.876129)

LINESTRING (168.964494 161.337302, 177.971823 136.869737)

LINESTRING (168.964494 161.337302, 134.378358 123.018910)

LINESTRING (168.964494 161.337302, 179.264558 111.079688)

LINESTRING (168.964494 161.337302, 157.867008 130.161366)

LINESTRING (168.964494 161.337302, 177.512027 120.819376)

LINESTRING (168.964494 161.337302, 107.083492 112.789060)

LINESTRING (168.964494 161.337302, 142.402866 157.098717)

LINESTRING (168.964494 161.337302, 162.147558 143.817842)

LINESTRING (168.964494 161.337302, 136.904307 165.331527)

LINESTRING (168.964494 161.337302, 101.817434 138.255608)

LINESTRING (168.964494 161.337302, 146.324755 137.299400)

LINESTRING (168.964494 161.337302, 173.732389 111.347733)

LINESTRING (141.436866 179.676256, 177.853091 140.416755)

LINESTRING (141.436866 179.676256, 175.842365 109.876129)

LINESTRING (141.436866 179.676256, 177.971823 136.869737)

LINESTRING (141.436866 179.676256, 134.378358 123.018910)

LINESTRING (141.436866 179.676256, 118.479636 107.532396)

LINESTRING (141.436866 179.676256, 179.264558 111.079688)

LINESTRING (141.436866 179.676256, 157.867008 130.161366)

LINESTRING (141.436866 179.676256, 177.512027 120.819376)

LINESTRING (141.436866 179.676256, 164.856479 118.408318)

LINESTRING (141.436866 179.676256, 105.948571 129.492733)

LINESTRING (141.436866 179.676256, 142.402866 157.098717)

LINESTRING (141.436866 179.676256, 136.904307 165.331527)

LINESTRING (141.436866 179.676256, 146.324755 137.299400)

LINESTRING (141.436866 179.676256, 110.217392 140.613686)

LINESTRING (177.853091 140.416755, 175.842365 109.876129)

LINESTRING (177.853091 140.416755, 177.971823 136.869737)

LINESTRING (177.853091 140.416755, 134.378358 123.018910)

LINESTRING (177.853091 140.416755, 179.264558 111.079688)

LINESTRING (177.853091 140.416755, 177.512027 120.819376)

LINESTRING (177.853091 140.416755, 164.856479 118.408318)

LINESTRING (177.853091 140.416755, 164.872868 124.750666)

LINESTRING (177.853091 140.416755, 105.948571 129.492733)

LINESTRING (177.853091 140.416755, 162.147558 143.817842)

LINESTRING (177.853091 140.416755, 136.904307 165.331527)

LINESTRING (177.853091 140.416755, 101.817434 138.255608)

LINESTRING (177.853091 140.416755, 110.217392 140.613686)

LINESTRING (177.853091 140.416755, 173.732389 111.347733)

LINESTRING (175.842365 109.876129, 134.378358 123.018910)

LINESTRING (175.842365 109.876129, 157.867008 130.161366)

LINESTRING (175.842365 109.876129, 177.512027 120.819376)

LINESTRING (175.842365 109.876129, 164.856479 118.408318)

LINESTRING (175.842365 109.876129, 164.872868 124.750666)

LINESTRING (175.842365 109.876129, 136.904307 165.331527)

LINESTRING (175.842365 109.876129, 101.817434 138.255608)

LINESTRING (175.842365 109.876129, 146.324755 137.299400)

LINESTRING (175.842365 109.876129, 110.217392 140.613686)

LINESTRING (177.971823 136.869737, 134.378358 123.018910)

LINESTRING (177.971823 136.869737, 118.479636 107.532396)

LINESTRING (177.971823 136.869737, 179.264558 111.079688)

LINESTRING (177.971823 136.869737, 164.856479 118.408318)

LINESTRING (177.971823 136.869737, 105.948571 129.492733)

LINESTRING (177.971823 136.869737, 101.817434 138.255608)

LINESTRING (177.971823 136.869737, 146.324755 137.299400)

LINESTRING (134.378358 123.018910, 157.867008 130.161366)

LINESTRING (134.378358 123.018910, 164.872868 124.750666)

LINESTRING (134.378358 123.018910, 105.948571 129.492733)

LINESTRING (134.378358 123.018910, 107.083492 112.789060)

LINESTRING (134.378358 123.018910, 101.817434 138.255608)

LINESTRING (134.378358 123.018910, 110.217392 140.613686)

LINESTRING (118.479636 107.532396, 179.264558 111.079688)

LINESTRING (118.479636 107.532396, 177.512027 120.819376)

LINESTRING (118.479636 107.532396, 142.402866 157.098717)

LINESTRING (118.479636 107.532396, 162.147558 143.817842)

LINESTRING (118.479636 107.532396, 146.324755 137.299400)

LINESTRING (179.264558 111.079688, 177.512027 120.819376)

LINESTRING (179.264558 111.079688, 164.872868 124.750666)

LINESTRING (179.264558 111.079688, 162.147558 143.817842)

LINESTRING (179.264558 111.079688, 136.904307 165.331527)

LINESTRING (179.264558 111.079688, 146.324755 137.299400)

LINESTRING (179.264558 111.079688, 173.732389 111.347733)

LINESTRING (157.867008 130.161366, 177.512027 120.819376)

LINESTRING (157.867008 130.161366, 164.872868 124.750666)

LINESTRING (157.867008 130.161366, 105.948571 129.492733)

LINESTRING (157.867008 130.161366, 142.402866 157.098717)

LINESTRING (157.867008 130.161366, 101.817434 138.255608)

LINESTRING (177.512027 120.819376, 164.856479 118.408318)

LINESTRING (177.512027 120.819376, 164.872868 124.750666)

LINESTRING (177.512027 120.819376, 105.948571 129.492733)

LINESTRING (177.512027 120.819376, 142.402866 157.098717)

LINESTRING (177.512027 120.819376, 162.147558 143.817842)

LINESTRING (177.512027 120.819376, 136.904307 165.331527)

LINESTRING (177.512027 120.819376, 110.217392 140.613686)

LINESTRING (177.512027 120.819376, 173.732389 111.347733)

LINESTRING (164.856479 118.408318, 164.872868 124.750666)

LINESTRING (164.856479 118.408318, 105.948571 129.492733)

LINESTRING (164.856479 118.408318, 107.083492 112.789060)

LINESTRING (164.856479 118.408318, 101.817434 138.255608)

LINESTRING (164.856479 118.408318, 173.732389 111.347733)

LINESTRING (164.872868 124.750666, 105.948571 129.492733)

LINESTRING (164.872868 124.750666, 107.083492 112.789060)

LINESTRING (164.872868 124.750666, 142.402866 157.098717)

LINESTRING (164.872868 124.750666, 136.904307 165.331527)

LINESTRING (164.872868 124.750666, 101.817434 138.255608)

LINESTRING (164.872868 124.750666, 146.324755 137.299400)

LINESTRING (164.872868 124.750666, 110.217392 140.613686)

LINESTRING (105.948571 129.492733, 142.402866 157.098717)

LINESTRING (105.948571 129.492733, 162.147558 143.817842)

LINESTRING (105.948571 129.492733, 136.904307 165.331527)

LINESTRING (105.948571 129.492733, 110.217392 140.613686)

LINESTRING (105.948571 129.492733, 173.732389 111.347733)

LINESTRING (107.083492 112.789060, 101.817434 138.255608)

LINESTRING (107.083492 112.789060, 146.324755 137.299400)

LINESTRING (107.083492 112.789060, 110.217392 140.613686)

LINESTRING (142.402866 157.098717, 162.147558 143.817842)

LINESTRING (142.402866 157.098717, 146.324755 137.299400)

LINESTRING (142.402866 157.098717, 110.217392 140.613686)

LINESTRING (162.147558 143.817842, 136.904307 165.331527)

LINESTRING (162.147558 143.817842, 101.817434 138.255608)

LINESTRING (162.147558 143.817842, 146.324755 137.299400)

LINESTRING (136.904307 165.331527, 146.324755 137.299400)

LINESTRING (101.817434 138.255608, 146.324755 137.299400)

LINESTRING (101.817434 138.255608, 110.217392 140.613686)

LINESTRING (101.817434 138.255608, 173.732389 111.347733)

LINESTRING (517.285579 152.013598, 521.749236 106.546141)

LINESTRING (517.285579 152.013598, 525.409182 144.310293)

LINESTRING (517.285579 152.013598, 478.506617 164.141488)

LINESTRING (517.285579 152.013598, 485.641885 140.043251)

LINESTRING (517.285579 152.013598, 527.499017 138.579233)

LINESTRING (517.285579 152.013598, 490.093162 129.326773)

LINESTRING (517.285579 152.013598, 502.052974 172.401843)

LINESTRING (517.285579 152.013598, 466.246854 100.552962)

LINESTRING (517.285579 152.013598, 516.487345 111.055891)

LINESTRING (517.285579 152.013598, 476.969249 136.683286)

LINESTRING (517.285579 152.013598, 473.587498 175.628869)

LINESTRING (517.285579 152.013598, 459.430592 130.447092)

LINESTRING (517.285579 152.013598, 472.969460 174.347452)

LINESTRING (517.285579 152.013598, 491.489147 146.270794)

LINESTRING (517.285579 152.013598, 491.966646 147.823736)

LINESTRING (517.285579 152.013598, 458.570558 167.939324)

LINESTRING (517.285579 152.013598, 506.011652 127.144305)

LINESTRING (517.285579 152.013598, 457.799361 111.578595)

LINESTRING (517.285579 152.013598, 500.251349 115.839273)

LINESTRING (517.285579 152.013598, 460.358672 110.130019)

LINESTRING (521.749236 106.546141, 490.709046 169.408311)

LINESTRING (521.749236 106.546141, 456.260438 150.671526)

LINESTRING (521.749236 106.546141, 478.506617 164.141488)

LINESTRING (521.749236 106.546141, 485.641885 140.043251)

LINESTRING (521.749236 106.546141, 507.428349 142.620888)

LINESTRING (521.749236 106.546141, 527.499017 138.579233)

LINESTRING (521.749236 106.546141, 464.847955 133.596563)

LINESTRING (521.749236 106.546141, 490.093162 129.326773)

LINESTRING (521.749236 106.546141, 502.052974 172.401843)

LINESTRING (521.749236 106.546141, 451.206664 105.860440)

LINESTRING (521.749236 106.546141, 482.044097 131.995785)

LINESTRING (521.749236 106.546141, 495.857772 170.168870)

LINESTRING (521.749236 106.546141, 476.969249 136.683286)

LINESTRING (521.749236 106.546141, 469.635555 147.974019)

LINESTRING (521.749236 106.546141, 459.430592 130.447092)

LINESTRING (521.749236 106.546141, 472.969460 174.347452)

LINESTRING (521.749236 106.546141, 491.489147 146.270794)

LINESTRING (521.749236 106.546141, 491.966646 147.823736)

LINESTRING (521.749236 106.546141, 458.570558 167.939324)

LINESTRING (521.749236 106.546141, 457.799361 111.578595)

LINESTRING (521.749236 106.546141, 514.134867 147.820129)

LINESTRING (521.749236 106.546141, 500.251349 115.839273)

LINESTRING (521.749236 106.546141, 477.221957 105.438608)

LINESTRING (521.749236 106.546141, 520.529064 124.545768)

LINESTRING (521.749236 106.546141, 460.358672 110.130019)

LINESTRING (521.749236 106.546141, 453.138059 109.784351)

LINESTRING (490.709046 169.408311, 478.506617 164.141488)

LINESTRING (490.709046 169.408311, 485.641885 140.043251)

LINESTRING (490.709046 169.408311, 513.640361 176.674283)

LINESTRING (490.709046 169.408311, 464.847955 133.596563)

LINESTRING (490.709046 169.408311, 490.093162 129.326773)

LINESTRING (490.709046 169.408311, 502.052974 172.401843)

LINESTRING (490.709046 169.408311, 482.044097 131.995785)

LINESTRING (490.709046 169.408311, 495.857772 170.168870)

LINESTRING (490.709046 169.408311, 516.487345 111.055891)

LINESTRING (490.709046 169.408311, 476.969249 136.683286)

LINESTRING (490.709046 169.408311, 467.829054 177.224215)

LINESTRING (490.709046 169.408311, 469.635555 147.974019)

LINESTRING (490.709046 169.408311, 459.430592 130.447092)

LINESTRING (490.709046 169.408311, 472.969460 174.347452)

LINESTRING (490.709046 169.408311, 458.570558 167.939324)

LINESTRING (490.709046 169.408311, 506.011652 127.144305)

LINESTRING (490.709046 169.408311, 457.799361 111.578595)

LINESTRING (490.709046 169.408311, 482.481005 108.077231)

LINESTRING (490.709046 169.408311, 514.134867 147.820129)

LINESTRING (490.709046 169.408311, 460.358672 110.130019)

LINESTRING (490.709046 169.408311, 453.138059 109.784351)

LINESTRING (514.074448 161.875193, 508.362329 164.713543)

LINESTRING (514.074448 161.875193, 485.641885 140.043251)

LINESTRING (514.074448 161.875193, 507.428349 142.620888)

LINESTRING (514.074448 161.875193, 527.499017 138.579233)

LINESTRING (514.074448 161.875193, 513.640361 176.674283)

LINESTRING (514.074448 161.875193, 464.847955 133.596563)

LINESTRING (514.074448 161.875193, 490.093162 129.326773)

LINESTRING (514.074448 161.875193, 502.052974 172.401843)

LINESTRING (514.074448 161.875193, 451.206664 105.860440)

LINESTRING (514.074448 161.875193, 466.246854 100.552962)

LINESTRING (514.074448 161.875193, 482.044097 131.995785)

LINESTRING (514.074448 161.875193, 495.857772 170.168870)

LINESTRING (514.074448 161.875193, 489.624990 130.722040)

LINESTRING (514.074448 161.875193, 467.829054 177.224215)

LINESTRING (514.074448 161.875193, 469.635555 147.974019)

LINESTRING (514.074448 161.875193, 459.430592 130.447092)

LINESTRING (514.074448 161.875193, 472.969460 174.347452)

LINESTRING (514.074448 161.875193, 491.489147 146.270794)

LINESTRING (514.074448 161.875193, 491.966646 147.823736)

LINESTRING (514.074448 161.875193, 506.011652 127.144305)

LINESTRING (514.074448 161.875193, 482.481005 108.077231)

LINESTRING (514.074448 161.875193, 514.134867 147.820129)

LINESTRING (514.074448 161.875193, 477.221957 105.438608)

LINESTRING (514.074448 161.875193, 520.529064 124.545768)

LINESTRING (514.074448 161.875193, 453.138059 109.784351)

LINESTRING (508.362329 164.713543, 456.260438 150.671526)

LINESTRING (508.362329 164.713543, 525.409182 144.310293)

LINESTRING (508.362329 164.713543, 478.506617 164.141488)

LINESTRING (508.362329 164.713543, 527.499017 138.579233)

LINESTRING (508.362329 164.713543, 513.640361 176.674283)

LINESTRING (508.362329 164.713543, 464.847955 133.596563)

LINESTRING (508.362329 164.713543, 490.093162 129.326773)

LINESTRING (508.362329 164.713543, 466.246854 100.552962)

LINESTRING (508.362329 164.713543, 476.969249 136.683286)

LINESTRING (508.362329 164.713543, 467.829054 177.224215)

LINESTRING (508.362329 164.713543, 473.587498 175.628869)

LINESTRING (508.362329 164.713543, 459.430592 130.447092)

LINESTRING (508.362329 164.713543, 491.966646 147.823736)

LINESTRING (508.362329 164.713543, 458.570558 167.939324)

LINESTRING (508.362329 164.713543, 506.011652 127.144305)

LINESTRING (508.362329 164.713543, 457.799361 111.578595)

LINESTRING (508.362329 164.713543, 514.134867 147.820129)

LINESTRING (508.362329 164.713543, 500.251349 115.839273)

LINESTRING (508.362329 164.713543, 453.138059 109.784351)

LINESTRING (456.260438 150.671526, 525.409182 144.310293)

LINESTRING (456.260438 150.671526, 485.641885 140.043251)

LINESTRING (456.260438 150.671526, 527.499017 138.579233)

LINESTRING (456.260438 150.671526, 513.640361 176.674283)

LINESTRING (456.260438 150.671526, 451.206664 105.860440)

LINESTRING (456.260438 150.671526, 466.246854 100.552962)

LINESTRING (456.260438 150.671526, 482.044097 131.995785)

LINESTRING (456.260438 150.671526, 495.857772 170.168870)

LINESTRING (456.260438 150.671526, 476.969249 136.683286)

LINESTRING (456.260438 150.671526, 489.624990 130.722040)

LINESTRING (456.260438 150.671526, 469.635555 147.974019)

LINESTRING (456.260438 150.671526, 473.587498 175.628869)

LINESTRING (456.260438 150.671526, 459.430592 130.447092)

LINESTRING (456.260438 150.671526, 524.664863 103.015849)

LINESTRING (456.260438 150.671526, 472.969460 174.347452)

LINESTRING (456.260438 150.671526, 491.489147 146.270794)

LINESTRING (456.260438 150.671526, 506.011652 127.144305)

LINESTRING (456.260438 150.671526, 457.799361 111.578595)

LINESTRING (456.260438 150.671526, 482.481005 108.077231)

LINESTRING (456.260438 150.671526, 514.134867 147.820129)

LINESTRING (456.260438 150.671526, 500.251349 115.839273)

LINESTRING (456.260438 150.671526, 520.529064 124.545768)

LINESTRING (456.260438 150.671526, 460.358672 110.130019)

LINESTRING (456.260438 150.671526, 453.138059 109.784351)

LINESTRING (525.409182 144.310293, 507.428349 142.620888)

LINESTRING (525.409182 144.310293, 527.499017 138.579233)

LINESTRING (525.409182 144.310293, 513.640361 176.674283)

LINESTRING (525.409182 144.310293, 464.847955 133.596563)

LINESTRING (525.409182 144.310293, 490.093162 129.326773)

LINESTRING (525.409182 144.310293, 466.246854 100.552962)

LINESTRING (525.409182 144.310293, 482.044097 131.995785)

LINESTRING (525.409182 144.310293, 489.624990 130.722040)

LINESTRING (525.409182 144.310293, 467.829054 177.224215)

LINESTRING (525.409182 144.310293, 469.635555 147.974019)

LINESTRING (525.409182 144.310293, 473.587498 175.628869)

LINESTRING (525.409182 144.310293, 524.664863 103.015849)

LINESTRING (525.409182 144.310293, 491.489147 146.270794)

LINESTRING (525.409182 144.310293, 506.011652 127.144305)

LINESTRING (525.409182 144.310293, 482.481005 108.077231)

LINESTRING (525.409182 144.310293, 514.134867 147.820129)

LINESTRING (525.409182 144.310293, 500.251349 115.839273)

LINESTRING (525.409182 144.310293, 477.221957 105.438608)

LINESTRING (525.409182 144.310293, 460.358672 110.130019)

LINESTRING (478.506617 164.141488, 485.641885 140.043251)

LINESTRING (478.506617 164.141488, 507.428349 142.620888)

LINESTRING (478.506617 164.141488, 464.847955 133.596563)

LINESTRING (478.506617 164.141488, 490.093162 129.326773)

LINESTRING (478.506617 164.141488, 502.052974 172.401843)

LINESTRING (478.506617 164.141488, 451.206664 105.860440)

LINESTRING (478.506617 164.141488, 466.246854 100.552962)

LINESTRING (478.506617 164.141488, 482.044097 131.995785)

LINESTRING (478.506617 164.141488, 495.857772 170.168870)

LINESTRING (478.506617 164.141488, 476.969249 136.683286)

LINESTRING (478.506617 164.141488, 469.635555 147.974019)

LINESTRING (478.506617 164.141488, 473.587498 175.628869)

LINESTRING (478.506617 164.141488, 459.430592 130.447092)

LINESTRING (478.506617 164.141488, 524.664863 103.015849)

LINESTRING (478.506617 164.141488, 458.570558 167.939324)

LINESTRING (478.506617 164.141488, 514.134867 147.820129)

LINESTRING (478.506617 164.141488, 520.529064 124.545768)

LINESTRING (485.641885 140.043251, 507.428349 142.620888)

LINESTRING (485.641885 140.043251, 527.499017 138.579233)

LINESTRING (485.641885 140.043251, 464.847955 133.596563)

LINESTRING (485.641885 140.043251, 502.052974 172.401843)

LINESTRING (485.641885 140.043251, 451.206664 105.860440)

LINESTRING (485.641885 140.043251, 482.044097 131.995785)

LINESTRING (485.641885 140.043251, 516.487345 111.055891)

LINESTRING (485.641885 140.043251, 489.624990 130.722040)

LINESTRING (485.641885 140.043251, 467.829054 177.224215)

LINESTRING (485.641885 140.043251, 459.430592 130.447092)

LINESTRING (485.641885 140.043251, 524.664863 103.015849)

LINESTRING (485.641885 140.043251, 472.969460 174.347452)

LINESTRING (485.641885 140.043251, 491.489147 146.270794)

LINESTRING (485.641885 140.043251, 458.570558 167.939324)

LINESTRING (485.641885 140.043251, 457.799361 111.578595)

LINESTRING (485.641885 140.043251, 482.481005 108.077231)

LINESTRING (485.641885 140.043251, 514.134867 147.820129)

LINESTRING (485.641885 140.043251, 500.251349 115.839273)

LINESTRING (485.641885 140.043251, 477.221957 105.438608)

LINESTRING (485.641885 140.043251, 520.529064 124.545768)

LINESTRING (485.641885 140.043251, 453.138059 109.784351)

LINESTRING (507.428349 142.620888, 464.847955 133.596563)

LINESTRING (507.428349 142.620888, 490.093162 129.326773)

LINESTRING (507.428349 142.620888, 502.052974 172.401843)

LINESTRING (507.428349 142.620888, 489.624990 130.722040)

LINESTRING (507.428349 142.620888, 469.635555 147.974019)

LINESTRING (507.428349 142.620888, 473.587498 175.628869)

LINESTRING (507.428349 142.620888, 459.430592 130.447092)

LINESTRING (507.428349 142.620888, 491.489147 146.270794)

LINESTRING (507.428349 142.620888, 491.966646 147.823736)

LINESTRING (507.428349 142.620888, 506.011652 127.144305)

LINESTRING (507.428349 142.620888, 457.799361 111.578595)

LINESTRING (507.428349 142.620888, 482.481005 108.077231)

LINESTRING (507.428349 142.620888, 500.251349 115.839273)

LINESTRING (507.428349 142.620888, 477.221957 105.438608)

LINESTRING (507.428349 142.620888, 520.529064 124.545768)

LINESTRING (527.499017 138.579233, 513.640361 176.674283)

LINESTRING (527.499017 138.579233, 464.847955 133.596563)

LINESTRING (527.499017 138.579233, 490.093162 129.326773)

LINESTRING (527.499017 138.579233, 502.052974 172.401843)

LINESTRING (527.499017 138.579233, 451.206664 105.860440)

LINESTRING (527.499017 138.579233, 466.246854 100.552962)

LINESTRING (527.499017 138.579233, 482.044097 131.995785)

LINESTRING (527.499017 138.579233, 495.857772 170.168870)

LINESTRING (527.499017 138.579233, 516.487345 111.055891)

LINESTRING (527.499017 138.579233, 489.624990 130.722040)

LINESTRING (527.499017 138.579233, 469.635555 147.974019)

LINESTRING (527.499017 138.579233, 473.587498 175.628869)

LINESTRING (527.499017 138.579233, 459.430592 130.447092)

LINESTRING (527.499017 138.579233, 524.664863 103.015849)

LINESTRING (527.499017 138.579233, 491.966646 147.823736)

LINESTRING (527.499017 138.579233, 506.011652 127.144305)

LINESTRING (527.499017 138.579233, 457.799361 111.578595)

LINESTRING (527.499017 138.579233, 514.134867 147.820129)

LINESTRING (527.499017 138.579233, 500.251349 115.839273)

LINESTRING (527.499017 138.579233, 477.221957 105.438608)

LINESTRING (527.499017 138.579233, 460.358672 110.130019)

LINESTRING (513.640361 176.674283, 502.052974 172.401843)

LINESTRING (513.640361 176.674283, 451.206664 105.860440)

LINESTRING (513.640361 176.674283, 466.246854 100.552962)

LINESTRING (513.640361 176.674283, 482.044097 131.995785)

LINESTRING (513.640361 176.674283, 516.487345 111.055891)

LINESTRING (513.640361 176.674283, 476.969249 136.683286)

LINESTRING (513.640361 176.674283, 489.624990 130.722040)

LINESTRING (513.640361 176.674283, 473.587498 175.628869)

LINESTRING (513.640361 176.674283, 524.664863 103.015849)

LINESTRING (513.640361 176.674283, 472.969460 174.347452)

LINESTRING (513.640361 176.674283, 491.489147 146.270794)

LINESTRING (513.640361 176.674283, 458.570558 167.939324)

LINESTRING (513.640361 176.674283, 482.481005 108.077231)

LINESTRING (513.640361 176.674283, 514.134867 147.820129)

LINESTRING (513.640361 176.674283, 520.529064 124.545768)

LINESTRING (513.640361 176.674283, 460.358672 110.130019)

LINESTRING (513.640361 176.674283, 453.138059 109.784351)

LINESTRING (464.847955 133.596563, 490.093162 129.326773)

LINESTRING (464.847955 133.596563, 466.246854 100.552962)

LINESTRING (464.847955 133.596563, 482.044097 131.995785)

LINESTRING (464.847955 133.596563, 476.969249 136.683286)

LINESTRING (464.847955 133.596563, 489.624990 130.722040)

LINESTRING (464.847955 133.596563, 467.829054 177.224215)

LINESTRING (464.847955 133.596563, 469.635555 147.974019)

LINESTRING (464.847955 133.596563, 506.011652 127.144305)

LINESTRING (464.847955 133.596563, 457.799361 111.578595)

LINESTRING (464.847955 133.596563, 500.251349 115.839273)

LINESTRING (464.847955 133.596563, 477.221957 105.438608)

LINESTRING (464.847955 133.596563, 520.529064 124.545768)

LINESTRING (464.847955 133.596563, 460.358672 110.130019)

LINESTRING (464.847955 133.596563, 453.138059 109.784351)

LINESTRING (490.093162 129.326773, 502.052974 172.401843)

LINESTRING (490.093162 129.326773, 466.246854 100.552962)

LINESTRING (490.093162 129.326773, 495.857772 170.168870)

LINESTRING (490.093162 129.326773, 473.587498 175.628869)

LINESTRING (490.093162 129.326773, 524.664863 103.015849)

LINESTRING (490.093162 129.326773, 472.969460 174.347452)

LINESTRING (490.093162 129.326773, 491.489147 146.270794)

LINESTRING (490.093162 129.326773, 491.966646 147.823736)

LINESTRING (490.093162 129.326773, 458.570558 167.939324)

LINESTRING (490.093162 129.326773, 506.011652 127.144305)

LINESTRING (490.093162 129.326773, 482.481005 108.077231)

LINESTRING (490.093162 129.326773, 477.221957 105.438608)

LINESTRING (490.093162 129.326773, 460.358672 110.130019)

LINESTRING (502.052974 172.401843, 482.044097 131.995785)

LINESTRING (502.052974 172.401843, 476.969249 136.683286)

LINESTRING (502.052974 172.401843, 489.624990 130.722040)

LINESTRING (502.052974 172.401843, 469.635555 147.974019)

LINESTRING (502.052974 172.401843, 459.430592 130.447092)

LINESTRING (502.052974 172.401843, 524.664863 103.015849)

LINESTRING (502.052974 172.401843, 472.969460 174.347452)

LINESTRING (502.052974 172.401843, 491.966646 147.823736)

LINESTRING (502.052974 172.401843, 458.570558 167.939324)

LINESTRING (502.052974 172.401843, 506.011652 127.144305)

LINESTRING (502.052974 172.401843, 482.481005 108.077231)

LINESTRING (502.052974 172.401843, 520.529064 124.545768)

LINESTRING (502.052974 172.401843, 453.138059 109.784351)

LINESTRING (451.206664 105.860440, 466.246854 100.552962)

LINESTRING (451.206664 105.860440, 495.857772 170.168870)

LINESTRING (451.206664 105.860440, 516.487345 111.055891)

LINESTRING (451.206664 105.860440, 476.969249 136.683286)

LINESTRING (451.206664 105.860440, 467.829054 177.224215)

LINESTRING (451.206664 105.860440, 469.635555 147.974019)

LINESTRING (451.206664 105.860440, 473.587498 175.628869)

LINESTRING (451.206664 105.860440, 459.430592 130.447092)

LINESTRING (451.206664 105.860440, 524.664863 103.015849)

LINESTRING (451.206664 105.860440, 491.489147 146.270794)

LINESTRING (451.206664 105.860440, 491.966646 147.823736)

LINESTRING (451.206664 105.860440, 458.570558 167.939324)

LINESTRING (451.206664 105.860440, 506.011652 127.144305)

LINESTRING (451.206664 105.860440, 482.481005 108.077231)

LINESTRING (451.206664 105.860440, 514.134867 147.820129)

LINESTRING (451.206664 105.860440, 500.251349 115.839273)

LINESTRING (451.206664 105.860440, 477.221957 105.438608)

LINESTRING (451.206664 105.860440, 460.358672 110.130019)

LINESTRING (466.246854 100.552962, 482.044097 131.995785)

LINESTRING (466.246854 100.552962, 516.487345 111.055891)

LINESTRING (466.246854 100.552962, 476.969249 136.683286)

LINESTRING (466.246854 100.552962, 467.829054 177.224215)

LINESTRING (466.246854 100.552962, 473.587498 175.628869)

LINESTRING (466.246854 100.552962, 459.430592 130.447092)

LINESTRING (466.246854 100.552962, 491.489147 146.270794)

LINESTRING (466.246854 100.552962, 491.966646 147.823736)

LINESTRING (466.246854 100.552962, 458.570558 167.939324)

LINESTRING (466.246854 100.552962, 506.011652 127.144305)

LINESTRING (466.246854 100.552962, 457.799361 111.578595)

LINESTRING (466.246854 100.552962, 482.481005 108.077231)

LINESTRING (466.246854 100.552962, 514.134867 147.820129)

LINESTRING (466.246854 100.552962, 500.251349 115.839273)

LINESTRING (466.246854 100.552962, 477.221957 105.438608)

LINESTRING (466.246854 100.552962, 520.529064 124.545768)

LINESTRING (466.246854 100.552962, 460.358672 110.130019)

LINESTRING (482.044097 131.995785, 495.857772 170.168870)

LINESTRING (482.044097 131.995785, 516.487345 111.055891)

LINESTRING (482.044097 131.995785, 467.829054 177.224215)

LINESTRING (482.044097 131.995785, 469.635555 147.974019)

LINESTRING (482.044097 131.995785, 524.664863 103.015849)

LINESTRING (482.044097 131.995785, 472.969460 174.347452)

LINESTRING (482.044097 131.995785, 491.489147 146.270794)

LINESTRING (482.044097 131.995785, 458.570558 167.939324)

LINESTRING (482.044097 131.995785, 506.011652 127.144305)

LINESTRING (482.044097 131.995785, 457.799361 111.578595)

LINESTRING (482.044097 131.995785, 482.481005 108.077231)

LINESTRING (482.044097 131.995785, 514.134867 147.820129)

LINESTRING (482.044097 131.995785, 500.251349 115.839273)

LINESTRING (482.044097 131.995785, 477.221957 105.438608)

LINESTRING (482.044097 131.995785, 453.138059 109.784351)

LINESTRING (495.857772 170.168870, 489.624990 130.722040)

LINESTRING (495.857772 170.168870, 467.829054 177.224215)

LINESTRING (495.857772 170.168870, 524.664863 103.015849)

LINESTRING (495.857772 170.168870, 491.489147 146.270794)

LINESTRING (495.857772 170.168870, 458.570558 167.939324)

LINESTRING (495.857772 170.168870, 457.799361 111.578595)

LINESTRING (495.857772 170.168870, 482.481005 108.077231)

LINESTRING (495.857772 170.168870, 514.134867 147.820129)

LINESTRING (495.857772 170.168870, 500.251349 115.839273)

LINESTRING (495.857772 170.168870, 477.221957 105.438608)

LINESTRING (495.857772 170.168870, 520.529064 124.545768)

LINESTRING (495.857772 170.168870, 460.358672 110.130019)

LINESTRING (495.857772 170.168870, 453.138059 109.784351)

LINESTRING (516.487345 111.055891, 476.969249 136.683286)

LINESTRING (516.487345 111.055891, 489.624990 130.722040)

LINESTRING (516.487345 111.055891, 467.829054 177.224215)

LINESTRING (516.487345 111.055891, 473.587498 175.628869)

LINESTRING (516.487345 111.055891, 459.430592 130.447092)

LINESTRING (516.487345 111.055891, 524.664863 103.015849)

LINESTRING (516.487345 111.055891, 472.969460 174.347452)

LINESTRING (516.487345 111.055891, 491.489147 146.270794)

LINESTRING (516.487345 111.055891, 491.966646 147.823736)

LINESTRING (516.487345 111.055891, 514.134867 147.820129)

LINESTRING (516.487345 111.055891, 500.251349 115.839273)

LINESTRING (516.487345 111.055891, 477.221957 105.438608)

LINESTRING (516.487345 111.055891, 460.358672 110.130019)

LINESTRING (516.487345 111.055891, 453.138059 109.784351)

LINESTRING (476.969249 136.683286, 467.829054 177.224215)

LINESTRING (476.969249 136.683286, 459.430592 130.447092)

LINESTRING (476.969249 136.683286, 524.664863 103.015849)

LINESTRING (476.969249 136.683286, 472.969460 174.347452)

LINESTRING (476.969249 136.683286, 491.489147 146.270794)

LINESTRING (476.969249 136.683286, 491.966646 147.823736)

LINESTRING (476.969249 136.683286, 457.799361 111.578595)

LINESTRING (476.969249 136.683286, 482.481005 108.077231)

LINESTRING (476.969249 136.683286, 500.251349 115.839273)

LINESTRING (476.969249 136.683286, 477.221957 105.438608)

LINESTRING (476.969249 136.683286, 520.529064 124.545768)

LINESTRING (476.969249 136.683286, 453.138059 109.784351)

LINESTRING (489.624990 130.722040, 467.829054 177.224215)

LINESTRING (489.624990 130.722040, 469.635555 147.974019)

LINESTRING (489.624990 130.722040, 473.587498 175.628869)

LINESTRING (489.624990 130.722040, 472.969460 174.347452)

LINESTRING (489.624990 130.722040, 491.489147 146.270794)

LINESTRING (489.624990 130.722040, 491.966646 147.823736)

LINESTRING (489.624990 130.722040, 457.799361 111.578595)

LINESTRING (489.624990 130.722040, 514.134867 147.820129)

LINESTRING (489.624990 130.722040, 477.221957 105.438608)

LINESTRING (489.624990 130.722040, 520.529064 124.545768)

LINESTRING (489.624990 130.722040, 453.138059 109.784351)

LINESTRING (467.829054 177.224215, 469.635555 147.974019)

LINESTRING (467.829054 177.224215, 473.587498 175.628869)

LINESTRING (467.829054 177.224215, 459.430592 130.447092)

LINESTRING (467.829054 177.224215, 524.664863 103.015849)

LINESTRING (467.829054 177.224215, 472.969460 174.347452)

LINESTRING (467.829054 177.224215, 491.966646 147.823736)

LINESTRING (467.829054 177.224215, 458.570558 167.939324)

LINESTRING (467.829054 177.224215, 482.481005 108.077231)

LINESTRING (467.829054 177.224215, 514.134867 147.820129)

LINESTRING (467.829054 177.224215, 520.529064 124.545768)

LINESTRING (467.829054 177.224215, 460.358672 110.130019)

LINESTRING (467.829054 177.224215, 453.138059 109.784351)

LINESTRING (469.635555 147.974019, 459.430592 130.447092)

LINESTRING (469.635555 147.974019, 524.664863 103.015849)

LINESTRING (469.635555 147.974019, 472.969460 174.347452)

LINESTRING (469.635555 147.974019, 491.489147 146.270794)

LINESTRING (469.635555 147.974019, 491.966646 147.823736)

LINESTRING (469.635555 147.974019, 458.570558 167.939324)

LINESTRING (469.635555 147.974019, 506.011652 127.144305)

LINESTRING (469.635555 147.974019, 457.799361 111.578595)

LINESTRING (469.635555 147.974019, 482.481005 108.077231)

LINESTRING (469.635555 147.974019, 500.251349 115.839273)

LINESTRING (469.635555 147.974019, 477.221957 105.438608)

LINESTRING (473.587498 175.628869, 459.430592 130.447092)

LINESTRING (473.587498 175.628869, 472.969460 174.347452)

LINESTRING (473.587498 175.628869, 491.489147 146.270794)

LINESTRING (473.587498 175.628869, 491.966646 147.823736)

LINESTRING (473.587498 175.628869, 506.011652 127.144305)

LINESTRING (473.587498 175.628869, 457.799361 111.578595)

LINESTRING (473.587498 175.628869, 482.481005 108.077231)

LINESTRING (473.587498 175.628869, 514.134867 147.820129)

LINESTRING (473.587498 175.628869, 500.251349 115.839273)

LINESTRING (473.587498 175.628869, 460.358672 110.130019)

LINESTRING (473.587498 175.628869, 453.138059 109.784351)

LINESTRING (459.430592 130.447092, 491.489147 146.270794)

LINESTRING (459.430592 130.447092, 491.966646 147.823736)

LINESTRING (459.430592 130.447092, 457.799361 111.578595)

LINESTRING (459.430592 130.447092, 482.481005 108.077231)

LINESTRING (459.430592 130.447092, 514.134867 147.820129)

LINESTRING (459.430592 130.447092, 500.251349 115.839273)

LINESTRING (459.430592 130.447092, 477.221957 105.438608)

LINESTRING (459.430592 130.447092, 520.529064 124.545768)

LINESTRING (524.664863 103.015849, 472.969460 174.347452)

LINESTRING (524.664863 103.015849, 491.489147 146.270794)

LINESTRING (524.664863 103.015849, 491.966646 147.823736)

LINESTRING (524.664863 103.015849, 506.011652 127.144305)

LINESTRING (524.664863 103.015849, 457.799361 111.578595)

LINESTRING (524.664863 103.015849, 482.481005 108.077231)

LINESTRING (524.664863 103.015849, 514.134867 147.820129)

LINESTRING (524.664863 103.015849, 500.251349 115.839273)

LINESTRING (524.664863 103.015849, 477.221957 105.438608)

LINESTRING (524.664863 103.015849, 520.529064 124.545768)

LINESTRING (524.664863 103.015849, 453.138059 109.784351)

LINESTRING (472.969460 174.347452, 458.570558 167.939324)

LINESTRING (472.969460 174.347452, 506.011652 127.144305)

LINESTRING (472.969460 174.347452, 457.799361 111.578595)

LINESTRING (472.969460 174.347452, 482.481005 108.077231)

LINESTRING (472.969460 174.347452, 514.134867 147.820129)

LINESTRING (472.969460 174.347452, 460.358672 110.130019)

LINESTRING (472.969460 174.347452, 453.138059 109.784351)

LINESTRING (491.489147 146.270794, 491.966646 147.823736)

LINESTRING (491.489147 146.270794, 458.570558 167.939324)

LINESTRING (491.489147 146.270794, 457.799361 111.578595)

LINESTRING (491.489147 146.270794, 482.481005 108.077231)

LINESTRING (491.489147 146.270794, 514.134867 147.820129)

LINESTRING (491.489147 146.270794, 500.251349 115.839273)

LINESTRING (491.489147 146.270794, 460.358672 110.130019)

LINESTRING (491.489147 146.270794, 453.138059 109.784351)

LINESTRING (491.966646 147.823736, 458.570558 167.939324)

LINESTRING (491.966646 147.823736, 457.799361 111.578595)

LINESTRING (491.966646 147.823736, 482.481005 108.077231)

LINESTRING (491.966646 147.823736, 477.221957 105.438608)

LINESTRING (491.966646 147.823736, 520.529064 124.545768)

LINESTRING (491.966646 147.823736, 460.358672 110.130019)

LINESTRING (491.966646 147.823736, 453.138059 109.784351)

LINESTRING (458.570558 167.939324, 514.134867 147.820129)

LINESTRING (458.570558 167.939324, 477.221957 105.438608)

LINESTRING (458.570558 167.939324, 520.529064 124.545768)

LINESTRING (506.011652 127.144305, 457.799361 111.578595)

LINESTRING (506.011652 127.144305, 514.134867 147.820129)

LINESTRING (506.011652 127.144305, 500.251349 115.839273)

LINESTRING (506.011652 127.144305, 477.221957 105.438608)

LINESTRING (506.011652 127.144305, 520.529064 124.545768)

LINESTRING (506.011652 127.144305, 453.138059 109.784351)

LINESTRING (457.799361 111.578595, 482.481005 108.077231)

LINESTRING (457.799361 111.578595, 500.251349 115.839273)

LINESTRING (457.799361 111.578595, 477.221957 105.438608)

LINESTRING (457.799361 111.578595, 520.529064 124.545768)

LINESTRING (457.799361 111.578595, 453.138059 109.784351)

LINESTRING (482.481005 108.077231, 514.134867 147.820129)

LINESTRING (514.134867 147.820129, 500.251349 115.839273)

LINESTRING (514.134867 147.820129, 520.529064 124.545768)

LINESTRING (514.134867 147.820129, 460.358672 110.130019)

LINESTRING (500.251349 115.839273, 477.221957 105.438608)

LINESTRING (500.251349 115.839273, 520.529064 124.545768)

LINESTRING (500.251349 115.839273, 453.138059 109.784351)

LINESTRING (477.221957 105.438608, 520.529064 124.545768)

LINESTRING (477.221957 105.438608, 460.358672 110.130019)

LINESTRING (520.529064 124.545768, 460.358672 110.130019)

LINESTRING (520.529064 124.545768, 453.138059 109.784351)

LINESTRING (810.253266 127.852366, 832.838721 153.737932)

LINESTRING (810.253266 127.852366, 828.633010 152.706587)

LINESTRING (810.253266 127.852366, 845.311759 171.466760)

LINESTRING (810.253266 127.852366, 838.049140 112.278744)

LINESTRING (810.253266 127.852366, 847.828160 173.684977)

LINESTRING (810.253266 127.852366, 858.123891 147.711052)

LINESTRING (810.253266 127.852366, 827.887835 167.049317)

LINESTRING (810.253266 127.852366, 875.522828 175.873967)

LINESTRING (810.253266 127.852366, 877.188013 101.188361)

LINESTRING (810.253266 127.852366, 858.145753 123.808245)

LINESTRING (810.253266 127.852366, 868.589475 173.058826)

LINESTRING (810.253266 127.852366, 851.765624 174.849599)

LINESTRING (810.253266 127.852366, 814.102737 145.375258)

LINESTRING (810.253266 127.852366, 800.167977 161.033941)

LINESTRING (810.253266 127.852366, 867.722550 128.401468)

LINESTRING (810.253266 127.852366, 831.822601 169.411710)

LINESTRING (810.253266 127.852366, 812.316008 120.538135)

LINESTRING (810.253266 127.852366, 834.062722 172.241788)

LINESTRING (810.253266 127.852366, 853.082960 155.057188)

LINESTRING (810.253266 127.852366, 805.099965 160.631592)

LINESTRING (810.253266 127.852366, 829.515210 135.620806)

LINESTRING (810.253266 127.852366, 818.632212 176.473338)

LINESTRING (810.253266 127.852366, 832.476603 150.080220)

LINESTRING (832.838721 153.737932, 811.713578 178.692952)

LINESTRING (832.838721 153.737932, 828.633010 152.706587)

LINESTRING (832.838721 153.737932, 838.049140 112.278744)

LINESTRING (832.838721 153.737932, 847.828160 173.684977)

LINESTRING (832.838721 153.737932, 858.123891 147.711052)

LINESTRING (832.838721 153.737932, 847.166789 125.653054)

LINESTRING (832.838721 153.737932, 827.556047 122.324207)

LINESTRING (832.838721 153.737932, 827.887835 167.049317)

LINESTRING (832.838721 153.737932, 877.527261 169.457246)

LINESTRING (832.838721 153.737932, 875.522828 175.873967)

LINESTRING (832.838721 153.737932, 858.145753 123.808245)

LINESTRING (832.838721 153.737932, 875.094857 177.089445)

LINESTRING (832.838721 153.737932, 802.842269 111.806246)

LINESTRING (832.838721 153.737932, 809.293439 106.641744)

LINESTRING (832.838721 153.737932, 814.102737 145.375258)

LINESTRING (832.838721 153.737932, 800.167977 161.033941)

LINESTRING (832.838721 153.737932, 864.774989 173.954698)

LINESTRING (832.838721 153.737932, 867.722550 128.401468)

LINESTRING (832.838721 153.737932, 812.316008 120.538135)

LINESTRING (832.838721 153.737932, 844.909083 143.693270)

LINESTRING (832.838721 153.737932, 817.490608 156.582196)

LINESTRING (832.838721 153.737932, 853.082960 155.057188)

LINESTRING (832.838721 153.737932, 805.099965 160.631592)

LINESTRING (832.838721 153.737932, 829.515210 135.620806)

LINESTRING (832.838721 153.737932, 851.127208 161.407420)

LINESTRING (832.838721 153.737932, 818.632212 176.473338)

LINESTRING (832.838721 153.737932, 837.652403 111.902048)

LINESTRING (811.713578 178.692952, 828.633010 152.706587)

LINESTRING (811.713578 178.692952, 845.311759 171.466760)

LINESTRING (811.713578 178.692952, 847.828160 173.684977)

LINESTRING (811.713578 178.692952, 858.123891 147.711052)

LINESTRING (811.713578 178.692952, 827.556047 122.324207)

LINESTRING (811.713578 178.692952, 827.887835 167.049317)

LINESTRING (811.713578 178.692952, 877.527261 169.457246)

LINESTRING (811.713578 178.692952, 875.522828 175.873967)

LINESTRING (811.713578 178.692952, 877.188013 101.188361)

LINESTRING (811.713578 178.692952, 823.162407 179.383527)

LINESTRING (811.713578 178.692952, 875.094857 177.089445)

LINESTRING (811.713578 178.692952, 802.842269 111.806246)

LINESTRING (811.713578 178.692952, 809.293439 106.641744)

LINESTRING (811.713578 178.692952, 814.102737 145.375258)

LINESTRING (811.713578 178.692952, 800.167977 161.033941)

LINESTRING (811.713578 178.692952, 831.822601 169.411710)

LINESTRING (811.713578 178.692952, 812.316008 120.538135)

LINESTRING (811.713578 178.692952, 844.909083 143.693270)

LINESTRING (811.713578 178.692952, 817.490608 156.582196)

LINESTRING (811.713578 178.692952, 811.390233 140.359620)

LINESTRING (811.713578 178.692952, 834.062722 172.241788)

LINESTRING (811.713578 178.692952, 870.686512 117.600097)

LINESTRING (811.713578 178.692952, 851.127208 161.407420)

LINESTRING (828.633010 152.706587, 838.049140 112.278744)

LINESTRING (828.633010 152.706587, 847.828160 173.684977)

LINESTRING (828.633010 152.706587, 827.556047 122.324207)

LINESTRING (828.633010 152.706587, 877.527261 169.457246)

LINESTRING (828.633010 152.706587, 877.188013 101.188361)

LINESTRING (828.633010 152.706587, 868.589475 173.058826)

LINESTRING (828.633010 152.706587, 809.293439 106.641744)

LINESTRING (828.633010 152.706587, 814.102737 145.375258)

LINESTRING (828.633010 152.706587, 800.167977 161.033941)

LINESTRING (828.633010 152.706587, 864.774989 173.954698)

LINESTRING (828.633010 152.706587, 867.722550 128.401468)

LINESTRING (828.633010 152.706587, 812.316008 120.538135)

LINESTRING (828.633010 152.706587, 845.103852 166.542833)

LINESTRING (828.633010 152.706587, 811.390233 140.359620)

LINESTRING (828.633010 152.706587, 834.062722 172.241788)

LINESTRING (828.633010 152.706587, 805.099965 160.631592)

LINESTRING (828.633010 152.706587, 870.686512 117.600097)

LINESTRING (828.633010 152.706587, 851.127208 161.407420)

LINESTRING (828.633010 152.706587, 832.476603 150.080220)

LINESTRING (845.311759 171.466760, 858.123891 147.711052)

LINESTRING (845.311759 171.466760, 827.556047 122.324207)

LINESTRING (845.311759 171.466760, 827.887835 167.049317)

LINESTRING (845.311759 171.466760, 877.527261 169.457246)

LINESTRING (845.311759 171.466760, 877.188013 101.188361)

LINESTRING (845.311759 171.466760, 823.162407 179.383527)

LINESTRING (845.311759 171.466760, 858.145753 123.808245)

LINESTRING (845.311759 171.466760, 868.589475 173.058826)

LINESTRING (845.311759 171.466760, 851.765624 174.849599)

LINESTRING (845.311759 171.466760, 875.094857 177.089445)

LINESTRING (845.311759 171.466760, 802.842269 111.806246)

LINESTRING (845.311759 171.466760, 809.293439 106.641744)

LINESTRING (845.311759 171.466760, 800.167977 161.033941)

LINESTRING (845.311759 171.466760, 864.774989 173.954698)

LINESTRING (845.311759 171.466760, 867.722550 128.401468)

LINESTRING (845.311759 171.466760, 831.822601 169.411710)

LINESTRING (845.311759 171.466760, 812.316008 120.538135)

LINESTRING (845.311759 171.466760, 845.103852 166.542833)

LINESTRING (845.311759 171.466760, 811.390233 140.359620)

LINESTRING (845.311759 171.466760, 834.062722 172.241788)

LINESTRING (845.311759 171.466760, 805.099965 160.631592)

LINESTRING (845.311759 171.466760, 870.686512 117.600097)

LINESTRING (845.311759 171.466760, 818.632212 176.473338)

LINESTRING (845.311759 171.466760, 837.652403 111.902048)

LINESTRING (845.311759 171.466760, 832.476603 150.080220)

LINESTRING (838.049140 112.278744, 858.123891 147.711052)

LINESTRING (838.049140 112.278744, 827.887835 167.049317)

LINESTRING (838.049140 112.278744, 877.527261 169.457246)

LINESTRING (838.049140 112.278744, 875.522828 175.873967)

LINESTRING (838.049140 112.278744, 877.188013 101.188361)

LINESTRING (838.049140 112.278744, 868.589475 173.058826)

LINESTRING (838.049140 112.278744, 851.765624 174.849599)

LINESTRING (838.049140 112.278744, 875.094857 177.089445)

LINESTRING (838.049140 112.278744, 800.167977 161.033941)

LINESTRING (838.049140 112.278744, 864.774989 173.954698)

LINESTRING (838.049140 112.278744, 831.822601 169.411710)

LINESTRING (838.049140 112.278744, 812.316008 120.538135)

LINESTRING (838.049140 112.278744, 845.103852 166.542833)

LINESTRING (838.049140 112.278744, 817.490608 156.582196)

LINESTRING (838.049140 112.278744, 811.390233 140.359620)

LINESTRING (838.049140 112.278744, 805.099965 160.631592)

LINESTRING (838.049140 112.278744, 851.127208 161.407420)

LINESTRING (838.049140 112.278744, 837.652403 111.902048)

LINESTRING (838.049140 112.278744, 832.476603 150.080220)

LINESTRING (847.828160 173.684977, 847.166789 125.653054)

LINESTRING (847.828160 173.684977, 827.556047 122.324207)

LINESTRING (847.828160 173.684977, 827.887835 167.049317)

LINESTRING (847.828160 173.684977, 868.589475 173.058826)

LINESTRING (847.828160 173.684977, 809.293439 106.641744)

LINESTRING (847.828160 173.684977, 814.102737 145.375258)

LINESTRING (847.828160 173.684977, 800.167977 161.033941)

LINESTRING (847.828160 173.684977, 864.774989 173.954698)

LINESTRING (847.828160 173.684977, 831.822601 169.411710)

LINESTRING (847.828160 173.684977, 812.316008 120.538135)

LINESTRING (847.828160 173.684977, 844.909083 143.693270)

LINESTRING (847.828160 173.684977, 853.082960 155.057188)

LINESTRING (847.828160 173.684977, 805.099965 160.631592)

LINESTRING (847.828160 173.684977, 837.652403 111.902048)

LINESTRING (858.123891 147.711052, 827.556047 122.324207)

LINESTRING (858.123891 147.711052, 827.887835 167.049317)

LINESTRING (858.123891 147.711052, 877.527261 169.457246)

LINESTRING (858.123891 147.711052, 875.522828 175.873967)

LINESTRING (858.123891 147.711052, 877.188013 101.188361)

LINESTRING (858.123891 147.711052, 823.162407 179.383527)

LINESTRING (858.123891 147.711052, 858.145753 123.808245)

LINESTRING (858.123891 147.711052, 851.765624 174.849599)

LINESTRING (858.123891 147.711052, 875.094857 177.089445)

LINESTRING (858.123891 147.711052, 802.842269 111.806246)

LINESTRING (858.123891 147.711052, 809.293439 106.641744)

LINESTRING (858.123891 147.711052, 864.774989 173.954698)

LINESTRING (858.123891 147.711052, 845.103852 166.542833)

LINESTRING (858.123891 147.711052, 844.909083 143.693270)

LINESTRING (858.123891 147.711052, 817.490608 156.582196)

LINESTRING (858.123891 147.711052, 811.390233 140.359620)

LINESTRING (858.123891 147.711052, 834.062722 172.241788)

LINESTRING (858.123891 147.711052, 853.082960 155.057188)

LINESTRING (858.123891 147.711052, 805.099965 160.631592)

LINESTRING (858.123891 147.711052, 829.515210 135.620806)

LINESTRING (858.123891 147.711052, 851.127208 161.407420)

LINESTRING (858.123891 147.711052, 818.632212 176.473338)

LINESTRING (847.166789 125.653054, 827.556047 122.324207)

LINESTRING (847.166789 125.653054, 827.887835 167.049317)

LINESTRING (847.166789 125.653054, 877.527261 169.457246)

LINESTRING (847.166789 125.653054, 877.188013 101.188361)

LINESTRING (847.166789 125.653054, 823.162407 179.383527)

LINESTRING (847.166789 125.653054, 868.589475 173.058826)

LINESTRING (847.166789 125.653054, 851.765624 174.849599)

LINESTRING (847.166789 125.653054, 875.094857 177.089445)

LINESTRING (847.166789 125.653054, 809.293439 106.641744)

LINESTRING (847.166789 125.653054, 814.102737 145.375258)

LINESTRING (847.166789 125.653054, 800.167977 161.033941)

LINESTRING (847.166789 125.653054, 864.774989 173.954698)

LINESTRING (847.166789 125.653054, 817.490608 156.582196)

LINESTRING (847.166789 125.653054, 811.390233 140.359620)

LINESTRING (847.166789 125.653054, 834.062722 172.241788)

LINESTRING (847.166789 125.653054, 853.082960 155.057188)

LINESTRING (847.166789 125.653054, 870.686512 117.600097)

LINESTRING (847.166789 125.653054, 829.515210 135.620806)

LINESTRING (847.166789 125.653054, 851.127208 161.407420)

LINESTRING (847.166789 125.653054, 837.652403 111.902048)

LINESTRING (847.166789 125.653054, 832.476603 150.080220)

LINESTRING (827.556047 122.324207, 827.887835 167.049317)

LINESTRING (827.556047 122.324207, 877.527261 169.457246)

LINESTRING (827.556047 122.324207, 877.188013 101.188361)

LINESTRING (827.556047 122.324207, 823.162407 179.383527)

LINESTRING (827.556047 122.324207, 858.145753 123.808245)

LINESTRING (827.556047 122.324207, 868.589475 173.058826)

LINESTRING (827.556047 122.324207, 802.842269 111.806246)

LINESTRING (827.556047 122.324207, 809.293439 106.641744)

LINESTRING (827.556047 122.324207, 867.722550 128.401468)

LINESTRING (827.556047 122.324207, 812.316008 120.538135)

LINESTRING (827.556047 122.324207, 817.490608 156.582196)

LINESTRING (827.556047 122.324207, 811.390233 140.359620)

LINESTRING (827.556047 122.324207, 853.082960 155.057188)

LINESTRING (827.556047 122.324207, 805.099965 160.631592)

LINESTRING (827.556047 122.324207, 851.127208 161.407420)

LINESTRING (827.556047 122.324207, 818.632212 176.473338)

LINESTRING (827.556047 122.324207, 832.476603 150.080220)

LINESTRING (827.887835 167.049317, 875.522828 175.873967)

LINESTRING (827.887835 167.049317, 877.188013 101.188361)

LINESTRING (827.887835 167.049317, 823.162407 179.383527)

LINESTRING (827.887835 167.049317, 858.145753 123.808245)

LINESTRING (827.887835 167.049317, 868.589475 173.058826)

LINESTRING (827.887835 167.049317, 851.765624 174.849599)

LINESTRING (827.887835 167.049317, 802.842269 111.806246)

LINESTRING (827.887835 167.049317, 809.293439 106.641744)

LINESTRING (827.887835 167.049317, 814.102737 145.375258)

LINESTRING (827.887835 167.049317, 800.167977 161.033941)

LINESTRING (827.887835 167.049317, 864.774989 173.954698)

LINESTRING (827.887835 167.049317, 867.722550 128.401468)

LINESTRING (827.887835 167.049317, 831.822601 169.411710)

LINESTRING (827.887835 167.049317, 812.316008 120.538135)

LINESTRING (827.887835 167.049317, 845.103852 166.542833)

LINESTRING (827.887835 167.049317, 817.490608 156.582196)

LINESTRING (827.887835 167.049317, 811.390233 140.359620)

LINESTRING (827.887835 167.049317, 834.062722 172.241788)

LINESTRING (827.887835 167.049317, 853.082960 155.057188)

LINESTRING (827.887835 167.049317, 829.515210 135.620806)

LINESTRING (827.887835 167.049317, 837.652403 111.902048)

LINESTRING (877.527261 169.457246, 877.188013 101.188361)

LINESTRING (877.527261 169.457246, 868.589475 173.058826)

LINESTRING (877.527261 169.457246, 814.102737 145.375258)

LINESTRING (877.527261 169.457246, 864.774989 173.954698)

LINESTRING (877.527261 169.457246, 844.909083 143.693270)

LINESTRING (877.527261 169.457246, 834.062722 172.241788)

LINESTRING (877.527261 169.457246, 853.082960 155.057188)

LINESTRING (877.527261 169.457246, 805.099965 160.631592)

LINESTRING (877.527261 169.457246, 870.686512 117.600097)

LINESTRING (877.527261 169.457246, 829.515210 135.620806)

LINESTRING (877.527261 169.457246, 851.127208 161.407420)

LINESTRING (875.522828 175.873967, 877.188013 101.188361)

LINESTRING (875.522828 175.873967, 823.162407 179.383527)

LINESTRING (875.522828 175.873967, 868.589475 173.058826)

LINESTRING (875.522828 175.873967, 802.842269 111.806246)

LINESTRING (875.522828 175.873967, 809.293439 106.641744)

LINESTRING (875.522828 175.873967, 831.822601 169.411710)

LINESTRING (875.522828 175.873967, 812.316008 120.538135)

LINESTRING (875.522828 175.873967, 845.103852 166.542833)

LINESTRING (875.522828 175.873967, 817.490608 156.582196)

LINESTRING (875.522828 175.873967, 870.686512 117.600097)

LINESTRING (875.522828 175.873967, 829.515210 135.620806)

LINESTRING (875.522828 175.873967, 851.127208 161.407420)

LINESTRING (875.522828 175.873967, 818.632212 176.473338)

LINESTRING (875.522828 175.873967, 837.652403 111.902048)

LINESTRING (877.188013 101.188361, 868.589475 173.058826)

LINESTRING (877.188013 101.188361, 851.765624 174.849599)

LINESTRING (877.188013 101.188361, 875.094857 177.089445)

LINESTRING (877.188013 101.188361, 809.293439 106.641744)

LINESTRING (877.188013 101.188361, 814.102737 145.375258)

LINESTRING (877.188013 101.188361, 864.774989 173.954698)

LINESTRING (877.188013 101.188361, 867.722550 128.401468)

LINESTRING (877.188013 101.188361, 831.822601 169.411710)

LINESTRING (877.188013 101.188361, 812.316008 120.538135)

LINESTRING (877.188013 101.188361, 811.390233 140.359620)

LINESTRING (877.188013 101.188361, 834.062722 172.241788)

LINESTRING (877.188013 101.188361, 805.099965 160.631592)

LINESTRING (877.188013 101.188361, 829.515210 135.620806)

LINESTRING (877.188013 101.188361, 818.632212 176.473338)

LINESTRING (877.188013 101.188361, 837.652403 111.902048)

LINESTRING (877.188013 101.188361, 832.476603 150.080220)

LINESTRING (823.162407 179.383527, 868.589475 173.058826)

LINESTRING (823.162407 179.383527, 851.765624 174.849599)

LINESTRING (823.162407 179.383527, 875.094857 177.089445)

LINESTRING (823.162407 179.383527, 802.842269 111.806246)

LINESTRING (823.162407 179.383527, 809.293439 106.641744)

LINESTRING (823.162407 179.383527, 814.102737 145.375258)

LINESTRING (823.162407 179.383527, 800.167977 161.033941)

LINESTRING (823.162407 179.383527, 867.722550 128.401468)

LINESTRING (823.162407 179.383527, 831.822601 169.411710)

LINESTRING (823.162407 179.383527, 812.316008 120.538135)

LINESTRING (823.162407 179.383527, 844.909083 143.693270)

LINESTRING (823.162407 179.383527, 811.390233 140.359620)

LINESTRING (823.162407 179.383527, 805.099965 160.631592)

LINESTRING (823.162407 179.383527, 851.127208 161.407420)

LINESTRING (823.162407 179.383527, 837.652403 111.902048)

LINESTRING (858.145753 123.808245, 809.293439 106.641744)

LINESTRING (858.145753 123.808245, 814.102737 145.375258)

LINESTRING (858.145753 123.808245, 864.774989 173.954698)

LINESTRING (858.145753 123.808245, 867.722550 128.401468)

LINESTRING (858.145753 123.808245, 831.822601 169.411710)

LINESTRING (858.145753 123.808245, 812.316008 120.538135)

LINESTRING (858.145753 123.808245, 845.103852 166.542833)

LINESTRING (858.145753 123.808245, 844.909083 143.693270)

LINESTRING (858.145753 123.808245, 817.490608 156.582196)

LINESTRING (858.145753 123.808245, 853.082960 155.057188)

LINESTRING (858.145753 123.808245, 805.099965 160.631592)

LINESTRING (858.145753 123.808245, 870.686512 117.600097)

LINESTRING (858.145753 123.808245, 851.127208 161.407420)

LINESTRING (858.145753 123.808245, 832.476603 150.080220)

LINESTRING (868.589475 173.058826, 851.765624 174.849599)

LINESTRING (868.589475 173.058826, 809.293439 106.641744)

LINESTRING (868.589475 173.058826, 814.102737 145.375258)

LINESTRING (868.589475 173.058826, 800.167977 161.033941)

LINESTRING (868.589475 173.058826, 864.774989 173.954698)

LINESTRING (868.589475 173.058826, 867.722550 128.401468)

LINESTRING (868.589475 173.058826, 831.822601 169.411710)

LINESTRING (868.589475 173.058826, 812.316008 120.538135)

LINESTRING (868.589475 173.058826, 845.103852 166.542833)

LINESTRING (868.589475 173.058826, 844.909083 143.693270)

LINESTRING (868.589475 173.058826, 811.390233 140.359620)

LINESTRING (868.589475 173.058826, 834.062722 172.241788)

LINESTRING (868.589475 173.058826, 853.082960 155.057188)

LINESTRING (868.589475 173.058826, 870.686512 117.600097)

LINESTRING (868.589475 173.058826, 851.127208 161.407420)

LINESTRING (868.589475 173.058826, 818.632212 176.473338)

LINESTRING (868.589475 173.058826, 837.652403 111.902048)

LINESTRING (851.765624 174.849599, 809.293439 106.641744)

LINESTRING (851.765624 174.849599, 814.102737 145.375258)

LINESTRING (851.765624 174.849599, 800.167977 161.033941)

LINESTRING (851.765624 174.849599, 864.774989 173.954698)

LINESTRING (851.765624 174.849599, 844.909083 143.693270)

LINESTRING (851.765624 174.849599, 817.490608 156.582196)

LINESTRING (851.765624 174.849599, 811.390233 140.359620)

LINESTRING (851.765624 174.849599, 834.062722 172.241788)

LINESTRING (851.765624 174.849599, 853.082960 155.057188)

LINESTRING (851.765624 174.849599, 805.099965 160.631592)

LINESTRING (851.765624 174.849599, 870.686512 117.600097)

LINESTRING (851.765624 174.849599, 829.515210 135.620806)

LINESTRING (851.765624 174.849599, 851.127208 161.407420)

LINESTRING (851.765624 174.849599, 818.632212 176.473338)

LINESTRING (851.765624 174.849599, 832.476603 150.080220)

LINESTRING (875.094857 177.089445, 802.842269 111.806246)

LINESTRING (875.094857 177.089445, 814.102737 145.375258)

LINESTRING (875.094857 177.089445, 864.774989 173.954698)

LINESTRING (875.094857 177.089445, 831.822601 169.411710)

LINESTRING (875.094857 177.089445, 812.316008 120.538135)

LINESTRING (875.094857 177.089445, 844.909083 143.693270)

LINESTRING (875.094857 177.089445, 817.490608 156.582196)

LINESTRING (875.094857 177.089445, 834.062722 172.241788)

LINESTRING (875.094857 177.089445, 853.082960 155.057188)

LINESTRING (875.094857 177.089445, 805.099965 160.631592)

LINESTRING (875.094857 177.089445, 829.515210 135.620806)

LINESTRING (875.094857 177.089445, 851.127208 161.407420)

LINESTRING (875.094857 177.089445, 818.632212 176.473338)

LINESTRING (875.094857 177.089445, 837.652403 111.902048)

LINESTRING (875.094857 177.089445, 832.476603 150.080220)

LINESTRING (802.842269 111.806246, 809.293439 106.641744)

LINESTRING (802.842269 111.806246, 800.167977 161.033941)

LINESTRING (802.842269 111.806246, 864.774989 173.954698)

LINESTRING (802.842269 111.806246, 867.722550 128.401468)

LINESTRING (802.842269 111.806246, 831.822601 169.411710)

LINESTRING (802.842269 111.806246, 812.316008 120.538135)

LINESTRING (802.842269 111.806246, 845.103852 166.542833)

LINESTRING (802.842269 111.806246, 844.909083 143.693270)

LINESTRING (802.842269 111.806246, 853.082960 155.057188)

LINESTRING (802.842269 111.806246, 805.099965 160.631592)

LINESTRING (802.842269 111.806246, 829.515210 135.620806)

LINESTRING (802.842269 111.806246, 818.632212 176.473338)

LINESTRING (802.842269 111.806246, 837.652403 111.902048)

LINESTRING (802.842269 111.806246, 832.476603 150.080220)

LINESTRING (809.293439 106.641744, 814.102737 145.375258)

LINESTRING (809.293439 106.641744, 800.167977 161.033941)

LINESTRING (809.293439 106.641744, 864.774989 173.954698)

LINESTRING (809.293439 106.641744, 831.822601 169.411710)

LINESTRING (809.293439 106.641744, 812.316008 120.538135)

LINESTRING (809.293439 106.641744, 844.909083 143.693270)

LINESTRING (809.293439 106.641744, 817.490608 156.582196)

LINESTRING (809.293439 106.641744, 811.390233 140.359620)

LINESTRING (809.293439 106.641744, 805.099965 160.631592)

LINESTRING (809.293439 106.641744, 851.127208 161.407420)

LINESTRING (809.293439 106.641744, 818.632212 176.473338)

LINESTRING (814.102737 145.375258, 864.774989 173.954698)

LINESTRING (814.102737 145.375258, 867.722550 128.401468)

LINESTRING (814.102737 145.375258, 831.822601 169.411710)

LINESTRING (814.102737 145.375258, 811.390233 140.359620)

LINESTRING (814.102737 145.375258, 834.062722 172.241788)

LINESTRING (814.102737 145.375258, 853.082960 155.057188)

LINESTRING (814.102737 145.375258, 805.099965 160.631592)

LINESTRING (814.102737 145.375258, 829.515210 135.620806)

LINESTRING (814.102737 145.375258, 832.476603 150.080220)

LINESTRING (800.167977 161.033941, 831.822601 169.411710)

LINESTRING (800.167977 161.033941, 845.103852 166.542833)

LINESTRING (800.167977 161.033941, 844.909083 143.693270)

LINESTRING (800.167977 161.033941, 817.490608 156.582196)

LINESTRING (800.167977 161.033941, 853.082960 155.057188)

LINESTRING (800.167977 161.033941, 805.099965 160.631592)

LINESTRING (800.167977 161.033941, 829.515210 135.620806)

LINESTRING (800.167977 161.033941, 818.632212 176.473338)

LINESTRING (800.167977 161.033941, 837.652403 111.902048)

LINESTRING (864.774989 173.954698, 867.722550 128.401468)

LINESTRING (864.774989 173.954698, 812.316008 120.538135)

LINESTRING (864.774989 173.954698, 845.103852 166.542833)

LINESTRING (864.774989 173.954698, 844.909083 143.693270)

LINESTRING (864.774989 173.954698, 834.062722 172.241788)

LINESTRING (864.774989 173.954698, 853.082960 155.057188)

LINESTRING (864.774989 173.954698, 805.099965 160.631592)

LINESTRING (864.774989 173.954698, 870.686512 117.600097)

LINESTRING (864.774989 173.954698, 829.515210 135.620806)

LINESTRING (864.774989 173.954698, 818.632212 176.473338)

LINESTRING (864.774989 173.954698, 837.652403 111.902048)

LINESTRING (864.774989 173.954698, 832.476603 150.080220)

LINESTRING (867.722550 128.401468, 831.822601 169.411710)

LINESTRING (867.722550 128.401468, 812.316008 120.538135)

LINESTRING (867.722550 128.401468, 844.909083 143.693270)

LINESTRING (867.722550 128.401468, 834.062722 172.241788)

LINESTRING (867.722550 128.401468, 853.082960 155.057188)

LINESTRING (867.722550 128.401468, 870.686512 117.600097)

LINESTRING (867.722550 128.401468, 829.515210 135.620806)

LINESTRING (867.722550 128.401468, 851.127208 161.407420)

LINESTRING (867.722550 128.401468, 818.632212 176.473338)

LINESTRING (867.722550 128.401468, 837.652403 111.902048)

LINESTRING (867.722550 128.401468, 832.476603 150.080220)

LINESTRING (831.822601 169.411710, 812.316008 120.538135)

LINESTRING (831.822601 169.411710, 817.490608 156.582196)

LINESTRING (831.822601 169.411710, 834.062722 172.241788)

LINESTRING (831.822601 169.411710, 805.099965 160.631592)

LINESTRING (831.822601 169.411710, 870.686512 117.600097)

LINESTRING (831.822601 169.411710, 829.515210 135.620806)

LINESTRING (831.822601 169.411710, 851.127208 161.407420)

LINESTRING (831.822601 169.411710, 837.652403 111.902048)

LINESTRING (831.822601 169.411710, 832.476603 150.080220)

LINESTRING (812.316008 120.538135, 845.103852 166.542833)

LINESTRING (812.316008 120.538135, 844.909083 143.693270)

LINESTRING (812.316008 120.538135, 817.490608 156.582196)

LINESTRING (812.316008 120.538135, 834.062722 172.241788)

LINESTRING (812.316008 120.538135, 853.082960 155.057188)

LINESTRING (812.316008 120.538135, 818.632212 176.473338)

LINESTRING (812.316008 120.538135, 832.476603 150.080220)

LINESTRING (845.103852 166.542833, 844.909083 143.693270)

LINESTRING (845.103852 166.542833, 811.390233 140.359620)

LINESTRING (845.103852 166.542833, 834.062722 172.241788)

LINESTRING (845.103852 166.542833, 853.082960 155.057188)

LINESTRING (845.103852 166.542833, 870.686512 117.600097)

LINESTRING (845.103852 166.542833, 851.127208 161.407420)

LINESTRING (845.103852 166.542833, 818.632212 176.473338)

LINESTRING (845.103852 166.542833, 832.476603 150.080220)

LINESTRING (844.909083 143.693270, 817.490608 156.582196)

LINESTRING (844.909083 143.693270, 811.390233 140.359620)

LINESTRING (844.909083 143.693270, 834.062722 172.241788)

LINESTRING (844.909083 143.693270, 805.099965 160.631592)

LINESTRING (844.909083 143.693270, 818.632212 176.473338)

LINESTRING (844.909083 143.693270, 837.652403 111.902048)

LINESTRING (844.909083 143.693270, 832.476603 150.080220)

LINESTRING (817.490608 156.582196, 811.390233 140.359620)

LINESTRING (817.490608 156.582196, 834.062722 172.241788)

LINESTRING (817.490608 156.582196, 853.082960 155.057188)

LINESTRING (817.490608 156.582196, 805.099965 160.631592)

LINESTRING (817.490608 156.582196, 870.686512 117.600097)

LINESTRING (817.490608 156.582196, 851.127208 161.407420)

LINESTRING (817.490608 156.582196, 818.632212 176.473338)

LINESTRING (817.490608 156.582196, 837.652403 111.902048)

LINESTRING (817.490608 156.582196, 832.476603 150.080220)

LINESTRING (811.390233 140.359620, 834.062722 172.241788)

LINESTRING (811.390233 140.359620, 853.082960 155.057188)

LINESTRING (811.390233 140.359620, 805.099965 160.631592)

LINESTRING (811.390233 140.359620, 870.686512 117.600097)

LINESTRING (811.390233 140.359620, 829.515210 135.620806)

LINESTRING (811.390233 140.359620, 851.127208 161.407420)

LINESTRING (811.390233 140.359620, 837.652403 111.902048)

LINESTRING (834.062722 172.241788, 870.686512 117.600097)

LINESTRING (834.062722 172.241788, 851.127208 161.407420)

LINESTRING (834.062722 172.241788, 818.632212 176.473338)

LINESTRING (834.062722 172.241788, 837.652403 111.902048)

LINESTRING (834.062722 172.241788, 832.476603 150.080220)

LINESTRING (853.082960 155.057188, 851.127208 161.407420)

LINESTRING (853.082960 155.057188, 818.632212 176.473338)

LINESTRING (853.082960 155.057188, 837.652403 111.902048)

LINESTRING (805.099965 160.631592, 829.515210 135.620806)

LINESTRING (805.099965 160.631592, 851.127208 161.407420)

LINESTRING (805.099965 160.631592, 818.632212 176.473338)

LINESTRING (805.099965 160.631592, 837.652403 111.902048)

LINESTRING (870.686512 117.600097, 829.515210 135.620806)

LINESTRING (870.686512 117.600097, 851.127208 161.407420)

LINESTRING (870.686512 117.600097, 818.632212 176.473338)

LINESTRING (870.686512 117.600097, 832.476603 150.080220)

LINESTRING (829.515210 135.620806, 851.127208 161.407420)

LINESTRING (829.515210 135.620806, 818.632212 176.473338)

LINESTRING (829.515210 135.620806, 837.652403 111.902048)

LINESTRING (818.632212 176.473338, 837.652403 111.902048)

LINESTRING (818.632212 176.473338, 832.476603 150.080220)

LINESTRING (837.652403 111.902048, 832.476603 150.080220)

LINESTRING (118.479636 107.532396, 521.749236 106.546141)

LINESTRING (157.867008 130.161366, 477.221957 105.438608)

LINESTRING (145.344109 131.261389, 517.285579 152.013598)

LINESTRING (513.640361 176.674283, 870.686512 117.600097)

LINESTRING (508.362329 164.713543, 844.909083 143.693270)

LINESTRING (517.285579 152.013598, 810.253266 127.852366)

