LINESTRING (130.633951 145.220099, 145.602922 178.688429)

LINESTRING (130.633951 145.220099, 101.426498 176.970366)

LINESTRING (130.633951 145.220099, 147.436714 102.045096)

LINESTRING (130.633951 145.220099, 113.314591 166.606380)

LINESTRING (130.633951 145.220099, 144.045951 175.823753)

LINESTRING (130.633951 145.220099, 135.624547 103.282691)

LINESTRING (130.633951 145.220099, 161.180988 143.888027)

LINESTRING (130.633951 145.220099, 164.589573 111.148181)

LINESTRING (130.633951 145.220099, 114.607674 139.018021)

LINESTRING (130.633951 145.220099, 158.654771 145.626126)

LINESTRING (130.633951 145.220099, 132.755239 119.615562)

LINESTRING (130.633951 145.220099, 165.266880 141.424332)

LINESTRING (130.633951 145.220099, 154.494185 172.903059)

LINESTRING (130.633951 145.220099, 156.802077 173.511777)

LINESTRING (130.633951 145.220099, 162.873452 144.693037)

LINESTRING (130.633951 145.220099, 111.545447 125.648051)

LINESTRING (130.633951 145.220099, 107.713280 161.508482)

LINESTRING (130.633951 145.220099, 124.947690 112.385480)

LINESTRING (130.633951 145.220099, 177.608038 128.000670)

LINESTRING (145.602922 178.688429, 101.426498 176.970366)

LINESTRING (145.602922 178.688429, 147.436714 102.045096)

LINESTRING (145.602922 178.688429, 133.554625 133.894694)

LINESTRING (145.602922 178.688429, 179.539008 175.852657)

LINESTRING (145.602922 178.688429, 120.658585 154.896329)

LINESTRING (145.602922 178.688429, 116.148842 123.293839)

LINESTRING (145.602922 178.688429, 137.794448 173.662471)

LINESTRING (145.602922 178.688429, 161.334423 116.584116)

LINESTRING (145.602922 178.688429, 154.431679 110.692098)

LINESTRING (145.602922 178.688429, 124.947690 112.385480)

LINESTRING (145.602922 178.688429, 176.663835 105.320229)

LINESTRING (145.602922 178.688429, 164.392212 136.966510)

LINESTRING (145.602922 178.688429, 178.046051 135.472715)

LINESTRING (145.602922 178.688429, 177.608038 128.000670)

LINESTRING (120.432169 106.077337, 101.426498 176.970366)

LINESTRING (120.432169 106.077337, 147.436714 102.045096)

LINESTRING (120.432169 106.077337, 117.130255 121.586214)

LINESTRING (120.432169 106.077337, 176.158300 177.418825)

LINESTRING (120.432169 106.077337, 161.180988 143.888027)

LINESTRING (120.432169 106.077337, 165.266880 141.424332)

LINESTRING (120.432169 106.077337, 143.685574 132.222744)

LINESTRING (120.432169 106.077337, 161.334423 116.584116)

LINESTRING (120.432169 106.077337, 158.410638 168.279519)

LINESTRING (120.432169 106.077337, 111.545447 125.648051)

LINESTRING (120.432169 106.077337, 107.713280 161.508482)

LINESTRING (101.426498 176.970366, 133.554625 133.894694)

LINESTRING (101.426498 176.970366, 117.130255 121.586214)

LINESTRING (101.426498 176.970366, 116.146721 171.732031)

LINESTRING (101.426498 176.970366, 113.314591 166.606380)

LINESTRING (101.426498 176.970366, 135.624547 103.282691)

LINESTRING (101.426498 176.970366, 161.180988 143.888027)

LINESTRING (101.426498 176.970366, 164.589573 111.148181)

LINESTRING (101.426498 176.970366, 179.539008 175.852657)

LINESTRING (101.426498 176.970366, 143.685574 132.222744)

LINESTRING (101.426498 176.970366, 106.606782 129.584318)

LINESTRING (101.426498 176.970366, 161.334423 116.584116)

LINESTRING (101.426498 176.970366, 154.431679 110.692098)

LINESTRING (101.426498 176.970366, 152.215074 112.427382)

LINESTRING (147.436714 102.045096, 144.045951 175.823753)

LINESTRING (147.436714 102.045096, 176.158300 177.418825)

LINESTRING (147.436714 102.045096, 135.624547 103.282691)

LINESTRING (147.436714 102.045096, 161.180988 143.888027)

LINESTRING (147.436714 102.045096, 164.589573 111.148181)

LINESTRING (147.436714 102.045096, 132.755239 119.615562)

LINESTRING (147.436714 102.045096, 165.266880 141.424332)

LINESTRING (147.436714 102.045096, 143.685574 132.222744)

LINESTRING (147.436714 102.045096, 106.606782 129.584318)

LINESTRING (147.436714 102.045096, 161.334423 116.584116)

LINESTRING (147.436714 102.045096, 158.410638 168.279519)

LINESTRING (147.436714 102.045096, 152.215074 112.427382)

LINESTRING (147.436714 102.045096, 107.713280 161.508482)

LINESTRING (133.554625 133.894694, 161.180988 143.888027)

LINESTRING (133.554625 133.894694, 138.943393 159.735308)

LINESTRING (133.554625 133.894694, 179.539008 175.852657)

LINESTRING (133.554625 133.894694, 120.658585 154.896329)

LINESTRING (133.554625 133.894694, 165.266880 141.424332)

LINESTRING (133.554625 133.894694, 143.685574 132.222744)

LINESTRING (133.554625 133.894694, 106.606782 129.584318)

LINESTRING (133.554625 133.894694, 161.334423 116.584116)

LINESTRING (133.554625 133.894694, 162.873452 144.693037)

LINESTRING (133.554625 133.894694, 107.713280 161.508482)

LINESTRING (133.554625 133.894694, 164.392212 136.966510)

LINESTRING (117.130255 121.586214, 176.158300 177.418825)

LINESTRING (117.130255 121.586214, 161.180988 143.888027)

LINESTRING (117.130255 121.586214, 164.589573 111.148181)

LINESTRING (117.130255 121.586214, 179.539008 175.852657)

LINESTRING (117.130255 121.586214, 120.658585 154.896329)

LINESTRING (117.130255 121.586214, 116.148842 123.293839)

LINESTRING (117.130255 121.586214, 106.606782 129.584318)

LINESTRING (117.130255 121.586214, 158.410638 168.279519)

LINESTRING (117.130255 121.586214, 111.545447 125.648051)

LINESTRING (117.130255 121.586214, 156.976067 107.071534)

LINESTRING (117.130255 121.586214, 107.713280 161.508482)

LINESTRING (117.130255 121.586214, 124.947690 112.385480)

LINESTRING (117.130255 121.586214, 176.663835 105.320229)

LINESTRING (117.130255 121.586214, 178.046051 135.472715)

LINESTRING (116.146721 171.732031, 158.654771 145.626126)

LINESTRING (116.146721 171.732031, 179.539008 175.852657)

LINESTRING (116.146721 171.732031, 120.658585 154.896329)

LINESTRING (116.146721 171.732031, 132.755239 119.615562)

LINESTRING (116.146721 171.732031, 106.606782 129.584318)

LINESTRING (116.146721 171.732031, 137.794448 173.662471)

LINESTRING (116.146721 171.732031, 162.873452 144.693037)

LINESTRING (116.146721 171.732031, 154.431679 110.692098)

LINESTRING (116.146721 171.732031, 156.976067 107.071534)

LINESTRING (116.146721 171.732031, 124.947690 112.385480)

LINESTRING (116.146721 171.732031, 176.663835 105.320229)

LINESTRING (116.146721 171.732031, 164.392212 136.966510)

LINESTRING (113.314591 166.606380, 144.045951 175.823753)

LINESTRING (113.314591 166.606380, 176.158300 177.418825)

LINESTRING (113.314591 166.606380, 135.624547 103.282691)

LINESTRING (113.314591 166.606380, 138.943393 159.735308)

LINESTRING (113.314591 166.606380, 156.802077 173.511777)

LINESTRING (113.314591 166.606380, 106.606782 129.584318)

LINESTRING (113.314591 166.606380, 137.794448 173.662471)

LINESTRING (113.314591 166.606380, 161.334423 116.584116)

LINESTRING (113.314591 166.606380, 124.947690 112.385480)

LINESTRING (113.314591 166.606380, 176.663835 105.320229)

LINESTRING (113.314591 166.606380, 177.608038 128.000670)

LINESTRING (144.045951 175.823753, 164.589573 111.148181)

LINESTRING (144.045951 175.823753, 114.607674 139.018021)

LINESTRING (144.045951 175.823753, 116.148842 123.293839)

LINESTRING (144.045951 175.823753, 161.334423 116.584116)

LINESTRING (144.045951 175.823753, 162.873452 144.693037)

LINESTRING (144.045951 175.823753, 158.410638 168.279519)

LINESTRING (144.045951 175.823753, 154.431679 110.692098)

LINESTRING (144.045951 175.823753, 111.545447 125.648051)

LINESTRING (144.045951 175.823753, 156.976067 107.071534)

LINESTRING (144.045951 175.823753, 178.046051 135.472715)

LINESTRING (144.045951 175.823753, 177.608038 128.000670)

LINESTRING (176.158300 177.418825, 138.943393 159.735308)

LINESTRING (176.158300 177.418825, 164.589573 111.148181)

LINESTRING (176.158300 177.418825, 158.654771 145.626126)

LINESTRING (176.158300 177.418825, 120.658585 154.896329)

LINESTRING (176.158300 177.418825, 154.494185 172.903059)

LINESTRING (176.158300 177.418825, 116.148842 123.293839)

LINESTRING (176.158300 177.418825, 106.606782 129.584318)

LINESTRING (176.158300 177.418825, 137.794448 173.662471)

LINESTRING (176.158300 177.418825, 161.334423 116.584116)

LINESTRING (176.158300 177.418825, 154.431679 110.692098)

LINESTRING (176.158300 177.418825, 152.215074 112.427382)

LINESTRING (176.158300 177.418825, 156.976067 107.071534)

LINESTRING (176.158300 177.418825, 107.713280 161.508482)

LINESTRING (176.158300 177.418825, 176.663835 105.320229)

LINESTRING (176.158300 177.418825, 164.392212 136.966510)

LINESTRING (135.624547 103.282691, 161.180988 143.888027)

LINESTRING (135.624547 103.282691, 164.589573 111.148181)

LINESTRING (135.624547 103.282691, 114.607674 139.018021)

LINESTRING (135.624547 103.282691, 158.654771 145.626126)

LINESTRING (135.624547 103.282691, 154.494185 172.903059)

LINESTRING (135.624547 103.282691, 116.148842 123.293839)

LINESTRING (135.624547 103.282691, 106.606782 129.584318)

LINESTRING (135.624547 103.282691, 162.873452 144.693037)

LINESTRING (135.624547 103.282691, 158.410638 168.279519)

LINESTRING (135.624547 103.282691, 154.431679 110.692098)

LINESTRING (135.624547 103.282691, 152.215074 112.427382)

LINESTRING (135.624547 103.282691, 156.976067 107.071534)

LINESTRING (135.624547 103.282691, 176.663835 105.320229)

LINESTRING (135.624547 103.282691, 178.046051 135.472715)

LINESTRING (161.180988 143.888027, 138.943393 159.735308)

LINESTRING (161.180988 143.888027, 158.654771 145.626126)

LINESTRING (161.180988 143.888027, 179.539008 175.852657)

LINESTRING (161.180988 143.888027, 120.658585 154.896329)

LINESTRING (161.180988 143.888027, 165.266880 141.424332)

LINESTRING (161.180988 143.888027, 143.685574 132.222744)

LINESTRING (161.180988 143.888027, 137.794448 173.662471)

LINESTRING (161.180988 143.888027, 158.410638 168.279519)

LINESTRING (161.180988 143.888027, 107.713280 161.508482)

LINESTRING (161.180988 143.888027, 124.947690 112.385480)

LINESTRING (161.180988 143.888027, 176.663835 105.320229)

LINESTRING (161.180988 143.888027, 164.392212 136.966510)

LINESTRING (161.180988 143.888027, 177.608038 128.000670)

LINESTRING (138.943393 159.735308, 164.589573 111.148181)

LINESTRING (138.943393 159.735308, 114.607674 139.018021)

LINESTRING (138.943393 159.735308, 179.539008 175.852657)

LINESTRING (138.943393 159.735308, 120.658585 154.896329)

LINESTRING (138.943393 159.735308, 165.266880 141.424332)

LINESTRING (138.943393 159.735308, 156.802077 173.511777)

LINESTRING (138.943393 159.735308, 116.148842 123.293839)

LINESTRING (138.943393 159.735308, 161.334423 116.584116)

LINESTRING (138.943393 159.735308, 111.545447 125.648051)

LINESTRING (138.943393 159.735308, 156.976067 107.071534)

LINESTRING (138.943393 159.735308, 164.392212 136.966510)

LINESTRING (164.589573 111.148181, 114.607674 139.018021)

LINESTRING (164.589573 111.148181, 154.494185 172.903059)

LINESTRING (164.589573 111.148181, 116.148842 123.293839)

LINESTRING (164.589573 111.148181, 106.606782 129.584318)

LINESTRING (164.589573 111.148181, 137.794448 173.662471)

LINESTRING (164.589573 111.148181, 161.334423 116.584116)

LINESTRING (164.589573 111.148181, 162.873452 144.693037)

LINESTRING (164.589573 111.148181, 154.431679 110.692098)

LINESTRING (164.589573 111.148181, 111.545447 125.648051)

LINESTRING (164.589573 111.148181, 178.046051 135.472715)

LINESTRING (114.607674 139.018021, 120.658585 154.896329)

LINESTRING (114.607674 139.018021, 165.266880 141.424332)

LINESTRING (114.607674 139.018021, 137.794448 173.662471)

LINESTRING (114.607674 139.018021, 161.334423 116.584116)

LINESTRING (114.607674 139.018021, 154.431679 110.692098)

LINESTRING (114.607674 139.018021, 152.215074 112.427382)

LINESTRING (114.607674 139.018021, 156.976067 107.071534)

LINESTRING (114.607674 139.018021, 124.947690 112.385480)

LINESTRING (114.607674 139.018021, 176.663835 105.320229)

LINESTRING (158.654771 145.626126, 120.658585 154.896329)

LINESTRING (158.654771 145.626126, 143.685574 132.222744)

LINESTRING (158.654771 145.626126, 156.802077 173.511777)

LINESTRING (158.654771 145.626126, 158.410638 168.279519)

LINESTRING (158.654771 145.626126, 176.663835 105.320229)

LINESTRING (158.654771 145.626126, 164.392212 136.966510)

LINESTRING (158.654771 145.626126, 177.608038 128.000670)

LINESTRING (179.539008 175.852657, 120.658585 154.896329)

LINESTRING (179.539008 175.852657, 165.266880 141.424332)

LINESTRING (179.539008 175.852657, 143.685574 132.222744)

LINESTRING (179.539008 175.852657, 152.215074 112.427382)

LINESTRING (179.539008 175.852657, 107.713280 161.508482)

LINESTRING (179.539008 175.852657, 124.947690 112.385480)

LINESTRING (179.539008 175.852657, 164.392212 136.966510)

LINESTRING (179.539008 175.852657, 177.608038 128.000670)

LINESTRING (120.658585 154.896329, 165.266880 141.424332)

LINESTRING (120.658585 154.896329, 143.685574 132.222744)

LINESTRING (120.658585 154.896329, 154.494185 172.903059)

LINESTRING (120.658585 154.896329, 116.148842 123.293839)

LINESTRING (120.658585 154.896329, 161.334423 116.584116)

LINESTRING (120.658585 154.896329, 158.410638 168.279519)

LINESTRING (120.658585 154.896329, 164.392212 136.966510)

LINESTRING (132.755239 119.615562, 165.266880 141.424332)

LINESTRING (132.755239 119.615562, 106.606782 129.584318)

LINESTRING (132.755239 119.615562, 161.334423 116.584116)

LINESTRING (132.755239 119.615562, 154.431679 110.692098)

LINESTRING (132.755239 119.615562, 164.392212 136.966510)

LINESTRING (165.266880 141.424332, 154.494185 172.903059)

LINESTRING (165.266880 141.424332, 162.873452 144.693037)

LINESTRING (165.266880 141.424332, 156.976067 107.071534)

LINESTRING (165.266880 141.424332, 124.947690 112.385480)

LINESTRING (165.266880 141.424332, 178.046051 135.472715)

LINESTRING (143.685574 132.222744, 156.802077 173.511777)

LINESTRING (143.685574 132.222744, 137.794448 173.662471)

LINESTRING (143.685574 132.222744, 161.334423 116.584116)

LINESTRING (143.685574 132.222744, 158.410638 168.279519)

LINESTRING (143.685574 132.222744, 152.215074 112.427382)

LINESTRING (143.685574 132.222744, 111.545447 125.648051)

LINESTRING (143.685574 132.222744, 107.713280 161.508482)

LINESTRING (143.685574 132.222744, 124.947690 112.385480)

LINESTRING (143.685574 132.222744, 176.663835 105.320229)

LINESTRING (143.685574 132.222744, 178.046051 135.472715)

LINESTRING (154.494185 172.903059, 116.148842 123.293839)

LINESTRING (154.494185 172.903059, 106.606782 129.584318)

LINESTRING (154.494185 172.903059, 137.794448 173.662471)

LINESTRING (154.494185 172.903059, 152.215074 112.427382)

LINESTRING (154.494185 172.903059, 111.545447 125.648051)

LINESTRING (154.494185 172.903059, 124.947690 112.385480)

LINESTRING (154.494185 172.903059, 164.392212 136.966510)

LINESTRING (156.802077 173.511777, 106.606782 129.584318)

LINESTRING (156.802077 173.511777, 162.873452 144.693037)

LINESTRING (156.802077 173.511777, 154.431679 110.692098)

LINESTRING (156.802077 173.511777, 152.215074 112.427382)

LINESTRING (156.802077 173.511777, 111.545447 125.648051)

LINESTRING (156.802077 173.511777, 107.713280 161.508482)

LINESTRING (156.802077 173.511777, 164.392212 136.966510)

LINESTRING (116.148842 123.293839, 106.606782 129.584318)

LINESTRING (116.148842 123.293839, 137.794448 173.662471)

LINESTRING (116.148842 123.293839, 161.334423 116.584116)

LINESTRING (116.148842 123.293839, 154.431679 110.692098)

LINESTRING (116.148842 123.293839, 111.545447 125.648051)

LINESTRING (116.148842 123.293839, 177.608038 128.000670)

LINESTRING (106.606782 129.584318, 137.794448 173.662471)

LINESTRING (106.606782 129.584318, 152.215074 112.427382)

LINESTRING (106.606782 129.584318, 164.392212 136.966510)

LINESTRING (137.794448 173.662471, 161.334423 116.584116)

LINESTRING (137.794448 173.662471, 111.545447 125.648051)

LINESTRING (137.794448 173.662471, 107.713280 161.508482)

LINESTRING (137.794448 173.662471, 164.392212 136.966510)

LINESTRING (137.794448 173.662471, 177.608038 128.000670)

LINESTRING (161.334423 116.584116, 162.873452 144.693037)

LINESTRING (161.334423 116.584116, 158.410638 168.279519)

LINESTRING (161.334423 116.584116, 152.215074 112.427382)

LINESTRING (161.334423 116.584116, 111.545447 125.648051)

LINESTRING (161.334423 116.584116, 176.663835 105.320229)

LINESTRING (161.334423 116.584116, 164.392212 136.966510)

LINESTRING (161.334423 116.584116, 178.046051 135.472715)

LINESTRING (162.873452 144.693037, 158.410638 168.279519)

LINESTRING (162.873452 144.693037, 111.545447 125.648051)

LINESTRING (162.873452 144.693037, 177.608038 128.000670)

LINESTRING (158.410638 168.279519, 156.976067 107.071534)

LINESTRING (154.431679 110.692098, 156.976067 107.071534)

LINESTRING (152.215074 112.427382, 111.545447 125.648051)

LINESTRING (152.215074 112.427382, 124.947690 112.385480)

LINESTRING (152.215074 112.427382, 178.046051 135.472715)

LINESTRING (111.545447 125.648051, 156.976067 107.071534)

LINESTRING (111.545447 125.648051, 107.713280 161.508482)

LINESTRING (111.545447 125.648051, 164.392212 136.966510)

LINESTRING (111.545447 125.648051, 177.608038 128.000670)

LINESTRING (156.976067 107.071534, 107.713280 161.508482)

LINESTRING (156.976067 107.071534, 176.663835 105.320229)

LINESTRING (156.976067 107.071534, 164.392212 136.966510)

LINESTRING (156.976067 107.071534, 178.046051 135.472715)

LINESTRING (156.976067 107.071534, 177.608038 128.000670)

LINESTRING (107.713280 161.508482, 178.046051 135.472715)

LINESTRING (107.713280 161.508482, 177.608038 128.000670)

LINESTRING (176.663835 105.320229, 164.392212 136.966510)

LINESTRING (176.663835 105.320229, 178.046051 135.472715)

LINESTRING (164.392212 136.966510, 178.046051 135.472715)

LINESTRING (164.392212 136.966510, 177.608038 128.000670)

LINESTRING (491.762506 155.044892, 470.740076 147.090315)

LINESTRING (491.762506 155.044892, 510.244186 144.317229)

LINESTRING (491.762506 155.044892, 470.434344 119.034707)

LINESTRING (491.762506 155.044892, 487.849567 137.678249)

LINESTRING (491.762506 155.044892, 525.322971 119.911180)

LINESTRING (491.762506 155.044892, 476.173899 132.851252)

LINESTRING (491.762506 155.044892, 477.055098 159.016668)

LINESTRING (491.762506 155.044892, 469.669267 110.530101)

LINESTRING (491.762506 155.044892, 521.920755 118.649436)

LINESTRING (491.762506 155.044892, 456.158166 105.304030)

LINESTRING (491.762506 155.044892, 478.484781 130.277058)

LINESTRING (491.762506 155.044892, 481.414133 159.057694)

LINESTRING (491.762506 155.044892, 516.118901 142.919711)

LINESTRING (456.880361 130.562619, 469.614445 142.021290)

LINESTRING (456.880361 130.562619, 500.828986 107.708655)

LINESTRING (456.880361 130.562619, 501.882030 141.998251)

LINESTRING (456.880361 130.562619, 470.334427 147.184610)

LINESTRING (456.880361 130.562619, 501.072122 129.367907)

LINESTRING (456.880361 130.562619, 525.322971 119.911180)

LINESTRING (456.880361 130.562619, 493.579669 111.019015)

LINESTRING (456.880361 130.562619, 529.545903 124.289390)

LINESTRING (456.880361 130.562619, 477.055098 159.016668)

LINESTRING (456.880361 130.562619, 471.170128 166.334935)

LINESTRING (456.880361 130.562619, 460.512216 117.722445)

LINESTRING (456.880361 130.562619, 516.118901 142.919711)

LINESTRING (456.880361 130.562619, 463.817712 163.435545)

LINESTRING (456.880361 130.562619, 515.907554 129.346989)

LINESTRING (469.614445 142.021290, 500.828986 107.708655)

LINESTRING (469.614445 142.021290, 510.244186 144.317229)

LINESTRING (469.614445 142.021290, 482.850919 169.226943)

LINESTRING (469.614445 142.021290, 521.598158 128.542541)

LINESTRING (469.614445 142.021290, 470.334427 147.184610)

LINESTRING (469.614445 142.021290, 483.784279 128.092413)

LINESTRING (469.614445 142.021290, 501.072122 129.367907)

LINESTRING (469.614445 142.021290, 481.312733 142.751784)

LINESTRING (469.614445 142.021290, 476.173899 132.851252)

LINESTRING (469.614445 142.021290, 471.170128 166.334935)

LINESTRING (469.614445 142.021290, 500.447955 102.887402)

LINESTRING (469.614445 142.021290, 462.174433 174.215969)

LINESTRING (469.614445 142.021290, 493.237100 139.322020)

LINESTRING (469.614445 142.021290, 460.512216 117.722445)

LINESTRING (500.828986 107.708655, 470.740076 147.090315)

LINESTRING (500.828986 107.708655, 486.849293 127.667141)

LINESTRING (500.828986 107.708655, 521.598158 128.542541)

LINESTRING (500.828986 107.708655, 483.784279 128.092413)

LINESTRING (500.828986 107.708655, 501.072122 129.367907)

LINESTRING (500.828986 107.708655, 529.545903 124.289390)

LINESTRING (500.828986 107.708655, 471.170128 166.334935)

LINESTRING (500.828986 107.708655, 509.568831 128.467519)

LINESTRING (500.828986 107.708655, 478.484781 130.277058)

LINESTRING (500.828986 107.708655, 462.174433 174.215969)

LINESTRING (500.828986 107.708655, 481.414133 159.057694)

LINESTRING (500.828986 107.708655, 515.907554 129.346989)

LINESTRING (470.740076 147.090315, 486.849293 127.667141)

LINESTRING (470.740076 147.090315, 497.935963 168.429249)

LINESTRING (470.740076 147.090315, 510.244186 144.317229)

LINESTRING (470.740076 147.090315, 482.850919 169.226943)

LINESTRING (470.740076 147.090315, 521.598158 128.542541)

LINESTRING (470.740076 147.090315, 470.334427 147.184610)

LINESTRING (470.740076 147.090315, 483.784279 128.092413)

LINESTRING (470.740076 147.090315, 493.579669 111.019015)

LINESTRING (470.740076 147.090315, 476.173899 132.851252)

LINESTRING (470.740076 147.090315, 471.170128 166.334935)

LINESTRING (470.740076 147.090315, 511.043572 172.106587)

LINESTRING (470.740076 147.090315, 521.920755 118.649436)

LINESTRING (470.740076 147.090315, 509.568831 128.467519)

LINESTRING (470.740076 147.090315, 478.484781 130.277058)

LINESTRING (470.740076 147.090315, 479.168278 123.975312)

LINESTRING (470.740076 147.090315, 516.118901 142.919711)

LINESTRING (486.849293 127.667141, 498.324557 165.034516)

LINESTRING (486.849293 127.667141, 482.850919 169.226943)

LINESTRING (486.849293 127.667141, 501.882030 141.998251)

LINESTRING (486.849293 127.667141, 470.334427 147.184610)

LINESTRING (486.849293 127.667141, 483.784279 128.092413)

LINESTRING (486.849293 127.667141, 470.434344 119.034707)

LINESTRING (486.849293 127.667141, 487.849567 137.678249)

LINESTRING (486.849293 127.667141, 501.072122 129.367907)

LINESTRING (486.849293 127.667141, 476.173899 132.851252)

LINESTRING (486.849293 127.667141, 477.055098 159.016668)

LINESTRING (486.849293 127.667141, 471.170128 166.334935)

LINESTRING (486.849293 127.667141, 509.568831 128.467519)

LINESTRING (486.849293 127.667141, 456.158166 105.304030)

LINESTRING (486.849293 127.667141, 478.484781 130.277058)

LINESTRING (486.849293 127.667141, 516.118901 142.919711)

LINESTRING (486.849293 127.667141, 515.907554 129.346989)

LINESTRING (498.324557 165.034516, 510.244186 144.317229)

LINESTRING (498.324557 165.034516, 482.850919 169.226943)

LINESTRING (498.324557 165.034516, 521.598158 128.542541)

LINESTRING (498.324557 165.034516, 470.334427 147.184610)

LINESTRING (498.324557 165.034516, 487.849567 137.678249)

LINESTRING (498.324557 165.034516, 481.312733 142.751784)

LINESTRING (498.324557 165.034516, 476.173899 132.851252)

LINESTRING (498.324557 165.034516, 477.055098 159.016668)

LINESTRING (498.324557 165.034516, 469.669267 110.530101)

LINESTRING (498.324557 165.034516, 521.920755 118.649436)

LINESTRING (498.324557 165.034516, 481.414133 159.057694)

LINESTRING (498.324557 165.034516, 515.907554 129.346989)

LINESTRING (497.935963 168.429249, 482.850919 169.226943)

LINESTRING (497.935963 168.429249, 470.434344 119.034707)

LINESTRING (497.935963 168.429249, 487.849567 137.678249)

LINESTRING (497.935963 168.429249, 525.322971 119.911180)

LINESTRING (497.935963 168.429249, 500.447955 102.887402)

LINESTRING (497.935963 168.429249, 511.043572 172.106587)

LINESTRING (497.935963 168.429249, 460.512216 117.722445)

LINESTRING (497.935963 168.429249, 516.118901 142.919711)

LINESTRING (497.935963 168.429249, 463.817712 163.435545)

LINESTRING (468.846606 177.579899, 510.244186 144.317229)

LINESTRING (468.846606 177.579899, 483.784279 128.092413)

LINESTRING (468.846606 177.579899, 487.849567 137.678249)

LINESTRING (468.846606 177.579899, 525.322971 119.911180)

LINESTRING (468.846606 177.579899, 493.579669 111.019015)

LINESTRING (468.846606 177.579899, 476.173899 132.851252)

LINESTRING (468.846606 177.579899, 471.170128 166.334935)

LINESTRING (468.846606 177.579899, 511.043572 172.106587)

LINESTRING (468.846606 177.579899, 481.414133 159.057694)

LINESTRING (510.244186 144.317229, 482.850919 169.226943)

LINESTRING (510.244186 144.317229, 501.882030 141.998251)

LINESTRING (510.244186 144.317229, 483.784279 128.092413)

LINESTRING (510.244186 144.317229, 487.849567 137.678249)

LINESTRING (510.244186 144.317229, 501.072122 129.367907)

LINESTRING (510.244186 144.317229, 493.579669 111.019015)

LINESTRING (510.244186 144.317229, 529.545903 124.289390)

LINESTRING (510.244186 144.317229, 477.055098 159.016668)

LINESTRING (510.244186 144.317229, 469.669267 110.530101)

LINESTRING (510.244186 144.317229, 509.568831 128.467519)

LINESTRING (510.244186 144.317229, 456.158166 105.304030)

LINESTRING (510.244186 144.317229, 478.484781 130.277058)

LINESTRING (510.244186 144.317229, 479.168278 123.975312)

LINESTRING (510.244186 144.317229, 463.817712 163.435545)

LINESTRING (482.850919 169.226943, 521.598158 128.542541)

LINESTRING (482.850919 169.226943, 470.434344 119.034707)

LINESTRING (482.850919 169.226943, 481.312733 142.751784)

LINESTRING (482.850919 169.226943, 493.579669 111.019015)

LINESTRING (482.850919 169.226943, 476.173899 132.851252)

LINESTRING (482.850919 169.226943, 529.545903 124.289390)

LINESTRING (482.850919 169.226943, 477.055098 159.016668)

LINESTRING (482.850919 169.226943, 471.170128 166.334935)

LINESTRING (482.850919 169.226943, 456.158166 105.304030)

LINESTRING (482.850919 169.226943, 462.174433 174.215969)

LINESTRING (482.850919 169.226943, 493.237100 139.322020)

LINESTRING (482.850919 169.226943, 481.414133 159.057694)

LINESTRING (482.850919 169.226943, 516.118901 142.919711)

LINESTRING (501.882030 141.998251, 521.598158 128.542541)

LINESTRING (501.882030 141.998251, 470.434344 119.034707)

LINESTRING (501.882030 141.998251, 493.579669 111.019015)

LINESTRING (501.882030 141.998251, 529.545903 124.289390)

LINESTRING (501.882030 141.998251, 477.055098 159.016668)

LINESTRING (501.882030 141.998251, 469.669267 110.530101)

LINESTRING (501.882030 141.998251, 500.447955 102.887402)

LINESTRING (501.882030 141.998251, 478.484781 130.277058)

LINESTRING (501.882030 141.998251, 462.174433 174.215969)

LINESTRING (501.882030 141.998251, 493.237100 139.322020)

LINESTRING (501.882030 141.998251, 481.414133 159.057694)

LINESTRING (501.882030 141.998251, 516.118901 142.919711)

LINESTRING (501.882030 141.998251, 515.907554 129.346989)

LINESTRING (521.598158 128.542541, 483.784279 128.092413)

LINESTRING (521.598158 128.542541, 470.434344 119.034707)

LINESTRING (521.598158 128.542541, 525.322971 119.911180)

LINESTRING (521.598158 128.542541, 521.920755 118.649436)

LINESTRING (521.598158 128.542541, 509.568831 128.467519)

LINESTRING (521.598158 128.542541, 456.158166 105.304030)

LINESTRING (521.598158 128.542541, 462.174433 174.215969)

LINESTRING (521.598158 128.542541, 493.237100 139.322020)

LINESTRING (521.598158 128.542541, 479.168278 123.975312)

LINESTRING (470.334427 147.184610, 483.784279 128.092413)

LINESTRING (470.334427 147.184610, 470.434344 119.034707)

LINESTRING (470.334427 147.184610, 501.072122 129.367907)

LINESTRING (470.334427 147.184610, 481.312733 142.751784)

LINESTRING (470.334427 147.184610, 525.322971 119.911180)

LINESTRING (470.334427 147.184610, 493.579669 111.019015)

LINESTRING (470.334427 147.184610, 521.920755 118.649436)

LINESTRING (470.334427 147.184610, 478.484781 130.277058)

LINESTRING (470.334427 147.184610, 462.174433 174.215969)

LINESTRING (470.334427 147.184610, 460.512216 117.722445)

LINESTRING (470.334427 147.184610, 479.168278 123.975312)

LINESTRING (470.334427 147.184610, 516.118901 142.919711)

LINESTRING (483.784279 128.092413, 470.434344 119.034707)

LINESTRING (483.784279 128.092413, 525.322971 119.911180)

LINESTRING (483.784279 128.092413, 493.579669 111.019015)

LINESTRING (483.784279 128.092413, 529.545903 124.289390)

LINESTRING (483.784279 128.092413, 500.447955 102.887402)

LINESTRING (483.784279 128.092413, 511.043572 172.106587)

LINESTRING (483.784279 128.092413, 509.568831 128.467519)

LINESTRING (483.784279 128.092413, 456.158166 105.304030)

LINESTRING (483.784279 128.092413, 462.174433 174.215969)

LINESTRING (483.784279 128.092413, 493.237100 139.322020)

LINESTRING (483.784279 128.092413, 481.414133 159.057694)

LINESTRING (483.784279 128.092413, 460.512216 117.722445)

LINESTRING (483.784279 128.092413, 463.817712 163.435545)

LINESTRING (483.784279 128.092413, 515.907554 129.346989)

LINESTRING (470.434344 119.034707, 481.312733 142.751784)

LINESTRING (470.434344 119.034707, 525.322971 119.911180)

LINESTRING (470.434344 119.034707, 529.545903 124.289390)

LINESTRING (470.434344 119.034707, 477.055098 159.016668)

LINESTRING (470.434344 119.034707, 469.669267 110.530101)

LINESTRING (470.434344 119.034707, 471.170128 166.334935)

LINESTRING (470.434344 119.034707, 511.043572 172.106587)

LINESTRING (470.434344 119.034707, 456.158166 105.304030)

LINESTRING (470.434344 119.034707, 462.174433 174.215969)

LINESTRING (470.434344 119.034707, 460.512216 117.722445)

LINESTRING (470.434344 119.034707, 479.168278 123.975312)

LINESTRING (470.434344 119.034707, 516.118901 142.919711)

LINESTRING (470.434344 119.034707, 463.817712 163.435545)

LINESTRING (487.849567 137.678249, 481.312733 142.751784)

LINESTRING (487.849567 137.678249, 529.545903 124.289390)

LINESTRING (487.849567 137.678249, 477.055098 159.016668)

LINESTRING (487.849567 137.678249, 478.484781 130.277058)

LINESTRING (487.849567 137.678249, 462.174433 174.215969)

LINESTRING (487.849567 137.678249, 493.237100 139.322020)

LINESTRING (487.849567 137.678249, 479.168278 123.975312)

LINESTRING (487.849567 137.678249, 516.118901 142.919711)

LINESTRING (487.849567 137.678249, 463.817712 163.435545)

LINESTRING (487.849567 137.678249, 515.907554 129.346989)

LINESTRING (501.072122 129.367907, 481.312733 142.751784)

LINESTRING (501.072122 129.367907, 493.579669 111.019015)

LINESTRING (501.072122 129.367907, 476.173899 132.851252)

LINESTRING (501.072122 129.367907, 529.545903 124.289390)

LINESTRING (501.072122 129.367907, 500.447955 102.887402)

LINESTRING (501.072122 129.367907, 493.237100 139.322020)

LINESTRING (501.072122 129.367907, 481.414133 159.057694)

LINESTRING (501.072122 129.367907, 460.512216 117.722445)

LINESTRING (501.072122 129.367907, 516.118901 142.919711)

LINESTRING (501.072122 129.367907, 463.817712 163.435545)

LINESTRING (501.072122 129.367907, 515.907554 129.346989)

LINESTRING (481.312733 142.751784, 525.322971 119.911180)

LINESTRING (481.312733 142.751784, 471.170128 166.334935)

LINESTRING (481.312733 142.751784, 509.568831 128.467519)

LINESTRING (481.312733 142.751784, 456.158166 105.304030)

LINESTRING (481.312733 142.751784, 462.174433 174.215969)

LINESTRING (481.312733 142.751784, 493.237100 139.322020)

LINESTRING (481.312733 142.751784, 516.118901 142.919711)

LINESTRING (525.322971 119.911180, 477.055098 159.016668)

LINESTRING (525.322971 119.911180, 521.920755 118.649436)

LINESTRING (525.322971 119.911180, 493.237100 139.322020)

LINESTRING (525.322971 119.911180, 460.512216 117.722445)

LINESTRING (525.322971 119.911180, 479.168278 123.975312)

LINESTRING (525.322971 119.911180, 516.118901 142.919711)

LINESTRING (525.322971 119.911180, 515.907554 129.346989)

LINESTRING (493.579669 111.019015, 476.173899 132.851252)

LINESTRING (493.579669 111.019015, 477.055098 159.016668)

LINESTRING (493.579669 111.019015, 471.170128 166.334935)

LINESTRING (493.579669 111.019015, 500.447955 102.887402)

LINESTRING (493.579669 111.019015, 509.568831 128.467519)

LINESTRING (493.579669 111.019015, 478.484781 130.277058)

LINESTRING (493.579669 111.019015, 493.237100 139.322020)

LINESTRING (493.579669 111.019015, 460.512216 117.722445)

LINESTRING (493.579669 111.019015, 516.118901 142.919711)

LINESTRING (476.173899 132.851252, 500.447955 102.887402)

LINESTRING (476.173899 132.851252, 521.920755 118.649436)

LINESTRING (476.173899 132.851252, 456.158166 105.304030)

LINESTRING (476.173899 132.851252, 478.484781 130.277058)

LINESTRING (476.173899 132.851252, 463.817712 163.435545)

LINESTRING (529.545903 124.289390, 477.055098 159.016668)

LINESTRING (529.545903 124.289390, 511.043572 172.106587)

LINESTRING (529.545903 124.289390, 509.568831 128.467519)

LINESTRING (529.545903 124.289390, 456.158166 105.304030)

LINESTRING (529.545903 124.289390, 462.174433 174.215969)

LINESTRING (529.545903 124.289390, 479.168278 123.975312)

LINESTRING (529.545903 124.289390, 463.817712 163.435545)

LINESTRING (529.545903 124.289390, 515.907554 129.346989)

LINESTRING (477.055098 159.016668, 521.920755 118.649436)

LINESTRING (477.055098 159.016668, 462.174433 174.215969)

LINESTRING (477.055098 159.016668, 481.414133 159.057694)

LINESTRING (477.055098 159.016668, 463.817712 163.435545)

LINESTRING (469.669267 110.530101, 500.447955 102.887402)

LINESTRING (469.669267 110.530101, 521.920755 118.649436)

LINESTRING (469.669267 110.530101, 509.568831 128.467519)

LINESTRING (469.669267 110.530101, 493.237100 139.322020)

LINESTRING (469.669267 110.530101, 481.414133 159.057694)

LINESTRING (469.669267 110.530101, 479.168278 123.975312)

LINESTRING (471.170128 166.334935, 500.447955 102.887402)

LINESTRING (471.170128 166.334935, 456.158166 105.304030)

LINESTRING (471.170128 166.334935, 478.484781 130.277058)

LINESTRING (471.170128 166.334935, 481.414133 159.057694)

LINESTRING (471.170128 166.334935, 479.168278 123.975312)

LINESTRING (500.447955 102.887402, 511.043572 172.106587)

LINESTRING (500.447955 102.887402, 521.920755 118.649436)

LINESTRING (500.447955 102.887402, 509.568831 128.467519)

LINESTRING (500.447955 102.887402, 493.237100 139.322020)

LINESTRING (500.447955 102.887402, 460.512216 117.722445)

LINESTRING (500.447955 102.887402, 516.118901 142.919711)

LINESTRING (511.043572 172.106587, 462.174433 174.215969)

LINESTRING (511.043572 172.106587, 479.168278 123.975312)

LINESTRING (511.043572 172.106587, 516.118901 142.919711)

LINESTRING (511.043572 172.106587, 463.817712 163.435545)

LINESTRING (521.920755 118.649436, 509.568831 128.467519)

LINESTRING (521.920755 118.649436, 456.158166 105.304030)

LINESTRING (521.920755 118.649436, 493.237100 139.322020)

LINESTRING (509.568831 128.467519, 456.158166 105.304030)

LINESTRING (509.568831 128.467519, 478.484781 130.277058)

LINESTRING (509.568831 128.467519, 462.174433 174.215969)

LINESTRING (509.568831 128.467519, 481.414133 159.057694)

LINESTRING (509.568831 128.467519, 460.512216 117.722445)

LINESTRING (509.568831 128.467519, 516.118901 142.919711)

LINESTRING (509.568831 128.467519, 463.817712 163.435545)

LINESTRING (509.568831 128.467519, 515.907554 129.346989)

LINESTRING (456.158166 105.304030, 478.484781 130.277058)

LINESTRING (456.158166 105.304030, 460.512216 117.722445)

LINESTRING (456.158166 105.304030, 516.118901 142.919711)

LINESTRING (456.158166 105.304030, 463.817712 163.435545)

LINESTRING (478.484781 130.277058, 493.237100 139.322020)

LINESTRING (478.484781 130.277058, 479.168278 123.975312)

LINESTRING (462.174433 174.215969, 493.237100 139.322020)

LINESTRING (462.174433 174.215969, 481.414133 159.057694)

LINESTRING (462.174433 174.215969, 460.512216 117.722445)

LINESTRING (462.174433 174.215969, 479.168278 123.975312)

LINESTRING (462.174433 174.215969, 516.118901 142.919711)

LINESTRING (493.237100 139.322020, 516.118901 142.919711)

LINESTRING (479.168278 123.975312, 516.118901 142.919711)

LINESTRING (479.168278 123.975312, 463.817712 163.435545)

LINESTRING (479.168278 123.975312, 515.907554 129.346989)

LINESTRING (516.118901 142.919711, 463.817712 163.435545)

LINESTRING (516.118901 142.919711, 515.907554 129.346989)

LINESTRING (463.817712 163.435545, 515.907554 129.346989)

LINESTRING (135.624547 103.282691, 476.173899 132.851252)

LINESTRING (137.794448 173.662471, 469.669267 110.530101)

LINESTRING (154.494185 172.903059, 456.158166 105.304030)

LINESTRING (130.633951 145.220099, 491.762506 155.044892)

