LINESTRING (603.063429 401.276811, 570.915334 499.295869)

LINESTRING (570.915334 499.295869, 496.155653 577.993715)

LINESTRING (496.155653 577.993715, 402.084909 604.143266)

LINESTRING (402.084909 604.143266, 298.978344 571.602322)

LINESTRING (298.978344 571.602322, 227.161676 498.372400)

LINESTRING (227.161676 498.372400, 197.310592 396.400484)

LINESTRING (197.310592 396.400484, 224.302384 298.726749)

LINESTRING (224.302384 298.726749, 295.530687 226.481190)

LINESTRING (295.530687 226.481190, 397.527999 203.984349)

LINESTRING (397.527999 203.984349, 495.647991 226.797173)

LINESTRING (495.647991 226.797173, 576.814418 299.172867)

LINESTRING (576.814418 299.172867, 603.063429 401.276811)

LINESTRING (802.475925 395.532609, 747.885843 596.198972)

LINESTRING (747.885843 596.198972, 601.216469 746.147036)

LINESTRING (601.216469 746.147036, 399.887519 797.740448)

LINESTRING (399.887519 797.740448, 204.910543 746.511729)

LINESTRING (204.910543 746.511729, 56.216857 595.467519)

LINESTRING (56.216857 595.467519, 4.384878 404.313142)

LINESTRING (4.384878 404.313142, 53.042705 197.136095)

LINESTRING (53.042705 197.136095, 202.209916 58.065165)

LINESTRING (202.209916 58.065165, 396.805347 0.369527)

LINESTRING (396.805347 0.369527, 597.497727 54.317291)

LINESTRING (597.497727 54.317291, 747.188117 198.726299)

LINESTRING (747.188117 198.726299, 802.475925 395.532609)

LINESTRING (1003.904526 397.312255, 920.071658 696.650024)

LINESTRING (920.071658 696.650024, 701.408413 922.030293)

LINESTRING (701.408413 922.030293, 399.871802 1000.604157)

LINESTRING (399.871802 1000.604157, 103.688211 914.792279)

LINESTRING (103.688211 914.792279, -123.376037 697.384965)

LINESTRING (-123.376037 697.384965, -199.391911 398.413152)

LINESTRING (-199.391911 398.413152, -116.075207 101.143762)

LINESTRING (-116.075207 101.143762, 101.570018 -115.495717)

LINESTRING (101.570018 -115.495717, 404.487559 -202.914657)

LINESTRING (404.487559 -202.914657, 704.264949 -118.758168)

LINESTRING (704.264949 -118.758168, 922.080578 97.593958)

LINESTRING (922.080578 97.593958, 1003.904526 397.312255)

LINESTRING (1199.874571 403.352177, 1093.733919 804.405027)

LINESTRING (1093.733919 804.405027, 799.890239 1095.100498)

LINESTRING (799.890239 1095.100498, 402.267985 1203.147642)

LINESTRING (402.267985 1203.147642, 2.090153 1095.843520)

LINESTRING (2.090153 1095.843520, -296.826228 801.427004)

LINESTRING (-296.826228 801.427004, -398.190069 400.160036)

LINESTRING (-398.190069 400.160036, -296.871905 -3.612947)

LINESTRING (-296.871905 -3.612947, -4.125700 -294.985127)

LINESTRING (-4.125700 -294.985127, 396.577426 -402.832220)

LINESTRING (396.577426 -402.832220, 804.711407 -294.600159)

LINESTRING (804.711407 -294.600159, 1096.781481 -4.494163)

LINESTRING (1096.781481 -4.494163, 1199.874571 403.352177)

LINESTRING (1396.041308 403.724091, 1264.812479 900.877214)

LINESTRING (1264.812479 900.877214, 902.003518 1269.024783)

LINESTRING (902.003518 1269.024783, 398.158164 1399.573878)

LINESTRING (398.158164 1399.573878, -101.710827 1267.360188)

LINESTRING (-101.710827 1267.360188, -469.521681 895.933040)

LINESTRING (-469.521681 895.933040, -602.585860 400.227776)

LINESTRING (-602.585860 400.227776, -470.632753 -100.301555)

LINESTRING (-470.632753 -100.301555, -96.223806 -465.585635)

LINESTRING (-96.223806 -465.585635, 396.771662 -601.366438)

LINESTRING (396.771662 -601.366438, 903.330994 -470.457057)

LINESTRING (903.330994 -470.457057, 1267.650363 -96.791223)

LINESTRING (1267.650363 -96.791223, 1396.041308 403.724091)

LINESTRING (1598.276589 404.577881, 1436.512565 1003.332832)

LINESTRING (1436.512565 1003.332832, 1003.026682 1441.520113)

LINESTRING (1003.026682 1441.520113, 397.330635 1597.408290)

LINESTRING (397.330635 1597.408290, -201.092108 1436.241536)

LINESTRING (-201.092108 1436.241536, -643.103329 1001.923209)

LINESTRING (-643.103329 1001.923209, -796.235055 398.200817)

LINESTRING (-796.235055 398.200817, -643.822087 -201.953919)

LINESTRING (-643.822087 -201.953919, -202.276149 -639.747587)

LINESTRING (-202.276149 -639.747587, 398.531094 -798.351255)

LINESTRING (398.531094 -798.351255, 997.101910 -637.011200)

LINESTRING (997.101910 -637.011200, 1435.404771 -203.286923)

LINESTRING (1435.404771 -203.286923, 1598.276589 404.577881)

LINESTRING (603.063429 401.276811, 802.475925 395.532609)

LINESTRING (802.475925 395.532609, 1003.904526 397.312255)

LINESTRING (1003.904526 397.312255, 1199.874571 403.352177)

LINESTRING (1199.874571 403.352177, 1396.041308 403.724091)

LINESTRING (1396.041308 403.724091, 1598.276589 404.577881)

LINESTRING (570.915334 499.295869, 747.885843 596.198972)

LINESTRING (747.885843 596.198972, 920.071658 696.650024)

LINESTRING (920.071658 696.650024, 1093.733919 804.405027)

LINESTRING (1093.733919 804.405027, 1264.812479 900.877214)

LINESTRING (1264.812479 900.877214, 1436.512565 1003.332832)

LINESTRING (496.155653 577.993715, 601.216469 746.147036)

LINESTRING (601.216469 746.147036, 701.408413 922.030293)

LINESTRING (701.408413 922.030293, 799.890239 1095.100498)

LINESTRING (799.890239 1095.100498, 902.003518 1269.024783)

LINESTRING (902.003518 1269.024783, 1003.026682 1441.520113)

LINESTRING (402.084909 604.143266, 399.887519 797.740448)

LINESTRING (399.887519 797.740448, 399.871802 1000.604157)

LINESTRING (399.871802 1000.604157, 402.267985 1203.147642)

LINESTRING (402.267985 1203.147642, 398.158164 1399.573878)

LINESTRING (398.158164 1399.573878, 397.330635 1597.408290)

LINESTRING (298.978344 571.602322, 204.910543 746.511729)

LINESTRING (204.910543 746.511729, 103.688211 914.792279)

LINESTRING (103.688211 914.792279, 2.090153 1095.843520)

LINESTRING (2.090153 1095.843520, -101.710827 1267.360188)

LINESTRING (-101.710827 1267.360188, -201.092108 1436.241536)

LINESTRING (227.161676 498.372400, 56.216857 595.467519)

LINESTRING (56.216857 595.467519, -123.376037 697.384965)

LINESTRING (-123.376037 697.384965, -296.826228 801.427004)

LINESTRING (-296.826228 801.427004, -469.521681 895.933040)

LINESTRING (-469.521681 895.933040, -643.103329 1001.923209)

LINESTRING (197.310592 396.400484, 4.384878 404.313142)

LINESTRING (4.384878 404.313142, -199.391911 398.413152)

LINESTRING (-199.391911 398.413152, -398.190069 400.160036)

LINESTRING (-398.190069 400.160036, -602.585860 400.227776)

LINESTRING (-602.585860 400.227776, -796.235055 398.200817)

LINESTRING (224.302384 298.726749, 53.042705 197.136095)

LINESTRING (53.042705 197.136095, -116.075207 101.143762)

LINESTRING (-116.075207 101.143762, -296.871905 -3.612947)

LINESTRING (-296.871905 -3.612947, -470.632753 -100.301555)

LINESTRING (-470.632753 -100.301555, -643.822087 -201.953919)

LINESTRING (295.530687 226.481190, 202.209916 58.065165)

LINESTRING (202.209916 58.065165, 101.570018 -115.495717)

LINESTRING (101.570018 -115.495717, -4.125700 -294.985127)

LINESTRING (-4.125700 -294.985127, -96.223806 -465.585635)

LINESTRING (-96.223806 -465.585635, -202.276149 -639.747587)

LINESTRING (397.527999 203.984349, 396.805347 0.369527)

LINESTRING (396.805347 0.369527, 404.487559 -202.914657)

LINESTRING (404.487559 -202.914657, 396.577426 -402.832220)

LINESTRING (396.577426 -402.832220, 396.771662 -601.366438)

LINESTRING (396.771662 -601.366438, 398.531094 -798.351255)

LINESTRING (495.647991 226.797173, 597.497727 54.317291)

LINESTRING (597.497727 54.317291, 704.264949 -118.758168)

LINESTRING (704.264949 -118.758168, 804.711407 -294.600159)

LINESTRING (804.711407 -294.600159, 903.330994 -470.457057)

LINESTRING (903.330994 -470.457057, 997.101910 -637.011200)

LINESTRING (576.814418 299.172867, 747.188117 198.726299)

LINESTRING (747.188117 198.726299, 922.080578 97.593958)

LINESTRING (922.080578 97.593958, 1096.781481 -4.494163)

LINESTRING (1096.781481 -4.494163, 1267.650363 -96.791223)

LINESTRING (1267.650363 -96.791223, 1435.404771 -203.286923)

LINESTRING (400.000000 400.000000, 603.063429 401.276811)

