LINESTRING (108.649163 105.996038, 122.322449 125.819508)

LINESTRING (108.649163 105.996038, 151.293239 125.214605)

LINESTRING (108.649163 105.996038, 148.602633 113.013055)

LINESTRING (108.649163 105.996038, 176.736080 108.453116)

LINESTRING (108.649163 105.996038, 162.277808 113.395323)

LINESTRING (108.649163 105.996038, 141.046682 158.460949)

LINESTRING (108.649163 105.996038, 129.798651 174.746850)

LINESTRING (108.649163 105.996038, 125.747466 150.887798)

LINESTRING (108.649163 105.996038, 119.216082 137.131053)

LINESTRING (108.649163 105.996038, 140.873506 128.684072)

LINESTRING (108.649163 105.996038, 137.463243 145.525276)

LINESTRING (108.649163 105.996038, 179.537888 173.819136)

LINESTRING (108.649163 105.996038, 167.145697 122.682019)

LINESTRING (108.649163 105.996038, 176.200990 176.553600)

LINESTRING (108.649163 105.996038, 131.084412 149.752235)

LINESTRING (108.649163 105.996038, 159.666896 162.474822)

LINESTRING (108.649163 105.996038, 124.490204 171.210079)

LINESTRING (108.649163 105.996038, 179.168231 176.112103)

LINESTRING (108.649163 105.996038, 166.317916 102.607038)

LINESTRING (122.322449 125.819508, 151.293239 125.214605)

LINESTRING (122.322449 125.819508, 100.444457 161.788227)

LINESTRING (122.322449 125.819508, 148.602633 113.013055)

LINESTRING (122.322449 125.819508, 132.670359 103.982884)

LINESTRING (122.322449 125.819508, 176.736080 108.453116)

LINESTRING (122.322449 125.819508, 165.777062 121.539275)

LINESTRING (122.322449 125.819508, 141.046682 158.460949)

LINESTRING (122.322449 125.819508, 102.726060 110.789610)

LINESTRING (122.322449 125.819508, 125.747466 150.887798)

LINESTRING (122.322449 125.819508, 119.216082 137.131053)

LINESTRING (122.322449 125.819508, 137.463243 145.525276)

LINESTRING (122.322449 125.819508, 167.145697 122.682019)

LINESTRING (122.322449 125.819508, 176.200990 176.553600)

LINESTRING (122.322449 125.819508, 131.084412 149.752235)

LINESTRING (122.322449 125.819508, 124.490204 171.210079)

LINESTRING (122.322449 125.819508, 179.168231 176.112103)

LINESTRING (122.322449 125.819508, 166.317916 102.607038)

LINESTRING (122.322449 125.819508, 147.864263 108.521358)

LINESTRING (151.293239 125.214605, 148.602633 113.013055)

LINESTRING (151.293239 125.214605, 132.670359 103.982884)

LINESTRING (151.293239 125.214605, 176.736080 108.453116)

LINESTRING (151.293239 125.214605, 165.777062 121.539275)

LINESTRING (151.293239 125.214605, 162.277808 113.395323)

LINESTRING (151.293239 125.214605, 141.046682 158.460949)

LINESTRING (151.293239 125.214605, 129.798651 174.746850)

LINESTRING (151.293239 125.214605, 119.216082 137.131053)

LINESTRING (151.293239 125.214605, 140.873506 128.684072)

LINESTRING (151.293239 125.214605, 137.463243 145.525276)

LINESTRING (151.293239 125.214605, 179.537888 173.819136)

LINESTRING (151.293239 125.214605, 167.145697 122.682019)

LINESTRING (151.293239 125.214605, 131.084412 149.752235)

LINESTRING (151.293239 125.214605, 159.666896 162.474822)

LINESTRING (151.293239 125.214605, 166.317916 102.607038)

LINESTRING (151.293239 125.214605, 147.864263 108.521358)

LINESTRING (100.444457 161.788227, 148.602633 113.013055)

LINESTRING (100.444457 161.788227, 165.777062 121.539275)

LINESTRING (100.444457 161.788227, 162.277808 113.395323)

LINESTRING (100.444457 161.788227, 141.046682 158.460949)

LINESTRING (100.444457 161.788227, 129.798651 174.746850)

LINESTRING (100.444457 161.788227, 125.747466 150.887798)

LINESTRING (100.444457 161.788227, 119.216082 137.131053)

LINESTRING (100.444457 161.788227, 140.873506 128.684072)

LINESTRING (100.444457 161.788227, 137.463243 145.525276)

LINESTRING (100.444457 161.788227, 179.537888 173.819136)

LINESTRING (100.444457 161.788227, 167.145697 122.682019)

LINESTRING (100.444457 161.788227, 176.200990 176.553600)

LINESTRING (100.444457 161.788227, 131.084412 149.752235)

LINESTRING (100.444457 161.788227, 159.666896 162.474822)

LINESTRING (100.444457 161.788227, 124.490204 171.210079)

LINESTRING (100.444457 161.788227, 179.168231 176.112103)

LINESTRING (100.444457 161.788227, 166.317916 102.607038)

LINESTRING (148.602633 113.013055, 132.670359 103.982884)

LINESTRING (148.602633 113.013055, 176.736080 108.453116)

LINESTRING (148.602633 113.013055, 165.777062 121.539275)

LINESTRING (148.602633 113.013055, 162.277808 113.395323)

LINESTRING (148.602633 113.013055, 141.046682 158.460949)

LINESTRING (148.602633 113.013055, 102.726060 110.789610)

LINESTRING (148.602633 113.013055, 125.747466 150.887798)

LINESTRING (148.602633 113.013055, 119.216082 137.131053)

LINESTRING (148.602633 113.013055, 140.873506 128.684072)

LINESTRING (148.602633 113.013055, 167.145697 122.682019)

LINESTRING (148.602633 113.013055, 176.200990 176.553600)

LINESTRING (148.602633 113.013055, 131.084412 149.752235)

LINESTRING (148.602633 113.013055, 159.666896 162.474822)

LINESTRING (148.602633 113.013055, 124.490204 171.210079)

LINESTRING (148.602633 113.013055, 179.168231 176.112103)

LINESTRING (132.670359 103.982884, 176.736080 108.453116)

LINESTRING (132.670359 103.982884, 165.777062 121.539275)

LINESTRING (132.670359 103.982884, 162.277808 113.395323)

LINESTRING (132.670359 103.982884, 141.046682 158.460949)

LINESTRING (132.670359 103.982884, 102.726060 110.789610)

LINESTRING (132.670359 103.982884, 129.798651 174.746850)

LINESTRING (132.670359 103.982884, 125.747466 150.887798)

LINESTRING (132.670359 103.982884, 119.216082 137.131053)

LINESTRING (132.670359 103.982884, 140.873506 128.684072)

LINESTRING (132.670359 103.982884, 137.463243 145.525276)

LINESTRING (132.670359 103.982884, 179.537888 173.819136)

LINESTRING (132.670359 103.982884, 176.200990 176.553600)

LINESTRING (132.670359 103.982884, 131.084412 149.752235)

LINESTRING (132.670359 103.982884, 159.666896 162.474822)

LINESTRING (132.670359 103.982884, 124.490204 171.210079)

LINESTRING (132.670359 103.982884, 179.168231 176.112103)

LINESTRING (132.670359 103.982884, 166.317916 102.607038)

LINESTRING (132.670359 103.982884, 147.864263 108.521358)

LINESTRING (176.736080 108.453116, 165.777062 121.539275)

LINESTRING (176.736080 108.453116, 162.277808 113.395323)

LINESTRING (176.736080 108.453116, 141.046682 158.460949)

LINESTRING (176.736080 108.453116, 102.726060 110.789610)

LINESTRING (176.736080 108.453116, 129.798651 174.746850)

LINESTRING (176.736080 108.453116, 119.216082 137.131053)

LINESTRING (176.736080 108.453116, 140.873506 128.684072)

LINESTRING (176.736080 108.453116, 179.537888 173.819136)

LINESTRING (176.736080 108.453116, 167.145697 122.682019)

LINESTRING (176.736080 108.453116, 176.200990 176.553600)

LINESTRING (176.736080 108.453116, 131.084412 149.752235)

LINESTRING (176.736080 108.453116, 159.666896 162.474822)

LINESTRING (176.736080 108.453116, 124.490204 171.210079)

LINESTRING (176.736080 108.453116, 179.168231 176.112103)

LINESTRING (176.736080 108.453116, 166.317916 102.607038)

LINESTRING (176.736080 108.453116, 147.864263 108.521358)

LINESTRING (165.777062 121.539275, 141.046682 158.460949)

LINESTRING (165.777062 121.539275, 102.726060 110.789610)

LINESTRING (165.777062 121.539275, 129.798651 174.746850)

LINESTRING (165.777062 121.539275, 125.747466 150.887798)

LINESTRING (165.777062 121.539275, 119.216082 137.131053)

LINESTRING (165.777062 121.539275, 140.873506 128.684072)

LINESTRING (165.777062 121.539275, 137.463243 145.525276)

LINESTRING (165.777062 121.539275, 179.537888 173.819136)

LINESTRING (165.777062 121.539275, 167.145697 122.682019)

LINESTRING (165.777062 121.539275, 176.200990 176.553600)

LINESTRING (165.777062 121.539275, 131.084412 149.752235)

LINESTRING (165.777062 121.539275, 159.666896 162.474822)

LINESTRING (165.777062 121.539275, 179.168231 176.112103)

LINESTRING (165.777062 121.539275, 147.864263 108.521358)

LINESTRING (162.277808 113.395323, 141.046682 158.460949)

LINESTRING (162.277808 113.395323, 102.726060 110.789610)

LINESTRING (162.277808 113.395323, 129.798651 174.746850)

LINESTRING (162.277808 113.395323, 125.747466 150.887798)

LINESTRING (162.277808 113.395323, 140.873506 128.684072)

LINESTRING (162.277808 113.395323, 137.463243 145.525276)

LINESTRING (162.277808 113.395323, 179.537888 173.819136)

LINESTRING (162.277808 113.395323, 167.145697 122.682019)

LINESTRING (162.277808 113.395323, 176.200990 176.553600)

LINESTRING (162.277808 113.395323, 131.084412 149.752235)

LINESTRING (162.277808 113.395323, 159.666896 162.474822)

LINESTRING (162.277808 113.395323, 179.168231 176.112103)

LINESTRING (162.277808 113.395323, 166.317916 102.607038)

LINESTRING (162.277808 113.395323, 147.864263 108.521358)

LINESTRING (141.046682 158.460949, 102.726060 110.789610)

LINESTRING (141.046682 158.460949, 129.798651 174.746850)

LINESTRING (141.046682 158.460949, 125.747466 150.887798)

LINESTRING (141.046682 158.460949, 140.873506 128.684072)

LINESTRING (141.046682 158.460949, 137.463243 145.525276)

LINESTRING (141.046682 158.460949, 179.537888 173.819136)

LINESTRING (141.046682 158.460949, 167.145697 122.682019)

LINESTRING (141.046682 158.460949, 176.200990 176.553600)

LINESTRING (141.046682 158.460949, 131.084412 149.752235)

LINESTRING (141.046682 158.460949, 159.666896 162.474822)

LINESTRING (141.046682 158.460949, 124.490204 171.210079)

LINESTRING (141.046682 158.460949, 179.168231 176.112103)

LINESTRING (141.046682 158.460949, 166.317916 102.607038)

LINESTRING (141.046682 158.460949, 147.864263 108.521358)

LINESTRING (102.726060 110.789610, 129.798651 174.746850)

LINESTRING (102.726060 110.789610, 119.216082 137.131053)

LINESTRING (102.726060 110.789610, 140.873506 128.684072)

LINESTRING (102.726060 110.789610, 137.463243 145.525276)

LINESTRING (102.726060 110.789610, 179.537888 173.819136)

LINESTRING (102.726060 110.789610, 167.145697 122.682019)

LINESTRING (102.726060 110.789610, 131.084412 149.752235)

LINESTRING (102.726060 110.789610, 159.666896 162.474822)

LINESTRING (102.726060 110.789610, 124.490204 171.210079)

LINESTRING (102.726060 110.789610, 179.168231 176.112103)

LINESTRING (102.726060 110.789610, 166.317916 102.607038)

LINESTRING (102.726060 110.789610, 147.864263 108.521358)

LINESTRING (129.798651 174.746850, 125.747466 150.887798)

LINESTRING (129.798651 174.746850, 119.216082 137.131053)

LINESTRING (129.798651 174.746850, 140.873506 128.684072)

LINESTRING (129.798651 174.746850, 137.463243 145.525276)

LINESTRING (129.798651 174.746850, 179.537888 173.819136)

LINESTRING (129.798651 174.746850, 167.145697 122.682019)

LINESTRING (129.798651 174.746850, 176.200990 176.553600)

LINESTRING (129.798651 174.746850, 131.084412 149.752235)

LINESTRING (129.798651 174.746850, 159.666896 162.474822)

LINESTRING (129.798651 174.746850, 124.490204 171.210079)

LINESTRING (129.798651 174.746850, 166.317916 102.607038)

LINESTRING (129.798651 174.746850, 147.864263 108.521358)

LINESTRING (125.747466 150.887798, 119.216082 137.131053)

LINESTRING (125.747466 150.887798, 140.873506 128.684072)

LINESTRING (125.747466 150.887798, 137.463243 145.525276)

LINESTRING (125.747466 150.887798, 179.537888 173.819136)

LINESTRING (125.747466 150.887798, 167.145697 122.682019)

LINESTRING (125.747466 150.887798, 176.200990 176.553600)

LINESTRING (125.747466 150.887798, 131.084412 149.752235)

LINESTRING (125.747466 150.887798, 159.666896 162.474822)

LINESTRING (125.747466 150.887798, 124.490204 171.210079)

LINESTRING (125.747466 150.887798, 179.168231 176.112103)

LINESTRING (125.747466 150.887798, 166.317916 102.607038)

LINESTRING (125.747466 150.887798, 147.864263 108.521358)

LINESTRING (119.216082 137.131053, 140.873506 128.684072)

LINESTRING (119.216082 137.131053, 137.463243 145.525276)

LINESTRING (119.216082 137.131053, 179.537888 173.819136)

LINESTRING (119.216082 137.131053, 167.145697 122.682019)

LINESTRING (119.216082 137.131053, 176.200990 176.553600)

LINESTRING (119.216082 137.131053, 131.084412 149.752235)

LINESTRING (119.216082 137.131053, 159.666896 162.474822)

LINESTRING (119.216082 137.131053, 124.490204 171.210079)

LINESTRING (119.216082 137.131053, 179.168231 176.112103)

LINESTRING (119.216082 137.131053, 166.317916 102.607038)

LINESTRING (119.216082 137.131053, 147.864263 108.521358)

LINESTRING (140.873506 128.684072, 179.537888 173.819136)

LINESTRING (140.873506 128.684072, 167.145697 122.682019)

LINESTRING (140.873506 128.684072, 176.200990 176.553600)

LINESTRING (140.873506 128.684072, 131.084412 149.752235)

LINESTRING (140.873506 128.684072, 159.666896 162.474822)

LINESTRING (140.873506 128.684072, 124.490204 171.210079)

LINESTRING (140.873506 128.684072, 179.168231 176.112103)

LINESTRING (137.463243 145.525276, 179.537888 173.819136)

LINESTRING (137.463243 145.525276, 176.200990 176.553600)

LINESTRING (137.463243 145.525276, 131.084412 149.752235)

LINESTRING (137.463243 145.525276, 124.490204 171.210079)

LINESTRING (137.463243 145.525276, 166.317916 102.607038)

LINESTRING (137.463243 145.525276, 147.864263 108.521358)

LINESTRING (179.537888 173.819136, 167.145697 122.682019)

LINESTRING (179.537888 173.819136, 131.084412 149.752235)

LINESTRING (179.537888 173.819136, 124.490204 171.210079)

LINESTRING (179.537888 173.819136, 179.168231 176.112103)

LINESTRING (179.537888 173.819136, 166.317916 102.607038)

LINESTRING (179.537888 173.819136, 147.864263 108.521358)

LINESTRING (167.145697 122.682019, 176.200990 176.553600)

LINESTRING (167.145697 122.682019, 131.084412 149.752235)

LINESTRING (167.145697 122.682019, 159.666896 162.474822)

LINESTRING (167.145697 122.682019, 124.490204 171.210079)

LINESTRING (167.145697 122.682019, 179.168231 176.112103)

LINESTRING (167.145697 122.682019, 166.317916 102.607038)

LINESTRING (167.145697 122.682019, 147.864263 108.521358)

LINESTRING (176.200990 176.553600, 124.490204 171.210079)

LINESTRING (176.200990 176.553600, 179.168231 176.112103)

LINESTRING (176.200990 176.553600, 147.864263 108.521358)

LINESTRING (131.084412 149.752235, 159.666896 162.474822)

LINESTRING (131.084412 149.752235, 124.490204 171.210079)

LINESTRING (131.084412 149.752235, 179.168231 176.112103)

LINESTRING (131.084412 149.752235, 166.317916 102.607038)

LINESTRING (159.666896 162.474822, 124.490204 171.210079)

LINESTRING (159.666896 162.474822, 179.168231 176.112103)

LINESTRING (159.666896 162.474822, 147.864263 108.521358)

LINESTRING (124.490204 171.210079, 179.168231 176.112103)

LINESTRING (124.490204 171.210079, 166.317916 102.607038)

LINESTRING (179.168231 176.112103, 166.317916 102.607038)

LINESTRING (179.168231 176.112103, 147.864263 108.521358)

LINESTRING (467.936921 176.958633, 481.963199 130.015514)

LINESTRING (467.936921 176.958633, 463.965349 141.901555)

LINESTRING (467.936921 176.958633, 504.954624 158.234638)

LINESTRING (467.936921 176.958633, 464.961321 112.995014)

LINESTRING (467.936921 176.958633, 527.322690 127.691940)

LINESTRING (467.936921 176.958633, 472.774178 170.768099)

LINESTRING (467.936921 176.958633, 472.533078 175.405441)

LINESTRING (467.936921 176.958633, 478.693926 128.572945)

LINESTRING (467.936921 176.958633, 526.809214 150.215772)

LINESTRING (467.936921 176.958633, 469.336624 118.721737)

LINESTRING (467.936921 176.958633, 479.984714 158.535437)

LINESTRING (467.936921 176.958633, 455.785701 134.318788)

LINESTRING (467.936921 176.958633, 483.528903 148.509703)

LINESTRING (467.936921 176.958633, 486.100346 176.084371)

LINESTRING (467.936921 176.958633, 522.843456 116.403727)

LINESTRING (467.936921 176.958633, 488.210048 144.814499)

LINESTRING (467.936921 176.958633, 482.351184 165.368650)

LINESTRING (467.936921 176.958633, 485.279163 129.209663)

LINESTRING (467.936921 176.958633, 518.817062 173.138651)

LINESTRING (467.936921 176.958633, 459.579485 117.731851)

LINESTRING (467.936921 176.958633, 465.311704 154.054794)

LINESTRING (481.963199 130.015514, 463.965349 141.901555)

LINESTRING (481.963199 130.015514, 502.126037 178.173374)

LINESTRING (481.963199 130.015514, 504.954624 158.234638)

LINESTRING (481.963199 130.015514, 464.961321 112.995014)

LINESTRING (481.963199 130.015514, 527.322690 127.691940)

LINESTRING (481.963199 130.015514, 472.533078 175.405441)

LINESTRING (481.963199 130.015514, 497.155505 179.148606)

LINESTRING (481.963199 130.015514, 469.336624 118.721737)

LINESTRING (481.963199 130.015514, 479.984714 158.535437)

LINESTRING (481.963199 130.015514, 455.785701 134.318788)

LINESTRING (481.963199 130.015514, 483.528903 148.509703)

LINESTRING (481.963199 130.015514, 486.100346 176.084371)

LINESTRING (481.963199 130.015514, 488.210048 144.814499)

LINESTRING (481.963199 130.015514, 485.279163 129.209663)

LINESTRING (481.963199 130.015514, 459.579485 117.731851)

LINESTRING (481.963199 130.015514, 465.311704 154.054794)

LINESTRING (463.965349 141.901555, 502.126037 178.173374)

LINESTRING (463.965349 141.901555, 504.954624 158.234638)

LINESTRING (463.965349 141.901555, 464.961321 112.995014)

LINESTRING (463.965349 141.901555, 527.322690 127.691940)

LINESTRING (463.965349 141.901555, 472.774178 170.768099)

LINESTRING (463.965349 141.901555, 499.754713 145.929213)

LINESTRING (463.965349 141.901555, 472.533078 175.405441)

LINESTRING (463.965349 141.901555, 478.693926 128.572945)

LINESTRING (463.965349 141.901555, 526.809214 150.215772)

LINESTRING (463.965349 141.901555, 497.155505 179.148606)

LINESTRING (463.965349 141.901555, 469.336624 118.721737)

LINESTRING (463.965349 141.901555, 479.984714 158.535437)

LINESTRING (463.965349 141.901555, 455.785701 134.318788)

LINESTRING (463.965349 141.901555, 483.528903 148.509703)

LINESTRING (463.965349 141.901555, 486.100346 176.084371)

LINESTRING (463.965349 141.901555, 522.843456 116.403727)

LINESTRING (463.965349 141.901555, 488.210048 144.814499)

LINESTRING (463.965349 141.901555, 482.351184 165.368650)

LINESTRING (463.965349 141.901555, 459.579485 117.731851)

LINESTRING (463.965349 141.901555, 465.311704 154.054794)

LINESTRING (502.126037 178.173374, 504.954624 158.234638)

LINESTRING (502.126037 178.173374, 464.961321 112.995014)

LINESTRING (502.126037 178.173374, 472.774178 170.768099)

LINESTRING (502.126037 178.173374, 499.754713 145.929213)

LINESTRING (502.126037 178.173374, 478.693926 128.572945)

LINESTRING (502.126037 178.173374, 526.809214 150.215772)

LINESTRING (502.126037 178.173374, 497.155505 179.148606)

LINESTRING (502.126037 178.173374, 469.336624 118.721737)

LINESTRING (502.126037 178.173374, 479.984714 158.535437)

LINESTRING (502.126037 178.173374, 483.528903 148.509703)

LINESTRING (502.126037 178.173374, 486.100346 176.084371)

LINESTRING (502.126037 178.173374, 522.843456 116.403727)

LINESTRING (502.126037 178.173374, 488.210048 144.814499)

LINESTRING (502.126037 178.173374, 485.279163 129.209663)

LINESTRING (502.126037 178.173374, 518.817062 173.138651)

LINESTRING (502.126037 178.173374, 459.579485 117.731851)

LINESTRING (502.126037 178.173374, 465.311704 154.054794)

LINESTRING (504.954624 158.234638, 464.961321 112.995014)

LINESTRING (504.954624 158.234638, 472.774178 170.768099)

LINESTRING (504.954624 158.234638, 499.754713 145.929213)

LINESTRING (504.954624 158.234638, 472.533078 175.405441)

LINESTRING (504.954624 158.234638, 478.693926 128.572945)

LINESTRING (504.954624 158.234638, 526.809214 150.215772)

LINESTRING (504.954624 158.234638, 497.155505 179.148606)

LINESTRING (504.954624 158.234638, 469.336624 118.721737)

LINESTRING (504.954624 158.234638, 479.984714 158.535437)

LINESTRING (504.954624 158.234638, 455.785701 134.318788)

LINESTRING (504.954624 158.234638, 486.100346 176.084371)

LINESTRING (504.954624 158.234638, 522.843456 116.403727)

LINESTRING (504.954624 158.234638, 518.817062 173.138651)

LINESTRING (504.954624 158.234638, 459.579485 117.731851)

LINESTRING (504.954624 158.234638, 465.311704 154.054794)

LINESTRING (464.961321 112.995014, 527.322690 127.691940)

LINESTRING (464.961321 112.995014, 472.774178 170.768099)

LINESTRING (464.961321 112.995014, 472.533078 175.405441)

LINESTRING (464.961321 112.995014, 478.693926 128.572945)

LINESTRING (464.961321 112.995014, 526.809214 150.215772)

LINESTRING (464.961321 112.995014, 469.336624 118.721737)

LINESTRING (464.961321 112.995014, 479.984714 158.535437)

LINESTRING (464.961321 112.995014, 455.785701 134.318788)

LINESTRING (464.961321 112.995014, 483.528903 148.509703)

LINESTRING (464.961321 112.995014, 486.100346 176.084371)

LINESTRING (464.961321 112.995014, 522.843456 116.403727)

LINESTRING (464.961321 112.995014, 488.210048 144.814499)

LINESTRING (464.961321 112.995014, 482.351184 165.368650)

LINESTRING (464.961321 112.995014, 518.817062 173.138651)

LINESTRING (527.322690 127.691940, 472.774178 170.768099)

LINESTRING (527.322690 127.691940, 499.754713 145.929213)

LINESTRING (527.322690 127.691940, 478.693926 128.572945)

LINESTRING (527.322690 127.691940, 497.155505 179.148606)

LINESTRING (527.322690 127.691940, 479.984714 158.535437)

LINESTRING (527.322690 127.691940, 455.785701 134.318788)

LINESTRING (527.322690 127.691940, 483.528903 148.509703)

LINESTRING (527.322690 127.691940, 486.100346 176.084371)

LINESTRING (527.322690 127.691940, 522.843456 116.403727)

LINESTRING (527.322690 127.691940, 482.351184 165.368650)

LINESTRING (527.322690 127.691940, 485.279163 129.209663)

LINESTRING (527.322690 127.691940, 518.817062 173.138651)

LINESTRING (527.322690 127.691940, 465.311704 154.054794)

LINESTRING (472.774178 170.768099, 499.754713 145.929213)

LINESTRING (472.774178 170.768099, 472.533078 175.405441)

LINESTRING (472.774178 170.768099, 497.155505 179.148606)

LINESTRING (472.774178 170.768099, 469.336624 118.721737)

LINESTRING (472.774178 170.768099, 479.984714 158.535437)

LINESTRING (472.774178 170.768099, 455.785701 134.318788)

LINESTRING (472.774178 170.768099, 486.100346 176.084371)

LINESTRING (472.774178 170.768099, 522.843456 116.403727)

LINESTRING (472.774178 170.768099, 488.210048 144.814499)

LINESTRING (472.774178 170.768099, 482.351184 165.368650)

LINESTRING (472.774178 170.768099, 518.817062 173.138651)

LINESTRING (472.774178 170.768099, 459.579485 117.731851)

LINESTRING (499.754713 145.929213, 472.533078 175.405441)

LINESTRING (499.754713 145.929213, 478.693926 128.572945)

LINESTRING (499.754713 145.929213, 526.809214 150.215772)

LINESTRING (499.754713 145.929213, 497.155505 179.148606)

LINESTRING (499.754713 145.929213, 479.984714 158.535437)

LINESTRING (499.754713 145.929213, 455.785701 134.318788)

LINESTRING (499.754713 145.929213, 483.528903 148.509703)

LINESTRING (499.754713 145.929213, 486.100346 176.084371)

LINESTRING (499.754713 145.929213, 522.843456 116.403727)

LINESTRING (499.754713 145.929213, 488.210048 144.814499)

LINESTRING (499.754713 145.929213, 482.351184 165.368650)

LINESTRING (499.754713 145.929213, 518.817062 173.138651)

LINESTRING (499.754713 145.929213, 459.579485 117.731851)

LINESTRING (472.533078 175.405441, 526.809214 150.215772)

LINESTRING (472.533078 175.405441, 497.155505 179.148606)

LINESTRING (472.533078 175.405441, 469.336624 118.721737)

LINESTRING (472.533078 175.405441, 455.785701 134.318788)

LINESTRING (472.533078 175.405441, 483.528903 148.509703)

LINESTRING (472.533078 175.405441, 486.100346 176.084371)

LINESTRING (472.533078 175.405441, 522.843456 116.403727)

LINESTRING (472.533078 175.405441, 488.210048 144.814499)

LINESTRING (472.533078 175.405441, 482.351184 165.368650)

LINESTRING (472.533078 175.405441, 485.279163 129.209663)

LINESTRING (472.533078 175.405441, 459.579485 117.731851)

LINESTRING (472.533078 175.405441, 465.311704 154.054794)

LINESTRING (478.693926 128.572945, 526.809214 150.215772)

LINESTRING (478.693926 128.572945, 497.155505 179.148606)

LINESTRING (478.693926 128.572945, 469.336624 118.721737)

LINESTRING (478.693926 128.572945, 479.984714 158.535437)

LINESTRING (478.693926 128.572945, 455.785701 134.318788)

LINESTRING (478.693926 128.572945, 483.528903 148.509703)

LINESTRING (478.693926 128.572945, 486.100346 176.084371)

LINESTRING (478.693926 128.572945, 522.843456 116.403727)

LINESTRING (478.693926 128.572945, 488.210048 144.814499)

LINESTRING (478.693926 128.572945, 518.817062 173.138651)

LINESTRING (478.693926 128.572945, 465.311704 154.054794)

LINESTRING (526.809214 150.215772, 497.155505 179.148606)

LINESTRING (526.809214 150.215772, 469.336624 118.721737)

LINESTRING (526.809214 150.215772, 479.984714 158.535437)

LINESTRING (526.809214 150.215772, 455.785701 134.318788)

LINESTRING (526.809214 150.215772, 483.528903 148.509703)

LINESTRING (526.809214 150.215772, 522.843456 116.403727)

LINESTRING (526.809214 150.215772, 488.210048 144.814499)

LINESTRING (526.809214 150.215772, 482.351184 165.368650)

LINESTRING (526.809214 150.215772, 485.279163 129.209663)

LINESTRING (526.809214 150.215772, 459.579485 117.731851)

LINESTRING (526.809214 150.215772, 465.311704 154.054794)

LINESTRING (497.155505 179.148606, 469.336624 118.721737)

LINESTRING (497.155505 179.148606, 455.785701 134.318788)

LINESTRING (497.155505 179.148606, 483.528903 148.509703)

LINESTRING (497.155505 179.148606, 486.100346 176.084371)

LINESTRING (497.155505 179.148606, 522.843456 116.403727)

LINESTRING (497.155505 179.148606, 488.210048 144.814499)

LINESTRING (497.155505 179.148606, 482.351184 165.368650)

LINESTRING (497.155505 179.148606, 485.279163 129.209663)

LINESTRING (497.155505 179.148606, 518.817062 173.138651)

LINESTRING (497.155505 179.148606, 459.579485 117.731851)

LINESTRING (497.155505 179.148606, 465.311704 154.054794)

LINESTRING (469.336624 118.721737, 479.984714 158.535437)

LINESTRING (469.336624 118.721737, 455.785701 134.318788)

LINESTRING (469.336624 118.721737, 483.528903 148.509703)

LINESTRING (469.336624 118.721737, 486.100346 176.084371)

LINESTRING (469.336624 118.721737, 522.843456 116.403727)

LINESTRING (469.336624 118.721737, 488.210048 144.814499)

LINESTRING (469.336624 118.721737, 482.351184 165.368650)

LINESTRING (469.336624 118.721737, 485.279163 129.209663)

LINESTRING (469.336624 118.721737, 518.817062 173.138651)

LINESTRING (469.336624 118.721737, 459.579485 117.731851)

LINESTRING (469.336624 118.721737, 465.311704 154.054794)

LINESTRING (479.984714 158.535437, 455.785701 134.318788)

LINESTRING (479.984714 158.535437, 483.528903 148.509703)

LINESTRING (479.984714 158.535437, 486.100346 176.084371)

LINESTRING (479.984714 158.535437, 522.843456 116.403727)

LINESTRING (479.984714 158.535437, 488.210048 144.814499)

LINESTRING (479.984714 158.535437, 485.279163 129.209663)

LINESTRING (479.984714 158.535437, 518.817062 173.138651)

LINESTRING (479.984714 158.535437, 459.579485 117.731851)

LINESTRING (479.984714 158.535437, 465.311704 154.054794)

LINESTRING (455.785701 134.318788, 483.528903 148.509703)

LINESTRING (455.785701 134.318788, 486.100346 176.084371)

LINESTRING (455.785701 134.318788, 522.843456 116.403727)

LINESTRING (455.785701 134.318788, 488.210048 144.814499)

LINESTRING (455.785701 134.318788, 482.351184 165.368650)

LINESTRING (455.785701 134.318788, 485.279163 129.209663)

LINESTRING (455.785701 134.318788, 518.817062 173.138651)

LINESTRING (455.785701 134.318788, 459.579485 117.731851)

LINESTRING (455.785701 134.318788, 465.311704 154.054794)

LINESTRING (483.528903 148.509703, 486.100346 176.084371)

LINESTRING (483.528903 148.509703, 482.351184 165.368650)

LINESTRING (483.528903 148.509703, 485.279163 129.209663)

LINESTRING (483.528903 148.509703, 518.817062 173.138651)

LINESTRING (483.528903 148.509703, 459.579485 117.731851)

LINESTRING (486.100346 176.084371, 522.843456 116.403727)

LINESTRING (486.100346 176.084371, 488.210048 144.814499)

LINESTRING (486.100346 176.084371, 482.351184 165.368650)

LINESTRING (486.100346 176.084371, 485.279163 129.209663)

LINESTRING (486.100346 176.084371, 518.817062 173.138651)

LINESTRING (486.100346 176.084371, 459.579485 117.731851)

LINESTRING (486.100346 176.084371, 465.311704 154.054794)

LINESTRING (522.843456 116.403727, 482.351184 165.368650)

LINESTRING (522.843456 116.403727, 485.279163 129.209663)

LINESTRING (522.843456 116.403727, 459.579485 117.731851)

LINESTRING (522.843456 116.403727, 465.311704 154.054794)

LINESTRING (488.210048 144.814499, 482.351184 165.368650)

LINESTRING (488.210048 144.814499, 518.817062 173.138651)

LINESTRING (488.210048 144.814499, 459.579485 117.731851)

LINESTRING (488.210048 144.814499, 465.311704 154.054794)

LINESTRING (482.351184 165.368650, 485.279163 129.209663)

LINESTRING (482.351184 165.368650, 518.817062 173.138651)

LINESTRING (482.351184 165.368650, 459.579485 117.731851)

LINESTRING (485.279163 129.209663, 518.817062 173.138651)

LINESTRING (485.279163 129.209663, 459.579485 117.731851)

LINESTRING (485.279163 129.209663, 465.311704 154.054794)

LINESTRING (518.817062 173.138651, 459.579485 117.731851)

LINESTRING (518.817062 173.138651, 465.311704 154.054794)

LINESTRING (862.576795 150.261236, 832.926805 133.746391)

LINESTRING (862.576795 150.261236, 850.609890 178.130724)

LINESTRING (862.576795 150.261236, 832.600426 160.083724)

LINESTRING (862.576795 150.261236, 842.932329 123.457464)

LINESTRING (862.576795 150.261236, 847.957962 111.787161)

LINESTRING (862.576795 150.261236, 869.692696 108.542932)

LINESTRING (862.576795 150.261236, 830.649403 120.024856)

LINESTRING (862.576795 150.261236, 803.947069 104.773563)

LINESTRING (862.576795 150.261236, 852.089337 138.611301)

LINESTRING (862.576795 150.261236, 854.353185 152.259809)

LINESTRING (862.576795 150.261236, 835.554252 156.224121)

LINESTRING (862.576795 150.261236, 863.264961 156.286501)

LINESTRING (862.576795 150.261236, 858.052753 105.523815)

LINESTRING (862.576795 150.261236, 806.754186 166.005037)

LINESTRING (862.576795 150.261236, 839.406639 142.261042)

LINESTRING (862.576795 150.261236, 843.219140 173.209727)

LINESTRING (862.576795 150.261236, 841.247757 153.358022)

LINESTRING (862.576795 150.261236, 862.635292 108.863362)

LINESTRING (832.926805 133.746391, 850.609890 178.130724)

LINESTRING (832.926805 133.746391, 832.600426 160.083724)

LINESTRING (832.926805 133.746391, 847.957962 111.787161)

LINESTRING (832.926805 133.746391, 809.281849 169.996176)

LINESTRING (832.926805 133.746391, 869.692696 108.542932)

LINESTRING (832.926805 133.746391, 830.649403 120.024856)

LINESTRING (832.926805 133.746391, 874.279218 164.788374)

LINESTRING (832.926805 133.746391, 803.947069 104.773563)

LINESTRING (832.926805 133.746391, 818.602244 152.678812)

LINESTRING (832.926805 133.746391, 852.089337 138.611301)

LINESTRING (832.926805 133.746391, 835.554252 156.224121)

LINESTRING (832.926805 133.746391, 863.264961 156.286501)

LINESTRING (832.926805 133.746391, 858.052753 105.523815)

LINESTRING (832.926805 133.746391, 819.661476 146.511351)

LINESTRING (832.926805 133.746391, 806.754186 166.005037)

LINESTRING (832.926805 133.746391, 843.219140 173.209727)

LINESTRING (832.926805 133.746391, 841.247757 153.358022)

LINESTRING (832.926805 133.746391, 862.635292 108.863362)

LINESTRING (850.609890 178.130724, 832.600426 160.083724)

LINESTRING (850.609890 178.130724, 836.949043 120.996415)

LINESTRING (850.609890 178.130724, 847.957962 111.787161)

LINESTRING (850.609890 178.130724, 869.692696 108.542932)

LINESTRING (850.609890 178.130724, 830.649403 120.024856)

LINESTRING (850.609890 178.130724, 874.279218 164.788374)

LINESTRING (850.609890 178.130724, 803.947069 104.773563)

LINESTRING (850.609890 178.130724, 818.602244 152.678812)

LINESTRING (850.609890 178.130724, 852.089337 138.611301)

LINESTRING (850.609890 178.130724, 854.353185 152.259809)

LINESTRING (850.609890 178.130724, 835.554252 156.224121)

LINESTRING (850.609890 178.130724, 846.691011 142.257719)

LINESTRING (850.609890 178.130724, 863.264961 156.286501)

LINESTRING (850.609890 178.130724, 858.052753 105.523815)

LINESTRING (850.609890 178.130724, 819.661476 146.511351)

LINESTRING (850.609890 178.130724, 806.754186 166.005037)

LINESTRING (850.609890 178.130724, 839.406639 142.261042)

LINESTRING (850.609890 178.130724, 841.247757 153.358022)

LINESTRING (850.609890 178.130724, 862.635292 108.863362)

LINESTRING (832.600426 160.083724, 836.949043 120.996415)

LINESTRING (832.600426 160.083724, 847.957962 111.787161)

LINESTRING (832.600426 160.083724, 809.281849 169.996176)

LINESTRING (832.600426 160.083724, 869.692696 108.542932)

LINESTRING (832.600426 160.083724, 874.279218 164.788374)

LINESTRING (832.600426 160.083724, 818.602244 152.678812)

LINESTRING (832.600426 160.083724, 852.089337 138.611301)

LINESTRING (832.600426 160.083724, 835.554252 156.224121)

LINESTRING (832.600426 160.083724, 863.264961 156.286501)

LINESTRING (832.600426 160.083724, 858.052753 105.523815)

LINESTRING (832.600426 160.083724, 806.754186 166.005037)

LINESTRING (832.600426 160.083724, 843.219140 173.209727)

LINESTRING (832.600426 160.083724, 841.247757 153.358022)

LINESTRING (832.600426 160.083724, 862.635292 108.863362)

LINESTRING (836.949043 120.996415, 842.932329 123.457464)

LINESTRING (836.949043 120.996415, 809.281849 169.996176)

LINESTRING (836.949043 120.996415, 874.279218 164.788374)

LINESTRING (836.949043 120.996415, 803.947069 104.773563)

LINESTRING (836.949043 120.996415, 818.602244 152.678812)

LINESTRING (836.949043 120.996415, 852.089337 138.611301)

LINESTRING (836.949043 120.996415, 854.353185 152.259809)

LINESTRING (836.949043 120.996415, 835.554252 156.224121)

LINESTRING (836.949043 120.996415, 846.691011 142.257719)

LINESTRING (836.949043 120.996415, 863.264961 156.286501)

LINESTRING (836.949043 120.996415, 819.661476 146.511351)

LINESTRING (836.949043 120.996415, 841.247757 153.358022)

LINESTRING (836.949043 120.996415, 862.635292 108.863362)

LINESTRING (842.932329 123.457464, 847.957962 111.787161)

LINESTRING (842.932329 123.457464, 809.281849 169.996176)

LINESTRING (842.932329 123.457464, 869.692696 108.542932)

LINESTRING (842.932329 123.457464, 830.649403 120.024856)

LINESTRING (842.932329 123.457464, 803.947069 104.773563)

LINESTRING (842.932329 123.457464, 818.602244 152.678812)

LINESTRING (842.932329 123.457464, 852.089337 138.611301)

LINESTRING (842.932329 123.457464, 846.691011 142.257719)

LINESTRING (842.932329 123.457464, 863.264961 156.286501)

LINESTRING (842.932329 123.457464, 858.052753 105.523815)

LINESTRING (842.932329 123.457464, 819.661476 146.511351)

LINESTRING (842.932329 123.457464, 806.754186 166.005037)

LINESTRING (842.932329 123.457464, 839.406639 142.261042)

LINESTRING (842.932329 123.457464, 843.219140 173.209727)

LINESTRING (842.932329 123.457464, 841.247757 153.358022)

LINESTRING (847.957962 111.787161, 830.649403 120.024856)

LINESTRING (847.957962 111.787161, 874.279218 164.788374)

LINESTRING (847.957962 111.787161, 803.947069 104.773563)

LINESTRING (847.957962 111.787161, 818.602244 152.678812)

LINESTRING (847.957962 111.787161, 852.089337 138.611301)

LINESTRING (847.957962 111.787161, 854.353185 152.259809)

LINESTRING (847.957962 111.787161, 835.554252 156.224121)

LINESTRING (847.957962 111.787161, 846.691011 142.257719)

LINESTRING (847.957962 111.787161, 863.264961 156.286501)

LINESTRING (847.957962 111.787161, 858.052753 105.523815)

LINESTRING (847.957962 111.787161, 819.661476 146.511351)

LINESTRING (847.957962 111.787161, 806.754186 166.005037)

LINESTRING (847.957962 111.787161, 843.219140 173.209727)

LINESTRING (847.957962 111.787161, 862.635292 108.863362)

LINESTRING (809.281849 169.996176, 874.279218 164.788374)

LINESTRING (809.281849 169.996176, 803.947069 104.773563)

LINESTRING (809.281849 169.996176, 818.602244 152.678812)

LINESTRING (809.281849 169.996176, 854.353185 152.259809)

LINESTRING (809.281849 169.996176, 835.554252 156.224121)

LINESTRING (809.281849 169.996176, 863.264961 156.286501)

LINESTRING (809.281849 169.996176, 858.052753 105.523815)

LINESTRING (809.281849 169.996176, 806.754186 166.005037)

LINESTRING (809.281849 169.996176, 839.406639 142.261042)

LINESTRING (809.281849 169.996176, 843.219140 173.209727)

LINESTRING (809.281849 169.996176, 862.635292 108.863362)

LINESTRING (869.692696 108.542932, 830.649403 120.024856)

LINESTRING (869.692696 108.542932, 874.279218 164.788374)

LINESTRING (869.692696 108.542932, 803.947069 104.773563)

LINESTRING (869.692696 108.542932, 818.602244 152.678812)

LINESTRING (869.692696 108.542932, 852.089337 138.611301)

LINESTRING (869.692696 108.542932, 854.353185 152.259809)

LINESTRING (869.692696 108.542932, 835.554252 156.224121)

LINESTRING (869.692696 108.542932, 846.691011 142.257719)

LINESTRING (869.692696 108.542932, 863.264961 156.286501)

LINESTRING (869.692696 108.542932, 858.052753 105.523815)

LINESTRING (869.692696 108.542932, 819.661476 146.511351)

LINESTRING (869.692696 108.542932, 806.754186 166.005037)

LINESTRING (869.692696 108.542932, 839.406639 142.261042)

LINESTRING (869.692696 108.542932, 841.247757 153.358022)

LINESTRING (869.692696 108.542932, 862.635292 108.863362)

LINESTRING (830.649403 120.024856, 803.947069 104.773563)

LINESTRING (830.649403 120.024856, 818.602244 152.678812)

LINESTRING (830.649403 120.024856, 852.089337 138.611301)

LINESTRING (830.649403 120.024856, 854.353185 152.259809)

LINESTRING (830.649403 120.024856, 835.554252 156.224121)

LINESTRING (830.649403 120.024856, 846.691011 142.257719)

LINESTRING (830.649403 120.024856, 863.264961 156.286501)

LINESTRING (830.649403 120.024856, 858.052753 105.523815)

LINESTRING (830.649403 120.024856, 819.661476 146.511351)

LINESTRING (830.649403 120.024856, 806.754186 166.005037)

LINESTRING (830.649403 120.024856, 839.406639 142.261042)

LINESTRING (830.649403 120.024856, 843.219140 173.209727)

LINESTRING (830.649403 120.024856, 841.247757 153.358022)

LINESTRING (830.649403 120.024856, 862.635292 108.863362)

LINESTRING (874.279218 164.788374, 803.947069 104.773563)

LINESTRING (874.279218 164.788374, 818.602244 152.678812)

LINESTRING (874.279218 164.788374, 854.353185 152.259809)

LINESTRING (874.279218 164.788374, 835.554252 156.224121)

LINESTRING (874.279218 164.788374, 846.691011 142.257719)

LINESTRING (874.279218 164.788374, 863.264961 156.286501)

LINESTRING (874.279218 164.788374, 858.052753 105.523815)

LINESTRING (874.279218 164.788374, 806.754186 166.005037)

LINESTRING (874.279218 164.788374, 843.219140 173.209727)

LINESTRING (874.279218 164.788374, 841.247757 153.358022)

LINESTRING (874.279218 164.788374, 862.635292 108.863362)

LINESTRING (803.947069 104.773563, 818.602244 152.678812)

LINESTRING (803.947069 104.773563, 852.089337 138.611301)

LINESTRING (803.947069 104.773563, 854.353185 152.259809)

LINESTRING (803.947069 104.773563, 835.554252 156.224121)

LINESTRING (803.947069 104.773563, 846.691011 142.257719)

LINESTRING (803.947069 104.773563, 863.264961 156.286501)

LINESTRING (803.947069 104.773563, 819.661476 146.511351)

LINESTRING (803.947069 104.773563, 806.754186 166.005037)

LINESTRING (803.947069 104.773563, 839.406639 142.261042)

LINESTRING (803.947069 104.773563, 841.247757 153.358022)

LINESTRING (803.947069 104.773563, 862.635292 108.863362)

LINESTRING (818.602244 152.678812, 852.089337 138.611301)

LINESTRING (818.602244 152.678812, 854.353185 152.259809)

LINESTRING (818.602244 152.678812, 835.554252 156.224121)

LINESTRING (818.602244 152.678812, 846.691011 142.257719)

LINESTRING (818.602244 152.678812, 863.264961 156.286501)

LINESTRING (818.602244 152.678812, 858.052753 105.523815)

LINESTRING (818.602244 152.678812, 819.661476 146.511351)

LINESTRING (818.602244 152.678812, 839.406639 142.261042)

LINESTRING (818.602244 152.678812, 843.219140 173.209727)

LINESTRING (852.089337 138.611301, 835.554252 156.224121)

LINESTRING (852.089337 138.611301, 846.691011 142.257719)

LINESTRING (852.089337 138.611301, 863.264961 156.286501)

LINESTRING (852.089337 138.611301, 858.052753 105.523815)

LINESTRING (852.089337 138.611301, 819.661476 146.511351)

LINESTRING (852.089337 138.611301, 839.406639 142.261042)

LINESTRING (852.089337 138.611301, 843.219140 173.209727)

LINESTRING (852.089337 138.611301, 841.247757 153.358022)

LINESTRING (852.089337 138.611301, 862.635292 108.863362)

LINESTRING (854.353185 152.259809, 835.554252 156.224121)

LINESTRING (854.353185 152.259809, 846.691011 142.257719)

LINESTRING (854.353185 152.259809, 863.264961 156.286501)

LINESTRING (854.353185 152.259809, 858.052753 105.523815)

LINESTRING (854.353185 152.259809, 819.661476 146.511351)

LINESTRING (854.353185 152.259809, 839.406639 142.261042)

LINESTRING (854.353185 152.259809, 841.247757 153.358022)

LINESTRING (854.353185 152.259809, 862.635292 108.863362)

LINESTRING (835.554252 156.224121, 863.264961 156.286501)

LINESTRING (835.554252 156.224121, 858.052753 105.523815)

LINESTRING (835.554252 156.224121, 819.661476 146.511351)

LINESTRING (835.554252 156.224121, 806.754186 166.005037)

LINESTRING (835.554252 156.224121, 839.406639 142.261042)

LINESTRING (835.554252 156.224121, 843.219140 173.209727)

LINESTRING (835.554252 156.224121, 841.247757 153.358022)

LINESTRING (835.554252 156.224121, 862.635292 108.863362)

LINESTRING (846.691011 142.257719, 806.754186 166.005037)

LINESTRING (846.691011 142.257719, 839.406639 142.261042)

LINESTRING (846.691011 142.257719, 843.219140 173.209727)

LINESTRING (846.691011 142.257719, 841.247757 153.358022)

LINESTRING (846.691011 142.257719, 862.635292 108.863362)

LINESTRING (863.264961 156.286501, 858.052753 105.523815)

LINESTRING (863.264961 156.286501, 819.661476 146.511351)

LINESTRING (863.264961 156.286501, 806.754186 166.005037)

LINESTRING (863.264961 156.286501, 839.406639 142.261042)

LINESTRING (863.264961 156.286501, 843.219140 173.209727)

LINESTRING (863.264961 156.286501, 841.247757 153.358022)

LINESTRING (863.264961 156.286501, 862.635292 108.863362)

LINESTRING (858.052753 105.523815, 819.661476 146.511351)

LINESTRING (858.052753 105.523815, 806.754186 166.005037)

LINESTRING (858.052753 105.523815, 841.247757 153.358022)

LINESTRING (858.052753 105.523815, 862.635292 108.863362)

LINESTRING (819.661476 146.511351, 839.406639 142.261042)

LINESTRING (819.661476 146.511351, 841.247757 153.358022)

LINESTRING (819.661476 146.511351, 862.635292 108.863362)

LINESTRING (806.754186 166.005037, 839.406639 142.261042)

LINESTRING (806.754186 166.005037, 843.219140 173.209727)

LINESTRING (806.754186 166.005037, 862.635292 108.863362)

LINESTRING (839.406639 142.261042, 841.247757 153.358022)

LINESTRING (839.406639 142.261042, 862.635292 108.863362)

LINESTRING (843.219140 173.209727, 862.635292 108.863362)

LINESTRING (841.247757 153.358022, 862.635292 108.863362)

LINESTRING (1195.113246 146.667111, 1189.555091 175.531394)

LINESTRING (1195.113246 146.667111, 1198.530861 116.730079)

LINESTRING (1195.113246 146.667111, 1209.505076 143.098049)

LINESTRING (1195.113246 146.667111, 1196.423771 156.681113)

LINESTRING (1195.113246 146.667111, 1160.078013 129.320559)

LINESTRING (1195.113246 146.667111, 1202.668655 122.253804)

LINESTRING (1195.113246 146.667111, 1158.235073 111.370595)

LINESTRING (1195.113246 146.667111, 1188.897082 144.754751)

LINESTRING (1195.113246 146.667111, 1198.504231 107.996157)

LINESTRING (1195.113246 146.667111, 1201.274675 160.293593)

LINESTRING (1195.113246 146.667111, 1157.388735 140.876693)

LINESTRING (1195.113246 146.667111, 1199.884422 152.389889)

LINESTRING (1195.113246 146.667111, 1204.879521 126.551364)

LINESTRING (1195.113246 146.667111, 1195.085950 135.321963)

LINESTRING (1195.113246 146.667111, 1221.363789 135.652894)

LINESTRING (1195.113246 146.667111, 1228.549756 129.478531)

LINESTRING (1195.113246 146.667111, 1207.213269 136.206782)

LINESTRING (1195.113246 146.667111, 1224.916647 169.745854)

LINESTRING (1195.113246 146.667111, 1223.845786 134.948611)

LINESTRING (1195.113246 146.667111, 1189.339720 170.257159)

LINESTRING (1212.906785 105.662677, 1189.555091 175.531394)

LINESTRING (1212.906785 105.662677, 1198.530861 116.730079)

LINESTRING (1212.906785 105.662677, 1209.505076 143.098049)

LINESTRING (1212.906785 105.662677, 1185.243561 149.347599)

LINESTRING (1212.906785 105.662677, 1196.423771 156.681113)

LINESTRING (1212.906785 105.662677, 1202.668655 122.253804)

LINESTRING (1212.906785 105.662677, 1158.235073 111.370595)

LINESTRING (1212.906785 105.662677, 1166.601479 172.626756)

LINESTRING (1212.906785 105.662677, 1155.876952 147.335497)

LINESTRING (1212.906785 105.662677, 1188.897082 144.754751)

LINESTRING (1212.906785 105.662677, 1198.504231 107.996157)

LINESTRING (1212.906785 105.662677, 1201.274675 160.293593)

LINESTRING (1212.906785 105.662677, 1199.884422 152.389889)

LINESTRING (1212.906785 105.662677, 1204.879521 126.551364)

LINESTRING (1212.906785 105.662677, 1221.363789 135.652894)

LINESTRING (1212.906785 105.662677, 1228.549756 129.478531)

LINESTRING (1212.906785 105.662677, 1207.213269 136.206782)

LINESTRING (1212.906785 105.662677, 1224.916647 169.745854)

LINESTRING (1212.906785 105.662677, 1223.845786 134.948611)

LINESTRING (1212.906785 105.662677, 1189.339720 170.257159)

LINESTRING (1189.555091 175.531394, 1198.530861 116.730079)

LINESTRING (1189.555091 175.531394, 1209.505076 143.098049)

LINESTRING (1189.555091 175.531394, 1185.243561 149.347599)

LINESTRING (1189.555091 175.531394, 1196.423771 156.681113)

LINESTRING (1189.555091 175.531394, 1158.235073 111.370595)

LINESTRING (1189.555091 175.531394, 1198.504231 107.996157)

LINESTRING (1189.555091 175.531394, 1204.879521 126.551364)

LINESTRING (1189.555091 175.531394, 1195.085950 135.321963)

LINESTRING (1189.555091 175.531394, 1221.363789 135.652894)

LINESTRING (1189.555091 175.531394, 1228.549756 129.478531)

LINESTRING (1189.555091 175.531394, 1207.213269 136.206782)

LINESTRING (1189.555091 175.531394, 1224.916647 169.745854)

LINESTRING (1189.555091 175.531394, 1223.845786 134.948611)

LINESTRING (1189.555091 175.531394, 1189.339720 170.257159)

LINESTRING (1198.530861 116.730079, 1209.505076 143.098049)

LINESTRING (1198.530861 116.730079, 1185.243561 149.347599)

LINESTRING (1198.530861 116.730079, 1196.423771 156.681113)

LINESTRING (1198.530861 116.730079, 1160.078013 129.320559)

LINESTRING (1198.530861 116.730079, 1202.668655 122.253804)

LINESTRING (1198.530861 116.730079, 1158.235073 111.370595)

LINESTRING (1198.530861 116.730079, 1166.601479 172.626756)

LINESTRING (1198.530861 116.730079, 1188.897082 144.754751)

LINESTRING (1198.530861 116.730079, 1199.884422 152.389889)

LINESTRING (1198.530861 116.730079, 1204.879521 126.551364)

LINESTRING (1198.530861 116.730079, 1221.363789 135.652894)

LINESTRING (1198.530861 116.730079, 1228.549756 129.478531)

LINESTRING (1198.530861 116.730079, 1207.213269 136.206782)

LINESTRING (1198.530861 116.730079, 1224.916647 169.745854)

LINESTRING (1198.530861 116.730079, 1223.845786 134.948611)

LINESTRING (1198.530861 116.730079, 1189.339720 170.257159)

LINESTRING (1209.505076 143.098049, 1196.423771 156.681113)

LINESTRING (1209.505076 143.098049, 1160.078013 129.320559)

LINESTRING (1209.505076 143.098049, 1202.668655 122.253804)

LINESTRING (1209.505076 143.098049, 1158.235073 111.370595)

LINESTRING (1209.505076 143.098049, 1166.601479 172.626756)

LINESTRING (1209.505076 143.098049, 1155.876952 147.335497)

LINESTRING (1209.505076 143.098049, 1188.897082 144.754751)

LINESTRING (1209.505076 143.098049, 1198.504231 107.996157)

LINESTRING (1209.505076 143.098049, 1201.274675 160.293593)

LINESTRING (1209.505076 143.098049, 1204.879521 126.551364)

LINESTRING (1209.505076 143.098049, 1221.363789 135.652894)

LINESTRING (1209.505076 143.098049, 1207.213269 136.206782)

LINESTRING (1209.505076 143.098049, 1224.916647 169.745854)

LINESTRING (1209.505076 143.098049, 1223.845786 134.948611)

LINESTRING (1185.243561 149.347599, 1196.423771 156.681113)

LINESTRING (1185.243561 149.347599, 1160.078013 129.320559)

LINESTRING (1185.243561 149.347599, 1202.668655 122.253804)

LINESTRING (1185.243561 149.347599, 1158.235073 111.370595)

LINESTRING (1185.243561 149.347599, 1166.601479 172.626756)

LINESTRING (1185.243561 149.347599, 1155.876952 147.335497)

LINESTRING (1185.243561 149.347599, 1188.897082 144.754751)

LINESTRING (1185.243561 149.347599, 1201.274675 160.293593)

LINESTRING (1185.243561 149.347599, 1157.388735 140.876693)

LINESTRING (1185.243561 149.347599, 1199.884422 152.389889)

LINESTRING (1185.243561 149.347599, 1204.879521 126.551364)

LINESTRING (1185.243561 149.347599, 1195.085950 135.321963)

LINESTRING (1185.243561 149.347599, 1221.363789 135.652894)

LINESTRING (1185.243561 149.347599, 1228.549756 129.478531)

LINESTRING (1185.243561 149.347599, 1224.916647 169.745854)

LINESTRING (1185.243561 149.347599, 1223.845786 134.948611)

LINESTRING (1185.243561 149.347599, 1189.339720 170.257159)

LINESTRING (1196.423771 156.681113, 1160.078013 129.320559)

LINESTRING (1196.423771 156.681113, 1202.668655 122.253804)

LINESTRING (1196.423771 156.681113, 1158.235073 111.370595)

LINESTRING (1196.423771 156.681113, 1166.601479 172.626756)

LINESTRING (1196.423771 156.681113, 1155.876952 147.335497)

LINESTRING (1196.423771 156.681113, 1188.897082 144.754751)

LINESTRING (1196.423771 156.681113, 1199.884422 152.389889)

LINESTRING (1196.423771 156.681113, 1204.879521 126.551364)

LINESTRING (1196.423771 156.681113, 1195.085950 135.321963)

LINESTRING (1196.423771 156.681113, 1221.363789 135.652894)

LINESTRING (1196.423771 156.681113, 1228.549756 129.478531)

LINESTRING (1196.423771 156.681113, 1207.213269 136.206782)

LINESTRING (1196.423771 156.681113, 1223.845786 134.948611)

LINESTRING (1160.078013 129.320559, 1202.668655 122.253804)

LINESTRING (1160.078013 129.320559, 1158.235073 111.370595)

LINESTRING (1160.078013 129.320559, 1166.601479 172.626756)

LINESTRING (1160.078013 129.320559, 1155.876952 147.335497)

LINESTRING (1160.078013 129.320559, 1188.897082 144.754751)

LINESTRING (1160.078013 129.320559, 1198.504231 107.996157)

LINESTRING (1160.078013 129.320559, 1201.274675 160.293593)

LINESTRING (1160.078013 129.320559, 1157.388735 140.876693)

LINESTRING (1160.078013 129.320559, 1199.884422 152.389889)

LINESTRING (1160.078013 129.320559, 1204.879521 126.551364)

LINESTRING (1160.078013 129.320559, 1195.085950 135.321963)

LINESTRING (1160.078013 129.320559, 1228.549756 129.478531)

LINESTRING (1160.078013 129.320559, 1207.213269 136.206782)

LINESTRING (1160.078013 129.320559, 1224.916647 169.745854)

LINESTRING (1160.078013 129.320559, 1223.845786 134.948611)

LINESTRING (1202.668655 122.253804, 1158.235073 111.370595)

LINESTRING (1202.668655 122.253804, 1166.601479 172.626756)

LINESTRING (1202.668655 122.253804, 1155.876952 147.335497)

LINESTRING (1202.668655 122.253804, 1188.897082 144.754751)

LINESTRING (1202.668655 122.253804, 1198.504231 107.996157)

LINESTRING (1202.668655 122.253804, 1199.884422 152.389889)

LINESTRING (1202.668655 122.253804, 1204.879521 126.551364)

LINESTRING (1202.668655 122.253804, 1228.549756 129.478531)

LINESTRING (1202.668655 122.253804, 1207.213269 136.206782)

LINESTRING (1202.668655 122.253804, 1224.916647 169.745854)

LINESTRING (1202.668655 122.253804, 1223.845786 134.948611)

LINESTRING (1202.668655 122.253804, 1189.339720 170.257159)

LINESTRING (1158.235073 111.370595, 1155.876952 147.335497)

LINESTRING (1158.235073 111.370595, 1188.897082 144.754751)

LINESTRING (1158.235073 111.370595, 1198.504231 107.996157)

LINESTRING (1158.235073 111.370595, 1201.274675 160.293593)

LINESTRING (1158.235073 111.370595, 1157.388735 140.876693)

LINESTRING (1158.235073 111.370595, 1195.085950 135.321963)

LINESTRING (1158.235073 111.370595, 1221.363789 135.652894)

LINESTRING (1158.235073 111.370595, 1189.339720 170.257159)

LINESTRING (1166.601479 172.626756, 1155.876952 147.335497)

LINESTRING (1166.601479 172.626756, 1188.897082 144.754751)

LINESTRING (1166.601479 172.626756, 1198.504231 107.996157)

LINESTRING (1166.601479 172.626756, 1201.274675 160.293593)

LINESTRING (1166.601479 172.626756, 1157.388735 140.876693)

LINESTRING (1166.601479 172.626756, 1199.884422 152.389889)

LINESTRING (1166.601479 172.626756, 1204.879521 126.551364)

LINESTRING (1166.601479 172.626756, 1195.085950 135.321963)

LINESTRING (1166.601479 172.626756, 1221.363789 135.652894)

LINESTRING (1166.601479 172.626756, 1228.549756 129.478531)

LINESTRING (1166.601479 172.626756, 1207.213269 136.206782)

LINESTRING (1166.601479 172.626756, 1224.916647 169.745854)

LINESTRING (1166.601479 172.626756, 1223.845786 134.948611)

LINESTRING (1166.601479 172.626756, 1189.339720 170.257159)

LINESTRING (1155.876952 147.335497, 1188.897082 144.754751)

LINESTRING (1155.876952 147.335497, 1198.504231 107.996157)

LINESTRING (1155.876952 147.335497, 1201.274675 160.293593)

LINESTRING (1155.876952 147.335497, 1157.388735 140.876693)

LINESTRING (1155.876952 147.335497, 1199.884422 152.389889)

LINESTRING (1155.876952 147.335497, 1204.879521 126.551364)

LINESTRING (1155.876952 147.335497, 1195.085950 135.321963)

LINESTRING (1155.876952 147.335497, 1221.363789 135.652894)

LINESTRING (1155.876952 147.335497, 1228.549756 129.478531)

LINESTRING (1155.876952 147.335497, 1207.213269 136.206782)

LINESTRING (1155.876952 147.335497, 1224.916647 169.745854)

LINESTRING (1155.876952 147.335497, 1223.845786 134.948611)

LINESTRING (1155.876952 147.335497, 1189.339720 170.257159)

LINESTRING (1188.897082 144.754751, 1198.504231 107.996157)

LINESTRING (1188.897082 144.754751, 1201.274675 160.293593)

LINESTRING (1188.897082 144.754751, 1157.388735 140.876693)

LINESTRING (1188.897082 144.754751, 1199.884422 152.389889)

LINESTRING (1188.897082 144.754751, 1195.085950 135.321963)

LINESTRING (1188.897082 144.754751, 1221.363789 135.652894)

LINESTRING (1188.897082 144.754751, 1228.549756 129.478531)

LINESTRING (1188.897082 144.754751, 1207.213269 136.206782)

LINESTRING (1188.897082 144.754751, 1224.916647 169.745854)

LINESTRING (1188.897082 144.754751, 1223.845786 134.948611)

LINESTRING (1198.504231 107.996157, 1201.274675 160.293593)

LINESTRING (1198.504231 107.996157, 1157.388735 140.876693)

LINESTRING (1198.504231 107.996157, 1199.884422 152.389889)

LINESTRING (1198.504231 107.996157, 1204.879521 126.551364)

LINESTRING (1198.504231 107.996157, 1195.085950 135.321963)

LINESTRING (1198.504231 107.996157, 1221.363789 135.652894)

LINESTRING (1198.504231 107.996157, 1228.549756 129.478531)

LINESTRING (1198.504231 107.996157, 1207.213269 136.206782)

LINESTRING (1198.504231 107.996157, 1224.916647 169.745854)

LINESTRING (1198.504231 107.996157, 1223.845786 134.948611)

LINESTRING (1201.274675 160.293593, 1199.884422 152.389889)

LINESTRING (1201.274675 160.293593, 1204.879521 126.551364)

LINESTRING (1201.274675 160.293593, 1195.085950 135.321963)

LINESTRING (1201.274675 160.293593, 1221.363789 135.652894)

LINESTRING (1201.274675 160.293593, 1228.549756 129.478531)

LINESTRING (1201.274675 160.293593, 1207.213269 136.206782)

LINESTRING (1201.274675 160.293593, 1224.916647 169.745854)

LINESTRING (1201.274675 160.293593, 1189.339720 170.257159)

LINESTRING (1157.388735 140.876693, 1199.884422 152.389889)

LINESTRING (1157.388735 140.876693, 1204.879521 126.551364)

LINESTRING (1157.388735 140.876693, 1195.085950 135.321963)

LINESTRING (1157.388735 140.876693, 1228.549756 129.478531)

LINESTRING (1157.388735 140.876693, 1207.213269 136.206782)

LINESTRING (1157.388735 140.876693, 1224.916647 169.745854)

LINESTRING (1157.388735 140.876693, 1223.845786 134.948611)

LINESTRING (1157.388735 140.876693, 1189.339720 170.257159)

LINESTRING (1199.884422 152.389889, 1204.879521 126.551364)

LINESTRING (1199.884422 152.389889, 1195.085950 135.321963)

LINESTRING (1199.884422 152.389889, 1221.363789 135.652894)

LINESTRING (1199.884422 152.389889, 1228.549756 129.478531)

LINESTRING (1199.884422 152.389889, 1207.213269 136.206782)

LINESTRING (1199.884422 152.389889, 1224.916647 169.745854)

LINESTRING (1199.884422 152.389889, 1223.845786 134.948611)

LINESTRING (1199.884422 152.389889, 1189.339720 170.257159)

LINESTRING (1204.879521 126.551364, 1195.085950 135.321963)

LINESTRING (1204.879521 126.551364, 1207.213269 136.206782)

LINESTRING (1204.879521 126.551364, 1224.916647 169.745854)

LINESTRING (1204.879521 126.551364, 1189.339720 170.257159)

LINESTRING (1195.085950 135.321963, 1221.363789 135.652894)

LINESTRING (1195.085950 135.321963, 1228.549756 129.478531)

LINESTRING (1195.085950 135.321963, 1224.916647 169.745854)

LINESTRING (1195.085950 135.321963, 1223.845786 134.948611)

LINESTRING (1195.085950 135.321963, 1189.339720 170.257159)

LINESTRING (1221.363789 135.652894, 1228.549756 129.478531)

LINESTRING (1221.363789 135.652894, 1207.213269 136.206782)

LINESTRING (1221.363789 135.652894, 1223.845786 134.948611)

LINESTRING (1228.549756 129.478531, 1207.213269 136.206782)

LINESTRING (1228.549756 129.478531, 1224.916647 169.745854)

LINESTRING (1228.549756 129.478531, 1223.845786 134.948611)

LINESTRING (1228.549756 129.478531, 1189.339720 170.257159)

LINESTRING (1207.213269 136.206782, 1224.916647 169.745854)

LINESTRING (1207.213269 136.206782, 1223.845786 134.948611)

LINESTRING (1207.213269 136.206782, 1189.339720 170.257159)

LINESTRING (1224.916647 169.745854, 1223.845786 134.948611)

LINESTRING (1224.916647 169.745854, 1189.339720 170.257159)

LINESTRING (1223.845786 134.948611, 1189.339720 170.257159)

LINESTRING (165.777062 121.539275, 526.809214 150.215772)

LINESTRING (132.670359 103.982884, 467.936921 176.958633)

LINESTRING (108.649163 105.996038, 467.936921 176.958633)

LINESTRING (522.843456 116.403727, 836.949043 120.996415)

LINESTRING (485.279163 129.209663, 803.947069 104.773563)

LINESTRING (467.936921 176.958633, 862.576795 150.261236)

LINESTRING (843.219140 173.209727, 1212.906785 105.662677)

LINESTRING (819.661476 146.511351, 1155.876952 147.335497)

LINESTRING (862.576795 150.261236, 1195.113246 146.667111)

