LINESTRING (60.000000 60.000000, 35.354540 81.069551)

LINESTRING (60.000000 60.000000, 53.480555 26.209845)

LINESTRING (60.000000 60.000000, 29.387544 34.297886)

LINESTRING (60.000000 60.000000, 24.286569 38.312062)

LINESTRING (60.000000 60.000000, 54.999880 24.951265)

LINESTRING (60.000000 60.000000, 34.205697 30.283352)

LINESTRING (60.000000 60.000000, 86.064831 54.378007)

LINESTRING (60.000000 60.000000, 75.316062 74.482746)

LINESTRING (35.354540 81.069551, 29.387544 34.297886)

LINESTRING (35.354540 81.069551, 24.286569 38.312062)

LINESTRING (35.354540 81.069551, 54.999880 24.951265)

LINESTRING (35.354540 81.069551, 86.064831 54.378007)

LINESTRING (35.354540 81.069551, 75.316062 74.482746)

LINESTRING (53.480555 26.209845, 29.387544 34.297886)

LINESTRING (53.480555 26.209845, 86.064831 54.378007)

LINESTRING (29.387544 34.297886, 24.286569 38.312062)

LINESTRING (29.387544 34.297886, 54.999880 24.951265)

LINESTRING (29.387544 34.297886, 34.205697 30.283352)

LINESTRING (29.387544 34.297886, 86.064831 54.378007)

LINESTRING (29.387544 34.297886, 75.316062 74.482746)

LINESTRING (24.286569 38.312062, 54.999880 24.951265)

LINESTRING (54.999880 24.951265, 86.064831 54.378007)

LINESTRING (54.999880 24.951265, 75.316062 74.482746)

LINESTRING (34.205697 30.283352, 86.064831 54.378007)

LINESTRING (34.205697 30.283352, 75.316062 74.482746)

LINESTRING (86.064831 54.378007, 75.316062 74.482746)

LINESTRING (360.000000 60.000000, 380.057787 80.328983)

LINESTRING (360.000000 60.000000, 386.173234 59.496000)

LINESTRING (360.000000 60.000000, 369.965144 93.562367)

LINESTRING (360.000000 60.000000, 358.116463 92.572554)

LINESTRING (360.000000 60.000000, 328.368606 33.100062)

LINESTRING (360.000000 60.000000, 369.021188 27.752625)

LINESTRING (360.000000 60.000000, 344.469260 76.123117)

LINESTRING (360.000000 60.000000, 332.382877 50.393881)

LINESTRING (380.057787 80.328983, 386.173234 59.496000)

LINESTRING (380.057787 80.328983, 369.965144 93.562367)

LINESTRING (380.057787 80.328983, 358.116463 92.572554)

LINESTRING (380.057787 80.328983, 328.368606 33.100062)

LINESTRING (380.057787 80.328983, 369.021188 27.752625)

LINESTRING (380.057787 80.328983, 332.382877 50.393881)

LINESTRING (386.173234 59.496000, 358.116463 92.572554)

LINESTRING (386.173234 59.496000, 328.368606 33.100062)

LINESTRING (386.173234 59.496000, 344.469260 76.123117)

LINESTRING (386.173234 59.496000, 332.382877 50.393881)

LINESTRING (369.965144 93.562367, 358.116463 92.572554)

LINESTRING (369.965144 93.562367, 328.368606 33.100062)

LINESTRING (369.965144 93.562367, 369.021188 27.752625)

LINESTRING (369.965144 93.562367, 344.469260 76.123117)

LINESTRING (369.965144 93.562367, 332.382877 50.393881)

LINESTRING (358.116463 92.572554, 328.368606 33.100062)

LINESTRING (358.116463 92.572554, 369.021188 27.752625)

LINESTRING (358.116463 92.572554, 332.382877 50.393881)

LINESTRING (328.368606 33.100062, 369.021188 27.752625)

LINESTRING (328.368606 33.100062, 332.382877 50.393881)

LINESTRING (369.021188 27.752625, 344.469260 76.123117)

LINESTRING (369.021188 27.752625, 332.382877 50.393881)

LINESTRING (60.000000 360.000000, 74.603205 359.255918)

LINESTRING (60.000000 360.000000, 59.588967 372.237656)

LINESTRING (60.000000 360.000000, 70.414170 388.362931)

LINESTRING (60.000000 360.000000, 56.442374 360.013156)

LINESTRING (60.000000 360.000000, 77.028858 384.200489)

LINESTRING (60.000000 360.000000, 77.201720 335.541593)

LINESTRING (60.000000 360.000000, 48.577188 353.979709)

LINESTRING (60.000000 360.000000, 57.742595 351.526553)

LINESTRING (74.603205 359.255918, 59.588967 372.237656)

LINESTRING (74.603205 359.255918, 70.414170 388.362931)

LINESTRING (74.603205 359.255918, 77.201720 335.541593)

LINESTRING (74.603205 359.255918, 48.577188 353.979709)

LINESTRING (59.588967 372.237656, 77.028858 384.200489)

LINESTRING (59.588967 372.237656, 77.201720 335.541593)

LINESTRING (59.588967 372.237656, 57.742595 351.526553)

LINESTRING (70.414170 388.362931, 77.028858 384.200489)

LINESTRING (56.442374 360.013156, 77.028858 384.200489)

LINESTRING (56.442374 360.013156, 48.577188 353.979709)

LINESTRING (56.442374 360.013156, 57.742595 351.526553)

LINESTRING (77.028858 384.200489, 77.201720 335.541593)

LINESTRING (77.201720 335.541593, 48.577188 353.979709)

LINESTRING (77.201720 335.541593, 57.742595 351.526553)

LINESTRING (48.577188 353.979709, 57.742595 351.526553)

LINESTRING (360.000000 360.000000, 394.219325 387.318364)

LINESTRING (360.000000 360.000000, 349.030467 387.438926)

LINESTRING (360.000000 360.000000, 377.035842 328.226302)

LINESTRING (360.000000 360.000000, 325.467352 395.136209)

LINESTRING (360.000000 360.000000, 368.163571 381.607442)

LINESTRING (360.000000 360.000000, 336.834001 356.458808)

LINESTRING (360.000000 360.000000, 343.898532 339.344258)

LINESTRING (360.000000 360.000000, 369.018150 361.662850)

LINESTRING (394.219325 387.318364, 349.030467 387.438926)

LINESTRING (394.219325 387.318364, 377.035842 328.226302)

LINESTRING (394.219325 387.318364, 336.834001 356.458808)

LINESTRING (394.219325 387.318364, 369.018150 361.662850)

LINESTRING (349.030467 387.438926, 368.163571 381.607442)

LINESTRING (349.030467 387.438926, 336.834001 356.458808)

LINESTRING (349.030467 387.438926, 369.018150 361.662850)

LINESTRING (377.035842 328.226302, 336.834001 356.458808)

LINESTRING (377.035842 328.226302, 343.898532 339.344258)

LINESTRING (325.467352 395.136209, 336.834001 356.458808)

LINESTRING (325.467352 395.136209, 343.898532 339.344258)

LINESTRING (325.467352 395.136209, 369.018150 361.662850)

LINESTRING (368.163571 381.607442, 336.834001 356.458808)

LINESTRING (368.163571 381.607442, 343.898532 339.344258)

LINESTRING (368.163571 381.607442, 369.018150 361.662850)

LINESTRING (336.834001 356.458808, 369.018150 361.662850)

LINESTRING (343.898532 339.344258, 369.018150 361.662850)

LINESTRING (53.480555 26.209845, 380.057787 80.328983)

LINESTRING (60.000000 60.000000, 360.000000 60.000000)

LINESTRING (380.057787 80.328983, 77.028858 384.200489)

LINESTRING (360.000000 60.000000, 60.000000 360.000000)

LINESTRING (59.588967 372.237656, 343.898532 339.344258)

LINESTRING (60.000000 360.000000, 360.000000 360.000000)

